{"type":"FeatureCollection","features":[{"type":"Feature","geometry":{"type":"GeometryCollection","geometries":[{"type":"Polygon","coordinates":[[[15.9599361384538,46.6847468724515],[15.9598911858323,46.6844379452948],[15.9598490190666,46.6840500942425],[15.9595108094838,46.6839679128142],[15.9589265151237,46.6839342157363],[15.9583531948048,46.6838926866497],[15.9578536129581,46.6838663714785],[15.9573148609351,46.6838353437519],[15.9567199148277,46.6838275448705],[15.9562527820324,46.6838175951486],[15.9559621323744,46.6838818308165],[15.9555383572678,46.6840399329135],[15.9552263130276,46.6841661522597],[15.9549256502394,46.6843077499718],[15.9546126490482,46.6843798158858],[15.9543869982378,46.6843122443263],[15.954249108691,46.6841357109029],[15.9540081373898,46.6838364230954],[15.9536876677363,46.6834914647626],[15.9534361422226,46.6832309492276],[15.9533093578144,46.6830388478901],[15.9531729702279,46.6829473188339],[15.9529370611867,46.6828386252699],[15.9528110734371,46.6827957709309],[15.9526753619907,46.6827351840771],[15.9525388334072,46.6826280912549],[15.9525034830071,46.6825357201939],[15.9524897981172,46.6823967461162],[15.9524201787453,46.682266064731],[15.9523959318011,46.6821657741293],[15.9523263129601,46.6820350926779],[15.9522229714163,46.6819046018766],[15.9520070862541,46.6817596632143],[15.9516908612749,46.6816028735365],[15.9512044728896,46.681440570365],[15.9505009241216,46.6815296361134],[15.9498381150078,46.6816460689765],[15.9494937304009,46.681537998873],[15.9495274288235,46.6811633691137],[15.9499021043758,46.6807026900543],[15.9502760433424,46.6802003614015],[15.9506315503642,46.6797952583737],[15.9507463663367,46.6794476637872],[15.9506625640289,46.6792680674329],[15.9503378345081,46.6791321268695],[15.9490474287552,46.6790735636276],[15.9477977646,46.6790423579968],[15.9473338493774,46.6790046355765],[15.9470097250931,46.6789102450403],[15.9466825839635,46.6786355858507],[15.9463554477273,46.6783610156416],[15.9453628767186,46.6780502901758],[15.9448566535364,46.6779019786762],[15.9441501116102,46.6778246822518],[15.9434652759415,46.6778303314534],[15.9404375893519,46.6786595574087],[15.9399548672225,46.6787051785771],[15.9396719934959,46.6786519928455],[15.9393870688457,46.6784879846395],[15.9392390804044,46.6780870497211],[15.9390176140387,46.676938017057],[15.938823136956,46.6761769675044],[15.9386914439313,46.6755540407491],[15.9385198529914,46.6749592406973],[15.9381733737672,46.6747263701461],[15.9376283872756,46.674661473479],[15.937105207212,46.6746935593945],[15.9368718203878,46.6740159539677],[15.9367205104398,46.6734209850112],[15.9366248450017,46.6730886223027],[15.9366228455577,46.6729275086901],[15.9366683706525,46.6726802679477],[15.936558772946,46.6722298032213],[15.9362724325349,46.6713531739968],[15.9361488461179,46.6708415560525],[15.9360208992043,46.670251342859],[15.9358727198914,46.6698365497782],[15.9356823812011,46.6693111725222],[15.9354738379565,46.6688969624765],[15.9352342888801,46.668435233235],[15.9351729951173,46.6682533720336],[15.9353648572507,46.6672615416483],[15.9354390223703,46.6668865843666],[15.9355258673463,46.6666709441213],[15.9355632415178,46.6665042003313],[15.9349034734008,46.6662046066967],[15.9340886018055,46.6656704732074],[15.9336087697994,46.665293111216],[15.932688772597,46.6645033306692],[15.9320786334006,46.6641616615439],[15.9310751416623,46.6637885537535],[15.9303460750741,46.6635518445421],[15.9295977441553,46.6630447575506],[15.9291096174126,46.6625080230782],[15.9289149993158,46.6623224727503],[15.9278883904629,46.6623515855493],[15.9270424114621,46.6623446784977],[15.9268303241844,46.6623522446126],[15.9263584941911,46.6619949397695],[15.9258161715714,46.6619323043749],[15.9254506733927,46.6620240584739],[15.9251849627439,46.6620824365939],[15.9249466650793,46.6620855328988],[15.9246581118423,46.662099471007],[15.924167105474,46.6620421709187],[15.9232714166642,46.662070184696],[15.9224253227805,46.6620562270328],[15.9220428650494,46.6620731647616],[15.921455973697,46.6621251254973],[15.9214868160159,46.6622406641497],[15.9215028557226,46.6622925356757],[15.9214192178181,46.662407556875],[15.9213699157216,46.6624668820629],[15.9209894575028,46.6626017464111],[15.9197743770785,46.6627987416334],[15.9187028259824,46.6628524242594],[15.9183640561776,46.6627719248857],[15.9179769207848,46.6628062501171],[15.9168360436358,46.6629333444259],[15.9165143069295,46.6629636319178],[15.9156090658351,46.6630229705795],[15.9152075293507,46.6631023849865],[15.9149862969084,46.6631180992863],[15.91433678871,46.6631232917516],[15.9138333576692,46.6631273138724],[15.9134659882041,46.6631406836685],[15.9131992389371,46.6631462318161],[15.9121942432033,46.6632652677381],[15.9117175865389,46.6633695597681],[15.9114366264007,46.6634237990097],[15.9102738527179,46.6634470008802],[15.9097187623633,46.6633786329078],[15.9088962995059,46.6632708220082],[15.9078129104703,46.6632274226876],[15.9074352606831,46.6632200724001],[15.9063106456685,46.6631180577004],[15.9058367588716,46.6630836647547],[15.9054037541027,46.6630871821361],[15.9052978176259,46.6630740755958],[15.9048961090896,46.6631362715367],[15.9047901741333,46.663123254481],[15.9043153626277,46.6630333531573],[15.9039201167508,46.6628874918204],[15.9036977828067,46.6628372474741],[15.9035666314904,46.6628244284571],[15.9027365922607,46.6628725452249],[15.9024042103815,46.6628682398788],[15.901844862891,46.6628415218165],[15.9011233627971,46.6630517007729],[15.9005779886546,46.6632605789215],[15.9002872859799,46.6633425771664],[15.8999064957944,46.6634530829605],[15.8997710682611,46.6634818577883],[15.8995850920461,46.6635041924534],[15.8991823368435,46.663503849773],[15.8986125049071,46.6634598347525],[15.8983046486959,46.6634137603012],[15.8980170860447,46.663377871897],[15.897695393487,46.663411614797],[15.8974703599263,46.663513872889],[15.8970048960854,46.663680452589],[15.8963696795291,46.6639420156491],[15.8961596998065,46.6640302983571],[15.8959496629198,46.6641151623959],[15.8956435063723,46.6641799962538],[15.8954531891136,46.6642404140347],[15.8950140012199,46.6644795628982],[15.8948191756546,46.6645678145534],[15.894398275199,46.6646958892455],[15.8941169311782,46.6647362340677],[15.8938219882232,46.6648633222274],[15.8934619810289,46.6650152087031],[15.8932256893639,46.6650378359579],[15.8929334252762,46.6650262624526],[15.8928172578148,46.6650029680189],[15.8927490549648,46.6648370620992],[15.8926378534467,46.6645120708783],[15.8925589644136,46.6643081923499],[15.8925010537662,46.6641561507889],[15.8923504058052,46.6641815268569],[15.8921444887771,46.6642074236722],[15.8918981389898,46.6642301266193],[15.8917622904456,46.6642416216594],[15.8915028183517,46.6642530902463],[15.8912291757449,46.6642769940464],[15.8909503861702,46.6643057954662],[15.8908760963428,46.6643496478626],[15.8903233325656,46.6644061312294],[15.8894608473164,46.6644939893897],[15.8888074443212,46.664613504619],[15.8886831619775,46.6646530656787],[15.8882650798778,46.6647865838584],[15.8876759234203,46.6648955175534],[15.8873467706539,46.6649774213105],[15.8867349209835,46.66502543887],[15.8858861085562,46.665103267768],[15.8854448976102,46.6651334931868],[15.8853819785925,46.6651377586954],[15.885366052104,46.6651387816063],[15.8850396499612,46.6651252929044],[15.8849182926839,46.6651201138718],[15.8845457293401,46.6650887175745],[15.8841152614491,46.665040493955],[15.8836782262602,46.6649741461988],[15.8836437734023,46.6649690143007],[15.8830815034613,46.6648679147037],[15.8831587999028,46.6646070448757],[15.8827400509191,46.6645318256261],[15.8820572908363,46.6642855448892],[15.8815163795845,46.6651038209266],[15.8812509723251,46.6650962390771],[15.8808839461722,46.6650435561048],[15.8804837791666,46.6649859989081],[15.8803861763085,46.6651801780252],[15.8801569495812,46.6657833678633],[15.8800885136783,46.6659631076094],[15.879658301833,46.6659952953195],[15.8795750278033,46.6660016034254],[15.8795314271181,46.6660045476346],[15.8788135666894,46.6661004801445],[15.8781368146039,46.6661930337807],[15.8779780174166,46.6662404952434],[15.8777891767988,46.6662969137359],[15.8777206010047,46.6663070662505],[15.877375813215,46.6663771856425],[15.8770494668467,46.6664644361996],[15.8761240811866,46.666787668384],[15.8758010625176,46.6668870353649],[15.8753759691081,46.6670345048233],[15.875179966536,46.6669795053067],[15.8745470756182,46.6667297395184],[15.8743118051453,46.6666302353433],[15.8744105167882,46.6663412283096],[15.8744642947936,46.666183285947],[15.8744829438694,46.6660836404542],[15.8744670890118,46.6660080998015],[15.8744278243774,46.6659314785308],[15.8743125444439,46.6657845445457],[15.8740539710415,46.6655849052368],[15.8742120668885,46.6653884700245],[15.8740540078814,46.665279108765],[15.8737807954311,46.6651034217855],[15.8732694407457,46.6649494346408],[15.873184083855,46.6649237259117],[15.8729156703252,46.6648429149182],[15.8726100506882,46.6645045429985],[15.8721472585126,46.6642412309709],[15.8720680036136,46.6642941956085],[15.8719426150245,46.6643550689733],[15.8718926021205,46.6643167645025],[15.8718368969863,46.6642739150918],[15.8717592174443,46.6643192203555],[15.8717687426253,46.6643914808693],[15.8716453592216,46.6643738878148],[15.8715760787558,46.6644539460119],[15.8715234135002,46.6644376134185],[15.8714095894169,46.6644537747077],[15.8714050020903,46.6645098587931],[15.8712469036786,46.6645358036032],[15.8711410855606,46.6646761474313],[15.871092911948,46.6646628393027],[15.8708646232478,46.6648099630675],[15.8709146490631,46.664865361525],[15.8708554698758,46.6649316674751],[15.8708017279183,46.6649052664956],[15.8707557163277,46.6647987364542],[15.8703881817382,46.6639482904763],[15.8703301113055,46.6635869767809],[15.8704086358392,46.6625928788354],[15.8698446654207,46.662545617081],[15.8685894499461,46.6623858361511],[15.8679507060977,46.6623448005884],[15.8677158653473,46.6623437029515],[15.8676085049887,46.6627310134413],[15.867275627927,46.6634962735643],[15.8670554943582,46.6640965793198],[15.8669657024025,46.6644797974167],[15.8670119679152,46.6646517327178],[15.8665426720354,46.6645277155042],[15.8660108006057,46.6646421314702],[15.8655602622492,46.6655293717712],[15.8653061598279,46.6660582276081],[15.8651176913043,46.6664582043915],[15.8649555853796,46.6668479052936],[15.8648405697963,46.667289610487],[15.8647604183304,46.6676722139557],[15.8647533398317,46.6678183730007],[15.8647315470516,46.6688446951461],[15.8647342016681,46.6692815521547],[15.8647351200377,46.669429270114],[15.8647493110889,46.6694996065824],[15.8647531349172,46.6695181107686],[15.8643693093946,46.6692897073809],[15.8640094371087,46.6689403868436],[15.8637015241875,46.6686939544216],[15.8636146513013,46.6686962295785],[15.8635486777652,46.6686978071336],[15.8626339479987,46.6687207214756],[15.8619470002963,46.6687511792659],[15.8619188699859,46.6687409550755],[15.8618511244507,46.6686557273765],[15.8619080832882,46.6686050070616],[15.8618429858998,46.6684561531245],[15.8617569965618,46.6684564409536],[15.8616862804504,46.6683733947223],[15.8617335269654,46.6683118616964],[15.8616190063013,46.6683342261563],[15.8614618776754,46.6682165636472],[15.8614680095356,46.6681747730422],[15.8614447498969,46.6680762549658],[15.8612468988256,46.6680440969936],[15.8613353707604,46.6679450976512],[15.8612647948534,46.6679037045694],[15.8612143434172,46.6679609431398],[15.8611152108801,46.667915356556],[15.861041411818,46.667852035778],[15.8610465803157,46.6677248742696],[15.8610325305292,46.6675561129483],[15.8609083071431,46.6675763905236],[15.8607427277425,46.6675682797918],[15.8606847844276,46.6675158154051],[15.8606200058525,46.6673867509729],[15.8606190401526,46.6672682723967],[15.8605127282902,46.6669431234912],[15.8604293018557,46.6668494660479],[15.8602908136205,46.666901338498],[15.8601466593865,46.6668184835957],[15.8601781107429,46.6667745234372],[15.8600985205727,46.6667661251302],[15.8600222386677,46.6668015155748],[15.8599526377088,46.6668543992162],[15.8597720148448,46.6669276398752],[15.8596250389286,46.6670624344203],[15.8595804699444,46.6671033441497],[15.8595649031862,46.667217808484],[15.8595025197831,46.6673220984429],[15.859373558556,46.6673980092206],[15.8593259133885,46.6674757382379],[15.8592453938284,46.6674747235681],[15.8591252815421,46.6675153007539],[15.8590601857,46.6675969392842],[15.8589797690038,46.6676106781549],[15.858866674808,46.6676075686441],[15.8588487298455,46.667687503601],[15.8586451255373,46.6678200229382],[15.8584858280402,46.667977580011],[15.8583703329077,46.6679797060786],[15.8583427674497,46.6680711388654],[15.8583018430473,46.6681194879619],[15.8582557919539,46.6681907269792],[15.8582099068644,46.6682972315809],[15.8582306148199,46.6684165516968],[15.8581619973799,46.6684740151425],[15.8581159791639,46.6685638769068],[15.8580340260215,46.6685962496869],[15.858017142846,46.6686607922737],[15.8579044333791,46.6686738728854],[15.8578788638076,46.668676763602],[15.8578069385545,46.6687647502579],[15.85780754872,46.6688363589718],[15.857685831282,46.6689161720362],[15.857594790337,46.6689193735304],[15.8574958635991,46.668985880461],[15.8575224781843,46.6690159996813],[15.8574776702733,46.6690585297618],[15.8573203228847,46.6692076137125],[15.8571716738427,46.6693200159378],[15.8570006270049,46.6694127931206],[15.8569487248458,46.669453037001],[15.8566827174936,46.6694003294556],[15.8554038768642,46.6693246094791],[15.8547447272649,46.6693367329242],[15.8544834652495,46.6685732499678],[15.8543138124963,46.6681906300423],[15.8529564325232,46.6681962589983],[15.8526248179356,46.6682176236475],[15.8521055174648,46.6682130354864],[15.8520548740077,46.6682919533491],[15.8521258726002,46.6684853922426],[15.8519359072602,46.6685971957111],[15.8520075012475,46.6687120895361],[15.8518682860474,46.6687767324105],[15.8517735086165,46.6689663675424],[15.8516773618442,46.6690272708205],[15.8516969451955,46.6691091744295],[15.8515970584318,46.6690817584448],[15.8515420552744,46.6692160378706],[15.8514092322044,46.6692717259288],[15.8513515643113,46.6692696359857],[15.8513275028837,46.6692687354253],[15.8512511466365,46.669316625885],[15.8513369780309,46.6695309170519],[15.8513250396185,46.6695946121431],[15.851225149984,46.6695753828012],[15.8512134019336,46.6696845095065],[15.851083690987,46.6698469641666],[15.8509671774247,46.6698177820182],[15.8509742757791,46.6698870033651],[15.850863596778,46.6699214739391],[15.850741018566,46.6698722741503],[15.8505957972916,46.66995423367],[15.8505579740099,46.6700008475572],[15.8506911214273,46.6700239686645],[15.8506917899822,46.670099895347],[15.8506322976988,46.670123189134],[15.8506457724433,46.6702156643917],[15.8508085248365,46.6702680742356],[15.8507622190168,46.6703987798915],[15.850644456498,46.6704483273107],[15.8504644573713,46.6704462466892],[15.8504805875886,46.6705163905537],[15.8505662236361,46.6705600174361],[15.8504892256193,46.6706088118097],[15.8505501737805,46.6707032733004],[15.8505220778466,46.6707701472639],[15.8504076039846,46.6707794550069],[15.8503262639683,46.6708347591219],[15.8503597090591,46.6709339234281],[15.850338046977,46.6709777181274],[15.8503039104021,46.6710094600661],[15.8502219746109,46.6710268027122],[15.8501474536146,46.6710169203527],[15.8501207558368,46.6710479771985],[15.8500469259421,46.6710821731735],[15.8498323757253,46.6710021674482],[15.8483761031658,46.6705140211568],[15.8482647950138,46.670458347539],[15.8480764658994,46.6707007636332],[15.8478891835268,46.6708765065486],[15.8476217817429,46.6710855904947],[15.8468892259451,46.6707088378853],[15.8463564509655,46.6704705006728],[15.8461929084689,46.6702918674793],[15.8455884874812,46.669841915745],[15.8452198883112,46.6698390613792],[15.8442804803507,46.6699239081333],[15.8438870569076,46.66998034058],[15.8436204469921,46.6700142447677],[15.843569548134,46.6700188484715],[15.8433476005403,46.6700505334294],[15.843336503735,46.6702277590703],[15.8433257620278,46.6704530241441],[15.8431422138285,46.670508446689],[15.8429523468318,46.6705945940334],[15.8421875397276,46.6710417812251],[15.841960162685,46.6711870410256],[15.8416002666856,46.6714423144636],[15.8411988588828,46.6716757602349],[15.8409965456801,46.6717772900995],[15.840644372226,46.6718399756987],[15.8404635819895,46.6718714426083],[15.8405020955511,46.6719192917016],[15.8404644253629,46.6719764271688],[15.8403285804578,46.6720491281625],[15.8401540241522,46.672069662865],[15.839966585116,46.6720769768559],[15.83999266492,46.6721490283853],[15.8401046418226,46.6722228783273],[15.8402255451565,46.6722486205677],[15.8402642682983,46.6723184199921],[15.8402079265303,46.6724105094751],[15.8403543821381,46.6724404722856],[15.8404589976821,46.6724356553773],[15.8403963089539,46.6725145665185],[15.8404987912297,46.6726081884428],[15.8404361812685,46.6727090508166],[15.8403373594133,46.6726745098522],[15.8403081438462,46.6726025714038],[15.8401717503097,46.6726315525804],[15.8399998717147,46.6725972778679],[15.8399878193195,46.6726629518282],[15.8400168278637,46.6727131200184],[15.8401953959279,46.6727910692322],[15.8403459628803,46.6729259925997],[15.8401587882247,46.6729421216631],[15.8402295128287,46.6730358870487],[15.8401217732554,46.6730669068935],[15.8399608632822,46.6731923318263],[15.8399420186231,46.6732076744822],[15.8398428864696,46.673144706004],[15.8397314196788,46.673112326561],[15.8396534238189,46.6732832052704],[15.8393965397837,46.6733302532586],[15.8391586977675,46.6733662750833],[15.8390547220935,46.6734716684835],[15.8389628259563,46.673496183436],[15.838932873497,46.6736974778386],[15.839098354224,46.6737404378392],[15.8392536644081,46.6737005232355],[15.8392357621066,46.6738274171245],[15.8393564564421,46.6738225732559],[15.839367845886,46.6736802529158],[15.8395038951001,46.6736119599394],[15.8395388568922,46.6736161117601],[15.8394446554552,46.6737280912999],[15.8396230953848,46.6738060423355],[15.8396809645421,46.6738714730196],[15.8396459722055,46.673873799043],[15.8395571728979,46.6738873158513],[15.8395197736843,46.6739705392361],[15.8394220529098,46.6740409801249],[15.839514762388,46.6741280170967],[15.83948975619,46.6741675158626],[15.8394586498828,46.6742266720398],[15.8392869105609,46.6742185754435],[15.8393416230449,46.674308050461],[15.8392717262285,46.6742930889836],[15.8392393428272,46.6742275611292],[15.8392702328285,46.6741290913099],[15.8391403737086,46.6741667500486],[15.8390291229817,46.6741737735959],[15.8390677747926,46.6742305288067],[15.8389891713361,46.6743117150503],[15.8390280642646,46.6743924895157],[15.8389363203947,46.674460726962],[15.839048024813,46.6745083097412],[15.8391459806475,46.6744445249631],[15.8392102611098,46.6745272723583],[15.8391537076039,46.6745975010192],[15.8391126885361,46.6746327087897],[15.8390937763029,46.6746437334133],[15.8392247174388,46.6747349885425],[15.8391332390087,46.674811950929],[15.8391441954559,46.6749540173657],[15.8390520935682,46.6749653988076],[15.8389503090375,46.6749592177739],[15.838902638972,46.6749616365267],[15.8388102482552,46.6749205695254],[15.8387819377275,46.6749577532309],[15.8386774273681,46.6749865888366],[15.8386304536189,46.6750678128693],[15.8387101631101,46.67510024624],[15.8387391340862,46.6751395290841],[15.8386662129031,46.6751572471824],[15.838532736903,46.6751556164526],[15.8384814384574,46.6750924761743],[15.8383894072346,46.6751169016806],[15.8384004732961,46.6752830783494],[15.8384835951807,46.6753417570365],[15.8384905836992,46.6753964053421],[15.838615880609,46.6755621046612],[15.8384983828368,46.675562605935],[15.8384829257311,46.6756195779202],[15.83841571734,46.6755672602007],[15.8382093127353,46.6755660735056],[15.8381811420091,46.6756207994642],[15.838283481604,46.6756881542073],[15.8380816433472,46.6758639875217],[15.8382508524793,46.6759617109078],[15.8381817483096,46.6760319410515],[15.8381150336497,46.6760453849112],[15.8380994980273,46.6760804056364],[15.8380263319176,46.6760654673485],[15.8380047094316,46.6761464154575],[15.8380908241364,46.6761788023418],[15.8380721240394,46.6762205037482],[15.8379700242993,46.6761771680678],[15.8379323429498,46.6762254860392],[15.8378246680236,46.6762696383041],[15.8378186352624,46.6762937034816],[15.8377874049736,46.6763704035165],[15.8377781729584,46.6763989004657],[15.8377348421568,46.6765214819314],[15.8376465245013,46.6765918524193],[15.8376568602907,46.6766770647983],[15.8377399543327,46.676742311756],[15.8377375558505,46.6768408424078],[15.837677962849,46.6769176601015],[15.837560630307,46.6769290451212],[15.8375355921869,46.6769751112117],[15.837453131478,46.6770016250882],[15.8372759353737,46.6770723758786],[15.8370731250622,46.6771519505529],[15.8370395023899,46.6772854365994],[15.8370300391168,46.6773074576027],[15.8370710540013,46.6774241137146],[15.8371053784105,46.6775476561963],[15.8370675966054,46.6775980438295],[15.837163294166,46.6776414271497],[15.8371706703366,46.6777550905551],[15.8370335374591,46.6777032836458],[15.8369544496594,46.6777451567169],[15.8369998143495,46.6778302928306],[15.8370010888406,46.6779636135264],[15.8368578194533,46.6779292147894],[15.8368395247549,46.6779972731335],[15.8368240331527,46.6780606327265],[15.8369068106725,46.678079909825],[15.836926970956,46.6782088639591],[15.8367971098548,46.6782640634395],[15.8368008215898,46.6783012823286],[15.8367183279546,46.6783258166505],[15.8367824066518,46.6783954317559],[15.8367444425197,46.6784086645398],[15.8366495015594,46.6784397674103],[15.8366659431105,46.6785141392519],[15.8366310783366,46.678516463416],[15.8366265264966,46.6783655333053],[15.8365320428516,46.6783415733794],[15.8363790181499,46.678395052444],[15.8363232153409,46.6785483130274],[15.8362560453607,46.6785070596339],[15.8362118886092,46.6785510159972],[15.836167482734,46.6785534097501],[15.836075680483,46.6785931259665],[15.8360064447452,46.6786721724147],[15.8360734454539,46.6787024513066],[15.8359245589516,46.6787446537375],[15.8359380254169,46.6788211166388],[15.8359951493892,46.6788296959006],[15.835963896797,46.6788713087235],[15.836113201928,46.6788816434785],[15.8361133457352,46.678907912575],[15.8360060319714,46.6789674446933],[15.8359629851924,46.6789817039818],[15.8358950195755,46.6789821105693],[15.8358508575904,46.6789579623713],[15.8358268225915,46.6789590376135],[15.8357476754715,46.6789887648279],[15.835703547898,46.6790855309693],[15.8356155461067,46.6790835646776],[15.8354573960602,46.6791693778165],[15.8352968990567,46.6792725713555],[15.835150976476,46.6793376025634],[15.8350262328384,46.6794282993344],[15.8348705586399,46.6795137337216],[15.8347128689511,46.679578670295],[15.8345988058515,46.6795905682125],[15.8345956940292,46.679566749856],[15.8343673344131,46.6792527237858],[15.834293127497,46.6791109382912],[15.8340354579251,46.6788881711025],[15.8339998047613,46.6788053021667],[15.8338247688917,46.6787197604475],[15.833447818976,46.6785517509148],[15.8331411302058,46.6783539895102],[15.8331754054023,46.6782707910321],[15.8330822937445,46.6781573918001],[15.8321347955586,46.6776322261795],[15.8320357539652,46.6780349157382],[15.8320471279622,46.6785970321965],[15.8319490853596,46.6786476763957],[15.8308886699696,46.678737521133],[15.8303903727572,46.6787963779116],[15.8296245285935,46.6787887084568],[15.829211529739,46.6787926019664],[15.8290780449188,46.6787909602637],[15.8280768451143,46.6787274072105],[15.8278416742525,46.6787349567823],[15.8276798682824,46.6787618577245],[15.8274579132354,46.6788131244682],[15.8267634485036,46.6789602913359],[15.8263795146226,46.6790187540406],[15.8257845070028,46.679156559827],[15.8257274865116,46.6791632689823],[15.8256037114052,46.6791812557586],[15.8255402536176,46.6791858520802],[15.8254907299509,46.6792985772222],[15.8254014965271,46.6794474853387],[15.824925888783,46.6799157708663],[15.8247932129208,46.679933101204],[15.824636333764,46.680103728345],[15.8245176786319,46.6803381357716],[15.8244862647719,46.6805674161347],[15.8243921481055,46.6808940418871],[15.8243087564501,46.6812211300739],[15.8242812140114,46.6812924917649],[15.8241025065182,46.6815753732688],[15.823890777858,46.6819305551808],[15.8236851233352,46.6821609098441],[15.8235258783001,46.6823227357345],[15.8233131923181,46.6825034789856],[15.8229784076822,46.6827530245854],[15.8225574982377,46.6829439906322],[15.8221488796186,46.6831008595935],[15.8219872211655,46.68312991058],[15.8215104563677,46.6832154737919],[15.820970854905,46.6833211884846],[15.820473931372,46.6834224561584],[15.8200734784592,46.6834284758376],[15.8199975701994,46.6834659059973],[15.8195923765345,46.6836425338152],[15.819387509261,46.6838401273448],[15.8191340438299,46.684169688913],[15.8188718797899,46.6845120873461],[15.8189718948012,46.6846509989794],[15.8190926843116,46.6846680376108],[15.8192232460633,46.684691573676],[15.8194587784771,46.6847320811821],[15.8195517713301,46.6848301080007],[15.8195965515786,46.6848780090976],[15.8197687547661,46.6849320146718],[15.8200975891098,46.6851253345914],[15.8201088959429,46.6851641189221],[15.820120480562,46.6852039808541],[15.8201595153301,46.685459564755],[15.8201079221626,46.6859462914734],[15.8201213586753,46.6860566735702],[15.8200802787466,46.6862360905653],[15.820150643265,46.6863676564879],[15.8204434943684,46.6867222726436],[15.8206034074617,46.6868275557945],[15.8206839303095,46.6869132557708],[15.8209909029824,46.6871726750303],[15.8214973977245,46.6873297191542],[15.821801628145,46.6873389601697],[15.8222476503994,46.6875684981395],[15.8224150100074,46.6876471852341],[15.8225971474446,46.6878553170304],[15.82296909159,46.68811345414],[15.82341300843,46.6882639224896],[15.8238315433315,46.6883614019068],[15.8239756388889,46.6883628833697],[15.824254355354,46.6884391464064],[15.824258959666,46.6885527404149],[15.824348690194,46.6886157899731],[15.8250787902227,46.6886796215394],[15.8252158292329,46.6886555119887],[15.825441341209,46.6886461482544],[15.8255720428624,46.6886523126025],[15.8256039422862,46.6886522623672],[15.8257343879224,46.6886845185443],[15.8258906947064,46.688749425532],[15.8257216614535,46.6893764496018],[15.825625635155,46.6893637375956],[15.8255497631288,46.6894124168963],[15.8254091180369,46.6896633573423],[15.8253328803463,46.6896966549349],[15.8252581541493,46.6898463576765],[15.8251862591068,46.6898986966562],[15.8250924648183,46.6900755266203],[15.8250202812881,46.69007460766],[15.8249757002504,46.6901949438367],[15.8248713010088,46.6902334822599],[15.8248612395909,46.6903025587673],[15.8246693917418,46.6904969188538],[15.8245025090343,46.6906909187856],[15.8243952605258,46.6907227298471],[15.8243878212004,46.690809510728],[15.8241940603335,46.6908353773568],[15.8240971560355,46.6908768299601],[15.8240075272978,46.6909152612059],[15.8236418963347,46.6910137975501],[15.823295921674,46.6911669806167],[15.8231778656776,46.6912448409479],[15.8232997226355,46.6912880475716],[15.8233237350668,46.6915001946644],[15.8232678094073,46.691571220414],[15.8232766077174,46.6916855939176],[15.8231316314581,46.6918504651158],[15.8227839519053,46.6921156665878],[15.8223881857205,46.6923657384582],[15.8217427128928,46.6926606063068],[15.821416923525,46.6927577697672],[15.8213182521617,46.6927692739982],[15.8210849764767,46.6927937995892],[15.8208811324909,46.6929400175188],[15.8206866659804,46.6930580084572],[15.8205117739194,46.6932339767426],[15.8203584573788,46.6933669662456],[15.820233910254,46.693534836053],[15.8201882412468,46.6936014683735],[15.8201381462521,46.6938334899209],[15.8200808194155,46.69410604797],[15.82005411357,46.6941039002567],[15.820045340463,46.6941807940979],[15.8199233972122,46.6947454848835],[15.8198026950986,46.6950121992467],[15.8196598726102,46.6952256321363],[15.8189950133195,46.6958673520439],[15.8189511872784,46.6958831398752],[15.8188435007152,46.6959560632779],[15.8188596511348,46.6959691726966],[15.818847042778,46.6960260314552],[15.8187193485111,46.696029644191],[15.8186905481249,46.6960966050112],[15.8186124754733,46.6961131775372],[15.8185862702552,46.6961961337057],[15.818498455975,46.6962516411433],[15.8184179711879,46.6962210886242],[15.8183714540034,46.6962664942838],[15.8182681183337,46.6962639945411],[15.8182463731138,46.6964171821523],[15.818244561059,46.696600185878],[15.8180808423096,46.6967293780906],[15.8178777486167,46.6969874128703],[15.8178131187194,46.697149633603],[15.8176853778606,46.6973149143279],[15.8176065129922,46.6974870429472],[15.8176377562366,46.6977203712864],[15.817567108166,46.6978131811565],[15.8175551871771,46.6979590111564],[15.8174942523642,46.6981322710888],[15.8173640204748,46.6983146627488],[15.8171243687434,46.6987850069461],[15.8170232360822,46.6989288649032],[15.8168872734599,46.6990436425399],[15.8167116640084,46.6991220868754],[15.8164968081825,46.6992080982396],[15.8163123254341,46.6992705013774],[15.8159173847526,46.6994071875513],[15.8157816902447,46.6994445012987],[15.8153643999143,46.6995126109412],[15.8151674758765,46.6995739313255],[15.8149704206383,46.6996352523044],[15.8149602922957,46.6998746337574],[15.8149668560583,46.7001631076614],[15.8150223297971,46.7002432320236],[15.8151990840529,46.7002404434679],[15.8152577851153,46.7002395754122],[15.8154429704227,46.7002495915325],[15.8155934677602,46.7002659722909],[15.8158315917257,46.7002918942583],[15.8155633494621,46.7004021254407],[15.8152053149411,46.7005501516642],[15.8146631582683,46.7008112254481],[15.8142451532455,46.7010065478378],[15.8136915758079,46.7012130889692],[15.8129940246081,46.7011239429759],[15.812698863926,46.7009834438241],[15.8124600151929,46.7008395752068],[15.8122601279212,46.7007736098758],[15.8121929714262,46.7007513252118],[15.8120823170009,46.7007147747548],[15.8119988270279,46.7006671455502],[15.8118907552377,46.7005673305588],[15.8116311206389,46.7003276140792],[15.8116191412563,46.7003223010974],[15.8114324656553,46.700238967152],[15.8113812430659,46.7002240361832],[15.8112898606775,46.7001994037272],[15.8111504573513,46.7001553191331],[15.8107108121609,46.699936309147],[15.8104543691518,46.699786983096],[15.8100847151991,46.6994211003994],[15.8095474593995,46.6988911350199],[15.809354949597,46.6987843578437],[15.8091850435862,46.698685067596],[15.8088292924478,46.6985485855294],[15.8085701414998,46.6984886105287],[15.80832820401,46.6984517245467],[15.8080024098609,46.698438551483],[15.8076879755733,46.6984330343741],[15.8075531164071,46.6984301177038],[15.8073679037315,46.6984352932489],[15.8071939353726,46.698440389172],[15.8069306770058,46.6984731942956],[15.8060932422997,46.6986027101371],[15.8052088276619,46.6987828414003],[15.8046895737438,46.6989680454788],[15.8044890982374,46.6990814627162],[15.8042647068526,46.6992839340148],[15.8041019188164,46.699663564648],[15.8039617340991,46.7000508632421],[15.8038475898215,46.7006773779107],[15.8037211660952,46.7012344350307],[15.8038609518269,46.7017626323065],[15.8040372217562,46.7022905730031],[15.8040391142436,46.7024180413195],[15.8039851985443,46.7025652444335],[15.803587838807,46.7028422516434],[15.8031875582749,46.7031077623316],[15.8028752723928,46.7032489511835],[15.8025639020895,46.7034520292511],[15.8023649516982,46.7036697923307],[15.802278093401,46.703871205096],[15.8021689739165,46.7040883379391],[15.8020365765141,46.7042437373488],[15.80188237449,46.7044457117711],[15.8018157004583,46.7046856680043],[15.8016777350142,46.704844974528],[15.8014924997197,46.7048501406972],[15.8012570946916,46.7046818439404],[15.8009419431985,46.7044445613515],[15.8007714080163,46.7043028892072],[15.8007613303686,46.7040016641962],[15.8006418988058,46.703902098076],[15.800415360432,46.7039616209605],[15.8002825022904,46.7040861632862],[15.8001722312214,46.7042259316601],[15.7999484868864,46.7044747221556],[15.7998774038963,46.7046027006379],[15.7997954748066,46.7047578345938],[15.7998014885202,46.7049702018354],[15.7998124244154,46.7051439393335],[15.799820728587,46.7053254322799],[15.7998303442664,46.7055957122961],[15.7997433199703,46.7057778715408],[15.7998093200591,46.7060671000844],[15.7999807727117,46.70627066367],[15.7997066882675,46.7067244776841],[15.7997312344917,46.7068633932251],[15.8000536388997,46.7070156106872],[15.7999579181133,46.7073793817823],[15.7996911961587,46.7075705341274],[15.7994990557064,46.7078615665524],[15.7996392249616,46.7082313359895],[15.7991778541,46.7083581722035],[15.7986434982842,46.7086709353923],[15.7982448420493,46.7090600300641],[15.7975587444942,46.7097446853576],[15.796711211117,46.7101522865708],[15.7958179010111,46.7104984833657],[15.7953475478904,46.7105945082925],[15.7941999277104,46.7104480082249],[15.79291250478,46.7099625750053],[15.7918489326629,46.7096145754532],[15.79110468365,46.7103802935596],[15.7911046836847,46.7103802935812],[15.7916091423255,46.7106933037123],[15.791129497258,46.7103956860722],[15.7916091423689,46.7106933037392],[15.7916091430378,46.7106933041543],[15.7921943647177,46.7110370614738],[15.7923674223231,46.7111399636458],[15.7925337167928,46.7112388437542],[15.7932666159484,46.7116629016252],[15.7933754399493,46.7117261447905],[15.7935655415321,46.7118366218873],[15.7938168108739,46.7119803908696],[15.7939517482379,46.712057597543],[15.7944024662886,46.712315999594],[15.7948185417768,46.7125664536198],[15.795307783362,46.7128430185372],[15.7954129773185,46.7129024833129],[15.7960376312573,46.7132293930844],[15.796164442011,46.7132912035244],[15.7964738307864,46.7134420054463],[15.7968465208631,46.7136205589843],[15.7970083807028,46.7136981042941],[15.7971492076996,46.713762395058],[15.7973408837224,46.7138498990446],[15.7975510394639,46.7139422179692],[15.7977817848194,46.7140435808544],[15.798229973323,46.7142345111553],[15.7983247651827,46.714272168367],[15.7986686322235,46.7144087725983],[15.7989022049972,46.7144971097006],[15.7993590605454,46.714669890008],[15.8002785630276,46.7149863496381],[15.8007039142582,46.715126689319],[15.8011626459771,46.7152690335694],[15.8013529284653,46.7153280773787],[15.8019156094654,46.7155024473626],[15.8029098822948,46.7157959603568],[15.8038494651344,46.7160437865047],[15.8040339399019,46.7160876757593],[15.8050935022916,46.7163397540368],[15.8060334627693,46.7165764938111],[15.8072021549583,46.7168532666424],[15.8073436145561,46.7168882598585],[15.8082615461991,46.7171153255455],[15.8090832144316,46.7173036645539],[15.8099153429587,46.7175012514755],[15.8100567434398,46.7175348259327],[15.8110226285673,46.7177528982214],[15.8112204320653,46.7178006262792],[15.8120386352325,46.7179980461912],[15.8126956795881,46.7181454234762],[15.8139473939993,46.7184322436192],[15.8139582123797,46.7184346601139],[15.8147717859657,46.7186163839704],[15.8152465576163,46.718715591181],[15.8157714511913,46.7188252690305],[15.8164314789509,46.7189645584784],[15.8167186637541,46.7190251633192],[15.8177063973595,46.7192398744246],[15.8177063973816,46.7192398744293],[15.8185822953378,46.7194373839815],[15.8198233349346,46.7196976763348],[15.8202868898098,46.7197934061957],[15.8207159231975,46.7198820049573],[15.8216143297168,46.7200614266969],[15.8218200865349,46.7200990843191],[15.8223342407052,46.7201931829866],[15.823772450743,46.72044463819],[15.8243718161786,46.7205543081793],[15.8247989031918,46.7206324761774],[15.8251838303039,46.7207029262564],[15.8263659423619,46.7209210188404],[15.8272565257385,46.7210799728496],[15.8275310334677,46.7211289662275],[15.8280365445841,46.7212207488729],[15.8294190039305,46.721471740758],[15.8304180619493,46.721645793779],[15.8304625798922,46.7216535493375],[15.8322960258856,46.7219191217537],[15.8323316195568,46.7219242054058],[15.8326430659639,46.7219686871019],[15.8332838625553,46.7220330940902],[15.8338199043495,46.7220869692096],[15.8347023632067,46.7221735916857],[15.8348752515704,46.7221905616382],[15.8353364135249,46.7222243937901],[15.8360073383478,46.722273611344],[15.8371837351874,46.7223286162748],[15.8384054105566,46.7223675333908],[15.8391185902915,46.7223754571568],[15.8396982652489,46.7223818943443],[15.8402293865894,46.7223811109828],[15.8407565746062,46.7223803309847],[15.842288113038,46.7223653792353],[15.8434035856691,46.7223467269715],[15.8446046977768,46.7223334594462],[15.8447854769878,46.7223342604167],[15.8457775790794,46.7223386509948],[15.8464431356377,46.722336852714],[15.8472347201041,46.7223347088755],[15.8486056082453,46.7223411286721],[15.8488193268846,46.7223421280251],[15.8494796011047,46.7223428323397],[15.850568287365,46.7223439853213],[15.8509754559074,46.7223433951434],[15.851740668599,46.7223422820719],[15.8527635922631,46.7223388518433],[15.8529710956138,46.7223381548948],[15.8546101227458,46.722328894359],[15.856141887973,46.7223203229534],[15.8568119464143,46.7223071281394],[15.8577043051788,46.722289549679],[15.8581674965089,46.7222729694615],[15.8588106737452,46.7222499434135],[15.8593387370957,46.7222262362539],[15.8599151814307,46.7222003542482],[15.8610977487388,46.7221401808424],[15.8623016163399,46.7220622914015],[15.8630431820822,46.7220018216944],[15.8637609199678,46.7219320806553],[15.8643468624943,46.7218750262557],[15.8655516739879,46.7217341195298],[15.8659010983363,46.721685669364],[15.8664651137686,46.7216074621911],[15.8668961681879,46.7215539043276],[15.8672693522894,46.7215075353689],[15.8678027892031,46.7214358354293],[15.8680652332647,46.7214005590054],[15.8683473139923,46.7213607686459],[15.8689603533926,46.7212742905996],[15.8696515439045,46.7211735860661],[15.870463602233,46.7210482070273],[15.8713059063215,46.7209003703995],[15.8718800650528,46.7207951049764],[15.872093840742,46.7207559108147],[15.8729855667506,46.7205907715871],[15.8737836654109,46.7204363265807],[15.8748120884391,46.7202229871649],[15.8753598638967,46.7201049914495],[15.8761054952476,46.7199426547396],[15.8763997636047,46.7198660218631],[15.8771455258983,46.7196718073349],[15.8774278906387,46.7196115246732],[15.877427890649,46.719611524671],[15.8778222814968,46.7195140358211],[15.8782128772353,46.7194084778238],[15.878703242261,46.7192763322336],[15.8791923707148,46.7191406853756],[15.8795104076328,46.7190487644236],[15.879668514305,46.7190030670337],[15.8802049764652,46.7188446344178],[15.8802940607127,46.7188183249597],[15.88080450056,46.7186583964306],[15.8813189631242,46.7184886283719],[15.8818412715299,46.7183188874932],[15.8819912464991,46.7182687437196],[15.8823331838913,46.718154416688],[15.8828204700013,46.7179871905158],[15.8830780360406,46.7178973417069],[15.8833450380338,46.7178042003547],[15.8839037158209,46.7176034909478],[15.8844547932385,46.7174022077894],[15.8850165764598,46.7171839256058],[15.8853299996128,46.7170514966271],[15.885586359242,46.7169431772715],[15.8860196636115,46.716765956386],[15.8860879158189,46.7167380410732],[15.8861505514987,46.7167116715905],[15.8865263642891,46.7165534539809],[15.8867277071484,46.7164664468909],[15.8870398043032,46.7163315778573],[15.8872963203118,46.7162180144747],[15.8875573073135,46.7161024706421],[15.8880182316677,46.7159091567175],[15.8885108450314,46.715686266029],[15.8887858443712,46.7155644839274],[15.8890505405426,46.7154472633945],[15.8896467521069,46.715185237399],[15.8900475143836,46.7150144845861],[15.8902478945691,46.7149291076579],[15.8904700502596,46.7148364610108],[15.8907913102579,46.7147024831018],[15.8910612090057,46.7145932195739],[15.8913070238561,46.7144937050322],[15.8918160375499,46.7142992814058],[15.8921350860211,46.7141930463419],[15.8923616203281,46.7141176153613],[15.8925414943081,46.7140591834006],[15.8928193228337,46.7139689301596],[15.8930516881089,46.7139083108778],[15.8933095426663,46.7138410412611],[15.8935677935493,46.7137804226114],[15.8939018610664,46.7137020066297],[15.8941574253808,46.7136428958214],[15.8944416986884,46.7135771439395],[15.8949224059625,46.713483509479],[15.89550135485,46.7133748895911],[15.8960753932416,46.713285827805],[15.896131643857,46.7132774773486],[15.8965852985377,46.7132101307849],[15.8969021015738,46.7131677462888],[15.8971303023025,46.7131372151489],[15.8974061275314,46.7130998447854],[15.8979253355065,46.7130294976089],[15.8979253355697,46.7130294976006],[15.8986625955661,46.7129322144998],[15.8986625956007,46.7129322144953],[15.8992199833633,46.7128571224209],[15.8997841094937,46.7127704590161],[15.9003258422971,46.7126980036948],[15.9005840187586,46.7126649314354],[15.9008361695432,46.7126326304614],[15.9014611029506,46.7125454800433],[15.9015130106711,46.7125373464511],[15.9020741143007,46.7124494236144],[15.9026819507796,46.712356913389],[15.9034130168396,46.7122265410724],[15.9041938215923,46.7120907329616],[15.904990583095,46.7119316720917],[15.9051561919758,46.7118908569509],[15.9055023663642,46.7118055395629],[15.9060845893046,46.7116760580338],[15.9065638423815,46.7115680815416],[15.9066532432637,46.7115458138701],[15.9070693442072,46.7114421716874],[15.9075946322054,46.7113029676407],[15.9081488571056,46.7111502165696],[15.9084528892395,46.7110641545291],[15.9086821819935,46.7109992481688],[15.9091017379881,46.7108730214543],[15.909285097574,46.7108178556173],[15.9092850975836,46.7108178556143],[15.9098739338329,46.7106394507437],[15.9104666234895,46.7104493166102],[15.910466623504,46.7104493166055],[15.9110659360298,46.7102566076101],[15.9113832190734,46.7101521707226],[15.9116793454986,46.7100546965935],[15.9119881687679,46.7099431295464],[15.9122484811178,46.7098490867962],[15.9126921702514,46.7096853043917],[15.9128804478601,46.7096158032034],[15.9133984955677,46.7094214811071],[15.9139154738128,46.7092182585734],[15.9144561101778,46.7089989206583],[15.915056841513,46.708744912561],[15.9155369271003,46.7085417977628],[15.9160406824973,46.7083232872087],[15.9165564444704,46.7080957716238],[15.9169999702835,46.7078814278623],[15.9172556207247,46.707760273499],[15.9173898489235,46.7076966614611],[15.9176536293231,46.7075539387498],[15.9177599753938,46.7074963980806],[15.9181221441648,46.7073051939391],[15.918122144171,46.7073051939356],[15.918515925137,46.7070888143606],[15.9185159252139,46.7070888143184],[15.918671568254,46.7069997232282],[15.9188855894673,46.7068772152698],[15.9191039886013,46.7067523847963],[15.919276239166,46.7066539307797],[15.9196258408177,46.7064472586956],[15.9199914350341,46.7062352389245],[15.9203873244461,46.7059976038916],[15.9207335697633,46.7057786300527],[15.921108566615,46.7055355827261],[15.9212959247514,46.7054093128075],[15.9214634856759,46.7052963844538],[15.9217619121482,46.7050980716351],[15.921832682638,46.7050510423199],[15.9221940276058,46.7048055823333],[15.9223969832164,46.7046673051571],[15.9226943290201,46.7044647163879],[15.9229819504427,46.7042654409132],[15.923244417334,46.7040835915873],[15.9235057403446,46.7039030428064],[15.9237959377666,46.7037025425136],[15.9241505811391,46.7034567486483],[15.9243316624866,46.7033312447153],[15.9247271540666,46.7030573414234],[15.9251123195681,46.7027916171773],[15.9255315052637,46.7025042944955],[15.9260033001733,46.7021812778284],[15.9261400348696,46.7020884515042],[15.9264894844801,46.701851215296],[15.9269480145789,46.7015408073725],[15.9273475914872,46.7012626334146],[15.9278007051699,46.7009648611781],[15.9279802592308,46.7008365646494],[15.9282767564155,46.7006247069634],[15.9287553460674,46.7002880388147],[15.9290330896409,46.7000917021953],[15.9292695608367,46.6999245393263],[15.9298723165908,46.6994936531203],[15.9301641865458,46.6992864150505],[15.9305080551507,46.6990422531075],[15.9311528354096,46.6985925752584],[15.9312445481798,46.6985281976889],[15.9315838557952,46.6982900195217],[15.9319414027597,46.6980320100988],[15.9320254475009,46.6979713620661],[15.9322603177565,46.697805333011],[15.9324446658417,46.6976750168749],[15.9331864115726,46.6971555331799],[15.9337384136605,46.6967636901275],[15.9339573463434,46.6966082767306],[15.9344632078135,46.6962496799618],[15.9349692228262,46.6958927890301],[15.9349692228491,46.6958927890141],[15.9354818536262,46.6955332327762],[15.9354818537005,46.695533232724],[15.9359041317121,46.695226953407],[15.9363131956343,46.6949431822163],[15.9367402766423,46.6946354210113],[15.9370039467083,46.6944508742001],[15.9371646618465,46.694338386245],[15.9372401026857,46.6942852576895],[15.9376162674363,46.6940203446443],[15.9377798922211,46.6939086624386],[15.9380651925559,46.6937139288509],[15.9385345730246,46.6933809833997],[15.9389996281042,46.6930703831093],[15.9394281036892,46.6927769049239],[15.9400148926052,46.6923919784628],[15.9403866788998,46.6921550113072],[15.9407717738306,46.6919091168173],[15.9409725175671,46.6917836409305],[15.9411579892173,46.6916677101117],[15.9414445515983,46.6914907686609],[15.9415502020802,46.6914255330064],[15.9419516677002,46.6911968632687],[15.9423910865717,46.6909630213436],[15.9430820490327,46.6906238234402],[15.9438119518474,46.6903064318247],[15.9442910051421,46.6900970862904],[15.9447163766995,46.6899284868624],[15.945256196508,46.6897179157886],[15.9458322597549,46.6895092017463],[15.9462862060102,46.6893420768235],[15.9464137161218,46.6892951321734],[15.9464273671549,46.6892901388973],[15.9469137388401,46.6891122321629],[15.9472004228953,46.6890167651148],[15.9474027346698,46.6889493937732],[15.9478955151718,46.6887938091993],[15.9484131185437,46.6886373869767],[15.9489280636347,46.6884935797296],[15.9494691025874,46.6883543218395],[15.949707036325,46.6882950915136],[15.9499603636768,46.688232028475],[15.9501299746466,46.6881949967804],[15.9505651928466,46.6880999728481],[15.9511947349095,46.687983182773],[15.9513104853649,46.6879660312776],[15.9517704407742,46.6878978754405],[15.9520545615554,46.687855795672],[15.9523709210414,46.6878089402779],[15.953015803631,46.6877173829713],[15.9537012437699,46.687605331525],[15.9543343023972,46.687518183716],[15.9549390469884,46.6874398362532],[15.9550052762525,46.6874312557376],[15.955106325291,46.687419987966],[15.9557858024593,46.6873442184212],[15.9566067375035,46.687265384735],[15.9569831238024,46.6872280654343],[15.9573687664741,46.6871898270137],[15.9578561059318,46.6871496119217],[15.9582144350977,46.6871200413557],[15.9586043545486,46.6870932971692],[15.9591527578845,46.6870556804397],[15.9599220069772,46.6870041360561],[15.9600042172031,46.6863684841618],[15.9599590567595,46.6857970371244],[15.959936322706,46.685148390679],[15.9599361384538,46.6847468724515]]]},{"type":"Polygon","coordinates":[[[15.9139154738128,46.7092182585734],[15.9133984955677,46.7094214811071],[15.9128804478601,46.7096158032034],[15.9133986263389,46.7094214800632],[15.9139154738128,46.7092182585734]]]},{"type":"Polygon","coordinates":[[[15.842288114438,46.7223654691906],[15.8434035856691,46.7223467269715],[15.842288113038,46.7223653792353],[15.8407565746062,46.7223803309847],[15.842288114438,46.7223654691906]]]}]},"properties":{"fill-opacity":0,"stroke-opacity":1,"stroke":"#ff0000","lov":"0801","lov_naziv":"APAČE","luo":"08","luo_naziv":"Pomursko","povrsina":5224.36},"id":"pregledovalniklovisca.1"}]}