<?xml version="1.0" encoding="utf-8" ?>
<kml xmlns="http://www.opengis.net/kml/2.2">
<Document id="root_doc">
<Schema name="pregledovalniklovisca" id="pregledovalniklovisca">
	<SimpleField name="lov" type="string"></SimpleField>
	<SimpleField name="lov_naziv" type="string"></SimpleField>
	<SimpleField name="luo" type="string"></SimpleField>
	<SimpleField name="luo_naziv" type="string"></SimpleField>
	<SimpleField name="povrsina" type="float"></SimpleField>
</Schema>
<Folder><name>pregledovalniklovisca</name>
  <Placemark id="pregledovalniklovisca.1">
	<Style><LineStyle><color>ff0000ff</color></LineStyle><PolyStyle><fill>0</fill></PolyStyle></Style>
	<ExtendedData><SchemaData schemaUrl="#pregledovalniklovisca">
		<SimpleData name="lov">0828</SimpleData>
		<SimpleData name="lov_naziv">BAKOVCI -  LIPOVCI</SimpleData>
		<SimpleData name="luo">08</SimpleData>
		<SimpleData name="luo_naziv">Pomursko</SimpleData>
		<SimpleData name="povrsina">2693.36</SimpleData>
	</SchemaData></ExtendedData>
      <MultiGeometry><Polygon><outerBoundaryIs><LinearRing><coordinates>16.1779399467048,46.5892684817298 16.1762196061398,46.5902777233846 16.1741775677949,46.5913441324496 16.1725887985638,46.5917736533937 16.169770101173,46.5922029609331 16.1685333771384,46.5922982820004 16.1672446828419,46.5925140474741 16.1652077101569,46.5930495223532 16.1635137960306,46.5939685145409 16.1622719453102,46.5949495553909 16.1595372578748,46.596642617001 16.1578098250802,46.5972171063283 16.1558834045068,46.5977345613589 16.1521870414938,46.5980041496746 16.1507413375044,46.598026259551 16.1484331580858,46.5984379376596 16.146897193289,46.5994036792622 16.1457880829749,46.6003549588999 16.1448468985749,46.6012554246035 16.143922016764,46.6020698899894 16.1425013149409,46.6026035628671 16.1409325777028,46.60326860822 16.1376629360533,46.603690823321 16.1342830632596,46.6042439515155 16.1326766506803,46.6049873489408 16.1324068841314,46.6051152549852 16.1325136212674,46.6052572471712 16.1326616188595,46.605506162344 16.1330099927043,46.6060303736921 16.1331961983026,46.6062520992957 16.1334854927192,46.6064280891555 16.1337341425303,46.6065329566967 16.1341001080309,46.6066545642769 16.134765516229,46.6074439106623 16.1346802783568,46.607713040165 16.134750561465,46.60797172016 16.135070196429,46.6083620681542 16.1355331847608,46.6087778027197 16.1355158065108,46.6091893079253 16.1355661024345,46.6097343732461 16.1356165299929,46.6102794371889 16.1355355900826,46.6107541908257 16.1353235999181,46.6111677174857 16.1344277271471,46.6117668835759 16.1340301708163,46.6120598917135 16.1339229166152,46.6121941971214 16.1339052964773,46.6123070113758 16.1339848907699,46.6124487312717 16.1341611573976,46.6127434274708 16.1342233587849,46.612846183673 16.1343515070087,46.6129184166383 16.1345971524685,46.6131779665199 16.1347937317832,46.6133322905467 16.1352092352705,46.6134292917135 16.1359548555167,46.6136791976919 16.1367250932735,46.6138324088023 16.1370514302572,46.6138108121565 16.137310005008,46.6137392364677 16.1384313101894,46.6131443724076 16.1386766021149,46.6130684274168 16.1388895975126,46.6130524520438 16.1389902585453,46.6130836582835 16.1394164094294,46.6133643422219 16.1396920540696,46.6134718967837 16.1399934940533,46.6135332201158 16.1403208889464,46.6135621654534 16.140894923781,46.6135793836224 16.1417808815476,46.613529159086 16.1420242194892,46.6140000502314 16.1422879551096,46.6144845921745 16.142544135789,46.6149325021084 16.1428690530908,46.6154761701139 16.1432827814522,46.6161200732771 16.1435316569669,46.6162140310653 16.1444457594403,46.6165495559419 16.144696350956,46.6167309426117 16.1454071205645,46.6172247681137 16.1464468142676,46.6178118285425 16.1473664295793,46.6183999939449 16.1473086127559,46.6185062858218 16.1470253428354,46.618991712969 16.1471485493856,46.619137574639 16.147532756798,46.6199563853264 16.1476757892377,46.6204100067336 16.1477634851704,46.6207721462684 16.1478942937369,46.6209684926282 16.14858376493,46.6217107324839 16.1490622792711,46.6222574284505 16.1493352526991,46.6225442019703 16.1505981136717,46.6239010837601 16.1510019317681,46.6243841959016 16.1527777671906,46.6263287770509 16.1544529995584,46.6282467253817 16.155300666315,46.6292033394721 16.1562640776836,46.6302643991831 16.1577604706974,46.631917621854 16.1585332995012,46.6328013754992 16.1587487921997,46.6330520015295 16.1592136995189,46.6335757603503 16.1597528874723,46.6341402392186 16.1598765226407,46.6343090242295 16.1598232301378,46.6343882860527 16.160230510093,46.6344025095179 16.1607604783706,46.63453496349 16.1613011147216,46.6345432416137 16.1618407693055,46.6345056437581 16.1623252418764,46.6343857440177 16.163168372584,46.6338762357107 16.1631959591162,46.6336093816475 16.1632678306715,46.6332271888107 16.1634154485696,46.6329545257157 16.1634584188678,46.6327839602231 16.1635169689185,46.6324019026554 16.1636001252141,46.6322356066733 16.1638359172171,46.6320309611823 16.1640674147833,46.6319367489985 16.1644483352394,46.631964990676 16.1653837298591,46.6317164219535 16.1655887513176,46.6316362414183 16.1657733000018,46.6315332374651 16.1660674670679,46.631249900664 16.1662727129352,46.631174214981 16.1664789157713,46.6311491708731 16.1667268153598,46.6311926162479 16.167071004977,46.6313774973411 16.1674352065245,46.6315575848326 16.167623508447,46.6316292564643 16.1679265620902,46.6317594047556 16.1681684654567,46.6318396149595 16.1685276969631,46.6320979314652 16.1689396118109,46.6323280885022 16.1690838756004,46.6325196845252 16.1691205371824,46.6326755833774 16.169151262985,46.6328590729264 16.1692944083202,46.633004706719 16.1695472680257,46.6332778722112 16.1696710302765,46.633451233731 16.1704726588007,46.633498184709 16.1712581924111,46.6334165514024 16.1721647189916,46.6332648479058 16.1733032222665,46.6323348786074 16.174064532858,46.631768279692 16.1744398895571,46.6313520157401 16.1746591113634,46.6313191759855 16.1748949771087,46.6313191829511 16.1751830454546,46.6313657061862 16.1755570648802,46.6313345132354 16.175733621348,46.6313759731719 16.1759408681508,46.6314716376745 16.1764209158016,46.6317589165442 16.1767759874183,46.6318114942773 16.1770656924156,46.6318188600691 16.1772013198331,46.6318638877228 16.1772023407477,46.631953124985 16.1771280871936,46.6321726900337 16.1773322876836,46.6324588445539 16.177536130703,46.6324695218991 16.1780030658596,46.6324647146329 16.1784670074627,46.6323220161164 16.1794842507073,46.6318518884938 16.1796554548784,46.6317489997021 16.1800071164242,46.6313501455663 16.1806740035894,46.6307273470219 16.1812506496125,46.6302433966002 16.1820837894033,46.6299038900623 16.1831807915552,46.6294236384395 16.1838966514543,46.6292048084802 16.1845280851002,46.6290971484853 16.1865082620787,46.6287364601567 16.1871117436617,46.6285693373181 16.1897230356284,46.6277791946736 16.1910690082007,46.6274020794331 16.192851677939,46.6268594434873 16.1940441979117,46.6264838931288 16.1946381632963,46.6263375223404 16.194942559859,46.6261948033371 16.1953767425408,46.6259979163989 16.196937956907,46.625075167923 16.1971724929998,46.6248620994345 16.1971603822029,46.6243127937088 16.1973901423903,46.6238892503885 16.1976196408497,46.6236671469278 16.1977420553705,46.6238414821781 16.1979429398311,46.6239383431366 16.1983475690256,46.6242319881035 16.1991535863255,46.6249025277682 16.1996952811701,46.6254415123203 16.2006888631162,46.6265079107635 16.2009398170073,46.6268131457323 16.2010213237806,46.6268257851823 16.2020118045447,46.6280034044687 16.2022818288923,46.628266871014 16.2023051741781,46.6283067512108 16.2024405423042,46.6281862112985 16.2024765313324,46.6281542543746 16.2026706513934,46.6279918014659 16.2027321223048,46.6279016374177 16.2027880296019,46.6278197188853 16.2028389599153,46.6278137853242 16.2032325596587,46.6281257922734 16.2033927601191,46.6282831698928 16.2039220488046,46.6277233103361 16.2054853240073,46.6290386380903 16.2061762232867,46.6296697655402 16.2063578864608,46.6298226842024 16.2066396391922,46.6301482743017 16.2068187686702,46.630433831168 16.2074000436829,46.6309026364443 16.2083776941125,46.6318697213778 16.2020656329816,46.6383966080646 16.2017393353388,46.638726348176 16.200963280936,46.6395388067784 16.2017520548835,46.6407990642327 16.202360858889,46.6417761909473 16.2033222817145,46.6432966075006 16.2036199106144,46.6437760615157 16.2039174430646,46.6442509274028 16.2042843699729,46.6448445386516 16.204519080769,46.6451959092515 16.2049821603132,46.645912660694 16.2053374193438,46.6462857914033 16.2055986120839,46.6466231156953 16.2058994464481,46.647245038023 16.2062424203045,46.6476642686538 16.2070524577788,46.6486713657982 16.2081002650004,46.6489728519649 16.2100087524531,46.6495547432363 16.2137855419776,46.6507095899444 16.2157280437855,46.6510198634484 16.2168871826473,46.6512189627097 16.2188702316253,46.6515471048801 16.2224408207647,46.6521294213946 16.2229468480571,46.6522227971893 16.2235677202065,46.6523045962571 16.2242206984206,46.6522516372649 16.2245684639097,46.6522677080724 16.2253992563267,46.6524229124844 16.2263407576611,46.6526608636373 16.2270883510113,46.6527012496844 16.2285041112717,46.6531457880979 16.2289630871011,46.6532375732862 16.2296358679726,46.6533662845038 16.2304123462596,46.653228023207 16.2316648384095,46.6530572827273 16.232580429819,46.6527570072414 16.2333378235947,46.6524524021955 16.234361007371,46.652247757242 16.2351644754153,46.652039447742 16.2366752213987,46.6520291543849 16.2375457179693,46.6520621156203 16.2382487300085,46.6520725919881 16.2390264292855,46.6522698370108 16.2400342638284,46.6525493316696 16.2407046275882,46.6526629794686 16.241545844085,46.6525691939654 16.2427712113864,46.6523743349736 16.2449402593879,46.6519514764196 16.2455673060386,46.6517147844776 16.2467679091673,46.6512056263873 16.2483544230997,46.6506680439426 16.2491191954211,46.6503088233721 16.2492752874519,46.6502223696643 16.2494462022345,46.6501555466737 16.249343407147,46.6500544663951 16.2490616047229,46.6498389228493 16.2489180981201,46.6497740037264 16.2488389546339,46.649786563474 16.2486530569932,46.6498551685098 16.2486129488039,46.6498438205491 16.2484857020652,46.649747414771 16.2454487226267,46.6468852774746 16.2458242380609,46.6466659866415 16.2465025865936,46.6462711976422 16.2478421964557,46.6454897109793 16.248812205941,46.6449352730364 16.2492409116776,46.644684081557 16.2494929843366,46.6445287438415 16.2497537682775,46.6443830268834 16.2502498236582,46.6440900706443 16.2503575975557,46.6439597894402 16.2509380327415,46.6436384678221 16.2512746583729,46.6434567407372 16.2517848907224,46.6431674913101 16.2525866703429,46.6427023101416 16.2483456759095,46.6388010733365 16.2487984097026,46.6385402643754 16.2461778130016,46.6363617576029 16.2456045153762,46.6367643084693 16.2452130085843,46.6365227793086 16.2449904054371,46.6363446372243 16.2446913907274,46.6360068239763 16.2442572685565,46.6354898246363 16.2442162392478,46.6352896431893 16.2442935248858,46.635168425956 16.2445226813956,46.6350003928379 16.2446587788521,46.6349036364786 16.2448752791385,46.6348159914353 16.2451426886769,46.6347328300586 16.2453870410464,46.6345897307504 16.2454933260174,46.6344631587957 16.2456045057739,46.6342311813845 16.2456819024253,46.6341150001631 16.2458458463141,46.6339626990358 16.2461983171707,46.6337732567051 16.2464492677831,46.6336049822536 16.2466697169296,46.6333768513146 16.2471206866504,46.6330408550101 16.2472627019588,46.6328837526872 16.2473389568071,46.6327124326069 16.2474285343907,46.6324957134765 16.2475464392957,46.6322386497505 16.2476149025802,46.6320522998735 16.2476608677052,46.6318360561686 16.2476431475207,46.6316958099462 16.2476028013953,46.6315257612858 16.2473962156298,46.6314075474502 16.2470367370813,46.6312910900046 16.2465659177286,46.6310805690191 16.2460510320488,46.630850463305 16.2458881772634,46.630736808581 16.2457825219466,46.6305774569344 16.2457341943754,46.6303723171552 16.2457285556805,46.630126586913 16.2456153613159,46.6299573307843 16.2453864078588,46.6298143458403 16.2451727528525,46.6297062813064 16.2448516729753,46.6296746883575 16.2445258268862,46.6297484984961 16.2440402188802,46.6298490562208 16.2435614784981,46.6299245262145 16.2430190914747,46.6297699187541 16.2425287896616,46.6296598167984 16.2423586515127,46.629541287926 16.2408495404043,46.6285043257539 16.2388073955367,46.6270717712514 16.2379196494655,46.6264594346983 16.2371688439476,46.6260963502986 16.2363888059928,46.6257336668771 16.2341230970968,46.6247047904203 16.2313571924595,46.6234504870277 16.2306070242759,46.6231174917944 16.2298423722668,46.6227845573795 16.228856731647,46.622333705106 16.228032613739,46.6219512853196 16.2270470030951,46.6215004170978 16.2261055584694,46.6210791162234 16.2257450791132,46.6209074522676 16.2250240913284,46.6205741076733 16.2241123719856,46.6201725348469 16.2230970192355,46.6196968497741 16.2224939741187,46.6194274547337 16.2218173193064,46.6191186271445 16.2212657790203,46.6188687383064 16.220942070382,46.6187167294273 16.2206626388627,46.6185942964107 16.2202509259629,46.6184130853984 16.2197434482101,46.6181826920253 16.2192362203689,46.617957421897 16.2188243864591,46.6177762070301 16.2185077751543,46.617614039234 16.2180957399034,46.6174177992602 16.2178016080105,46.617285529348 16.2174626229465,46.6171035340143 16.217190760884,46.6169860501362 16.2165197830085,46.616927960986 16.2161254496122,46.6168744844971 16.2159169616428,46.616829017825 16.2156523963998,46.6167164909268 16.2150820939457,46.6164776577126 16.2142824041938,46.6161750405146 16.2130732582287,46.6157781557737 16.2119319108176,46.6154640301099 16.2114008082114,46.6153481990629 16.2103930603113,46.6150933714467 16.2098393998606,46.6149550999399 16.2088830724789,46.6145402921845 16.2081821788845,46.6142213836348 16.2069026899117,46.6136278770745 16.2064069688891,46.613422581371 16.20614658017,46.6133612700805 16.2056226723103,46.6134034098289 16.2054119926449,46.6132875922518 16.2051352818056,46.6129965828147 16.2047778419877,46.6126563108681 16.2036879893633,46.6121745802014 16.2029984202865,46.6118631679278 16.2024089336138,46.6115962232771 16.2020302279195,46.6114029038069 16.2001954731622,46.6105951839983 16.2001034150723,46.6105470273705 16.1994763193303,46.6102369176795 16.198572048686,46.6098250764032 16.1976974505036,46.6094380183328 16.196175568915,46.6087467049213 16.1951465166506,46.6082860291435 16.1942715244687,46.6078787961325 16.1932788073129,46.6074126859624 16.1931759950769,46.6073736327174 16.1925659444853,46.6070991144866 16.1924041547077,46.6070255879044 16.1889859497001,46.6054711647812 16.1883609959003,46.6051817543363 16.1876333737185,46.6048531907728 16.1869351934568,46.604539431696 16.1857954443226,46.6039995687632 16.1853239805958,46.6037436379807 16.1848214703645,46.6033926607921 16.1844074773342,46.603096005231 16.1839489170056,46.6027546455267 16.1836817544305,46.6025166560896 16.1832507550059,46.6021097815895 16.1830644691108,46.6019110797941 16.1826685810584,46.6014437413205 16.1824512541642,46.6011499933725 16.1822929857842,46.600900888507 16.1821502053399,46.6006916591122 16.1819922644567,46.6004574851164 16.1819161760463,46.600307844826 16.181837818495,46.6000478371927 16.1818046825653,46.5998625755531 16.1817555133433,46.5996122527351 16.1817701084308,46.5992810196869 16.181777635739,46.5989548978454 16.1817753454306,46.5988495689608 16.1817818724694,46.5981473011207 16.1817847956328,46.5979515904592 16.1817748747261,46.5971591645262 16.1817855434126,46.5969835266537 16.1817879438565,46.5967577720262 16.1817667873381,46.5964570474701 16.1817745316844,46.5961409096857 16.1817847641219,46.5959452134126 16.1817741850624,46.5957948061405 16.1817910904977,46.5955638634016 16.1817770246503,46.5952530790754 16.1817599044185,46.5948017961512 16.1816427519963,46.5944317981021 16.1814590967072,46.5940223610349 16.1813130697128,46.5936627372562 16.1811902519464,46.593368100484 16.1809306575174,46.5928089299943 16.1807470363155,46.5923945430854 16.1803339345065,46.59146079888 16.1798152248662,46.5903626009769 16.1791520621165,46.5893060155064 16.178646587593,46.5889607090681 16.1779399467048,46.5892684817298</coordinates></LinearRing></outerBoundaryIs></Polygon></MultiGeometry>
  </Placemark>
</Folder>
</Document></kml>
