{"type":"FeatureCollection","features":[{"type":"Feature","geometry":{"type":"Polygon","coordinates":[[[16.1514993669905,46.7467969882328],[16.1516867478353,46.7466169703073],[16.1519733026434,46.7465030681283],[16.1520564828238,46.7464204518526],[16.1520747560007,46.7462829801749],[16.1520320056363,46.7460701918038],[16.151913705146,46.7459049461645],[16.1514380056861,46.7453168597296],[16.1512544984161,46.7450762484713],[16.1511033292448,46.7447623493794],[16.1509927928251,46.7445619380093],[16.1508789393177,46.7444024043423],[16.1507062370014,46.7442756701147],[16.1504664955747,46.7441904541221],[16.1500018884623,46.74411631442],[16.1497453875898,46.7440429608979],[16.149526472693,46.7439399903472],[16.1492941230203,46.7438021576344],[16.1490437097235,46.7436148447383],[16.1489225382871,46.7435108914697],[16.1485386700585,46.7430416151572],[16.1484370239869,46.7428586553642],[16.1481662588225,46.7425137448107],[16.147958435073,46.7423348187995],[16.1476743306748,46.7421565675479],[16.1459230230498,46.7413154859774],[16.1454679130311,46.7410951283008],[16.1450087344747,46.7406762550021],[16.1441515945608,46.7401269508588],[16.1438709913835,46.7399150978662],[16.1435143106397,46.7395214638501],[16.1434157625331,46.7392858385499],[16.1434030613859,46.7390874109013],[16.1433118167303,46.7379901097413],[16.1432339167167,46.7375177577111],[16.1430028114244,46.7366379512981],[16.1425045081642,46.7339676125079],[16.1422185847691,46.7325042926277],[16.1419616381737,46.73120424058],[16.1418840057319,46.7307434900507],[16.1414224106579,46.7302107289748],[16.1409597225308,46.7296194990234],[16.1405078795094,46.7291450248481],[16.1400906706664,46.7286994427167],[16.1392187992976,46.728439398206],[16.1387896414452,46.7282334196999],[16.1385029311294,46.7279325476663],[16.1385088518381,46.7278097751541],[16.1384005643214,46.727507127396],[16.1381172979623,46.7273696883078],[16.1379774618306,46.7271842197533],[16.1378259295224,46.7268469147635],[16.1379590105707,46.7267112720825],[16.1381641794275,46.7263704194789],[16.1381954843287,46.7262415466603],[16.1382041270616,46.7258501085428],[16.1382487516884,46.7255459393659],[16.1383370058529,46.7248965863025],[16.1386881790322,46.7242330112985],[16.1389829216177,46.7237044061476],[16.1392107413031,46.7232347645088],[16.139619682569,46.7224888321118],[16.1399794571354,46.7218251671708],[16.1403206103366,46.7214888032847],[16.1413970157336,46.7205784998089],[16.1419053338042,46.7201119018773],[16.1422132001202,46.7198109512031],[16.1430073119427,46.7192071755596],[16.1431300099704,46.7189840033675],[16.143395528471,46.7182890609782],[16.1438219798054,46.7171691284887],[16.1440196861064,46.7168808795922],[16.1442175158229,46.7165985668704],[16.1443211024887,46.7162762617552],[16.1444575775166,46.7159009973605],[16.1446047675506,46.7156366438566],[16.1450802472839,46.7152288378646],[16.1457061153625,46.7147085058018],[16.1449541068861,46.7132849409303],[16.1434941723673,46.7105190442722],[16.1425394044034,46.7087410424565],[16.1413365233451,46.7064690733586],[16.1399651476301,46.703854198622],[16.139463881078,46.7038416483433],[16.1378912431422,46.703757976422],[16.1368729428439,46.7037914902874],[16.1351952329515,46.70395425346],[16.1339411821049,46.7040835550172],[16.1328989731792,46.7041873542149],[16.1318085745784,46.7044259403389],[16.1312251323209,46.7045427286822],[16.1305244199832,46.7047366043929],[16.1297135302998,46.7049402904356],[16.1285519571029,46.7050219272073],[16.1280262791747,46.7050621079054],[16.1272920395863,46.7052796855546],[16.1264632258544,46.7053959878986],[16.1261264058178,46.7052546376504],[16.1257517489012,46.7050797413948],[16.1253267841909,46.7048626946818],[16.1249146460389,46.7046711606785],[16.1239564687845,46.7043828786381],[16.1207043958032,46.7030920037817],[16.1214326160352,46.7025586555311],[16.1203322178504,46.7023590042991],[16.1209224294881,46.7013183407304],[16.1208918538597,46.7010731220848],[16.1208073850806,46.7006880838375],[16.1205605168018,46.69984859657],[16.1204942906072,46.6991126004183],[16.1204087394093,46.6986749420157],[16.1204524713576,46.6983237347855],[16.1203945921966,46.6979910660188],[16.1204015314287,46.6976880811768],[16.1203909694465,46.6976705511871],[16.1204023601272,46.6972350921762],[16.1205720643699,46.6965640800661],[16.121009635411,46.6955368753407],[16.1213517811391,46.6945874353807],[16.1214698992889,46.6943497558505],[16.1224302358542,46.6932370799584],[16.1229681489275,46.6926256074723],[16.1233451390478,46.6922177772293],[16.1240938633291,46.6911496285507],[16.1248979820145,46.6901061207599],[16.1255929286151,46.6891016470645],[16.1258972012957,46.6887323994081],[16.126472680907,46.6879824415234],[16.1273010930718,46.6869987746713],[16.1284909712721,46.6854448372844],[16.1276855278503,46.685896764022],[16.1237550858382,46.6879216283035],[16.1228089151744,46.6881412594071],[16.1217580087467,46.6882216517336],[16.1201920508069,46.688026742521],[16.1192415189579,46.688036044996],[16.1176149646828,46.6881922029586],[16.1158922178858,46.6886296117397],[16.1149033629769,46.6884290001169],[16.1123065762172,46.6876365691637],[16.1113560486613,46.6876458060767],[16.1100732448726,46.6880087690581],[16.1085560035197,46.6885375484719],[16.1072410837683,46.6889942659751],[16.1035318236225,46.6902568854533],[16.1031538427916,46.6903979992727],[16.102504019321,46.6906406947881],[16.1013037830409,46.6908975926362],[16.0998795622596,46.6909931621924],[16.0987926801491,46.6909802140658],[16.09732618252,46.6906671702436],[16.0959106833169,46.6903537091146],[16.0946695892773,46.6902721149442],[16.0939081648302,46.6903962638495],[16.0929299601587,46.6907211246114],[16.0923102294925,46.691135940396],[16.0917309370525,46.6918774849453],[16.0911392370449,46.6928411819353],[16.090738824491,46.6931954190707],[16.0888419748691,46.6951178952115],[16.0884749481172,46.6954368096066],[16.087619675221,46.6959707064257],[16.0868323666511,46.6965039512157],[16.0863174104419,46.697069601932],[16.0859447066319,46.6979611078173],[16.0854776722759,46.6983744365717],[16.0816128184771,46.7004089193103],[16.0802969103346,46.7009139167738],[16.0795631918126,46.7016564063059],[16.0784026409807,46.7024397109619],[16.0773468158485,46.7031117190465],[16.076748853452,46.7035096906264],[16.0761485581242,46.7037972924132],[16.0758703403066,46.7041432199754],[16.0769548574333,46.7049053772516],[16.0775319033842,46.7052431655365],[16.0787475678778,46.7058047954177],[16.0789718665725,46.7059628203516],[16.0792581559124,46.7063045109235],[16.0794604331042,46.7065188815166],[16.0797413277093,46.7065963010529],[16.0804876633079,46.7066533115821],[16.080988843662,46.7066806056761],[16.0810940602742,46.7067036325552],[16.0816870735748,46.7072426832693],[16.0818409213158,46.7073693405919],[16.0823098890641,46.707525135296],[16.0846850106745,46.7081032582546],[16.0849542533604,46.7081727684541],[16.0850763747959,46.7096133183751],[16.0852802133447,46.7116457896835],[16.0853035917154,46.7121529769143],[16.085389829287,46.7124617323328],[16.0858049493291,46.7134189017704],[16.0860355361873,46.7138812083633],[16.0862640684665,46.7142474501742],[16.0866821769359,46.7147721208222],[16.0870270799354,46.7151292488213],[16.0872551118739,46.7154634654164],[16.08749559025,46.71583759815],[16.0878980592409,46.7161621484102],[16.0882101131213,46.7163354245563],[16.088375562138,46.7164580040964],[16.0892033701117,46.7170788098361],[16.0895584939215,46.7173637699922],[16.0897193229169,46.7175424404183],[16.090196012519,46.7180825540235],[16.0904945615211,46.7184481200382],[16.0909479868188,46.7189884521613],[16.0910562180634,46.71915961517],[16.091092648159,46.7195196716961],[16.0911150973397,46.7197637153782],[16.091123274868,46.7198838320011],[16.0913107074153,46.7202264344127],[16.0914247462929,46.7203934931792],[16.0915727400647,46.7205122760243],[16.0919209626459,46.7207452042362],[16.0924457856032,46.7210685706157],[16.0927691178982,46.7212216641274],[16.0928711994998,46.721372821678],[16.0931355117166,46.7217708254924],[16.0932809109274,46.7220457218904],[16.0934328263935,46.7223646391557],[16.0935551906567,46.722651810744],[16.0935993164372,46.7228155769327],[16.093817753854,46.7232539624196],[16.0940385200373,46.7235161718292],[16.0943951690514,46.7238731648868],[16.0947079868759,46.7240744852241],[16.094809056844,46.724181567342],[16.0952602742006,46.7246017985222],[16.0957446688642,46.7249415505295],[16.0960297064903,46.7252111475111],[16.0962910070768,46.7254648672966],[16.0966038778475,46.725958481241],[16.0969243368338,46.7262517573871],[16.0975764198082,46.7268141789552],[16.09826181508,46.7272961174005],[16.0987236192814,46.727668101376],[16.0989752556272,46.7280180813069],[16.0991463467426,46.7284089591991],[16.0995043635311,46.7288299786841],[16.0998062921789,46.7293557166408],[16.1000490364356,46.7298338910131],[16.1003499991838,46.730311594965],[16.1010552886661,46.7312018601566],[16.10216582299,46.7325286909995],[16.1028087109516,46.7332112752472],[16.1046780773292,46.7346188418958],[16.106819245812,46.7362079989568],[16.1070660053496,46.7380157234389],[16.1072212742408,46.7387670546513],[16.1075108707155,46.7392528560993],[16.1077696542895,46.7396587956041],[16.1081195123036,46.7401728010756],[16.1084438502613,46.7406544850576],[16.1086533248933,46.7409270311175],[16.1088793422919,46.7411701776122],[16.1093250118501,46.7417733064515],[16.1096839893046,46.7422838898449],[16.1100585341225,46.7427300855439],[16.1103437287076,46.7429609594527],[16.1106205301328,46.7432036096487],[16.1111790662774,46.7435019113904],[16.1117031095804,46.7437772443975],[16.1121244945556,46.7440242439669],[16.1122640485351,46.7441981407151],[16.1125239855618,46.7444409501957],[16.1129842205351,46.7449154519208],[16.1131769650851,46.745199847806],[16.1132770154614,46.745514294097],[16.1133201538795,46.7457533629991],[16.1139809883624,46.7456534572152],[16.1142645653546,46.7456010351315],[16.1145430413066,46.7455106965154],[16.1157694818694,46.7450284936536],[16.1167766565615,46.7446272276987],[16.1169039223497,46.7446172588833],[16.1169938834992,46.7446513774094],[16.1174863825529,46.7448422441563],[16.117923133735,46.7450015356839],[16.1185056041136,46.7452266056285],[16.1192547016624,46.7454967350804],[16.1194683511511,46.7455501539323],[16.1196257443317,46.745560309556],[16.1200080270703,46.7455535995817],[16.1207344358226,46.7455493661603],[16.1213242963766,46.7455114696482],[16.121551616655,46.7454099197018],[16.1220540895994,46.7452604188009],[16.1223417221601,46.7452020891432],[16.1225760854871,46.7452319079469],[16.1228666985559,46.7453108353725],[16.1232175664808,46.7454300150391],[16.1234225833943,46.7454835112475],[16.1243244295295,46.7457404122344],[16.1248568182607,46.7458023843096],[16.1250660944701,46.7458528668349],[16.1252250093883,46.7459360519312],[16.1254821621538,46.7462430948458],[16.1256023832878,46.746303268913],[16.1259840613949,46.7462673060764],[16.1263602666319,46.7461759769769],[16.1265346134675,46.7461830773128],[16.127065315334,46.7463647100779],[16.1278128115094,46.7463544662153],[16.1279822381141,46.7463264362576],[16.1282226076161,46.7462422877337],[16.1284386274469,46.7462080398906],[16.1286374523316,46.7461651446024],[16.1288570503712,46.746101711792],[16.1292726030141,46.7458580328737],[16.1295128462549,46.7457680351035],[16.1298408642577,46.7456070869069],[16.1303143139494,46.7454913934811],[16.1306478665473,46.7453887760291],[16.1308218444636,46.7453783301632],[16.1309621664962,46.7453856700273],[16.1314638459336,46.7455997769851],[16.1320498390895,46.7457838087894],[16.1326423819116,46.7462803135861],[16.1327977245224,46.7463985201853],[16.1329004013027,46.7464267425215],[16.1331761307543,46.746406468998],[16.133751357659,46.7464883077045],[16.1343411576843,46.746447465781],[16.1346943541115,46.7464702339212],[16.1353871796104,46.7464866627005],[16.1362074025411,46.7464930956919],[16.137134177576,46.7465189761606],[16.1374365268426,46.7465509677956],[16.137501572501,46.7466131172653],[16.1375370681702,46.7466828476822],[16.1376774484522,46.7468917918552],[16.1377973758433,46.7469372916296],[16.1378909525643,46.7465391625759],[16.1381512841106,46.7463905591585],[16.138546083315,46.7461762917988],[16.1388708783815,46.7458634876443],[16.1391178988393,46.7454871313283],[16.1395527528685,46.745155686192],[16.139711880139,46.7450430836677],[16.1399245555758,46.7450556296035],[16.1405389741453,46.7455810245965],[16.1414324616175,46.7460393973186],[16.1418220832467,46.7463801687525],[16.1421757140797,46.7466278237314],[16.1425610242303,46.7467641436185],[16.1434652607528,46.7469245166473],[16.145350869219,46.7468821773219],[16.1462268763303,46.7469143400561],[16.1469337734566,46.7469890356702],[16.1472339195647,46.7471203456431],[16.1484591828232,46.7475928799552],[16.1490651485662,46.7477152675627],[16.1493795908779,46.7477121095468],[16.1508995570829,46.7472586989896],[16.1512262743503,46.7470392248214],[16.151505074087,46.7469604884787],[16.1514993669905,46.7467969882328]]]},"properties":{"fill-opacity":0,"stroke-opacity":1,"stroke":"#ff0000","lov":"0817","lov_naziv":"BREZOVCI","luo":"08","luo_naziv":"Pomursko","povrsina":2125.41},"id":"pregledovalniklovisca.1"}]}