{"type":"FeatureCollection","features":[{"type":"Feature","geometry":{"type":"Polygon","coordinates":[[[16.1852838820311,46.7546642721266],[16.1852287466537,46.7544779845312],[16.1850221525602,46.7539747870298],[16.1847270200227,46.753498865776],[16.1843838297986,46.7529620845584],[16.1842705955137,46.7526449579119],[16.1841682981561,46.7524386456627],[16.1840742515894,46.7522205523976],[16.1838179871813,46.7517733753623],[16.1837228580132,46.7515057218806],[16.1836792756843,46.7512608362217],[16.1835259181302,46.7508564072226],[16.1834372794051,46.7506937662995],[16.1833196122367,46.7503649889043],[16.1832426474352,46.7501495971433],[16.1831060848282,46.7499261848325],[16.182999606883,46.7497257624526],[16.1829834634878,46.7495682194114],[16.1829534425729,46.7491712410584],[16.1828992524881,46.7488301113587],[16.1827588615818,46.7484314848759],[16.1825869108636,46.7479541944291],[16.1825455707186,46.7478174238783],[16.1822490509703,46.7474670123888],[16.1823364380773,46.7473872994628],[16.1824608228286,46.7472458474918],[16.1826246663271,46.7469637309279],[16.1826978898417,46.7468169596636],[16.1828271353614,46.7465089303729],[16.1830651547887,46.7461238452185],[16.1831971414342,46.7459472271548],[16.1835595300423,46.7458091604543],[16.1839571503659,46.7457261469985],[16.1846247481963,46.7455585585531],[16.1850827144718,46.7454165286074],[16.1852211558364,46.7453377241263],[16.1853811449122,46.7452747101714],[16.1858363740859,46.7451035566283],[16.1859832849829,46.7450231340266],[16.1863421865945,46.7448281462539],[16.1867992097147,46.7445422638374],[16.1869578695727,46.744442735326],[16.1870488650625,46.7443610020672],[16.187133991021,46.7442921047769],[16.1872254604633,46.7442260205119],[16.1872850359281,46.7441319278743],[16.1874311517328,46.7439201615303],[16.1874812913751,46.743783792795],[16.187586936666,46.7436600729499],[16.1876867134975,46.7435611545219],[16.1877458705766,46.7434480831824],[16.1878154947457,46.7433349031546],[16.1879119599254,46.7431805999407],[16.1880091616423,46.7430598462547],[16.1881456677798,46.7428934315466],[16.1882423779308,46.7428456450648],[16.18834752928,46.7427948919288],[16.1885621444339,46.7427050361314],[16.1887860369408,46.742644322448],[16.1890187516305,46.7426039389015],[16.189192448461,46.7425816216303],[16.1902508484858,46.7423107056742],[16.1901410082771,46.7421482902408],[16.1900182834439,46.7419771920439],[16.1895170684786,46.7415968998258],[16.1892852062481,46.7414854131466],[16.189173572731,46.7412412364247],[16.1891793812169,46.7411185525683],[16.1892299695864,46.7409076865812],[16.1892152864382,46.7408231812887],[16.1890821885403,46.740757359982],[16.1889304134126,46.7406158013806],[16.1891538614451,46.7403448412826],[16.1891043903924,46.7402256107975],[16.1889129505681,46.7398274317889],[16.1889235259049,46.7397251206464],[16.188950784828,46.7396138194899],[16.1887352956653,46.7394787704066],[16.1885772686111,46.7394395674936],[16.1884106724699,46.7393974844863],[16.1883357593383,46.7392756389823],[16.1882885551888,46.7390629100062],[16.187968973726,46.738823770267],[16.1879279499045,46.7386957248531],[16.187946321186,46.7385669728344],[16.1879770019969,46.7384147918378],[16.1877699607684,46.7382767742992],[16.1875267271443,46.7380339618432],[16.1873747071222,46.7378807080981],[16.1873019334279,46.7376653650928],[16.1872987919443,46.7375222618984],[16.1872484337655,46.7373563474487],[16.1873272309435,46.7372679030135],[16.1874401687214,46.7371907998029],[16.1874761899773,46.7370911035921],[16.1875066146293,46.7369272297708],[16.1875006306174,46.736851360621],[16.1872176451233,46.7367287046692],[16.1870550533289,46.7366778514355],[16.1870986803939,46.7365371419267],[16.1871169266737,46.7364026334722],[16.1870888539668,46.736280211165],[16.187051187612,46.7361141649237],[16.1871900190778,46.7360543366744],[16.187243880346,46.7359924210506],[16.1872543274112,46.7358901113302],[16.1872936172757,46.7356472454029],[16.1872644206839,46.7354795819074],[16.1872696882241,46.7353320730408],[16.1874026726689,46.7351013698594],[16.1874852044204,46.7349924642483],[16.1875377511094,46.7348707347467],[16.1874742786593,46.7347808877097],[16.1873676770833,46.7346695364975],[16.1873430128607,46.7346069961861],[16.1873644074165,46.7345205867747],[16.1873950326939,46.7342705234224],[16.1874161071763,46.7341695428289],[16.1874462106661,46.7339910977852],[16.1874347910787,46.7338583365355],[16.1873842976825,46.7337814897768],[16.1873081645414,46.7336989712932],[16.1872619859824,46.733627927495],[16.1872823241014,46.7334933972417],[16.1872897374876,46.7334436590915],[16.1873474940121,46.7333685679352],[16.1873355615122,46.7332124208261],[16.1873481035279,46.73310424152],[16.187370940128,46.7327914626674],[16.1873810330474,46.7326730526399],[16.1874137087362,46.7325164426062],[16.1874075364327,46.7324260008571],[16.187478034829,46.7321565407789],[16.1875152810388,46.7320174266414],[16.1875510565131,46.731805365314],[16.1875683268666,46.7317218775382],[16.1876427451726,46.731535685176],[16.187574276578,46.7315101257447],[16.1874314702052,46.7314896561143],[16.1869515196441,46.7314887880582],[16.1867956102986,46.731449560692],[16.1867722375974,46.7313563284172],[16.1868112182337,46.7312902489131],[16.1872325564643,46.7312318083537],[16.1872330465894,46.7311587508562],[16.1871917845924,46.7309240977504],[16.1868955746329,46.730686241675],[16.1868348090322,46.730624075687],[16.1867622279033,46.7305123709643],[16.1867627186761,46.730439313454],[16.1868154113975,46.7304197840904],[16.1869970301291,46.7303726472344],[16.1871555532617,46.7303403242118],[16.1872755623409,46.7302879783175],[16.1872994649088,46.7302205256642],[16.1872172410308,46.7299556191438],[16.1871690045158,46.7298860360769],[16.1871136747544,46.7298807623367],[16.1869784034339,46.7299113146778],[16.1868721863263,46.7299124164919],[16.1868364473698,46.7298339769435],[16.1868007316155,46.7295597710241],[16.1867403180283,46.7295195530406],[16.1864144517722,46.7295696247158],[16.1861392398848,46.72941773639],[16.1861930327974,46.7293529429807],[16.1863615394188,46.7292927180424],[16.1866606187353,46.7291786885601],[16.1867270996868,46.7291078255489],[16.1869036210734,46.7288285392971],[16.1868421414911,46.7285488427636],[16.1868881373214,46.728510399982],[16.186992938163,46.7284508348994],[16.1875495314025,46.7282669267147],[16.1878810082362,46.7280795053123],[16.188001849898,46.7279759592897],[16.1879918090644,46.7279059799673],[16.1879934968609,46.7277862175955],[16.1879191779183,46.7276906355265],[16.18787557658,46.7276414269101],[16.1878881386165,46.7276296009051],[16.1880469822938,46.7275169335841],[16.1881005794674,46.7274434145745],[16.1882243253968,46.7272756023621],[16.1883405497643,46.7269619431294],[16.1883101504777,46.7269300509817],[16.1882409822433,46.7268723813073],[16.1882567044579,46.7268138300402],[16.1882802843309,46.7267318059833],[16.1883751067372,46.7265993807343],[16.1882852150391,46.7263725201523],[16.1882845074228,46.7263462573999],[16.1885240042037,46.7260341066035],[16.1887714092558,46.7258855214762],[16.18883395443,46.7258323314413],[16.1891457095122,46.7255282452016],[16.1891911196431,46.7254692952826],[16.189330900658,46.7252575916188],[16.1893962164191,46.7251400466952],[16.1894864622764,46.7249901246621],[16.1895725195905,46.7248520316621],[16.1896491751884,46.7246671639926],[16.189702510331,46.724581951319],[16.1896882825424,46.7245120156382],[16.1895261876,46.7242917544595],[16.1896859834901,46.7242170405938],[16.1898638085652,46.724194769208],[16.1903642421614,46.7241603250862],[16.1904224697286,46.724101331282],[16.1904589897478,46.7240249299372],[16.1904022528723,46.7239554366052],[16.1902799574064,46.7238019671099],[16.1903128695613,46.7237578112186],[16.1903868791275,46.7236431441361],[16.1903935167861,46.723558326971],[16.190337176858,46.7233165442981],[16.19065482294,46.7232752736039],[16.1907039770799,46.7230001853968],[16.1906981824889,46.7229330409793],[16.1906578062382,46.7228341385053],[16.1904149405909,46.722801668677],[16.190218768127,46.7227627748653],[16.1902049912569,46.7227133468209],[16.1906998829853,46.7224336211293],[16.1908606445272,46.7222128804543],[16.1909762548569,46.7220626931704],[16.1908642627432,46.7219908962575],[16.1904589895612,46.7217176578852],[16.1901778326932,46.7212941431045],[16.1900628228368,46.7210849984311],[16.1901163457765,46.7210085102751],[16.1903817634152,46.7207165979464],[16.190456601597,46.7206457356694],[16.1905157016133,46.7205135901873],[16.1902330311852,46.7201339947162],[16.1901580452639,46.7199899291431],[16.1901166769721,46.7199052514115],[16.1900456503207,46.7197270473871],[16.1899822993798,46.7195349986557],[16.1900100031727,46.7193611657133],[16.1900617595656,46.7192698515069],[16.1901063240953,46.7190953933338],[16.1900458284418,46.7189677307293],[16.1898513665348,46.7186192447336],[16.1898146660857,46.7184969124532],[16.1898096593495,46.7182691700395],[16.1897857253144,46.7179539973271],[16.1897436355702,46.7175864730994],[16.1897289720246,46.7173062008106],[16.1897391697609,46.716996520936],[16.1898344968559,46.7166975614648],[16.1899571238504,46.7164801872712],[16.1900865769453,46.7161925682578],[16.1900730690674,46.7159649141881],[16.1898891729375,46.7157097931459],[16.1896591826044,46.7152975301688],[16.189326167982,46.7148277695979],[16.1891546593856,46.71436811518],[16.1891948477842,46.7142683747149],[16.1893612552013,46.7141089341514],[16.1895186476433,46.7139261958274],[16.1895082223822,46.7138386770435],[16.1893919465437,46.7135770043001],[16.1892567514451,46.7132221430575],[16.1891130562686,46.7128672800092],[16.1890552605869,46.7125524587759],[16.1889357835689,46.7121448034564],[16.1890460218336,46.7121378100836],[16.1893764818465,46.7120992885442],[16.1897320549614,46.7120488992664],[16.1902829873107,46.7120022345729],[16.1905121564598,46.711996971376],[16.1907032685717,46.7119978616179],[16.1908777669825,46.7120164678929],[16.1910779587958,46.7120436231375],[16.1914484630318,46.7120952748305],[16.1916832961125,46.7121512173731],[16.1917940488475,46.7121676072367],[16.1919594700349,46.7121600362461],[16.1923964289118,46.7121408188182],[16.192795913304,46.7121541983406],[16.1930794294535,46.7121103976341],[16.1940053065675,46.7119312427996],[16.1941492867062,46.7119122867311],[16.1943018280049,46.7118960300752],[16.1948318940624,46.7118642257801],[16.1950987927114,46.7118380470626],[16.1955341366418,46.7117458718147],[16.1958929817111,46.711654494502],[16.1960743030483,46.7115970899492],[16.196175267893,46.7115493419256],[16.1963219438472,46.7114630601135],[16.1966774294175,46.7112198522702],[16.1968745227141,46.711106862214],[16.1970720010392,46.7110113212585],[16.1972567275598,46.7109187923183],[16.1974205305251,46.7108382676455],[16.1976080209548,46.7106756254186],[16.1976952626036,46.7105870849912],[16.1977525609213,46.7104930101431],[16.1979954738142,46.7101516536781],[16.1980955942386,46.7100659469785],[16.1985103634089,46.7098132958634],[16.1987613325341,46.709647107831],[16.198977787339,46.709446194038],[16.1991173589337,46.7092344799481],[16.199349683394,46.7093722125023],[16.1997615308542,46.7095606925906],[16.2000201340608,46.7097332351053],[16.2001422309539,46.7098779698898],[16.215585767753,46.7063148351183],[16.2176029130672,46.7048360196465],[16.2170295854382,46.7044580526493],[16.2160533566578,46.7040632235736],[16.2153599960308,46.703731867],[16.2147104321402,46.7033878957671],[16.2137392028676,46.7028235869081],[16.213291921815,46.7024834892959],[16.2128883053834,46.7021308715353],[16.2112282401963,46.7010354817962],[16.2102291929904,46.7004048622551],[16.2093079281837,46.70010008035],[16.2081532901483,46.6995799465702],[16.2072820399051,46.6991536151902],[16.2062795613632,46.69875277183],[16.2053945993205,46.6981027338156],[16.2048751955611,46.6976787943781],[16.2036702769092,46.6968747603953],[16.2032178441623,46.6966920289223],[16.2019026112025,46.6960646611076],[16.2009139932658,46.6954943078995],[16.1998160166074,46.6947496581169],[16.1990294052701,46.6941651144514],[16.198556819678,46.6938675983732],[16.1972783392973,46.6933002497785],[16.1968401335194,46.6929661102603],[16.1964941258334,46.6924313689597],[16.1962654401258,46.6920284605955],[16.1959180512054,46.6910278846363],[16.1955966826818,46.6900149800268],[16.1954928791585,46.6896893957598],[16.1955014528132,46.6892840063208],[16.1956512040554,46.6889013426077],[16.195802555343,46.6885912650633],[16.1958082416211,46.6884520271682],[16.1957670737666,46.6881802182395],[16.1956724313127,46.6878727115632],[16.1955359594267,46.6872692016136],[16.1955543554773,46.6869060836861],[16.1952035997715,46.6867463688771],[16.1946554931799,46.686606977102],[16.1942395374761,46.6864842866733],[16.1937860223248,46.6862470091779],[16.1934111881952,46.6859908258793],[16.193089163326,46.6857401184263],[16.1928843014909,46.6856152215542],[16.1921673111451,46.6853928299081],[16.1918214185862,46.6852512273138],[16.1914485961994,46.6850857930336],[16.1913083596358,46.6851053366552],[16.1905754775272,46.6853549759859],[16.1901736103844,46.6854681068731],[16.1896744887892,46.6855579566501],[16.1886918962932,46.6856468006066],[16.1879385637025,46.6857635747021],[16.1875442502979,46.6858220980757],[16.1871249910002,46.6859414265245],[16.1868894882791,46.6860285285244],[16.1866366044773,46.686121928046],[16.1863489563383,46.6862337707965],[16.1856908747386,46.6862829669891],[16.1851011267258,46.6862467029652],[16.1847923935513,46.6862015883737],[16.1844733149587,46.686083886959],[16.1842770967669,46.6859528574438],[16.1840160124545,46.6856711748957],[16.1837548011803,46.6853835552521],[16.183504726868,46.685204679521],[16.1820020191727,46.6844216695984],[16.1816715639074,46.6841831626084],[16.1813594147419,46.6839746944577],[16.1808132711509,46.6835205124635],[16.1804637319591,46.6832095957639],[16.1802281612275,46.682891384633],[16.1800992508566,46.6826205649672],[16.1800368347301,46.6821795619782],[16.1799305087111,46.6817391017489],[16.1801474038745,46.6808219026546],[16.1789726951982,46.6807112092],[16.1782581117405,46.6806660300258],[16.1775199482735,46.6807087167135],[16.1772361871712,46.6805537451816],[16.1765823195343,46.6797887363678],[16.1760875928249,46.679302694359],[16.1757163586427,46.6786399459364],[16.1755219961936,46.6779052049658],[16.1755862743189,46.6773432415619],[16.1754218371748,46.6768188051134],[16.1754819310228,46.6760639057927],[16.1751392515286,46.6755412100604],[16.1750164138669,46.6745777571702],[16.1745732550664,46.6717757909406],[16.1736606846736,46.6708204411274],[16.1728396915603,46.6693905592385],[16.1733428271794,46.6690871598706],[16.1738709278279,46.6687660485302],[16.1744248791906,46.6684621229523],[16.1750518415598,46.667999642768],[16.1757575091015,46.6676415216556],[16.1762357659662,46.6673735421982],[16.1767121272109,46.6671388680012],[16.1761380983957,46.6666064082623],[16.1755702118748,46.6659468491048],[16.175308091231,46.6656107265073],[16.1749960744675,46.665408266914],[16.1746061935117,46.6652550081677],[16.1746963258723,46.6649576414767],[16.1748631438673,46.6645445993507],[16.1748667875937,46.6643086684283],[16.1748065348729,46.6639584158031],[16.1746775657211,46.663687499881],[16.1732094491161,46.6642400275051],[16.1726224600241,46.6645615597475],[16.1722434436134,46.6650795153491],[16.1718494527384,46.6656910087572],[16.1716870518823,46.6660314877545],[16.1711902595238,46.6665974286763],[16.1708373578916,46.6667646007685],[16.1699766790396,46.6669836585152],[16.1688634865717,46.6672988555483],[16.1675824338747,46.667709140634],[16.1662979765024,46.6679559760982],[16.1639302176231,46.6683306003765],[16.1625449432039,46.6686251120935],[16.1612548052524,46.668614913065],[16.1598994820991,46.6687221374346],[16.1592258139052,46.6689626093989],[16.1581483549713,46.669370815472],[16.1575379959021,46.669400293937],[16.1561957659011,46.6693321763453],[16.1554172986192,46.669433516442],[16.1535435897456,46.6699081062218],[16.1525175237437,46.6703390423504],[16.1515757481678,46.6707457294436],[16.1510992769059,46.6714865433145],[16.1505699798443,46.6721345007682],[16.1499356531678,46.6726315574076],[16.1489625675147,46.6731671000648],[16.1478035990293,46.6737394964815],[16.1467210142128,46.6739139120237],[16.1458907589728,46.6739807090822],[16.1427885715347,46.6741636916293],[16.1414005686258,46.6743411070682],[16.1405093593232,46.6747355924048],[16.1396259946479,46.6755038046],[16.1392498927367,46.6761851800477],[16.1388549596718,46.676773266158],[16.1383866646265,46.6771050458072],[16.1379003928433,46.6773902196],[16.1373327352151,46.6780392161746],[16.1371659140158,46.6781810425676],[16.1365987317417,46.678654055755],[16.1335295975857,46.6796191687513],[16.1331292046427,46.6799502538928],[16.1323754342628,46.6812428909366],[16.1318208626426,46.6823232102316],[16.1303998683315,46.6841831942889],[16.1296977377806,46.6847041985433],[16.1284909712721,46.6854448372844],[16.1273010930718,46.6869987746713],[16.126472680907,46.6879824415234],[16.1258972012957,46.6887323994081],[16.1255929286151,46.6891016470645],[16.1248979820145,46.6901061207599],[16.1240938633291,46.6911496285507],[16.1233451390478,46.6922177772293],[16.1229681489275,46.6926256074723],[16.1224302358542,46.6932370799584],[16.1214698992889,46.6943497558505],[16.1213517811391,46.6945874353807],[16.121009635411,46.6955368753407],[16.1205720643699,46.6965640800661],[16.1204023601272,46.6972350921762],[16.1203909694465,46.6976705511871],[16.1204015314287,46.6976880811768],[16.1203945921966,46.6979910660188],[16.1204524713576,46.6983237347855],[16.1204087394093,46.6986749420157],[16.1204942906072,46.6991126004183],[16.1205605168018,46.69984859657],[16.1208073850806,46.7006880838375],[16.1208918538597,46.7010731220848],[16.1209224294881,46.7013183407304],[16.1203322178504,46.7023590042991],[16.1214326160352,46.7025586555311],[16.1207043958032,46.7030920037817],[16.1239564687845,46.7043828786381],[16.1249146460389,46.7046711606785],[16.1253267841909,46.7048626946818],[16.1257517489012,46.7050797413948],[16.1261264058178,46.7052546376504],[16.1264632258544,46.7053959878986],[16.1272920395863,46.7052796855546],[16.1280262791747,46.7050621079054],[16.1285519571029,46.7050219272073],[16.1297135302998,46.7049402904356],[16.1305244199832,46.7047366043929],[16.1312251323209,46.7045427286822],[16.1318085745784,46.7044259403389],[16.1328989731792,46.7041873542149],[16.1339411821049,46.7040835550172],[16.1351952329515,46.70395425346],[16.1368729428439,46.7037914902874],[16.1378912431422,46.703757976422],[16.139463881078,46.7038416483433],[16.1399651476301,46.703854198622],[16.1413365233451,46.7064690733586],[16.1425394044034,46.7087410424565],[16.1434941723673,46.7105190442722],[16.1449541068861,46.7132849409303],[16.1457061153625,46.7147085058018],[16.1450802472839,46.7152288378646],[16.1446047675506,46.7156366438566],[16.1444575775166,46.7159009973605],[16.1443211024887,46.7162762617552],[16.1442175158229,46.7165985668704],[16.1440196861064,46.7168808795922],[16.1438219798054,46.7171691284887],[16.143395528471,46.7182890609782],[16.1431300099704,46.7189840033675],[16.1430073119427,46.7192071755596],[16.1422132001202,46.7198109512031],[16.1419053338042,46.7201119018773],[16.1413970157336,46.7205784998089],[16.1403206103366,46.7214888032847],[16.1399794571354,46.7218251671708],[16.139619682569,46.7224888321118],[16.1392107413031,46.7232347645088],[16.1389829216177,46.7237044061476],[16.1386881790322,46.7242330112985],[16.1383370058529,46.7248965863025],[16.1382487516884,46.7255459393659],[16.1382041270616,46.7258501085428],[16.1381954843287,46.7262415466603],[16.1381641794275,46.7263704194789],[16.1379590105707,46.7267112720825],[16.1378259295224,46.7268469147635],[16.1379774618306,46.7271842197533],[16.1381172979623,46.7273696883078],[16.1384005643214,46.727507127396],[16.1385088518381,46.7278097751541],[16.1385029311294,46.7279325476663],[16.1387896414452,46.7282334196999],[16.1392187992976,46.728439398206],[16.1400906706664,46.7286994427167],[16.1405078795094,46.7291450248481],[16.1409597225308,46.7296194990234],[16.1414224106579,46.7302107289748],[16.1418840057319,46.7307434900507],[16.1419616381737,46.73120424058],[16.1422185847691,46.7325042926277],[16.1425045081642,46.7339676125079],[16.1430028114244,46.7366379512981],[16.1432339167167,46.7375177577111],[16.1433118167303,46.7379901097413],[16.1434030613859,46.7390874109013],[16.1434157625331,46.7392858385499],[16.1435143106397,46.7395214638501],[16.1438709913835,46.7399150978662],[16.1441515945608,46.7401269508588],[16.1450087344747,46.7406762550021],[16.1454679130311,46.7410951283008],[16.1459230230498,46.7413154859774],[16.1476743306748,46.7421565675479],[16.147958435073,46.7423348187995],[16.1481662588225,46.7425137448107],[16.1484370239869,46.7428586553642],[16.1485386700585,46.7430416151572],[16.1489225382871,46.7435108914697],[16.1490437097235,46.7436148447383],[16.1492941230203,46.7438021576344],[16.149526472693,46.7439399903472],[16.1497453875898,46.7440429608979],[16.1500018884623,46.74411631442],[16.1504664955747,46.7441904541221],[16.1507062370014,46.7442756701147],[16.1508789393177,46.7444024043423],[16.1509927928251,46.7445619380093],[16.1511033292448,46.7447623493794],[16.1512544984161,46.7450762484713],[16.1514380056861,46.7453168597296],[16.151913705146,46.7459049461645],[16.1520320056363,46.7460701918038],[16.1520747560007,46.7462829801749],[16.1520564828238,46.7464204518526],[16.1519733026434,46.7465030681283],[16.1516867478353,46.7466169703073],[16.1514993669905,46.7467969882328],[16.151505074087,46.7469604884787],[16.1519892332059,46.7469497674926],[16.1527317719882,46.7471058473015],[16.1531685181731,46.7472591566251],[16.1533923871456,46.7473970668996],[16.1536867942217,46.7476511310329],[16.1540519839293,46.7480387993498],[16.1543558999392,46.7483394580388],[16.1545810249803,46.7485358310045],[16.1548232859388,46.7487377883899],[16.154932667993,46.7486870233706],[16.1552414953163,46.7484269638801],[16.1552984129031,46.7483036760158],[16.1553454463629,46.7481221001742],[16.1554686563721,46.7479223017674],[16.1556695299509,46.7477800166592],[16.1559494498909,46.7477537981559],[16.1561879673063,46.7477806272538],[16.1566223540479,46.7478229295408],[16.1573376565875,46.7478916281524],[16.1579171285025,46.7479675446459],[16.1583267529293,46.7480451776645],[16.1586860969951,46.7481584049923],[16.1588922205248,46.7482613975637],[16.1589477618729,46.7484711748732],[16.1590470758739,46.7487446543283],[16.1591200057586,46.748971798719],[16.1592239449896,46.7490641301945],[16.1605542826217,46.7492784384617],[16.1608183260695,46.7493049990147],[16.1609357707976,46.7492337242486],[16.1612026676313,46.749003132985],[16.1613608832056,46.7488496652027],[16.1616276526566,46.7486133164157],[16.1620886605962,46.7483165168187],[16.1627219062648,46.7481232252212],[16.1632121901731,46.7480013768103],[16.163489212299,46.7478466982569],[16.164294509053,46.7473594396881],[16.1645821739863,46.7472981245751],[16.165058958989,46.7473399633173],[16.1652035460612,46.7473443388606],[16.1655439999715,46.7473701103983],[16.1659616313796,46.7474242434433],[16.1663795111243,46.7474959157518],[16.1668915807409,46.7475957749532],[16.1671991538052,46.7476685690882],[16.1670663505225,46.7478160280089],[16.1668864194042,46.748144978423],[16.1667425299287,46.7485611876597],[16.1666924482061,46.7489939835809],[16.1666737364093,46.7493095941549],[16.1666632778573,46.74961342502],[16.1666039318818,46.7500112286555],[16.166516548219,46.7502925425897],[16.1664734554655,46.7506550937989],[16.1663576194204,46.7510009331174],[16.1665286174146,46.7510459721732],[16.1667123713668,46.7510937598157],[16.1671227202173,46.7512093194717],[16.1677313815122,46.7512526808274],[16.168448068192,46.7513826524686],[16.1687814313985,46.751472722287],[16.1692783013569,46.7516545948065],[16.1695782781224,46.7517683045663],[16.1698578110969,46.7519231569316],[16.1699933826641,46.752097023971],[16.1701380254918,46.7523029158288],[16.1703372657342,46.7524731624939],[16.170671840599,46.7526187232239],[16.171078463924,46.752754729005],[16.1714992435225,46.7529519449953],[16.1718425842175,46.7531091080893],[16.1720150481596,46.753221238313],[16.172541776535,46.7534085486141],[16.1728625291999,46.7535017046172],[16.1730643851912,46.7535988675884],[16.1732544965056,46.7537459016317],[16.1733883087722,46.7538380038706],[16.173645203814,46.7539258747435],[16.1740135682631,46.7540593835799],[16.1743993871925,46.7542189820628],[16.174763186471,46.7543349920345],[16.1750321468577,46.7543935870526],[16.1753605241994,46.7544456334162],[16.1759989370196,46.7544887351777],[16.17677624093,46.7544720174066],[16.1774018925508,46.7545181214757],[16.1778788776373,46.7545657525305],[16.1782492833665,46.7545940568708],[16.1789382883728,46.7546219568817],[16.1794188275496,46.7546403960281],[16.1801419873204,46.7546737845188],[16.1805713636505,46.7546810509384],[16.1808043301927,46.7546435605542],[16.1810147541198,46.7545508835131],[16.1813513029485,46.7543955474662],[16.181571633283,46.7543669126395],[16.1823804315945,46.7544257625951],[16.1833347298693,46.7545356422206],[16.1836742125071,46.7545145877318],[16.1838956944785,46.7545385664303],[16.1843140389762,46.7546218639602],[16.1846296659933,46.7546769845569],[16.1849615396187,46.7546969393993],[16.1851418379937,46.7547768509695],[16.1852733625148,46.754769550953],[16.1852838820311,46.7546642721266]]]},"properties":{"fill-opacity":0,"stroke-opacity":1,"stroke":"#ff0000","lov":"0818","lov_naziv":"DOLINA","luo":"08","luo_naziv":"Pomursko","povrsina":3681.69},"id":"pregledovalniklovisca.1"}]}