<?xml version="1.0" encoding="utf-8" ?>
<kml xmlns="http://www.opengis.net/kml/2.2">
<Document id="root_doc">
<Schema name="pregledovalniklovisca" id="pregledovalniklovisca">
	<SimpleField name="lov" type="string"></SimpleField>
	<SimpleField name="lov_naziv" type="string"></SimpleField>
	<SimpleField name="luo" type="string"></SimpleField>
	<SimpleField name="luo_naziv" type="string"></SimpleField>
	<SimpleField name="povrsina" type="float"></SimpleField>
</Schema>
<Folder><name>pregledovalniklovisca</name>
  <Placemark id="pregledovalniklovisca.1">
	<Style><LineStyle><color>ff0000ff</color></LineStyle><PolyStyle><fill>0</fill></PolyStyle></Style>
	<ExtendedData><SchemaData schemaUrl="#pregledovalniklovisca">
		<SimpleData name="lov">0806</SimpleData>
		<SimpleData name="lov_naziv">KRIŽEVCI PRI LJUTOMERU</SimpleData>
		<SimpleData name="luo">08</SimpleData>
		<SimpleData name="luo_naziv">Pomursko</SimpleData>
		<SimpleData name="povrsina">5248.43</SimpleData>
	</SchemaData></ExtendedData>
      <MultiGeometry><Polygon><outerBoundaryIs><LinearRing><coordinates>16.1943114267695,46.5641162116927 16.1939552193051,46.5639210999426 16.1936454780162,46.5637093978097 16.1930795534868,46.5632713972778 16.1928647753867,46.5631071955029 16.1925863086612,46.5629413182002 16.1925285106018,46.5629049437265 16.1925740611833,46.5628467089832 16.1926065112524,46.5627977876109 16.1926263182077,46.5627790475624 16.1925514455274,46.5627313351529 16.1921857698295,46.5625617776873 16.1904135023078,46.5562931384981 16.1898666931737,46.5559492098583 16.1883457342769,46.5554295283548 16.1878456759092,46.5552487573398 16.1874327484078,46.5551042366874 16.1869987974266,46.5549823349239 16.1863357687825,46.5547436891719 16.1858992304548,46.5545027814881 16.1854534919292,46.5543362816287 16.1849511437904,46.5540733802529 16.1850031122224,46.553962450262 16.1849571164227,46.5536947300791 16.1848920176908,46.5534780400814 16.1849230106123,46.5533621092204 16.1849780163887,46.5531211429714 16.1849871186765,46.5529222178101 16.1848963006027,46.5527521281321 16.1842844399668,46.5520463625452 16.1840646332102,46.5518035634012 16.183799200077,46.5516214251436 16.183629880913,46.5515352779851 16.1835021982996,46.55152274403 16.1833085359553,46.5515525480702 16.1830082720886,46.5516157531748 16.182680275066,46.551633000326 16.182619707634,46.5516243597991 16.1825103270409,46.5515238260184 16.1823899492085,46.5512291633143 16.1818045650727,46.5505092554376 16.1816087244732,46.5501321504571 16.1814491006533,46.5498794576988 16.1808751686661,46.5490670287114 16.1806677156893,46.5487732630436 16.1804155652873,46.5485770345944 16.1798320018805,46.5482454927943 16.1791954337248,46.5479468832376 16.1786022345624,46.5477177289905 16.1782619348306,46.5475450762001 16.1773482251262,46.5471291126683 16.1766203466266,46.5469424501047 16.1753457835897,46.546571747713 16.1750619240191,46.5464637327703 16.1748511552783,46.5463225776137 16.1746052566737,46.5461124168925 16.1743221973023,46.5457269280961 16.1740050386951,46.5453139882242 16.1736908765443,46.5450398385865 16.1732750107262,46.5447112206261 16.1727234430614,46.5443053598311 16.1720971033041,46.5438540186376 16.1719195573035,46.543698662374 16.1716381205319,46.5433871045693 16.1714247874982,46.5431257709415 16.1712945404433,46.5429929612824 16.170854633725,46.5427940457992 16.1704356318965,46.5426273034852 16.1702122574581,46.5425232459064 16.1699783309932,46.5422435866619 16.1698005972967,46.5420789622056 16.1696648019631,46.5419971297914 16.1695891637359,46.5419054152881 16.1698877954706,46.5414584548086 16.1701715055825,46.5409422801718 16.1703284515936,46.5404552023146 16.1706018377321,46.540077864175 16.17098613617,46.5395653362361 16.1713326646415,46.5391641254207 16.1716803503308,46.5388230008988 16.1719447698923,46.5386538493745 16.1724910784317,46.5385095183099 16.1734530044967,46.538370098145 16.1741609554091,46.5382611677832 16.1747590306329,46.538032983202 16.1749432119199,46.537873915609 16.1751658743096,46.5376312310818 16.1755809408335,46.5363784666871 16.1756676051772,46.5360446907679 16.1758867323353,46.5356447753456 16.1756009333961,46.5354442934426 16.1746056319737,46.5346500167339 16.1742999944385,46.5340851809815 16.174016376927,46.5339852580085 16.1731654613342,46.5344510315786 16.1725613571529,46.534845802368 16.1709016278867,46.5337725616219 16.1681698483027,46.5319880699182 16.1670352464021,46.5312552489942 16.166810834971,46.5311002727436 16.1666547039921,46.5310047888624 16.1664997619031,46.530964803526 16.1663792050036,46.5309660330147 16.1646900344522,46.5312421773201 16.1643956486595,46.5312590299301 16.1639234639829,46.5312094047948 16.1615063407936,46.5304341523508 16.1604901295348,46.5300272814026 16.1601237408554,46.5298091347305 16.159987990782,46.5297272902417 16.1598658124479,46.5296522355766 16.1597259853015,46.5295380432707 16.1587684578164,46.5286160290168 16.1584367719371,46.528300358744 16.1579853736086,46.5278657009411 16.1574451587452,46.5273487187959 16.1563270320728,46.5258821067128 16.1550320036013,46.5255490811675 16.1538802865704,46.524941179165 16.1528789075223,46.5238415985709 16.1518157987484,46.5229830281994 16.1505181543434,46.5224412494531 16.1486106629881,46.5222015804889 16.1470852287546,46.5222909343172 16.1453005461272,46.5227897044358 16.1441370053162,46.5235227221033 16.1429038851716,46.5247741951535 16.1420892593033,46.5255406818186 16.1414524581498,46.5258429470894 16.1410533919288,46.5259764845043 16.1347580715167,46.527352394367 16.1323335398576,46.5280238404423 16.1306054185811,46.528688263063 16.1284840077034,46.5297635601714 16.1265024806274,46.5311332579098 16.1262001210668,46.5313955259971 16.1269508154547,46.5319221874716 16.1278096266261,46.5326707209549 16.1279647282241,46.532952503614 16.1279070912185,46.5334113736922 16.1277542370689,46.5336034351058 16.1274454835438,46.5338279824715 16.1265170740252,46.5343984463383 16.1264907396301,46.5345686569578 16.1265151824236,46.5346663023786 16.1269070499741,46.5352135016 16.1269940667192,46.5354495323048 16.1271186830122,46.535700667066 16.1272501192858,46.5362812904572 16.1273472332133,46.5366459667904 16.1272828280855,46.537496357466 16.1272212454865,46.5381304350661 16.127127462565,46.5382859257579 16.1268503396958,46.5385976093133 16.1265876739454,46.5388835086627 16.1264572208297,46.5390753474993 16.1263003461753,46.5394270510563 16.1263271330159,46.5396379441024 16.1265362223214,46.5400015181928 16.1268517546218,46.5404619293178 16.127133389498,46.540726901471 16.1274362549702,46.5409402914652 16.1279804126325,46.5412644820643 16.1284881236789,46.5416353635903 16.1288923855089,46.5420536878128 16.1290780125938,46.5423660265548 16.1292025485612,46.5426120313493 16.1280671359399,46.542927059657 16.1275372701599,46.5432876609176 16.1271309367061,46.5434873478731 16.1268201495023,46.5435344947631 16.1259406871193,46.5435102269905 16.124504185628,46.5433464006565 16.1241131182289,46.5433766055836 16.1226495652713,46.5437469863816 16.1216325331078,46.5440009594744 16.1209062580236,46.5439948538319 16.1199211690758,46.5439386462867 16.1194547889315,46.5440288620621 16.1189147181192,46.5442451232909 16.1184127054333,46.5444544421084 16.1177988060057,46.5448032241128 16.1171483186764,46.5452248749446 16.1160653711743,46.5459935234025 16.1147749333902,46.5468960780231 16.1140781644515,46.5473906770161 16.1135638120939,46.5479362175526 16.1129028467572,46.5487864666932 16.1125923103584,46.5490202573537 16.1121757421478,46.5492088343211 16.1117668021989,46.5492985500395 16.1102769830972,46.5493328143555 16.1094482390854,46.5494595245203 16.1083039641164,46.5495695833538 16.107664872631,46.5496219280395 16.1071901074026,46.5497648964624 16.1067247288268,46.5499078620539 16.1037087877892,46.5510115891496 16.1032427175401,46.5511149610079 16.101039693663,46.5503781131878 16.1002494390738,46.5500430270538 16.0998687586874,46.5501192029619 16.0991777397691,46.5504422652292 16.0984593549399,46.5508248754189 16.0977979334329,46.5511937989417 16.0975224647301,46.5512756148485 16.0969297317602,46.5512549399724 16.0962161960401,46.551413377728 16.0955199636422,46.5514727698163 16.0950512243068,46.5514508975495 16.0947335716916,46.5513353596163 16.0940634872565,46.5507945819871 16.0934032028557,46.5502735897755 16.0927085132378,46.5496230976948 16.0917653550046,46.5484294934579 16.0914885622443,46.5483539523756 16.0928646616948,46.5500805357498 16.0930390526616,46.5508553883862 16.0931593947162,46.551224369115 16.093325372866,46.55152147843 16.0935883602408,46.5519605301439 16.0937832892377,46.552289840618 16.0939344118297,46.5527818730124 16.0940631074581,46.553098770957 16.0942975537931,46.5535251384555 16.0948290519738,46.5546758783 16.0950249122704,46.5550506117194 16.0958340406025,46.5559648602428 16.0965364211375,46.5571853894695 16.0970751677407,46.5582256574173 16.0971360806536,46.558445855841 16.0973436792415,46.5584697753335 16.0977172894787,46.5585573285293 16.0978842067625,46.5586658479498 16.0979545123886,46.5588859557699 16.0979584428582,46.5590807897701 16.0979791728067,46.5592096955479 16.098078968036,46.5594562408301 16.0981877480795,46.5597149354651 16.0982509497424,46.5598220209078 16.0982640619269,46.5599288675178 16.098216314766,46.5599865459029 16.0980723712794,46.5600601725215 16.0977627295378,46.5601700271823 16.0979118819772,46.5605032783031 16.0980496149167,46.5607940837591 16.0981085709966,46.5609169544972 16.0981701263914,46.5609553198726 16.0982637489328,46.5609862698154 16.098434705189,46.5609907460873 16.0986081934911,46.5609591204354 16.0991429834642,46.5627747639875 16.0993366967286,46.5631952141535 16.0978718951773,46.5636029846784 16.0977742276745,46.5636303727746 16.0975246714498,46.5636354666146 16.097368528007,46.563667374041 16.0970687957356,46.5637004785829 16.0968474828341,46.5637154664864 16.096559999565,46.5637350469431 16.096292397035,46.5637702705745 16.0954385626544,46.5639201510385 16.0950372378332,46.5640321357768 16.0948481434459,46.5640990830045 16.0946588946511,46.5641648618068 16.0944056088615,46.5642765071088 16.0941362862085,46.564395052877 16.093781111495,46.5645514859626 16.0936394088398,46.5646206770485 16.0933398576863,46.5647670402704 16.0924814263177,46.5651764113536 16.0922625426944,46.5652412996202 16.0919640543151,46.5652914728757 16.0917852990194,46.56532151925 16.0915445328727,46.5653620536374 16.0909078321392,46.5655176551836 16.0903158950398,46.5657331053035 16.0897457810673,46.5659246827607 16.089432435857,46.5660149368891 16.0891500944164,46.5661096632715 16.0888114316321,46.5662255278362 16.0885597346891,46.5662937802603 16.0879424999161,46.5664583567731 16.0874473567833,46.5664792594327 16.087262257506,46.5665054903973 16.0872718036719,46.5665980670564 16.0874027107592,46.5666733857233 16.0872878301617,46.566708125942 16.0874675848085,46.5668125797872 16.0875146319802,46.5669474448846 16.0874039668002,46.567036486018 16.0873953840419,46.5671096219023 16.0874886546953,46.5672467466234 16.0876184867435,46.5672551388144 16.0878321622247,46.5674379918355 16.0878125390882,46.5675004365429 16.08811119993,46.5677450987458 16.0883825528915,46.5678374337145 16.0888977508076,46.5682574508235 16.0890035189689,46.5683213110696 16.0890142988411,46.5683515277645 16.0891553538662,46.5683599912987 16.0892101672835,46.5684459289207 16.0894009966093,46.5684645344378 16.0893353780091,46.5686077591571 16.0893458010307,46.5687178710853 16.0893959823469,46.5687483422753 16.0894454016143,46.5688059011648 16.0895806733553,46.5688512162984 16.089585969264,46.5689072161131 16.0895359980115,46.568939360954 16.0896477149593,46.5691047381621 16.0894096121013,46.5693443425115 16.0894657683853,46.5694060657337 16.089548070421,46.5694965996497 16.0895979016208,46.5697179868261 16.0894947882355,46.5698715552434 16.089275644431,46.5699245643825 16.0892270677559,46.570026421233 16.0894053421623,46.5700562123963 16.0893653503857,46.5701893864763 16.0892720492532,46.5703053444518 16.0890197272287,46.5702846251339 16.0888567976701,46.5702980520186 16.0887772204861,46.5703045674703 16.0887130960609,46.5703922671261 16.0883780274846,46.5705457028323 16.088345114496,46.5706220391976 16.0881835617435,46.570600004516 16.087983796392,46.5707350578284 16.0878091313264,46.5708532279545 16.0877171127619,46.5708639095565 16.0877082196961,46.5710520278308 16.0876037206135,46.5710779426899 16.0873619608955,46.5709592337961 16.0872387678174,46.570989734473 16.087204025297,46.5711117018094 16.087074903888,46.5711915612715 16.0869666029681,46.5712100443112 16.0868668835133,46.5712270961854 16.0868915374844,46.5713249273473 16.0866966104733,46.5714151282153 16.0863716797419,46.5714104774076 16.0863238605452,46.5715244715154 16.0863298225626,46.5716401140892 16.0861908660836,46.5715803452258 16.0860516767066,46.5716722649067 16.0859421518232,46.5716491032864 16.0858123219813,46.5716217258631 16.0857761435318,46.5717503640315 16.0855836865617,46.5718076111617 16.0853225127743,46.5720366296245 16.0852978624904,46.5720565665586 16.0851657947287,46.5720478330661 16.0850772280447,46.5721532163696 16.0850800532996,46.5722229149696 16.0848653928984,46.5722528412191 16.084495841518,46.5722482483883 16.0843523288325,46.5722871257044 16.0840536264598,46.5723681393489 16.0837836036168,46.5724939545776 16.0836157321483,46.5725937003587 16.0832477561211,46.5727338474812 16.0830870377238,46.5726490898335 16.0827217561214,46.5728329343152 16.0823617882742,46.5730872624429 16.0821187334437,46.5734083195139 16.0821450584025,46.573465920047 16.0820512005693,46.5735942929296 16.0818524377869,46.5738663475671 16.0818598560402,46.5739900736867 16.0814064870976,46.5741077206748 16.0812668653958,46.5746446213755 16.0813517541435,46.5748196168053 16.0811441935601,46.5752270655006 16.0810304015501,46.5753767684385 16.0809721714214,46.5754534318351 16.0811073072356,46.5759246676871 16.0816454376685,46.5759287571477 16.0818423789286,46.5760238804167 16.0819583303375,46.5761467598938 16.0817654281366,46.5763466043312 16.0822779053657,46.5766545760564 16.0826917816213,46.5776194367684 16.082770194901,46.5780519812528 16.0826193769725,46.5782818379327 16.0824749087666,46.5786603516787 16.0824193985762,46.5791818825373 16.0826694630848,46.5792838790284 16.0822738028471,46.5799432210691 16.0822347384242,46.5800520922383 16.0825728991802,46.5804959440205 16.0813255257677,46.5808045472274 16.0820735359883,46.5819703880597 16.0815306857455,46.5821781300988 16.0824545223561,46.5837719931992 16.0824818172899,46.5838124904453 16.0814685445406,46.5840071390488 16.0814818926284,46.584442098436 16.0813850196073,46.5847741867141 16.081262851773,46.5850286016548 16.0811322585362,46.5853252911013 16.0810176112787,46.5854789604274 16.0807133554695,46.5858096789016 16.0800086956907,46.5861313122261 16.0789041217595,46.5869884248456 16.0785961465033,46.587553719281 16.0784762103722,46.5876847639202 16.0782385240316,46.5878071118889 16.0780707782118,46.5878963217753 16.0777477689435,46.5882305377506 16.0775600745873,46.5884985213056 16.0773814495625,46.5887567025765 16.0772714816586,46.5889103239683 16.0771701998262,46.589028146165 16.0770068248597,46.5891011190705 16.076815717536,46.5891971147041 16.0767681744426,46.5892806926605 16.0767127916385,46.5894230934812 16.0764897800861,46.5897533056067 16.0763883226838,46.5899810696082 16.076340352746,46.5901156632309 16.0762868853328,46.5902164805988 16.0762521034586,46.5902130291968 16.076153450515,46.5903452206033 16.0760333386195,46.5904679872078 16.0759299343709,46.5905711634563 16.0758296060441,46.5906715216737 16.0759069638593,46.5907161379609 16.0757083206248,46.5909593002022 16.0755812412014,46.5910994056853 16.0754759454555,46.5912653969267 16.0754206172402,46.591417423126 16.0753849492959,46.5916397093736 16.0753032286566,46.5919551854657 16.0750952331615,46.5921085565265 16.0747600056054,46.5926124681672 16.0747439174968,46.5927294876626 16.0744421520613,46.5929590416257 16.0743215033925,46.5929494685939 16.0740993916988,46.5927652307938 16.0741035219954,46.5930865574404 16.0740079877513,46.5933507005761 16.0739797791275,46.5936668427736 16.0741152558358,46.5939049753671 16.0740316931021,46.5940418814211 16.0739565415504,46.5944460030855 16.0737779276915,46.5947264003983 16.0737407797909,46.5948147376966 16.0740692093759,46.5951149361864 16.0746643914664,46.5954667886731 16.075284308145,46.5957622655872 16.0756597047809,46.5959025049226 16.0755658029887,46.5959851686726 16.0759122622824,46.5962722369278 16.0764280017314,46.5966315749492 16.0766847407141,46.5967968588656 16.0771964246047,46.5971354489944 16.0779754471202,46.5976597306343 16.078536828709,46.5981801212676 16.0789223436144,46.5984671719597 16.0792983879338,46.5987634874181 16.0796396609519,46.5990766838892 16.0799823858588,46.5994167660047 16.080367608228,46.5997670619283 16.0805203270455,46.5999051595988 16.0807878489633,46.6000927343759 16.0810847860699,46.6003022525875 16.082029416087,46.6010829688956 16.0823808962179,46.601376267627 16.0831970112034,46.60193533987 16.083674950224,46.6022660332631 16.0850226585959,46.6029970219262 16.0855387356933,46.6032755243008 16.0864485996782,46.6039829400946 16.0869377353486,46.6042515256395 16.0872286551041,46.6044515483889 16.0875311970709,46.6046582074855 16.0880425201984,46.6049846965256 16.0885749532698,46.6053220484215 16.0892881864715,46.6057569107788 16.0904900417957,46.6064648422368 16.0909099707841,46.6067433371075 16.0911874910248,46.6068727628688 16.0915135148727,46.6069927283858 16.0918454901681,46.6070709811057 16.0921063134775,46.6070969211643 16.0924392394407,46.6071120057327 16.092885667571,46.6071106205421 16.0932254730121,46.6071302254523 16.0935645913572,46.6071610818888 16.0938064700247,46.607140775819 16.0940045642322,46.607078963009 16.0942304649725,46.6070496321351 16.0943517923237,46.6070004287469 16.0944970168337,46.606945148686 16.0947471023748,46.6068916539726 16.0949527989825,46.6068573868591 16.095137367826,46.6067917429615 16.095382149647,46.6067212937265 16.0956816534655,46.6066521191997 16.0966841993493,46.6064962247201 16.0971785719486,46.6064451507556 16.0973887782366,46.6063951816118 16.0977351095681,46.6062985621424 16.0979814963804,46.6061140128085 16.0982863322778,46.6062314633767 16.0986117321545,46.6062554190734 16.0997656831295,46.606144376796 16.1001655559793,46.6060490345593 16.1004994727668,46.6060487916131 16.1011760863251,46.6062174476503 16.1013238536132,46.6061592554585 16.1014018929526,46.6062546796532 16.101289004505,46.6063334086871 16.1015426880626,46.6064642983784 16.1018376792663,46.6067524131563 16.102796627717,46.6068547326078 16.1033635693232,46.6068931699593 16.1040470723969,46.6070080318029 16.1088332790798,46.6076347875038 16.1087817307942,46.607917066166 16.1087112526784,46.6082697031048 16.1086427261936,46.6086156634513 16.1085759309457,46.6089505409268 16.1084525493125,46.6095385060839 16.1083671543965,46.6099408594638 16.1083361615747,46.6101366596052 16.1082580677328,46.6104234235786 16.1080740943706,46.6105884971678 16.1075933494805,46.6109571621968 16.1099645819374,46.6110282850899 16.1119665465165,46.6112425787507 16.1142238000833,46.6110387902425 16.1155760906153,46.6108177852705 16.1169972745374,46.6102843534248 16.1182671432342,46.6097264724233 16.1200935774919,46.6087475678967 16.1226064269268,46.6081515503098 16.1258053257217,46.6079381982284 16.1279804755243,46.6074232075002 16.1324068841314,46.6051152549852 16.1326766506803,46.6049873489408 16.1342830632596,46.6042439515155 16.1376629360533,46.603690823321 16.1409325777028,46.60326860822 16.1425013149409,46.6026035628671 16.143922016764,46.6020698899894 16.1448468985749,46.6012554246035 16.1457880829749,46.6003549588999 16.146897193289,46.5994036792622 16.1484331580858,46.5984379376596 16.1507413375044,46.598026259551 16.1521870414938,46.5980041496746 16.1558834045068,46.5977345613589 16.1578098250802,46.5972171063283 16.1595372578748,46.596642617001 16.1622719453102,46.5949495553909 16.1635137960306,46.5939685145409 16.1652077101569,46.5930495223532 16.1672446828419,46.5925140474741 16.1685333771384,46.5922982820004 16.169770101173,46.5922029609331 16.1725887985638,46.5917736533937 16.1741775677949,46.5913441324496 16.1762196061398,46.5902777233846 16.1779399467048,46.5892684817298 16.178646587593,46.5889607090681 16.1777170439556,46.5883523819277 16.1766465737008,46.5879907501605 16.1754867209858,46.5878098733063 16.1747392877873,46.5877276735492 16.1738517162498,46.5876339516856 16.1726099316093,46.5875439445625 16.1720124576143,46.5874986060361 16.1713125790457,46.5874608807197 16.1706406263689,46.5874291631028 16.1700991342332,46.5873897193591 16.1695377350969,46.5872862393167 16.1691623761792,46.587174467401 16.1687964104083,46.587062508307 16.1684572533505,46.5868924246606 16.1680991674699,46.5867097578231 16.1675217712245,46.5863044080646 16.1672533948539,46.5859601397132 16.1670021606918,46.5855449808301 16.1668545838486,46.5851866135674 16.1666934714449,46.5846291045805 16.1665886072373,46.5840839771002 16.1664515600657,46.5833462857945 16.1663490431041,46.5829103554789 16.1662006505015,46.5825133991699 16.1659278930556,46.5819635047797 16.1655813493612,46.5814529579698 16.1660292214559,46.5814740342865 16.1670077560469,46.5814705328427 16.1677157056545,46.5814503524784 16.1682364128449,46.5813936637616 16.1694175273553,46.5812722833996 16.1711102219058,46.5811071478861 16.1714634274164,46.5810584570413 16.1717230862611,46.5809980378703 16.1729548892453,46.5806383155549 16.1740013646394,46.5803254663383 16.175508940138,46.579789426839 16.1761373862017,46.5795451805407 16.1766082967006,46.5793410577795 16.1769848150154,46.5790801447161 16.1773958624426,46.5786966980179 16.1775970277743,46.5785146905669 16.1779087381361,46.5782800825659 16.17809041282,46.578059768496 16.1782919257392,46.5774664210107 16.1783630683092,46.5773114824154 16.1784904467838,46.5771687398993 16.1786823494761,46.576993213666 16.1792608388905,46.5765952590604 16.1797935879834,46.5762362797358 16.1801605374889,46.5759689770142 16.1803067013808,46.575832516337 16.180405601219,46.5756644245199 16.1804674744008,46.5755095802159 16.1805070675935,46.5751878045843 16.1805197250169,46.5749113810753 16.1806325409247,46.5745309999684 16.1807850217574,46.5742530431379 16.1809745380767,46.5739684059302 16.181041076483,46.5738182814259 16.1810866748837,46.573665134237 16.1810647439013,46.573514303747 16.1810281060134,46.5734311913691 16.1809593668254,46.5732695980939 16.1808976463946,46.5731127906058 16.180905767404,46.5729520231924 16.1809471167514,46.5728134947861 16.181085343989,46.5727445912792 16.1811773898191,46.5726937983114 16.1815818470479,46.5725450417544 16.181674893937,46.5725343639555 16.1820394100822,46.5724808451006 16.1828015843202,46.5723861467438 16.1832571117412,46.5723364511781 16.1835213385838,46.5722726289855 16.1841139682264,46.5721026630443 16.1845490915473,46.5719728317446 16.1849563695752,46.5718464361461 16.1852563561605,46.5717116142565 16.1855965973094,46.5715024202851 16.18590457996,46.5713096640965 16.1860557016196,46.5711923977811 16.1864347108367,46.5708349811346 16.1869531987853,46.5702575825403 16.1874361895466,46.5697577429822 16.1879116036361,46.5693414707636 16.188350543659,46.5689577841915 16.1888451560925,46.5685670395501 16.1892762365274,46.5682540563171 16.1899992670086,46.567655263457 16.1905126452525,46.5672707040215 16.1907416340088,46.5670883834119 16.1916587099933,46.5664169343989 16.1920812013197,46.5661361486918 16.1924396087768,46.5659074915038 16.1926872440938,46.5657313603163 16.1929254784473,46.5655489388655 16.1931904817025,46.5653083878972 16.1934645998404,46.5650612634623 16.1937380130023,46.5647821169103 16.1939474967407,46.5645678745694 16.1943132993936,46.5642490757066 16.1944332937209,46.5641772873712 16.1943114267695,46.5641162116927</coordinates></LinearRing></outerBoundaryIs></Polygon></MultiGeometry>
  </Placemark>
</Folder>
</Document></kml>
