{"type":"FeatureCollection","features":[{"type":"Feature","geometry":{"type":"Polygon","coordinates":[[[16.4034001072537,46.6612228586824],[16.403400209211,46.6612236980611],[16.4032779140455,46.6612646940125],[16.4027181431382,46.6614630999653],[16.4021619496709,46.661681276019],[16.4021605919121,46.6616818086169],[16.4019975898762,46.6618569530248],[16.4019961963089,46.6618584503961],[16.4018802231846,46.6618660793892],[16.4010133124293,46.6619263616009],[16.4006291838822,46.6618982271543],[16.4001862225779,46.6619776411186],[16.4001853739159,46.6619777932647],[16.3999426455244,46.6622262663141],[16.3999409367863,46.6622280154831],[16.3999168995305,46.6622239556277],[16.3999156058263,46.6622237371229],[16.3996667082606,46.6626809385512],[16.3995424020182,46.6636315263234],[16.3994957748315,46.6637605400532],[16.3994950779958,46.6637624681375],[16.3994442817461,46.6637538228901],[16.3980602902803,46.6633802860682],[16.396521217768,46.6639074532961],[16.3965191977664,46.6639081451722],[16.396455024152,46.6642928341053],[16.3964550115208,46.6642929098226],[16.3960671857968,46.6645739333631],[16.3959148927947,46.6646842856968],[16.3959126100761,46.6646859397621],[16.3929215443191,46.6639732389817],[16.3915336717146,46.6637168081218],[16.3914328821698,46.6633436794733],[16.391777721255,46.6627216781012],[16.3917793095357,46.6627210981779],[16.3927593111932,46.6623632671246],[16.3936982879494,46.6620811194626],[16.3936975722774,46.6620804338447],[16.3935398304389,46.6619293157253],[16.393372027963,46.6617723667786],[16.3878427253408,46.662158514468],[16.3871793647323,46.6615384972355],[16.3846398251872,46.6619321018191],[16.3838337448787,46.6615809959346],[16.3834682525555,46.6614940995661],[16.3831313611509,46.6614116245123],[16.3828124247154,46.6613209243296],[16.381562612892,46.661842271689],[16.3812288628787,46.6618882266329],[16.3802418093444,46.6621167814619],[16.3790030261963,46.6624106199251],[16.3783894245391,46.662556744611],[16.3777697964817,46.6627023987713],[16.3748988854743,46.6633183980396],[16.3745583142852,46.6633226705801],[16.3745409657672,46.6633651637174],[16.37452579869,46.6636174346684],[16.3746949629127,46.664006580348],[16.374721047089,46.664133390858],[16.3747740867682,46.6642976637438],[16.3747456016805,46.6643390311919],[16.3746197491896,46.6643851673282],[16.374339986172,46.6643036893263],[16.3738740380721,46.6641565213666],[16.3738327789346,46.6641063652041],[16.3734952246455,46.663966830418],[16.3731102334806,46.6639871963037],[16.3729380357864,46.6640713132927],[16.3725641901795,46.6642222662213],[16.3721689377307,46.6643742843938],[16.3717452928368,46.6643752265075],[16.3715742737985,46.6643769171603],[16.3712848149296,46.6642994165345],[16.3710863509431,46.6642028311566],[16.3704490454427,46.6638057041396],[16.3702244567125,46.6637094302194],[16.3699469311006,46.6635867995695],[16.3694662793995,46.6634310628933],[16.368853668433,46.6632400165938],[16.3684856090674,46.6631544526083],[16.3680382622244,46.6630339386181],[16.3675400207072,46.6629679217679],[16.367358260807,46.6630150780946],[16.3660317757127,46.6648212763445],[16.3639964332023,46.6675446725848],[16.3638063410784,46.6677808539575],[16.3668793276588,46.670033847211],[16.3664945660361,46.6701428957675],[16.366506590489,46.6702103175843],[16.3662274339279,46.6701639897643],[16.3657348622293,46.6703618614007],[16.3656331941849,46.670445395154],[16.365553342721,46.6703521525638],[16.3654580492581,46.6704812234914],[16.3652041907592,46.6706869494906],[16.3650492875818,46.6707221757751],[16.3646489396478,46.6709548391967],[16.3644691116264,46.671194137912],[16.3641534194062,46.6715709970465],[16.3637994544757,46.6719021583283],[16.3638317402825,46.6719750068018],[16.3636593138623,46.6720619913364],[16.3632780129216,46.6723146654826],[16.3632157187952,46.672290666797],[16.3629677045074,46.672396814315],[16.3628428949894,46.6724855694494],[16.3626347359319,46.6724718548925],[16.3626794950569,46.6725782028696],[16.362038053582,46.6728190365955],[16.3620302581424,46.6730081506073],[16.3619380440451,46.6731562549238],[16.3618866776291,46.6733331122602],[16.3617829471867,46.6733454130264],[16.3615624362877,46.6734124541977],[16.3615289571992,46.6734793384385],[16.3610391174755,46.6737045971751],[16.3607525383126,46.6736703099494],[16.3602534955926,46.6739040417242],[16.360060667551,46.6739597748321],[16.3599875004962,46.6740390061052],[16.3597726095495,46.6740385015782],[16.3596217858479,46.6741795634182],[16.359227325546,46.6743414234524],[16.3589478232339,46.6744330917087],[16.3585853684662,46.6744901173854],[16.3582861179544,46.6745970430626],[16.3580837109152,46.6746931918688],[16.3577069161818,46.6749553303044],[16.3574364496978,46.6753975798015],[16.356920027228,46.6754395131253],[16.3566210315441,46.6753219632174],[16.3558985862117,46.6751799227599],[16.3555242440568,46.6752218751473],[16.3550209804945,46.6751784450377],[16.3542738244308,46.6751091105992],[16.3540011409223,46.6749928617756],[16.3532588153872,46.6746613890608],[16.3528605727736,46.6745364563717],[16.3529805891662,46.6749407891789],[16.3529700592641,46.6750949375627],[16.3530544722635,46.6753714880517],[16.35332338659,46.6761638871657],[16.3536300272333,46.6770638897582],[16.3535350048204,46.6782678750333],[16.3537032688715,46.6801793053422],[16.3535203810577,46.6805766048482],[16.3533450295124,46.6808884360889],[16.3530657813313,46.6814108493405],[16.352912116361,46.6816909348921],[16.3528342103984,46.6818743994053],[16.3528072155084,46.6820497945923],[16.3528081292297,46.6822696633732],[16.3528471216541,46.6824700988132],[16.3529372115776,46.6824185619202],[16.353123495009,46.6830939009564],[16.353088889178,46.6832681266535],[16.3529280531743,46.683664354474],[16.3531164247515,46.6839833991048],[16.3532130190218,46.6842288563438],[16.3534724858618,46.6845468794777],[16.3537990879711,46.6851082781897],[16.3539822755122,46.6852927019984],[16.3541576275458,46.6855087966891],[16.3543483183875,46.6857840877746],[16.354721838067,46.6860461477907],[16.3550133796592,46.6864018436001],[16.3550697557729,46.6866330209276],[16.3551049088829,46.6868362899199],[16.3550987665463,46.6871970404953],[16.3552042218903,46.6878536302345],[16.3550886114161,46.6881813999721],[16.3551176007497,46.6882113754871],[16.3553979595898,46.6885009869456],[16.3558324751753,46.6886134252049],[16.3561787538496,46.6886061720865],[16.3562247640372,46.6885483176866],[16.3563936256747,46.6885043911764],[16.3565686784189,46.6883840090128],[16.3569601130213,46.6883005558248],[16.3570480056411,46.6884585749879],[16.357143679893,46.6886401630945],[16.3572240108442,46.6888459543285],[16.3574814760364,46.6894683502906],[16.357762527536,46.6902960402679],[16.3579847383561,46.6911336045231],[16.3579361903578,46.6913823096755],[16.3578540358958,46.6915786930204],[16.3578742724854,46.6917340057234],[16.357660095788,46.6921091007268],[16.3575582700636,46.6923762513609],[16.3575799236531,46.6925255194948],[16.3576209141558,46.6927733418715],[16.357611457384,46.6930533412624],[16.3577831550221,46.6934193584556],[16.3579760604921,46.6936611492078],[16.3581792466253,46.6938957101941],[16.3582230212795,46.6940979759851],[16.35833777557,46.6945862136103],[16.3585703139903,46.6948804333121],[16.358981939206,46.6953185417145],[16.3596314263809,46.6959132434607],[16.3593918439356,46.6960160436465],[16.3599509967689,46.6966214432933],[16.3600176407812,46.6966509699336],[16.3602949656377,46.6969210823235],[16.3605529019719,46.6972000614248],[16.3607017863213,46.6973281130078],[16.3610321576081,46.6974401506269],[16.3610974334513,46.6974463914884],[16.3612262442412,46.6974156197402],[16.361566538325,46.6973033402689],[16.3618570582638,46.6972241303245],[16.3621452188765,46.6971343316367],[16.3622757967227,46.6971426732635],[16.3624045063012,46.6971755079842],[16.3624908812336,46.6972407849783],[16.3626848744065,46.6973529124369],[16.3629481353839,46.6973388905196],[16.3631841659557,46.6973287911269],[16.3633470459707,46.6973944154229],[16.3633933785319,46.6973805481923],[16.3635444655048,46.6975490549328],[16.363852499193,46.6974591950275],[16.3641724982816,46.6972889411479],[16.3644302545381,46.697072016132],[16.3645799929688,46.6972180458745],[16.3646819807421,46.6974150264671],[16.3645324270595,46.6975566188214],[16.3645801856526,46.6976875807982],[16.3647967908241,46.6977523822893],[16.3649246614546,46.69785557829],[16.3649507742225,46.6979007000337],[16.3650544935678,46.6981143934576],[16.3651665836926,46.6982762559402],[16.3651538704328,46.6983425332977],[16.3651873632382,46.6984210346036],[16.3653753529642,46.6985487933959],[16.3652866240463,46.6986341512344],[16.3652921202365,46.6987173050079],[16.3654144127822,46.6988895716079],[16.36526575655,46.6989423568694],[16.3650750432662,46.6988933514154],[16.3648570633145,46.6987845730561],[16.3647499269399,46.6987985364344],[16.3646546619048,46.6988788436328],[16.3647871986537,46.6990166213598],[16.3648878373678,46.6992066003928],[16.3650721126792,46.6996123116292],[16.3648211347051,46.7000103503803],[16.3642950616456,46.6999741604984],[16.3639200108809,46.7000931600578],[16.3636284781913,46.6999301065228],[16.3634963194689,46.7000877741213],[16.3636053527547,46.7002113486324],[16.363526139118,46.7003736032875],[16.3630105419267,46.7003173100039],[16.3625829246721,46.7001559649364],[16.3623835594167,46.7000438113482],[16.3617497913095,46.7001034472999],[16.3615733085309,46.7003032049026],[16.3611089614165,46.7004856948864],[16.3606511476821,46.700324611878],[16.3602648413547,46.7005998257567],[16.360163750916,46.7007141159356],[16.3599758267533,46.7007606136118],[16.3595609544565,46.700804590017],[16.3591704606347,46.7009133213247],[16.3586349716653,46.7012734311744],[16.3514174102504,46.7064729842919],[16.3506055160386,46.7071075702882],[16.3515122676997,46.7076795770869],[16.3566174096305,46.7080469492342],[16.3581011318739,46.7080917834861],[16.3664641731399,46.7020138227341],[16.3666966398787,46.7022347935092],[16.3667154801529,46.7023802247409],[16.3668114682715,46.7025564026566],[16.3667403295489,46.7027637263584],[16.3667473315061,46.7029323304978],[16.3667638681159,46.7031004608624],[16.3669186319578,46.7033721110292],[16.3670126070094,46.7034114732837],[16.3671268122217,46.7035217574717],[16.3672569750152,46.7035389151307],[16.3674676057726,46.7036819640891],[16.3676489674307,46.7038207742351],[16.3677553388187,46.7038589980576],[16.3681161485238,46.7039986309491],[16.3682094596518,46.7041099736008],[16.368493869037,46.7042277573297],[16.3685488259812,46.7042188512433],[16.3685931925522,46.7041785269751],[16.3685948873871,46.7041775746732],[16.368914009175,46.7039982639561],[16.369238249166,46.7038448591348],[16.3693853284062,46.7037948703558],[16.3703608300805,46.7034633131622],[16.3708440983313,46.7032990535609],[16.3718560965109,46.7029710499183],[16.372399486096,46.7027810006514],[16.372786219324,46.702617299579],[16.3727874078036,46.7026162932566],[16.3731781024671,46.7022854773236],[16.3735207356642,46.7019403900784],[16.3735225545696,46.7019393485032],[16.374466076407,46.7013990423215],[16.3753850693024,46.7009434719482],[16.3780842548521,46.7000430809586],[16.3784642757215,46.6999613112835],[16.378804306045,46.6998394472317],[16.3788489941266,46.699894598166],[16.3788551890499,46.6998913009902],[16.3795956192752,46.6994972103492],[16.3799273973831,46.6992261873632],[16.3801698222415,46.6990152596394],[16.3803013081466,46.6988383278775],[16.3804401947467,46.6985824056808],[16.3804419119652,46.6985816584005],[16.3816800621429,46.6980428417246],[16.3822879711334,46.6981296939028],[16.3826929915923,46.6981571877885],[16.3827953750439,46.6981621580928],[16.3834510230671,46.6980343058005],[16.3834521361799,46.6980522857258],[16.3836409914787,46.6980177937221],[16.3845254172612,46.6979595016268],[16.3848462334031,46.6980741951866],[16.3850280181141,46.6980495928724],[16.3855492062482,46.6980330259294],[16.3861132349045,46.697927680021],[16.3864068274004,46.6979180792094],[16.3864803696093,46.6979156741762],[16.3866790838466,46.6979103182971],[16.387529665995,46.6978873889273],[16.3880759676382,46.6977946637579],[16.3886974837335,46.697774436062],[16.3891056362099,46.6978424443145],[16.3894372487611,46.6978526322699],[16.3899871351224,46.6977978204818],[16.3903501092361,46.6977817142811],[16.3905631680107,46.6978141220098],[16.3911690017602,46.6978095458059],[16.3917705647305,46.6977456401602],[16.3917701561338,46.697744642332],[16.3917612170458,46.6977228123023],[16.3917636733394,46.6977218558635],[16.3920664979495,46.6976039404772],[16.3920685628184,46.6976027030958],[16.392107459668,46.6975793939775],[16.3921222058729,46.6975705572369],[16.3921466008311,46.6975559384198],[16.3923601107189,46.6974279908534],[16.3925694717642,46.6973827083978],[16.3927439527578,46.6974099137096],[16.3933809413869,46.6976965294175],[16.3939555414729,46.6978603771138],[16.3940545527926,46.6978511636473],[16.3950847658376,46.6976101797814],[16.3959660869275,46.6973560689297],[16.3962029800172,46.697308644537],[16.3968459704793,46.697249334712],[16.3974682336085,46.6973749766401],[16.3974479805991,46.6973958264611],[16.3976643058904,46.6974229629829],[16.397886695976,46.697416557281],[16.398202042374,46.6973538653896],[16.3984034801488,46.697326032704],[16.3989579244276,46.6972862364991],[16.3991173086701,46.6972857269303],[16.3992985583767,46.6973622313379],[16.4002673411332,46.6973410216391],[16.4008093526646,46.6973160332417],[16.4013015652372,46.6973373554656],[16.4017762577933,46.6974799857877],[16.4021829995867,46.6974727522839],[16.4027099672023,46.6974424512725],[16.4037552243397,46.6973043969027],[16.4043380638931,46.6972100660758],[16.4046066365215,46.6971491901831],[16.4048419102596,46.6970900720558],[16.4054504456111,46.697013593353],[16.4058984573051,46.6969743511883],[16.4062712120239,46.6969425099613],[16.4069981157871,46.6968673569682],[16.4074970393831,46.6968199251739],[16.4078941671183,46.6968102705508],[16.4082623325713,46.6967780294705],[16.4087924344961,46.6966826156913],[16.4105563233645,46.6961935031527],[16.411513139672,46.6960050970033],[16.4118628084493,46.6959089933993],[16.4123300190149,46.6957805822054],[16.412472432621,46.6957414398243],[16.4130372785751,46.6956202066693],[16.4132296523412,46.6956113528682],[16.4133689568104,46.6955931680296],[16.4135432278422,46.6955620455816],[16.4136964558831,46.6955462973547],[16.4140066945386,46.6955394944676],[16.414271650504,46.6955812029525],[16.4147076771092,46.6957596146847],[16.4148495463817,46.6957945668425],[16.4149112975637,46.6957995686256],[16.4149911947087,46.6958060401622],[16.4150249023127,46.695811763543],[16.4150509543722,46.6958161870434],[16.4150522596309,46.6958147002004],[16.4150692392303,46.6957953584334],[16.4150266716274,46.695532371497],[16.415039238022,46.695432802496],[16.4150413038263,46.6954334194804],[16.4152425820168,46.695493534074],[16.4158090806986,46.6956459464925],[16.4161347338935,46.6957685895696],[16.4165301605631,46.6959392199342],[16.4168414273709,46.6961215972966],[16.4170454059641,46.6961814181391],[16.417165767851,46.696193872156],[16.4177898782503,46.6961789421661],[16.4183213861551,46.6961480630842],[16.4187647191213,46.6961005515251],[16.4191719109764,46.6960261365908],[16.4204700310977,46.6958250542515],[16.4208851641543,46.6957843622179],[16.4216709580452,46.6957373538798],[16.4224246474416,46.6957027049209],[16.4229270369986,46.6956985267953],[16.4231370488253,46.695733970642],[16.4235073006106,46.6958314769571],[16.4237483649803,46.69585933594],[16.4239872843135,46.6958453864357],[16.4241133004502,46.6958216336487],[16.4249920101181,46.6956560012036],[16.4251895389852,46.6956244813412],[16.4254482530491,46.6955528832094],[16.4256283329258,46.6954685673011],[16.4256365753536,46.6954647080686],[16.4256368392779,46.6954645191247],[16.4260819058717,46.6951458925353],[16.4260838842708,46.6951449407977],[16.4265369236854,46.6949269978346],[16.4265368373855,46.6949268373275],[16.4264347687977,46.6947370015755],[16.4264372975516,46.6947357717497],[16.4264414958343,46.6947337299706],[16.4271597778355,46.6943843985393],[16.427164572905,46.6943820664606],[16.4278099434894,46.6942073049017],[16.4285623587819,46.6939864894492],[16.428623596251,46.6939634129332],[16.42862325599,46.6939631311667],[16.428065117432,46.6935009372189],[16.4268824185134,46.6923822886134],[16.4265935529574,46.6919239998861],[16.4262330254727,46.6912465442195],[16.4256810014573,46.6901531267121],[16.4253463864556,46.6894459259091],[16.4251364475328,46.6894322572556],[16.4248645629671,46.688857874751],[16.4247880187795,46.6887064236919],[16.424646150145,46.6884423374754],[16.4245053401624,46.6881985704707],[16.4241121085798,46.6875681179783],[16.423838356925,46.6871706316017],[16.4232382104972,46.6862872442209],[16.42319334184,46.6862165483849],[16.4230252009605,46.6853498267275],[16.4229343563025,46.6844991471359],[16.4228620760543,46.6836384300399],[16.4226597379038,46.6827930951781],[16.4224197575626,46.6820373854236],[16.4223753583053,46.681944551443],[16.4218952789413,46.6811600669651],[16.4214778492914,46.680600619821],[16.4213385933577,46.6804047818962],[16.4213700021243,46.6801719162306],[16.421524191129,46.6800051803817],[16.4216450874597,46.6797104747299],[16.4216418331206,46.6795515429778],[16.4215789943038,46.6794781907955],[16.4215814878682,46.6794767774712],[16.421794352111,46.6793561279316],[16.4225270388813,46.6792222350898],[16.4229880540888,46.6790968451872],[16.4235425178106,46.679115317932],[16.4238599308245,46.6790916649773],[16.4245407568889,46.6789792770826],[16.4254344227453,46.6790173577188],[16.4255745019694,46.678980704949],[16.4255742806172,46.6789799652286],[16.4255648998442,46.6789486163069],[16.4254532153733,46.6785838410179],[16.4253993117142,46.6784179831565],[16.4251164881049,46.6780717137582],[16.4247330137417,46.6776506747863],[16.4244198197589,46.6774019082933],[16.4244194211238,46.6774015916599],[16.4241154413625,46.6776512841191],[16.4241133620543,46.677652992076],[16.4240402936094,46.6776181846092],[16.4238980678852,46.6775133436326],[16.4236501615087,46.6772965487907],[16.4227056125039,46.6772659245543],[16.4224773631938,46.6772400632739],[16.4223029976459,46.6771854618338],[16.4221264640997,46.6771129835809],[16.4218135398147,46.6769685169988],[16.4212340837272,46.6765793211277],[16.4208725535501,46.6762708155791],[16.4204902092008,46.6758911332572],[16.4204198853948,46.6757613738513],[16.4204227149869,46.675760614116],[16.4206331393018,46.6757041156912],[16.420904783389,46.6756604367276],[16.4209046712252,46.6756592877369],[16.4208908448457,46.6755176517398],[16.4208220189655,46.6754151340738],[16.4207233511548,46.675316045859],[16.4205629733191,46.6750367995119],[16.4205680030673,46.6744108341634],[16.4203230155514,46.6741148245103],[16.4203254961132,46.6741133977946],[16.4207081478394,46.6738933109376],[16.4214345108706,46.6735110135259],[16.4223411659601,46.6729966471005],[16.42286257968,46.6728090588276],[16.4230420497133,46.672695176925],[16.4231547208868,46.6726236815529],[16.423221518793,46.6725812948729],[16.4233722985909,46.6727187784579],[16.4238489624052,46.6724598584919],[16.4238505237412,46.6724588688111],[16.4242942932337,46.6721775752309],[16.4247201717496,46.6718863557981],[16.4247219025382,46.6718853713354],[16.4249717962893,46.6717432325455],[16.425252800524,46.6716388785353],[16.425252517649,46.6716383314693],[16.4252066707783,46.6715496657556],[16.4250421831381,46.6710846939828],[16.4250347391259,46.6707915828832],[16.425246157893,46.6706008272404],[16.4253154853512,46.6705185429838],[16.4253560458134,46.6704108864228],[16.4253451601892,46.6703000922086],[16.4249054389807,46.6696563649823],[16.4248245022532,46.6695604781278],[16.4245812766094,46.6693017019373],[16.4245009526918,46.6691793567894],[16.4244038293687,46.6689747206055],[16.4243508834249,46.6688000332696],[16.4242550983854,46.6683776590419],[16.4240434891549,46.667864419928],[16.4238725582635,46.6677006475439],[16.4234262151693,46.6671516426086],[16.4233078817303,46.6669999902851],[16.4232427732324,46.6670288701733],[16.4216968645263,46.6662911960427],[16.421106824312,46.6661169728866],[16.4206568224461,46.6658157729708],[16.4201588382023,46.6657081472097],[16.4198626740213,46.6654374225956],[16.4197648553966,46.6653600050436],[16.4195825566663,46.6651405874425],[16.4191626976844,46.6649468786014],[16.4186739085667,46.66474574604],[16.4184341907749,46.6645891162186],[16.4183141962273,46.6645280765608],[16.4183175122494,46.6645269607151],[16.4189262776325,46.6643221079876],[16.4189263559299,46.6643212533195],[16.418939999751,46.6641723218219],[16.4192462502756,46.6637204846261],[16.4196648522706,46.6633624379992],[16.4196657428812,46.6633621133227],[16.4201410732819,46.6631888277129],[16.4202858856942,46.6631047995985],[16.4202860174865,46.6631044902423],[16.4203793251722,46.6628854682248],[16.4204518151146,46.6627543851405],[16.4206322602647,46.6624792729227],[16.4203565456108,46.6620407759501],[16.4198903920034,46.6619047738825],[16.4201201502635,46.661042731813],[16.4200164965426,46.6608370031593],[16.4195367978871,46.6606773263683],[16.419288377282,46.6598231077508],[16.4197889804731,46.6584707108761],[16.4166046388123,46.6589966423209],[16.4160606874853,46.6590675237685],[16.4155309870596,46.6592088508352],[16.4148538293899,46.6592327022699],[16.414620693499,46.6591917712219],[16.4138597312653,46.6593191261154],[16.4128137894322,46.6592263364309],[16.4127991527832,46.659171097171],[16.4124416164602,46.6592704279394],[16.4112973241742,46.6592494631969],[16.4108006454434,46.6592341772548],[16.4107140061371,46.6592540489165],[16.4104162640209,46.6593113408563],[16.4101919179254,46.6594073130086],[16.409662967983,46.6594274173105],[16.4082500045456,46.6596324021488],[16.4074634424516,46.6593531963079],[16.4071186101873,46.6592627025109],[16.4052836306486,46.6590612392662],[16.4045029335412,46.6588814451369],[16.4031098296897,46.6588123277011],[16.4031073049542,46.6588122024233],[16.4034001072537,46.6612228586824]]]},"properties":{"fill-opacity":0,"stroke-opacity":1,"stroke":"#ff0000","lov":"0827","lov_naziv":"KOBILJE","luo":"08","luo_naziv":"Pomursko","povrsina":2054.74},"id":"pregledovalniklovisca.1"}]}