{"type":"FeatureCollection","features":[{"type":"Feature","geometry":{"type":"Polygon","coordinates":[[[16.2590319343242,46.7774332001204],[16.2594256882791,46.7775668742275],[16.2597660513219,46.7777021243832],[16.260026443527,46.7778559773181],[16.2602573897293,46.7779993580986],[16.2607499173947,46.7783024243482],[16.2610091200724,46.7784892155021],[16.2611388278038,46.7785815300994],[16.261296271551,46.7787007084088],[16.2613919548334,46.7788108510344],[16.261483324334,46.7790446536661],[16.2615057505656,46.7790964964382],[16.2615022113654,46.7792028746177],[16.2614738165175,46.779282357234],[16.2613579915921,46.7793920423625],[16.2612863650201,46.7794428526473],[16.2610975353081,46.7795387677476],[16.2609802977851,46.7795880112769],[16.2608602902404,46.7796476312325],[16.2607860421226,46.7797152036581],[16.2603520562697,46.7802264897687],[16.2602124902723,46.7803572172082],[16.2601033010219,46.7804876999432],[16.259865082211,46.780684198386],[16.2596894416713,46.7808236891202],[16.2596451896444,46.7808804046304],[16.2595996296692,46.7810101864407],[16.2595710360122,46.7810813039605],[16.2594011916766,46.7813458723329],[16.2592486524946,46.781566346891],[16.2591701901577,46.781717362548],[16.2591424701209,46.7818259859126],[16.2590828883507,46.782264413141],[16.2590373238232,46.7823941047788],[16.2589017191057,46.7828187039156],[16.258837664024,46.7830653739497],[16.2588301021848,46.783263470947],[16.2588159343661,46.7834366302297],[16.2587912264189,46.7835453103072],[16.2587421643082,46.7836542582692],[16.2586987695829,46.7837422719033],[16.258620314675,46.7839837022405],[16.2585877029117,46.7842927321064],[16.2585351436579,46.7845663550449],[16.25840634513,46.7846876953142],[16.2582292375845,46.7847649437955],[16.2579878383404,46.7847979161058],[16.2577786643715,46.7848199178012],[16.2574445575083,46.7849212919541],[16.2573798944806,46.7851309919943],[16.2573237131105,46.7852831109413],[16.2573492827342,46.7853350099003],[16.2573320981262,46.7855082020797],[16.2573153027878,46.7855687533623],[16.2573331623693,46.7856832629489],[16.2573472468969,46.7857706444754],[16.2573589810098,46.7860101832151],[16.2573729211484,46.786091358712],[16.2573942608948,46.7862203144595],[16.257429510162,46.7863053942079],[16.257519782619,46.7864022845249],[16.2575064291538,46.7865768740447],[16.2575382992337,46.7867755271337],[16.2575058930331,46.7868968866103],[16.2575056988782,46.7870403834376],[16.2574290048555,46.7871891291812],[16.2574449715848,46.7872223308693],[16.2574475419072,46.787332690074],[16.2574888645306,46.7874929140589],[16.257569096092,46.7876253609906],[16.2576333547512,46.787746827707],[16.2576717524188,46.7879220180026],[16.2567704969644,46.7881534140818],[16.2565127589266,46.7883629846384],[16.2569146483019,46.7885728684833],[16.2572360920332,46.7888378838267],[16.2574606791716,46.789246377656],[16.2575085162308,46.7894781423704],[16.2583291462139,46.789456436578],[16.2604687408444,46.7888945372843],[16.2608353399888,46.7894320898203],[16.2612463947098,46.7898033451574],[16.261542381217,46.7900763659705],[16.2620330744859,46.7904135432976],[16.2626419466366,46.7909925008055],[16.2631383438167,46.7915727865487],[16.2638314031791,46.7923056385721],[16.264618408046,46.7929268808985],[16.2651330226477,46.7935953023975],[16.2655521901358,46.7942596490941],[16.2653509305534,46.7946039224492],[16.264867696943,46.7949900874425],[16.2639653624587,46.7958615642492],[16.2631593564872,46.7969208074715],[16.2620094036468,46.7979619767913],[16.2612678276807,46.7988997624451],[16.2608822983679,46.7984801850282],[16.2603035170919,46.798126789938],[16.2598531890303,46.7979500188919],[16.2593544867015,46.7978614944646],[16.2585016553584,46.7978279630804],[16.257558467014,46.7977902902972],[16.2570112555923,46.7978011604306],[16.2564159719293,46.7977897945583],[16.2557885038796,46.7976901630882],[16.2553541034171,46.7976679396361],[16.2549517925003,46.7976566982475],[16.2543724835347,46.79766745792],[16.254034452508,46.797744574209],[16.253406738238,46.7978766826169],[16.2529562439323,46.7978101835453],[16.2523608191649,46.7978209295457],[16.2518459565359,46.7978427565632],[16.2513791613409,46.7978867268725],[16.251041271953,46.7979306356196],[16.2506871262838,46.7979966725286],[16.2503652259741,46.7980296087142],[16.2500271945092,46.7980957374056],[16.2496891658887,46.7981507093879],[16.2493994913284,46.7981836507968],[16.2490455065567,46.7981945322303],[16.2486752288581,46.798282600505],[16.2482083782381,46.7984037485554],[16.247773986891,46.7983593647984],[16.2471948829193,46.7982376572022],[16.2465837342033,46.7980386558346],[16.2461495793808,46.7978397931963],[16.245425766579,46.7976517286536],[16.2449111583232,46.7974858544126],[16.2443320018234,46.7974634544135],[16.2439778665443,46.7975074289805],[16.2434144756527,46.7976063958579],[16.2426738625808,46.797848799688],[16.2421106541022,46.7978705680706],[16.2414509264035,46.7978481283242],[16.2407911646405,46.7978697680554],[16.240131470354,46.7978031474621],[16.2397129880566,46.7978691278434],[16.2392301712116,46.797946059401],[16.238650846354,46.7979678053378],[16.2382163001026,46.7979675598522],[16.2378141736582,46.7978900418769],[16.2372995317946,46.7977903481233],[16.23641489508,46.7975801245591],[16.2360127739931,46.797502600196],[16.2354979799118,46.7974360071495],[16.2351117977538,46.7974137260545],[16.2344680006772,46.7974573784051],[16.2340335601863,46.7974902230599],[16.2337759567809,46.7975452703445],[16.2334862951896,46.7975561298633],[16.2331160250215,46.79761104052],[16.2327566616473,46.7977133340661],[16.2326918050836,46.7977932019958],[16.2324091186324,46.7979087930026],[16.2321629376978,46.7980282186167],[16.2319400694444,46.7981015105336],[16.23164926134,46.7981254226783],[16.2313868072681,46.7980657213051],[16.231134953983,46.7979308743892],[16.2307784362702,46.7977388552362],[16.2297771479288,46.797220174989],[16.2296046814462,46.7971137102228],[16.2292878452768,46.797058726735],[16.228868755827,46.7970465842521],[16.2282678661967,46.797053035189],[16.2278073841933,46.7970871253196],[16.2273062343384,46.7972051373709],[16.226649059556,46.7974038990645],[16.2263363936828,46.7975323915156],[16.2258628663584,46.7976729523517],[16.2255089602372,46.7978719670975],[16.2251871884247,46.79815934229],[16.2248010272904,46.7983804716928],[16.2245436627031,46.7985794397408],[16.2243184369697,46.798734160411],[16.2239002116546,46.7990437055824],[16.2232888073567,46.7994195493987],[16.2227417902354,46.7997291174485],[16.222259007612,46.7999944537388],[16.2216153907593,46.8002157127479],[16.2208751571719,46.8001275295177],[16.2204567495823,46.8002160198154],[16.2201349281975,46.800392904089],[16.2200062957604,46.8006139701117],[16.2199839956127,46.8009140613213],[16.2203159368413,46.8015379383169],[16.2201230228723,46.8021899025995],[16.2189645708145,46.8036155980261],[16.216759760099,46.8033289520735],[16.2134768496111,46.8029320677761],[16.211770982356,46.802866206031],[16.2072649043425,46.8038947187957],[16.2032093457962,46.8039175478156],[16.1987356032377,46.8031337600612],[16.1978826594902,46.8029791349411],[16.1967723555376,46.8028576932396],[16.1956940919772,46.8029462440811],[16.1945836284357,46.803178345081],[16.1937467111925,46.8033330912399],[16.1921694691137,46.8037751569015],[16.1910266973554,46.8041951367463],[16.1895780903006,46.804780761228],[16.1880972790799,46.8054106944493],[16.186986612902,46.8058636774072],[16.1855701511383,46.8064493672822],[16.1839604971723,46.8069023609439],[16.1830270177462,46.8068581254849],[16.1812247306738,46.8063719492413],[16.179261632691,46.8057862812618],[16.1769928087924,46.8051121400268],[16.1748204530861,46.8045815371028],[16.1731206537789,46.8044695145681],[16.1716402234122,46.8041599973166],[16.1707716371456,46.8034748073417],[16.1699676243481,46.8027454975342],[16.1695495455538,46.802170846702],[16.1692603484538,46.8016183584133],[16.1689710758791,46.8009774345914],[16.1685852507667,46.800402810489],[16.1682317076449,46.799806083986],[16.1678460444674,46.7990989372597],[16.1674283063331,46.7982590581775],[16.1671392071174,46.7976182176051],[16.1668179410007,46.7968889087707],[16.1666252706488,46.7962479831982],[16.1664004020235,46.795783896762],[16.1662720825884,46.7953198155594],[16.1661436344661,46.7948557354905],[16.1659831313073,46.7944357948142],[16.1658869043516,46.7940380501875],[16.1657262657531,46.793684414711],[16.165533601959,46.7931760953937],[16.1653408861867,46.7927562118875],[16.1651159009746,46.792358338153],[16.1649553208981,46.79198265947],[16.1645697098473,46.7912975417968],[16.1645389449951,46.789573853958],[16.1646036412094,46.7890876539307],[16.1646666137783,46.7886551805394],[16.1647078077269,46.7877535806986],[16.1644986101847,46.7878496332401],[16.1642124856313,46.7879316237816],[16.1637633281198,46.7880153616352],[16.1634740769567,46.7879523583498],[16.1633758184385,46.7878479181691],[16.1633307751902,46.7875385361859],[16.1632981328579,46.7873609169901],[16.1631426824835,46.7872767603252],[16.1630000355561,46.7873309296649],[16.1629459671386,46.7874962952485],[16.1629278060628,46.7879909281147],[16.1627999682442,46.7882888421307],[16.1625948338301,46.7885677489595],[16.1622522095794,46.7886965506221],[16.161578426027,46.7886045200558],[16.160935862213,46.788624175369],[16.1603727290997,46.7887683430799],[16.1596954760695,46.7889598166358],[16.1592572760759,46.7891092801736],[16.1583012257959,46.7897254156178],[16.1575262673614,46.7898387858703],[16.1562626181734,46.7899834493118],[16.154577611931,46.7901784127762],[16.1529597667752,46.7903661972962],[16.1522656060828,46.7906698036042],[16.1515450081465,46.7910792007086],[16.1506623465179,46.7915429423826],[16.1497234419901,46.7920666191772],[16.1490607178722,46.7924951213857],[16.1482044397678,46.792846482612],[16.1470781434202,46.7931346898416],[16.1462429226162,46.7935781293464],[16.14537196325,46.7941405842248],[16.1447704406899,46.7947399220663],[16.1445301695644,46.795177395932],[16.1441839924791,46.7960509987242],[16.1437966347833,46.7967931233098],[16.1434420589271,46.7972713216741],[16.1431222235389,46.7975777886869],[16.1424563285528,46.79814680899],[16.1422044166793,46.7986548364192],[16.1418354321922,46.799357276014],[16.1415598069805,46.7999401194026],[16.1413373473358,46.8003114641876],[16.1408650829022,46.8006720742441],[16.1403738388693,46.8010461862508],[16.139729393782,46.801350119951],[16.1392720164488,46.8015976691781],[16.1386015848254,46.8016702856215],[16.1379333742473,46.8018483148655],[16.1374577424056,46.8020508759562],[16.1368619310032,46.8025129180617],[16.136350068353,46.8032352014412],[16.1360509466727,46.8036205216995],[16.1355714239876,46.804149775757],[16.1350964575371,46.8047901790618],[16.1349352173675,46.8050664407578],[16.1345757129714,46.8054847431456],[16.134025950121,46.8059213933675],[16.1334067040046,46.806306639455],[16.1329380638161,46.806919711536],[16.1330054157724,46.807624998297],[16.1330310290669,46.8079087634686],[16.1335754314898,46.8091426368422],[16.1338772165304,46.8107084521966],[16.1337764674261,46.811395071411],[16.1339775295671,46.8127377816864],[16.1340056547022,46.8131593474074],[16.1343073996532,46.8140858721141],[16.133430937006,46.8150502502409],[16.1333287702159,46.8165805709176],[16.1341805235837,46.8178113956978],[16.1344972035019,46.8191660926321],[16.134814873223,46.819663955954],[16.1353314282254,46.8204761610032],[16.1356123859867,46.8210534650526],[16.13593922362,46.821973077942],[16.136227693481,46.8229062055092],[16.1361227870859,46.8233950346617],[16.1357855697072,46.8237939557387],[16.1347614163702,46.8244105656925],[16.1337548403617,46.8249479134677],[16.13322770039,46.8254540565553],[16.1328348391125,46.8259573387252],[16.1326726791682,46.8264615752507],[16.1329364453567,46.8271312690094],[16.1330035229627,46.8275788079401],[16.1326856658542,46.8279906626916],[16.1320399745953,46.8283399056923],[16.1311015216711,46.8284678473664],[16.1302347547684,46.8283577472342],[16.1301237055429,46.8285565856788],[16.1296825406771,46.8294970209937],[16.1287223657076,46.8304293494062],[16.1278542179125,46.8311630209896],[16.127379942437,46.8314445142122],[16.1269787511432,46.8315539936299],[16.1260918378726,46.8313913413701],[16.1255175022458,46.8314892943579],[16.125041561518,46.8316917155402],[16.1247768848618,46.8318920587004],[16.1247426094243,46.832090137242],[16.125036180929,46.8323509374207],[16.1262443447826,46.8331696059687],[16.1265990472873,46.8336011826344],[16.126798349907,46.833941984809],[16.1275608912076,46.8345804188716],[16.1287888313109,46.835425225062],[16.1295465757838,46.8358263672005],[16.1298239631238,46.8362323371949],[16.1296976289757,46.8366159326071],[16.1291916854236,46.8372273748379],[16.128776969055,46.83760058925],[16.1279812493491,46.8381358049294],[16.1271815100516,46.8384733131047],[16.1261138938585,46.8388661707223],[16.1260028521087,46.8390482713441],[16.1258997083478,46.8396461089946],[16.1265965063081,46.8397891327459],[16.1271362230583,46.8400502929903],[16.1275302451514,46.8404473826489],[16.1276966897819,46.8410521918046],[16.1279841533479,46.8419326279789],[16.1282418692574,46.842312345799],[16.1288217060791,46.842478010338],[16.1293380685996,46.8423674783489],[16.1318111421219,46.8411960050871],[16.1327019887581,46.8406203273459],[16.1334071609031,46.8403496610389],[16.1342557629208,46.8401976713268],[16.1348866835874,46.8403612695271],[16.1356425999507,46.8406701758515],[16.1359206140589,46.8411024841268],[16.135910921718,46.8415507822485],[16.1357623237658,46.8426992110969],[16.1356767952154,46.8432010706048],[16.1357856615073,46.8438064391437],[16.1363433805162,46.8447368908929],[16.1373291942257,46.8459267716633],[16.1372697529525,46.8467446869235],[16.1371441528981,46.8471678668512],[16.1370557001132,46.8475246438752],[16.1370634906423,46.8478937794011],[16.1371581177147,46.8487365231051],[16.1373004166322,46.8491042320973],[16.1377128509391,46.8495219749735],[16.1382953007218,46.8498062281494],[16.1388744119521,46.849932264668],[16.14008419284,46.8498938609528],[16.1411982830712,46.8498695333548],[16.1420493925827,46.8500277475535],[16.1423991300082,46.8503189797889],[16.1426141028254,46.8504882155692],[16.142966385572,46.8507878772731],[16.1435189869257,46.8514678841913],[16.1438849360326,46.8521388683063],[16.1440027603202,46.8525309237978],[16.1441866111705,46.853043230856],[16.144255218905,46.8535566897636],[16.1443533721467,46.8541027800422],[16.1444907441694,46.8544639617175],[16.1445071115094,46.8548145679691],[16.1443236880267,46.8548289969404],[16.1440707420954,46.8548487986969],[16.1438142004892,46.8548660268693],[16.1435488835904,46.8548837919623],[16.143097280011,46.8550282871963],[16.1425177188964,46.8548841038308],[16.1424023603913,46.8548553872284],[16.1423504905941,46.8548583339658],[16.1420811853887,46.8548117211915],[16.1419357561494,46.8548553653859],[16.1418009271146,46.8548608488504],[16.1418007363397,46.854860938583],[16.1419354958274,46.8548554579472],[16.1420809250672,46.8548118137531],[16.1423502302728,46.8548584265281],[16.1424021000702,46.8548554797908],[16.1430970196902,46.8550283797602],[16.1435486251808,46.8548839744723],[16.1440704817773,46.8548488912631],[16.1445068511922,46.8548146605362],[16.1446265565103,46.8547825158369],[16.1449287863941,46.8547245249177],[16.1452194900492,46.8547165785884],[16.1454840125604,46.8547355229117],[16.1455901905844,46.8547641483692],[16.145716292442,46.8547799793203],[16.1465916034892,46.8546969936608],[16.147554601786,46.8546119526347],[16.148516205355,46.8546400023443],[16.148538708992,46.8548404863866],[16.1486476860985,46.8550802266047],[16.1487226804618,46.8551961573608],[16.1488800141439,46.8553419393431],[16.149084465987,46.8555755028229],[16.1491507545532,46.8556705590651],[16.1494755031805,46.8556353608544],[16.1496998262063,46.8556016203502],[16.1498185455962,46.8556032166512],[16.1499430962924,46.8555769553448],[16.1499861947862,46.8555992832347],[16.1501100592599,46.8557067152461],[16.1501595776395,46.855765593935],[16.1504627239227,46.8560390967795],[16.1504628327449,46.856038867523],[16.1505645022301,46.8558246789438],[16.1510040019626,46.85542738696],[16.1512678307338,46.8552479541091],[16.1512681312799,46.8552478307277],[16.151511937055,46.8551477421487],[16.1517229675848,46.8550611079394],[16.1517231965182,46.8550610806923],[16.1524264614658,46.854977377411],[16.1531097622667,46.854734609562],[16.1531097828844,46.8547346021173],[16.1532609800596,46.8546800071739],[16.1532610154344,46.8546799958047],[16.154286266267,46.8543504791555],[16.1551050243124,46.8540977568373],[16.15531885326,46.8540317538793],[16.1560632747448,46.8537111621486],[16.1560878827519,46.8536967892264],[16.1560880188203,46.8536968444431],[16.1562912152055,46.8537793014948],[16.1564692550694,46.8539114592579],[16.1566285535048,46.8540685462636],[16.1567308860342,46.854162154336],[16.1567798241233,46.8542242747547],[16.1569043709206,46.8544057330077],[16.1572748558763,46.8547053465297],[16.1573621424807,46.854739459965],[16.1575425416975,46.8547858564036],[16.1577176604379,46.8548733295972],[16.1578092183424,46.8549719037423],[16.1579394499368,46.8552040430929],[16.1580302743073,46.8553660491603],[16.1581649260979,46.8554926156466],[16.1584959924413,46.8556843972503],[16.1587523477669,46.8558475160367],[16.1591176961147,46.8560903182488],[16.1591179348559,46.8560901228585],[16.1591323879001,46.856078294203],[16.1591325486972,46.8560783890166],[16.1595003306125,46.856295249224],[16.1598925652307,46.8565256314264],[16.1600714760596,46.8567034764676],[16.1601740185854,46.8567819653402],[16.1605175435781,46.8570338907108],[16.1606507040399,46.8572185861561],[16.1606257268348,46.8572280157708],[16.1607330259631,46.8573384831108],[16.1609185710423,46.8574952979035],[16.1610618053654,46.8576969838518],[16.1612341804212,46.857960629094],[16.1613548763652,46.8581205301139],[16.161547967159,46.8583351141912],[16.16174531056,46.8585582913209],[16.1617841692887,46.858602609026],[16.1621229896879,46.8589820563245],[16.1622354686149,46.859143839105],[16.1622590003365,46.8592436401638],[16.1624507044152,46.8593510896013],[16.1626432150533,46.8593925868855],[16.1628690677651,46.8593929014264],[16.1631019409688,46.8594025004399],[16.1634930826348,46.8594287529352],[16.1636931670365,46.8594261790492],[16.1640355593249,46.8594178393446],[16.1641634714312,46.8594499150545],[16.1644366756276,46.8594807824636],[16.1645634507819,46.8595148485022],[16.1645797861023,46.8595181908916],[16.1646898948759,46.8595821144991],[16.1647554432206,46.8596293083414],[16.165057911446,46.8598912639615],[16.1651995492415,46.8600605738755],[16.1652660785395,46.8600803184069],[16.1652665171911,46.8600802875877],[16.1653694026985,46.8600730589171],[16.1656028819655,46.8600317270309],[16.1657391791887,46.8600026959348],[16.1657568038116,46.8599989419035],[16.1657568862389,46.8599989139516],[16.1658735922275,46.8599593376981],[16.1660234955305,46.8599105795462],[16.1660236219887,46.8599105717804],[16.1662166915425,46.8598987151652],[16.1665776348127,46.8598384495167],[16.1668517806881,46.859773399899],[16.1670730959642,46.8597337184041],[16.1677495586031,46.8596234500848],[16.1677498323287,46.8596233753133],[16.1678350888763,46.8596000864161],[16.1681354674631,46.8595231606923],[16.1681356908297,46.8595231097722],[16.1681620911518,46.8595170913796],[16.1686370096436,46.8594088245436],[16.1688052984733,46.8593432316657],[16.1693240043983,46.8591980394831],[16.1698007746941,46.8590726158241],[16.1702624104657,46.8589569710717],[16.1704780771032,46.8588567949208],[16.1706740401566,46.8588095388332],[16.1708338206265,46.8587750675858],[16.1708341192906,46.8587750205749],[16.1710153690939,46.8587464909627],[16.1711563140882,46.858744509069],[16.171375255349,46.8587527943752],[16.1718350178865,46.8587140817122],[16.1719090668269,46.8587117042024],[16.1719093096464,46.858711617869],[16.1720476708433,46.8586624240809],[16.1727439346124,46.8584627690263],[16.1730761798011,46.8583863134619],[16.1732362758527,46.8583303342059],[16.1740294845257,46.8579998593631],[16.1743415629673,46.8577806540423],[16.1751030203353,46.8571977883422],[16.1752760546244,46.8570858956386],[16.1752763684772,46.8570859352382],[16.1756584853512,46.857134147233],[16.1760216898264,46.8572148022455],[16.1764328406748,46.8573049493143],[16.1768806014728,46.8574259360151],[16.1769872803209,46.857494471261],[16.1775979101636,46.8579084126036],[16.1783626045784,46.8584460845982],[16.178410149264,46.8584971445199],[16.1784408930024,46.8585655605447],[16.1785146887601,46.8587194489733],[16.1786497265876,46.8588850317861],[16.1788000581975,46.8590542354155],[16.1789280552114,46.8591677112446],[16.1790278237053,46.8592498103644],[16.1792296853392,46.8593763794089],[16.1792819582894,46.8594576181749],[16.1797712890619,46.8598226875667],[16.1799795653692,46.8599964202939],[16.1802764366239,46.8603286553948],[16.1805024705165,46.8607020142074],[16.1806502853675,46.8610191422229],[16.1806786327698,46.8611156511243],[16.1806731482952,46.8612423770761],[16.1807006983989,46.8614042080885],[16.1807655712958,46.8616112658335],[16.1808259888875,46.8617407305353],[16.1809460494209,46.8619164510963],[16.1810243899578,46.8620138834927],[16.1812030940636,46.8622201262044],[16.1812712624035,46.8623082171819],[16.1813221017819,46.8623836221166],[16.1815774850762,46.8626113838744],[16.1817051444505,46.8627685825483],[16.1817731724651,46.8628621624747],[16.181938873773,46.8631151396304],[16.182063142713,46.8632372869387],[16.1821759563123,46.8633275252376],[16.182359274247,46.8634328687943],[16.1825796478035,46.8635711158871],[16.1826776122694,46.8636361372577],[16.1828025983477,46.8638146837805],[16.1829660120875,46.8640885547072],[16.1830958342898,46.8642841440761],[16.1832196808842,46.8644107027126],[16.1832675833881,46.8644775905423],[16.1833933821515,46.8645497005859],[16.1835615560839,46.8646400848259],[16.183796195769,46.8647407570131],[16.1839688662631,46.8648029354154],[16.1842427960954,46.8649723825692],[16.1844808964285,46.8650871418916],[16.1848935096245,46.8653237947442],[16.1853932258379,46.8656440202329],[16.1855622754112,46.8657262057327],[16.1857190206921,46.8657737923494],[16.1859297511862,46.8658307154474],[16.1863805983497,46.865879211927],[16.1868643792474,46.8659459876767],[16.1871760024511,46.8659800909509],[16.1874273274459,46.8660219261024],[16.1875331061591,46.866054205307],[16.1881090892118,46.8661976580564],[16.1886823133978,46.8663407767028],[16.1890863020919,46.8664291533815],[16.1895158088305,46.8664969315782],[16.190275569934,46.8665216001314],[16.1902758730896,46.8665215818669],[16.1905751582245,46.8665035502296],[16.1910287730068,46.8664928932745],[16.1914676491841,46.8664563883529],[16.1915246713089,46.8664547139773],[16.1918758489566,46.8664444015046],[16.1920570617728,46.8664296234793],[16.1922501894962,46.8664138734612],[16.1922504687796,46.8664138972385],[16.1926917550018,46.8664514661582],[16.1928547164324,46.8664772969086],[16.1934403259504,46.8665571079332],[16.1938843341293,46.8666515278028],[16.1941259284263,46.8667096432639],[16.1942921304469,46.8667395765028],[16.1942925134297,46.8667395205436],[16.1946826727697,46.8666825119986],[16.194683057043,46.8666825448154],[16.1951032175401,46.8667184255565],[16.1958313221461,46.8667526540533],[16.195831874091,46.8667526423252],[16.1965393127643,46.8667376079937],[16.1965393479395,46.8667376143283],[16.197205049356,46.8668574957024],[16.197407243017,46.8668955045638],[16.1977370121013,46.8669487315102],[16.1979424904072,46.867045901362],[16.1981806595671,46.8671797038319],[16.1982274159941,46.8672059336676],[16.1983366627233,46.8673700537939],[16.198441517398,46.8674546916345],[16.198630110547,46.8675592341623],[16.1989122442463,46.8676466930556],[16.1993740376566,46.8677790500636],[16.1996800769914,46.8678737235714],[16.1998393541867,46.8679516721407],[16.2003701405943,46.8681247752653],[16.2009426853696,46.8682762062892],[16.2010559273987,46.8683249480607],[16.2013192804025,46.8684345493007],[16.2018013908322,46.8686479207401],[16.2022386253325,46.8687782749492],[16.2023487037256,46.8688086060549],[16.2027805021918,46.8689068981578],[16.203081721507,46.8690259934535],[16.2032632265006,46.8691120702614],[16.2034417837843,46.8692305648039],[16.2035360980196,46.8692598010182],[16.2036920553104,46.8692885688355],[16.2040009644322,46.8693114093544],[16.2044857204723,46.869313866098],[16.2050023555107,46.8693105873362],[16.2050024655402,46.8693105833498],[16.2052158705686,46.8693028514771],[16.2052164296786,46.869302851444],[16.2055595552559,46.8693028306129],[16.2058259621469,46.8693080311037],[16.2061013851083,46.8693409348368],[16.2062388866605,46.869365575389],[16.2065727767247,46.8694318681903],[16.2069132209117,46.8694979109795],[16.2069138588074,46.8694979006044],[16.2071805953732,46.8694935619337],[16.2075171932011,46.8694816447265],[16.2075179088141,46.8694816389477],[16.207698972951,46.8694801766551],[16.2080517019653,46.8695148689356],[16.2084522056365,46.8695740657197],[16.2089073791886,46.8696668700045],[16.2090873967671,46.8696920476774],[16.2092443421408,46.8697003756701],[16.209244624359,46.8697003489226],[16.2092455287404,46.8697002632087],[16.2093105774561,46.8696940981132],[16.2093677688492,46.8696662222056],[16.2093700064881,46.869665131547],[16.2094555756002,46.8696202350041],[16.2095961463509,46.8695945492279],[16.2098071204626,46.869561281885],[16.2100612406747,46.8695508586884],[16.2102779769297,46.8695521901424],[16.2103141870997,46.8695524125487],[16.2107502052579,46.8695632749448],[16.210750935294,46.8695632652049],[16.2108804261229,46.8695615375267],[16.2112965821908,46.8695350030197],[16.2117343876659,46.8694620862804],[16.2119143485186,46.8694264444534],[16.2121973026998,46.8693799955028],[16.2125741414894,46.8693376792204],[16.2126831537911,46.8693087254153],[16.21275507186,46.8692810641883],[16.2131372155512,46.8691365807085],[16.2133659507617,46.8690650637759],[16.2136882820085,46.868984907011],[16.2138968072905,46.8689305165454],[16.2141815618671,46.8688593934484],[16.2149972434166,46.8686396821598],[16.21543089811,46.868551951251],[16.2156895732537,46.8684820909309],[16.2157608297405,46.868460102567],[16.2157610543714,46.8684602677035],[16.2160622923238,46.8686817201194],[16.2163408188355,46.8688518513131],[16.2165680521277,46.8690043543021],[16.2169521531892,46.8691907248601],[16.217106420381,46.8692546682976],[16.2175929979993,46.8694246530765],[16.2177897793456,46.869483285267],[16.2179764429756,46.8695121567373],[16.2183880022363,46.8695550975577],[16.2188798955716,46.8696119355338],[16.219142061119,46.8696150810202],[16.2195231433941,46.8696212772108],[16.219713846125,46.8696430856202],[16.2197141901839,46.869643116095],[16.2199259938952,46.8696618762627],[16.2201311917159,46.869657619851],[16.2201314676464,46.8696577120464],[16.220633739423,46.8698255322178],[16.2207221133712,46.8698700215428],[16.2212260829597,46.8702045294634],[16.2215321957968,46.8703232541209],[16.2219327403311,46.8705220274213],[16.2228836359487,46.8709768058057],[16.223143122872,46.8710926956271],[16.223765530013,46.871338571575],[16.2238738661447,46.8713895923266],[16.2240544990996,46.8714470369519],[16.2242559197601,46.8715071377946],[16.2244327933035,46.8715607535823],[16.224690715323,46.8716537158166],[16.2248099015166,46.8717087579295],[16.2250504547828,46.8718281746943],[16.2252353215745,46.8719101323061],[16.2252356819374,46.8719099347875],[16.2256067902369,46.8717065251992],[16.2257951167293,46.8716120254934],[16.2260271138902,46.8715054523489],[16.2261970676172,46.8714049412608],[16.2263282821113,46.8713142012388],[16.2266948732845,46.8710408307678],[16.226695286756,46.8710412887008],[16.226884898645,46.8712512889836],[16.2270033943814,46.8713968399924],[16.2272110297602,46.8716430944695],[16.2272646636073,46.8717227672757],[16.2273000182334,46.8717947192287],[16.2273488185834,46.8718982842771],[16.22736625249,46.8719552244591],[16.2273929420061,46.8720786387315],[16.2273978759232,46.8721569444488],[16.2273761983617,46.8722475907044],[16.227335299325,46.8723812659196],[16.2273431848959,46.8726293020015],[16.2274573837659,46.872896889729],[16.2275947574426,46.8731739448878],[16.2276779999503,46.8733553190527],[16.2277150449902,46.8734322907104],[16.2279647215314,46.8736232147845],[16.2282198427453,46.8738112010387],[16.2284317805525,46.8739521492271],[16.2285576178744,46.8740165622584],[16.2287471554198,46.874141646746],[16.2290178439636,46.8742757556129],[16.2293041231519,46.8744088867184],[16.2294701317689,46.8745088528719],[16.2297213180407,46.8746734874043],[16.2298833585463,46.8747719662012],[16.2301345805963,46.8749437965533],[16.2303459510916,46.8751283797902],[16.2304512228991,46.8752341253143],[16.2305951025174,46.8753816487463],[16.2306999279025,46.8754793020838],[16.2311646012155,46.8758516135788],[16.2313726331027,46.8759358310659],[16.2316156311794,46.8760058174888],[16.2318517427027,46.8760844240846],[16.2319404384386,46.8761191851566],[16.2322358335952,46.8762486122347],[16.2323072973689,46.8762928248193],[16.2325816058668,46.8764581037415],[16.23270070632,46.8765143080697],[16.2328257127851,46.876564870898],[16.2330368847516,46.876625570951],[16.2332302400487,46.8766587536907],[16.2332308458147,46.876658779778],[16.2334541494614,46.8766683961544],[16.2336238689463,46.8766548717656],[16.2339405777742,46.8765863240171],[16.2345719583689,46.8764120027899],[16.2348564130255,46.8763444301402],[16.2351117547579,46.8763002916688],[16.2354514960673,46.8762751236956],[16.235797692992,46.8762282936688],[16.2359533151814,46.8762065513804],[16.236113575434,46.8761982533816],[16.236114452945,46.8761983356133],[16.2364140014747,46.8762264059258],[16.2366400630801,46.8762555410804],[16.2368351377689,46.8762949966309],[16.2369681034699,46.8763149711586],[16.2369685886799,46.8763149858323],[16.2373757465229,46.8763272983074],[16.2379005096736,46.8763494229519],[16.2381357471639,46.8763382420328],[16.2383980611047,46.8763349543968],[16.2383988264249,46.8763350363459],[16.2388642957449,46.8763848769687],[16.2388645554555,46.8763848708134],[16.2395839005589,46.8763678196933],[16.2400850208332,46.8763260460775],[16.240414634764,46.8763055612494],[16.2407193820281,46.8763047772369],[16.2412586713305,46.876330957326],[16.2417355223628,46.8762950174306],[16.2421140346076,46.8762615821869],[16.2422900185694,46.876224046546],[16.2424379586944,46.8761537982789],[16.2426508474088,46.8760270670582],[16.2431848724938,46.8757402206504],[16.2435426776271,46.8755546066268],[16.2438439542252,46.8754378884442],[16.2439934589154,46.8753957798704],[16.2443144532644,46.8752808253472],[16.244573601041,46.8751919122674],[16.2449161848757,46.8750348880451],[16.2452724516096,46.8748115904028],[16.2455010735897,46.8746679493611],[16.2457691872056,46.8745641819013],[16.2459403892433,46.8745074403788],[16.2461855552549,46.8744552012043],[16.2467566166091,46.8743868171475],[16.2471306152873,46.8743574628212],[16.247570482358,46.8742946424488],[16.2479286414429,46.8742724753503],[16.2483038763592,46.8742682036622],[16.2483714671148,46.8742524424992],[16.2483722829841,46.8742524854768],[16.2487087745814,46.8742702103617],[16.2488242314934,46.8742762918889],[16.2494841373439,46.8742828544314],[16.2498737943215,46.8742951534591],[16.2502016741453,46.8743023682576],[16.2505916464309,46.8743225782288],[16.2505919332074,46.8743226088731],[16.250988826389,46.8743650191656],[16.251526223698,46.8744232886792],[16.2515273426824,46.8744232691118],[16.2518008242246,46.8744184864977],[16.252106995652,46.8743383982834],[16.2526302171881,46.8741708281148],[16.2528962823863,46.874115017158],[16.2531551532636,46.8740826749907],[16.2534829515299,46.8740357229468],[16.2538206835264,46.8739590629861],[16.2539722096573,46.8739422890556],[16.2542307726874,46.8739080585804],[16.2544218424805,46.8738486576068],[16.2547348849453,46.8737428472955],[16.2550222111014,46.873659449252],[16.2553943201329,46.873549480859],[16.2557839750421,46.8734156582098],[16.2559865031849,46.8733752012704],[16.2561553612778,46.8733535561241],[16.2562480639706,46.8733403035847],[16.2568608350781,46.8731658834537],[16.2574090259723,46.8730069236142],[16.2578884660493,46.8728645504002],[16.2581739943826,46.8728000566232],[16.258608401363,46.8727011782095],[16.2590507578833,46.8726057192948],[16.259308655262,46.8725546613711],[16.2594878282549,46.872531098529],[16.2599376696132,46.8724584946474],[16.2603445794369,46.8724405200976],[16.2606315231402,46.8724478858655],[16.2609518070929,46.8724479154252],[16.2610040904257,46.8724479201654],[16.2610043504245,46.8724479073036],[16.2614088528355,46.8724278963156],[16.2618665723135,46.8723557378062],[16.2624336319183,46.8722583511233],[16.2625726347662,46.8722281193443],[16.2628493023163,46.8722168803813],[16.2630349905349,46.8722195095993],[16.2632041156904,46.8721815675971],[16.2635335607803,46.8721162158758],[16.2643080675756,46.8719316035513],[16.2647208911028,46.8718808011868],[16.2653006634524,46.8718168163985],[16.2658395938524,46.8717844979003],[16.2665196107507,46.8717382007246],[16.2670648440189,46.871750788745],[16.2670651894977,46.8717508418177],[16.2674570589358,46.8718110403791],[16.267984350418,46.8719251222434],[16.2681295982361,46.8719596786189],[16.2682580225409,46.8719817362923],[16.2683850612724,46.8720006604337],[16.2685910707304,46.8720027855462],[16.2685912696953,46.872002762341],[16.2688408150111,46.8719736577517],[16.2688415002255,46.8719737024151],[16.2690554999785,46.8719876510751],[16.2692720224992,46.8720239347083],[16.2694761122095,46.8720725909421],[16.269718832582,46.8721850526208],[16.2698641515413,46.8722725948438],[16.2702126028582,46.8723625608927],[16.2704257962433,46.8724022079597],[16.2707623351039,46.8724376064031],[16.2707626302472,46.8724375899063],[16.2712483912598,46.8724104376285],[16.2712494827579,46.8724104295022],[16.2718626240437,46.8724058629544],[16.2718628397602,46.8724058570251],[16.2721043727252,46.8723992179408],[16.2726117415951,46.8723524642209],[16.27289734524,46.8722975589901],[16.2732557301339,46.8723025691808],[16.2738465462621,46.8722952755315],[16.2744515072515,46.8722870116561],[16.2747111386081,46.8722710756413],[16.2750046731638,46.8722354190971],[16.2752369689115,46.8721897383885],[16.2757053095032,46.8720739535004],[16.2759545107052,46.8719999241482],[16.2764557866671,46.8718348285502],[16.2768435060471,46.8717880408893],[16.2768444239196,46.8717881495933],[16.2779702634506,46.8719214773417],[16.2784061668288,46.8720034247801],[16.2787153231591,46.872084357618],[16.2788890089435,46.872122900908],[16.2792733696667,46.872216306601],[16.279452586592,46.8722667524389],[16.2796067490931,46.8723393393765],[16.2798075445404,46.8723869344543],[16.28058479668,46.8725184049842],[16.2812413891799,46.8725683640459],[16.2812418850341,46.8725682874169],[16.2813901313504,46.872545377428],[16.2819707373221,46.8723737017734],[16.282325397767,46.8723434593481],[16.2827054186412,46.8723204885986],[16.2829884466175,46.8723230740903],[16.2829890364578,46.8723231427181],[16.2831231538143,46.8723387471733],[16.2833855495402,46.8723563170917],[16.2842108236634,46.8724822765051],[16.2845733681254,46.8725955213553],[16.285061010106,46.8727229243871],[16.2854545152358,46.8727811206608],[16.2854549513346,46.8727810450437],[16.2858417473908,46.8727139761009],[16.2860410390397,46.8726873567579],[16.2861629189372,46.8726931843757],[16.2861634849249,46.8726932160845],[16.2870737831951,46.8727442108417],[16.287074416667,46.872744239111],[16.2871310414362,46.8727467660353],[16.2876164237733,46.8727684254384],[16.2878569141764,46.8727859616424],[16.2878580530847,46.8727859232609],[16.2881294306967,46.8727767774327],[16.2881307776842,46.872776764421],[16.2884115471302,46.87277405189],[16.2886338337039,46.8727764356789],[16.2890377287825,46.8727807659215],[16.289373647438,46.87278417937],[16.2893743774481,46.8727842457956],[16.289596231062,46.8728044326353],[16.2902586782693,46.8728901696794],[16.2902594683116,46.8728901586141],[16.2905220124395,46.8728864811292],[16.2910025249339,46.8728362601287],[16.2912263715372,46.872832565525],[16.2912985903858,46.8728298615306],[16.2913866888014,46.8728219403365],[16.2914679232076,46.8727521112519],[16.2914890226251,46.8727184065261],[16.2915315706273,46.8725890078477],[16.2916479117177,46.8724460015122],[16.2916925225623,46.8723807239043],[16.2917894685868,46.8722932642323],[16.291928297958,46.8721799618441],[16.2920759358691,46.8720948085819],[16.2923351932711,46.8719815855711],[16.2926378858826,46.8718908122857],[16.2928572637362,46.8718377746477],[16.2930557572821,46.871756363934],[16.2933783101645,46.87162416074],[16.2934919559599,46.8715603513929],[16.2936547156825,46.8714495653334],[16.2937992805423,46.8713950323709],[16.2939064393742,46.8713670116988],[16.2941567831262,46.8712925698837],[16.2944274490807,46.8711685973401],[16.2945560087591,46.8711031788346],[16.2947097417632,46.870993572927],[16.2948051950355,46.8708934426106],[16.2950079619657,46.8706245848206],[16.2951216732013,46.8704818745357],[16.2951836132546,46.8703628707758],[16.2953266330547,46.8700425992258],[16.2954597426692,46.8696976095358],[16.2955230866609,46.8695225420067],[16.2955377340196,46.8692317919388],[16.2955307851132,46.8690956648337],[16.2955819823731,46.8689391773987],[16.2956400376301,46.8687842316591],[16.2957842819006,46.8684987617222],[16.2958539649195,46.8683201136021],[16.2959896720572,46.8681105798511],[16.2961729136724,46.8678813452529],[16.296391793411,46.8676286758611],[16.2965994105374,46.8674476551674],[16.2967807321324,46.8672314861246],[16.297042509103,46.8669193128951],[16.2971999888318,46.8666719258702],[16.2973634828634,46.8665054382409],[16.2975008540446,46.8663925952958],[16.2976830402124,46.8662887802894],[16.2976967814942,46.8657214900043],[16.2978842929903,46.8653272097315],[16.2980189982923,46.8649516108178],[16.2980545502318,46.8637984056938],[16.298130252062,46.8626079621236],[16.2981311116055,46.8625944451833],[16.2986315953358,46.8627020326483],[16.2988709973016,46.8627794742351],[16.2995534503548,46.8629378014901],[16.2995535624097,46.862937476309],[16.2996909810133,46.8625386876763],[16.2996321667634,46.862406028463],[16.2996154785333,46.8621762887385],[16.2996154705886,46.8621761793668],[16.299457802685,46.8621900013096],[16.2994563161519,46.8621901316253],[16.2995461964228,46.861957902904],[16.2996240288609,46.8618134361293],[16.2996563982628,46.8617861466814],[16.2997898502674,46.8616736378366],[16.2999107654162,46.8616459050624],[16.2999109323081,46.8616456699335],[16.3000222619603,46.8614888205159],[16.3000911909886,46.8614319898041],[16.3001619517585,46.8613858439938],[16.3003370179426,46.8611944802936],[16.3003888997868,46.8610835046342],[16.3005406364501,46.8608711740948],[16.3005582716765,46.8608302198704],[16.3006885529425,46.8607885253336],[16.3009098542588,46.8606489945214],[16.3010289834989,46.8604768881286],[16.3011304940537,46.8603355697693],[16.3012638878953,46.8602110720118],[16.301307958457,46.8601188973023],[16.3013435234755,46.8600112554553],[16.3014097399119,46.8599508562001],[16.3014691847138,46.8598002097226],[16.3014931975211,46.8596433087674],[16.3015004054492,46.8595019828017],[16.3015019739948,46.8595020603861],[16.3031419256778,46.8595831648988],[16.3039637378876,46.8597889996158],[16.3056530916198,46.8598572756068],[16.3056530735381,46.8598571103682],[16.3056121500285,46.8594831311414],[16.3056137296725,46.8594831003788],[16.3064183657443,46.859467427729],[16.3065489333346,46.8594648840077],[16.3070268562384,46.8594431918676],[16.307351366717,46.8594284617204],[16.3083391381708,46.8594036150751],[16.3086489961704,46.8593958190706],[16.3087144925584,46.8586477362574],[16.3086635406718,46.8585209293211],[16.3084610991435,46.8580482320269],[16.3083301624464,46.8572904295364],[16.3082635007243,46.8572726588812],[16.3076347483695,46.856590986914],[16.3085258495767,46.8563787424132],[16.3085272742846,46.8563787598078],[16.3096636198002,46.8563926280011],[16.3101296757245,46.8563694810547],[16.3104403793772,46.8563540487074],[16.3108887277839,46.8563384515253],[16.3126342566531,46.8562777111151],[16.3131273863339,46.8562605464863],[16.313266306695,46.8562570075418],[16.3143354088912,46.8562297669061],[16.314391023375,46.8562301178374],[16.3143451894493,46.8564102131587],[16.3147433567426,46.8564642068037],[16.3152194978883,46.85651577366],[16.3156844500816,46.8565870794004],[16.3160765010911,46.8566697474],[16.3164241540548,46.8567172988264],[16.3167584755707,46.8567345046403],[16.3168617716017,46.8567379043648],[16.3171034696322,46.8567376421755],[16.3171034811876,46.8567375344577],[16.3171176740203,46.8566052310272],[16.3176317972814,46.8565044908109],[16.3178549949375,46.8564556793047],[16.3182125966045,46.8563792297417],[16.3185853599756,46.8562203769026],[16.3187655076773,46.8561006278302],[16.3188893230303,46.8559887247887],[16.3190126091377,46.8558659420141],[16.3191377303569,46.8557217264181],[16.31917454382,46.8556023691317],[16.3192329801225,46.8554448875686],[16.3192839438705,46.8553357130456],[16.3193985562043,46.8550891487887],[16.3194888810105,46.8548469128152],[16.3195627573953,46.8546880835162],[16.3196434894371,46.8545789254578],[16.3196797039765,46.854488723371],[16.3197692943407,46.8543611103298],[16.3199569536211,46.853938182461],[16.3200480805423,46.853696746423],[16.3201704470592,46.8534083483684],[16.3202924321514,46.853029540273],[16.3203787349744,46.8528535637555],[16.3204836033017,46.8527074211027],[16.320603839637,46.8525676684314],[16.3207343777678,46.8524576649577],[16.3207599648096,46.852431549879],[16.3207974721329,46.8523621142787],[16.3208683011527,46.8523146052974],[16.3208947236472,46.8522637403124],[16.3209816340806,46.8522356579178],[16.3210712647991,46.8521794751375],[16.3210972924907,46.8521232167919],[16.3211759654421,46.8520587037509],[16.3212886904238,46.8519817422991],[16.3212794878911,46.8519006106032],[16.321295690754,46.8518501333956],[16.3213798446943,46.8517097168652],[16.3216133363458,46.8514881372362],[16.3217712912689,46.8513252766856],[16.3218454643431,46.8513179426004],[16.3222059829305,46.8512176961178],[16.3222601283893,46.8512011468616],[16.3222933146396,46.8510679758401],[16.3223524302984,46.8510241998352],[16.3223547083938,46.8509781116861],[16.3224050642128,46.8509247206972],[16.3225500846033,46.8508547619121],[16.3227195042773,46.8508118701688],[16.3230619747409,46.8506710756331],[16.3232493182066,46.8505784954149],[16.3235380334051,46.8504808741591],[16.3237224893655,46.8503188739434],[16.323858070216,46.8502117773535],[16.3240893716151,46.850083151284],[16.3243752834689,46.8500370200436],[16.3244656079533,46.850009345301],[16.3245241334216,46.8499523502066],[16.3249179582347,46.8496447012895],[16.3250651380824,46.8495348600043],[16.3252263065867,46.8494020055585],[16.325350167374,46.8492824478489],[16.3254157473428,46.8492084572625],[16.3255246600112,46.849072968816],[16.3255600089877,46.8490174111414],[16.3256772113117,46.8488298270242],[16.3257967205462,46.8486507626887],[16.325825310059,46.8486189439069],[16.3258950568982,46.8485438251901],[16.3258966822069,46.8485437057364],[16.3260519946859,46.8485322907842],[16.3260520163837,46.848532214493],[16.326074200264,46.8484542141605],[16.326133749747,46.8484123204039],[16.3263835866786,46.8482488385101],[16.32634925111,46.848159091942],[16.3265199366259,46.8480083123571],[16.3264835269831,46.8478769362722],[16.3269858528393,46.8476579870651],[16.3270887619874,46.847582483097],[16.327090245859,46.8475825333815],[16.3272806269459,46.8475889847341],[16.32739630159,46.8475898922935],[16.3273967728549,46.8475896839683],[16.3275747853939,46.847510992326],[16.3277088006891,46.8474792995752],[16.327709619795,46.8474793081773],[16.3278309094561,46.8474805818759],[16.3278311118303,46.8474803665038],[16.3279715874999,46.8473308679581],[16.3280908979371,46.8471760939094],[16.3282131020552,46.846989798546],[16.3283112912531,46.8468240238005],[16.3284828377923,46.8466287887413],[16.3286095139084,46.8464963298137],[16.3289467913738,46.8461733095203],[16.3290487050703,46.8460683069342],[16.3290917739081,46.8460016828036],[16.3291736268474,46.8458276403245],[16.329216616652,46.8457206229553],[16.3292682206838,46.8455907444726],[16.3292920993758,46.8454637969645],[16.3293252571966,46.8453675095671],[16.3293534445736,46.8452823455388],[16.3293957837852,46.8452127609265],[16.3294663399807,46.8449370094882],[16.3295543721691,46.8446309168262],[16.3295558987927,46.8446313186207],[16.3295850716917,46.8446389966771],[16.3297648724488,46.8446863184786],[16.3299341539753,46.8447386594677],[16.3300214619691,46.8447656545178],[16.3305074112863,46.8449790700235],[16.3309760616793,46.845229840028],[16.3314876804344,46.845494772455],[16.3316415053521,46.8455699024976],[16.3316726276799,46.8455877132262],[16.3316736406415,46.8455870440144],[16.3317843532524,46.8455139017016],[16.3317853643751,46.8455142419282],[16.331920804114,46.8455598151145],[16.3319390334612,46.8455599628226],[16.3319395115985,46.8455597506283],[16.3321351352887,46.8454729337713],[16.3321365351786,46.8454729237267],[16.3322761952737,46.8454719215489],[16.332276777239,46.8454717292701],[16.3323857034899,46.8454357404549],[16.3323865921051,46.8454358509551],[16.332541165227,46.845455072174],[16.3327474837396,46.8455107869228],[16.3328049314536,46.8456492931863],[16.3328632535001,46.8458125295034],[16.3329537922954,46.8459423735588],[16.3330928002214,46.8459325676996],[16.3330952866827,46.8459959637858],[16.33325311999,46.8459944850899],[16.33337898567,46.8460682291729],[16.3339897497856,46.8461265161066],[16.3341366325286,46.8461275928742],[16.3341368187791,46.8461274719611],[16.3341713461501,46.8461050569146],[16.3341724869542,46.8461053113463],[16.3343369494083,46.8461419909984],[16.3344653074141,46.8461468819044],[16.3347148461944,46.8461739302271],[16.3347456063399,46.8462035297074],[16.334898453942,46.8463447907551],[16.334916947558,46.8464296815653],[16.334995407452,46.8465216098596],[16.3349964513473,46.8465206417939],[16.3351115356707,46.8464139170468],[16.3352217098548,46.8463993169805],[16.3352217252286,46.8463993404185],[16.3352429681201,46.846431726119],[16.3352832572317,46.8464807366007],[16.3353349008649,46.8465170195441],[16.3355018130507,46.8466119638398],[16.3357298163617,46.8467116827521],[16.3358175580876,46.8467019321158],[16.3358175885185,46.8467019178472],[16.3358992161268,46.8466636436803],[16.3359596541798,46.8466526822357],[16.3360608371821,46.8465927541909],[16.3360871116757,46.8465207456706],[16.3363275627134,46.8464720564051],[16.3363278133406,46.8464722404343],[16.3364469608351,46.8465597271807],[16.3364796204299,46.8465548475698],[16.3366013191395,46.846494316275],[16.3366066837469,46.8464916479856],[16.3366171881227,46.8464949633599],[16.3366995903091,46.8465209709577],[16.3367638324291,46.8465576459],[16.3367802470104,46.8465586237152],[16.3367809511675,46.8465584544389],[16.3369576465361,46.846515977475],[16.3370836672119,46.8464530594335],[16.3370916340049,46.8464465900109],[16.3371132295566,46.8464290533643],[16.3372411719434,46.8463724042038],[16.3372557664396,46.8463659421695],[16.3372564842248,46.846366143806],[16.3374055030457,46.8464080052586],[16.3374060843013,46.8464074913025],[16.3374569536929,46.8463625116699],[16.3374580874477,46.8463628122339],[16.3375089580522,46.8463762982661],[16.3375106115104,46.8463760862343],[16.3375907800026,46.8463658057685],[16.3375908230975,46.8463658184025],[16.3377406948406,46.8464097555931],[16.3380646679241,46.8464877461708],[16.3383592410892,46.8465328826967],[16.3387343367782,46.8465005036896],[16.3389234309839,46.8464841802209],[16.3396585025694,46.8464208798081],[16.3396585524228,46.8464209121898],[16.339795509237,46.8465098703797],[16.3398304632762,46.8465972666463],[16.3398593580516,46.846667730526],[16.3400918875316,46.8466960458297],[16.3402028249645,46.8467964967691],[16.3403299715365,46.8468632909367],[16.3403309306086,46.8468605290968],[16.3405208472132,46.8463136207014],[16.3405086666337,46.8451705828391],[16.3397103224325,46.8440120998945],[16.339120841622,46.8430790480316],[16.3406498914633,46.8428523387551],[16.3411701204238,46.8425983008932],[16.3411709947429,46.8425985658925],[16.343219427337,46.8432194040359],[16.3432200167852,46.8432188265473],[16.3439535602198,46.8425001544613],[16.3457402818648,46.8417303828339],[16.3458806381866,46.8416806012297],[16.3459902292367,46.841580171296],[16.3459914359007,46.84158054154],[16.3460334335011,46.8415934277683],[16.3460344716076,46.8415929831734],[16.3460779283784,46.8415743717162],[16.3461277246111,46.8415103609046],[16.34612891596,46.8415111454303],[16.3461667824724,46.841536081226],[16.3461684610968,46.8415357794017],[16.3462931297177,46.8415133633392],[16.3463988498399,46.8414679469809],[16.3466224907634,46.841424651707],[16.3467409499,46.841306663548],[16.346845306996,46.8412749374497],[16.3468709820365,46.841216338162],[16.3470398592536,46.841117008777],[16.3471071193766,46.841059359404],[16.3470835046013,46.841037775937],[16.3471116592886,46.8409892234541],[16.3471133573957,46.8409892502714],[16.3473956224804,46.8409937075938],[16.3473960509608,46.840993483976],[16.3474476493742,46.8409665554702],[16.3475244567751,46.8408136107721],[16.3475586614113,46.8407763224972],[16.3477139157959,46.8406985641122],[16.3477682342169,46.8405690949674],[16.347822352808,46.8405050325014],[16.3478115305875,46.84046548551],[16.3478404821236,46.8403964115001],[16.3478819503635,46.8403297990452],[16.3479002128258,46.8402212664275],[16.3479128304391,46.8401910696026],[16.34794729537,46.8400436613117],[16.347977874907,46.8400029969423],[16.3479815584768,46.8399615697796],[16.3479849074139,46.8399015238582],[16.3480409737474,46.8398105388837],[16.3479888061916,46.8397743577681],[16.3479892563849,46.8397294600628],[16.3480438232586,46.8395051650037],[16.3480497730838,46.8394898628258],[16.3480786833053,46.8394155093649],[16.3480928083736,46.8392988386425],[16.3481446001113,46.8392376847771],[16.3481459105531,46.8392361374514],[16.3481331555901,46.8391822188903],[16.348126850177,46.8391457434176],[16.3481207393188,46.8391103933534],[16.3482144090538,46.8390129920608],[16.3482154245476,46.8390119361101],[16.3481643574302,46.8389201438932],[16.3481617076619,46.8388702354305],[16.3481564239344,46.8387707159361],[16.3482319020005,46.8387096402029],[16.3482322402547,46.8387093664923],[16.3482190679581,46.8386702070718],[16.3482849669996,46.8385792860525],[16.3482689972349,46.8383916277834],[16.3483585650146,46.8383140125546],[16.3483520432764,46.8382943871094],[16.348367468202,46.8382506624353],[16.3484223965753,46.8381719258601],[16.3484347631083,46.8381369637922],[16.348399125581,46.8381116537579],[16.3482675300026,46.8380395230033],[16.3482648794201,46.83789165216],[16.3482910351285,46.837831427488],[16.3482780007548,46.8376667655954],[16.34829391328,46.8376477754932],[16.3483624374525,46.8376356326218],[16.348443953832,46.8375244653498],[16.3483679468682,46.8374730969765],[16.3483678078347,46.8374730030123],[16.348258858156,46.8374849330756],[16.3482573305655,46.837485100347],[16.3482378715397,46.8374514128698],[16.3482669880493,46.8373628144156],[16.3481574700899,46.8373451220136],[16.3481407731313,46.8372646203007],[16.3481647541098,46.837190836588],[16.3480870417783,46.837129136529],[16.3480088897887,46.8370603343781],[16.3480623307771,46.837000777976],[16.348049510071,46.8369546870964],[16.3481004781189,46.8369220592726],[16.3481395410014,46.8368799454352],[16.3481083137804,46.8368684379298],[16.3480887932468,46.8368217962205],[16.3480941910193,46.8367860166208],[16.3481254593702,46.8367520014671],[16.3481327499227,46.8367027948165],[16.3481116414203,46.8366922476931],[16.3480673864753,46.8366892603607],[16.3480980164616,46.8366244847779],[16.3481042752293,46.8366213956641],[16.3481458731361,46.8366008643418],[16.3481478738021,46.8365998768798],[16.3481439241603,46.8365363183044],[16.3480541320947,46.836521002413],[16.3480553269632,46.8364849124603],[16.3483540494049,46.8362733048538],[16.3484433703942,46.8361230908485],[16.3483797408435,46.8359377933539],[16.3483160381206,46.8358700806675],[16.3483005698885,46.8357967616661],[16.3483091588462,46.835799036278],[16.3483600887036,46.8358125240044],[16.3483790301351,46.8358019293527],[16.3484074078292,46.8357860566325],[16.3484027571207,46.8357259249794],[16.3483172378019,46.8357031818389],[16.3482042978197,46.8356219246863],[16.3482032995172,46.8356088151622],[16.3481998076598,46.8355629606747],[16.3482965849425,46.8354753957223],[16.3483065933929,46.8354663399661],[16.34836063326,46.8354307969525],[16.3483616177311,46.835431060356],[16.348411841097,46.8354444980266],[16.3484441700663,46.8354791134231],[16.3484455148866,46.8354783045874],[16.3484719377847,46.8354624126537],[16.3485031007709,46.8353456310121],[16.3486255711146,46.8353205271363],[16.3486270918603,46.8353178721823],[16.3486327307781,46.8353080276233],[16.348603602613,46.8352591670173],[16.3485952370004,46.8352451342272],[16.3486583538538,46.8350694089072],[16.3486651484142,46.8350647174948],[16.3487157212331,46.8350297986488],[16.3487185352383,46.83502785567],[16.3488099289589,46.8350220600792],[16.348835286285,46.8350204520707],[16.3488353894626,46.8350202684186],[16.3488446990794,46.8350036976425],[16.3487525443253,46.8349357807324],[16.3487265771361,46.8349144052386],[16.3487313501952,46.8349060722258],[16.3487715032378,46.834902360282],[16.3488886682157,46.8348643637139],[16.3488371882693,46.8348188185167],[16.3488438734181,46.8347821240478],[16.3488581902517,46.8347570350561],[16.3488600073631,46.8347567627339],[16.3489735135856,46.8347397520123],[16.3489735242068,46.8347397340551],[16.3490767719171,46.8345651726512],[16.3491910196639,46.8343949618777],[16.3491438257999,46.8343059132789],[16.3491048659186,46.8342891892751],[16.3491775980099,46.8342463182948],[16.34922236776,46.8342071056263],[16.349244836572,46.8341884260377],[16.3493486044096,46.8341021577684],[16.3494110039726,46.8340759619895],[16.3495025899667,46.8340516951232],[16.3495026846932,46.8340516700242],[16.3495097931135,46.8340527722184],[16.3496191534453,46.8340697289945],[16.3496191794465,46.834069225154],[16.3496206539571,46.8340406526612],[16.3495667705294,46.8339095795812],[16.3496117931361,46.8338124264269],[16.3496132220829,46.8338014338668],[16.3495815207579,46.8337761677319],[16.3495834536606,46.8337752194114],[16.3496342512871,46.8337502970609],[16.349636947012,46.8337489744821],[16.3497756367029,46.8336388412531],[16.3497822397233,46.8335465494239],[16.3498570883884,46.83352020657],[16.349872292495,46.8335103881492],[16.3499507455969,46.8334597250663],[16.3500065221909,46.8333982165384],[16.3500200146331,46.8333833375078],[16.3500327580777,46.8333268691947],[16.3499244864476,46.8332173096828],[16.3499727303526,46.8332017164849],[16.3500344701486,46.8331282966027],[16.3500628980398,46.8330542800479],[16.3500759429387,46.8330410678275],[16.3501536689179,46.8329623447267],[16.3501828155028,46.8328926618505],[16.3501852079839,46.8328869419624],[16.3501659087119,46.8328396601546],[16.350139818587,46.8327757411114],[16.350149461595,46.8327521767804],[16.3501540243029,46.8327410270201],[16.3502569918931,46.8327016671196],[16.3502964511264,46.832675561576],[16.3502751508007,46.8326468442106],[16.3502693873686,46.8326068670126],[16.3502632515745,46.8325643069093],[16.3503157150399,46.8325235635872],[16.3503603499889,46.8325107680788],[16.3503802567156,46.8325050614065],[16.3503824838984,46.8325044229385],[16.3504613280023,46.8324429172904],[16.3505408079679,46.8323809154161],[16.3505451317106,46.8323775424832],[16.3505361574994,46.8323377763511],[16.3505325976653,46.8323220021528],[16.3504036657533,46.8322563198376],[16.3503690229186,46.8322025697657],[16.350373456573,46.8321863913976],[16.3503956868847,46.8321052730314],[16.3504343125029,46.8320614569423],[16.3504386425702,46.8320565449999],[16.3504133947004,46.8319696669764],[16.350355279724,46.8318685124872],[16.3503996996882,46.8318154488775],[16.3505031111375,46.8317991145135],[16.3505396226102,46.8317495628377],[16.3505121744369,46.8316899701501],[16.3505408881895,46.831611721735],[16.350494153702,46.8315828547249],[16.350424589193,46.8315322156982],[16.3504457873285,46.8315002320503],[16.3505089651724,46.8314049093696],[16.3505097327255,46.8313469554986],[16.3505100984786,46.8313193394081],[16.3504594102493,46.8312582216521],[16.3504767941135,46.8311620240031],[16.3505628320951,46.8310382966085],[16.3505673244035,46.8310371907492],[16.3506273213297,46.831022421447],[16.3506610535623,46.8310346184269],[16.3506705721644,46.8309762203361],[16.3506832092121,46.8308986899167],[16.3507170357997,46.8307786374015],[16.3506109543289,46.8307824983573],[16.3505588171857,46.8307367817335],[16.3505568420268,46.8307113487486],[16.3505553339712,46.8306919303661],[16.3506366974762,46.8306408047544],[16.3506390888621,46.8306393020996],[16.3506369713364,46.830612337627],[16.3505698289717,46.8304438161048],[16.3505798937823,46.8302543212522],[16.3508389722016,46.8300421851071],[16.3507955872852,46.8299429261353],[16.3507354043276,46.8299108892506],[16.3506166886525,46.8298028030797],[16.3504662147697,46.829808357342],[16.348028312731,46.8297699855531],[16.3445979933207,46.8297052608699],[16.3446220724927,46.8296353451455],[16.34478437112,46.8292105132376],[16.3446592252524,46.8283658639156],[16.3445504402631,46.8278617192299],[16.3443847251931,46.8271297323053],[16.3442610302422,46.8266003922897],[16.3442387280435,46.8265470351584],[16.3441028052236,46.8260265651502],[16.343528812551,46.8243160543129],[16.3435335506643,46.8240603658898],[16.3435346820997,46.8239993087549],[16.3435343525549,46.8239763428042],[16.3435332584446,46.8239000941169],[16.3435639506006,46.8235064969317],[16.343693617225,46.8227034766032],[16.3436932863963,46.8226060484139],[16.3437434855506,46.8223746988184],[16.3437591156707,46.8219868561611],[16.3437272325712,46.8218907880542],[16.3433858957452,46.8219308713528],[16.3421673059148,46.8219637022285],[16.3419067274566,46.8219574016321],[16.3402969279357,46.8217957066126],[16.3404276194964,46.8209951968354],[16.340598050805,46.8200483879975],[16.3406277716207,46.8198732378133],[16.340654082998,46.8196294842484],[16.3406469372497,46.8195529177631],[16.3405598726248,46.8192401396749],[16.3405018810504,46.8186839354496],[16.3404972837546,46.818520073009],[16.3405535791996,46.8184702926706],[16.3405363578729,46.8182414434145],[16.3404043788212,46.8178931152725],[16.3403151156529,46.817170032069],[16.3403122381466,46.8170489728055],[16.3402545595557,46.8168584725695],[16.3402437039014,46.8167380465238],[16.3401923620922,46.8166232226181],[16.3401981395887,46.816412726674],[16.3401436025791,46.8163380645793],[16.3401691839624,46.8162600351891],[16.3401107617528,46.8159076964019],[16.3399678847971,46.8151716036337],[16.3399263155669,46.8149574376265],[16.3399236592745,46.8149437522608],[16.3399341675864,46.8148497956368],[16.3399459718532,46.8147077824783],[16.3400957206934,46.814643053443],[16.3401123843324,46.8146283950431],[16.3401384252803,46.8146054877433],[16.3401638021645,46.8145385819708],[16.3401718780213,46.8145172900611],[16.340229824745,46.814486653071],[16.3402310364366,46.8144865050575],[16.3403650453829,46.8144701351828],[16.3405409214865,46.8145287115848],[16.3405424787737,46.8145281519377],[16.3406084614243,46.8145044395146],[16.3405166002089,46.8143093916816],[16.3405591127762,46.8141481260599],[16.3404574689467,46.814155254381],[16.3403564092879,46.8141226111956],[16.340332477441,46.8140402135642],[16.3403591115957,46.8139307739488],[16.3403802264416,46.8138945406001],[16.3404752629136,46.8138535728974],[16.3404768982268,46.8138531825801],[16.3407348913065,46.8137916043245],[16.3407353131984,46.8137914675369],[16.3413682255419,46.813586259389],[16.3413542618693,46.8128982798912],[16.3413648709218,46.812750522776],[16.3413462729707,46.8122555727089],[16.3413460837088,46.8120793332346],[16.3413620672616,46.8115680539477],[16.3413546989761,46.8111399961941],[16.3413437817695,46.8109170105878],[16.3413421875652,46.8108423581985],[16.3411961539918,46.8103761610072],[16.34099238438,46.810254487013],[16.340876691509,46.8098964318262],[16.3406916029048,46.8094507537624],[16.340625480072,46.8092787053054],[16.3405594356551,46.809067611001],[16.3405537060431,46.8088686751465],[16.3406354702023,46.8086359831003],[16.3406356980804,46.8086353345811],[16.3406380343661,46.8086170718034],[16.340710963231,46.8080469801561],[16.3406295741935,46.8071866968124],[16.3406389298831,46.8071730024648],[16.3406598922745,46.8070094700395],[16.3408598508871,46.8060662710944],[16.3408542775144,46.8060476236313],[16.340804383029,46.8057955858833],[16.3406348236441,46.8051727638816],[16.3404413834384,46.8048595217949],[16.3401210418375,46.8043480426841],[16.3398865564221,46.8039697855783],[16.3397833693633,46.8039509314501],[16.3389408079154,46.8037828414826],[16.3389521076397,46.8035623843678],[16.3381956769722,46.8033537863707],[16.3379501062402,46.8033203117914],[16.3374589706385,46.8032799906992],[16.3370172406515,46.8032295539637],[16.3362402152263,46.8030935157239],[16.3353075115751,46.8028290191599],[16.3351690822905,46.8027835825137],[16.3350878067611,46.8027817418301],[16.334907302926,46.8027408441638],[16.3347141664802,46.8025494017433],[16.3339901058852,46.8020484611149],[16.3336789248215,46.802031666027],[16.3333658526244,46.8020178609812],[16.3325274023383,46.8019876826065],[16.3316267397672,46.801809599416],[16.3313138203239,46.8017859807652],[16.3308813481475,46.8018020769063],[16.3305815531061,46.8016943660268],[16.3299055908049,46.8017024035458],[16.3291485145523,46.8016789229995],[16.3291480162778,46.801678907544],[16.3284612314727,46.8019579890441],[16.3284606526984,46.8019582242315],[16.3276431678091,46.8021303684284],[16.3266761159782,46.8016920272856],[16.3266041319349,46.8016523774175],[16.3260793521665,46.8014415534848],[16.3256458022427,46.8012057396029],[16.3249109504979,46.8011788935077],[16.3244089278781,46.8011688707871],[16.3238014992427,46.8011612347975],[16.3234330007055,46.8011895177183],[16.3229332576265,46.8011281819648],[16.3227224774011,46.8010487500946],[16.321772789859,46.8007552807583],[16.3214661511694,46.8006988152822],[16.3211872274969,46.8006024442999],[16.3203605903563,46.8004541859104],[16.3197762397035,46.8003345254322],[16.3183365925377,46.8004856176431],[16.317984139632,46.8005383861093],[16.3179831087444,46.8005385404497],[16.3178615709328,46.800631394249],[16.3178607996647,46.8006319834894],[16.3177298284308,46.8005048413803],[16.3177395486222,46.8004736914402],[16.3177981988027,46.8004451268381],[16.3177698461624,46.8003785191816],[16.3176919791602,46.8002531945633],[16.3175525243867,46.8001863366865],[16.3174199497013,46.800175897616],[16.317321830677,46.8000634909889],[16.3172376019886,46.8000317131929],[16.3172724608207,46.799940896854],[16.3172355980564,46.7998583732036],[16.3171966850937,46.7997240531474],[16.3172029760084,46.799675849321],[16.3170730476824,46.7996771648382],[16.3170560608762,46.7996467721522],[16.3168870481916,46.7996462881449],[16.3168054076177,46.7996110665105],[16.3167946314341,46.7996064174074],[16.3167482847499,46.7996287926943],[16.3167463342559,46.7996297343545],[16.31668057068,46.7995922557984],[16.3165963214204,46.7996132873758],[16.316408414999,46.7995149578959],[16.3163338429367,46.7994332275919],[16.3164369572973,46.7993853494719],[16.3165642703849,46.7991802034658],[16.3165191687493,46.7991304317557],[16.3164373825411,46.7990644384659],[16.3164602417591,46.7990509506035],[16.316438191544,46.7990224153775],[16.316203672231,46.7990270922106],[16.3162325164937,46.7989743106972],[16.3162213330655,46.7989132629419],[16.3160678337841,46.7988558312068],[16.3159399832207,46.7988187063729],[16.3159274481035,46.7987881723594],[16.3159505305358,46.7987032496031],[16.3159304720593,46.7986998121298],[16.315844759643,46.7986851233255],[16.3157756734646,46.7986646880581],[16.3157537088151,46.7986581910376],[16.315742742513,46.7986532206621],[16.3156811153794,46.7986252886948],[16.3156542648142,46.7986685108314],[16.3155900595872,46.7986518856729],[16.3155690223308,46.7986418448716],[16.3155512229728,46.7986333494699],[16.3155512642026,46.7986279060595],[16.3155514403652,46.7986046480478],[16.3155308788599,46.798574292525],[16.3155250764525,46.7985657262624],[16.3155051677033,46.7984906541891],[16.3154906092792,46.7984792160244],[16.3154912959646,46.7984754573643],[16.3154971975658,46.7984431541777],[16.3155081742559,46.7984366404601],[16.3155039744453,46.7984347231461],[16.3155028660191,46.798434217123],[16.3154689602654,46.798418738324],[16.3154325332761,46.7983754339293],[16.3154615248455,46.7983286785856],[16.3154588362988,46.7982936230315],[16.3155143205738,46.7982265908405],[16.3155057383137,46.7981602842674],[16.3155047979164,46.7981530187429],[16.3153625264996,46.7981261351486],[16.3153872234357,46.7980763838319],[16.31539149715,46.7980677745394],[16.3154093952882,46.798038869881],[16.3154393540369,46.7980371760303],[16.315470523405,46.7980690253064],[16.31551095083,46.7980668512352],[16.315517202583,46.7980277344339],[16.3155027137716,46.7979922747387],[16.3155522569654,46.7979011684888],[16.3155669103111,46.7978742220134],[16.3154242916097,46.7978384359246],[16.3154132815272,46.7978167009185],[16.3154043564541,46.7977812091008],[16.3153934077457,46.7977376699423],[16.3153428216575,46.7977212480221],[16.3153377966208,46.797719616727],[16.3153238181629,46.7977150788498],[16.3152416195873,46.7977879058747],[16.315151985876,46.7977958493064],[16.3151506373494,46.7977959688137],[16.3151130607689,46.7977753487779],[16.3151460612907,46.7977425820229],[16.3150911271937,46.7977129324644],[16.3150884479195,46.7977114863792],[16.315033420607,46.7977865200288],[16.3149568917878,46.7978071018277],[16.3149031363988,46.797832190064],[16.3148572391919,46.7978792566572],[16.3148558464056,46.7978806849279],[16.3148205781112,46.7977773601763],[16.3148288846818,46.797741908379],[16.3148025171523,46.7977243082376],[16.3147926277421,46.7977184608864],[16.3147758005607,46.7977085114063],[16.3146593066027,46.7977731310127],[16.3146580472926,46.7977738295549],[16.314614868287,46.797759841183],[16.3145885955653,46.7977031050034],[16.3145742420045,46.7977015233213],[16.3145491885188,46.797698762563],[16.3145368411963,46.7976974019528],[16.314528942617,46.7976581778535],[16.3145097843605,46.7976512897142],[16.3144996028883,46.7976476290765],[16.3143640957517,46.7977262857881],[16.3143199433013,46.7977361484258],[16.314314844256,46.7977372874334],[16.3142883021212,46.7977178898734],[16.3142984005062,46.7976753102782],[16.3142769981222,46.7976340146343],[16.3142743445401,46.7976288945747],[16.3142218405649,46.7976381350663],[16.3142189594904,46.7976386421233],[16.3142174707504,46.7976389041352],[16.3141856962138,46.7977731024527],[16.3141855170441,46.7977738591659],[16.3141707448629,46.7977711470378],[16.3140328701868,46.7977458335559],[16.3139783279709,46.7977215169678],[16.3139319498775,46.7977008401572],[16.3138513994378,46.7976261941536],[16.3138299779049,46.7975426824118],[16.3137958640568,46.7975243612855],[16.3137882840721,46.7975252640232],[16.3136537444864,46.7975412869186],[16.3135989070286,46.7975488437332],[16.3135545881775,46.7975848887451],[16.313532531062,46.7975830954481],[16.313524528916,46.7975824448532],[16.3134564348213,46.7975421703111],[16.3134466397712,46.7975363769785],[16.3133894045747,46.7975598852331],[16.313389179653,46.7975599776153],[16.3132626469614,46.7975068208414],[16.3131897596768,46.7975062375558],[16.3131887467551,46.7975062294495],[16.3131531389698,46.79753956535],[16.3131523558546,46.7975827576737],[16.3131011341549,46.7976097052603],[16.3130573600518,46.7976472487094],[16.3130571184282,46.7976474559409],[16.3129915158596,46.7976648522348],[16.312975979516,46.7976401101077],[16.3127640496675,46.7973022027997],[16.3127195683374,46.796679883333],[16.3127554596214,46.7961250154475],[16.3128803561253,46.7956802335685],[16.3129994609782,46.7948035944479],[16.3130082163143,46.7941780550021],[16.3130129645366,46.7940447618564],[16.3129498762568,46.79386915364],[16.3127405226356,46.7930871475746],[16.3125039767774,46.7928619786306],[16.3124114853868,46.7925867558076],[16.3122026768026,46.792149939474],[16.3124361879338,46.7912322237925],[16.3124667734187,46.7908039076796],[16.3124045275774,46.7905010783522],[16.3121945889027,46.7897641502531],[16.3118299905377,46.7890066833364],[16.3118109913269,46.7889740637602],[16.3114912221261,46.7883091959811],[16.3115278958487,46.7881743673265],[16.3112596308062,46.7873377942624],[16.3110593649317,46.7863831264727],[16.3110447776185,46.7854048292939],[16.3110171715351,46.7851525225433],[16.3111586271931,46.7841872816417],[16.311166056723,46.7841372656716],[16.3109844076866,46.7840404747951],[16.3109856747287,46.7839901695735],[16.3109904942084,46.7837948892541],[16.3110701382603,46.7836390562143],[16.3112824215758,46.7823978888805],[16.3114396094835,46.7817573323941],[16.3114411952407,46.7817569973772],[16.3115107513287,46.7817423025023],[16.3115109372672,46.7817418800874],[16.3115715683336,46.7816041381421],[16.3116149528808,46.7815786304621],[16.3116153279001,46.7815786613831],[16.3116532712734,46.7815817898716],[16.3116536101172,46.7815809398798],[16.3116683313061,46.7815440116592],[16.3117429055094,46.7810934191644],[16.3118049555046,46.7810006731231],[16.3118708339089,46.7806019103714],[16.3120049018666,46.7800882894411],[16.3121343629022,46.7794444510092],[16.31213576784,46.7794445550055],[16.3123311559591,46.7794590178547],[16.3123310545092,46.7794582475854],[16.3122829795732,46.7790932305927],[16.3121750724083,46.77894242621],[16.3121591768675,46.7779917623719],[16.3121608717778,46.7779916110931],[16.3121608635228,46.7779911132723],[16.3121860669999,46.7779720214592],[16.3120156165741,46.7779742457968],[16.3117921185157,46.7780083860317],[16.3114302681792,46.7780183813402],[16.3111119921413,46.7780323745304],[16.3109827872709,46.7780074049671],[16.3107897619071,46.7780237408051],[16.3106196451232,46.7780343260388],[16.3105059393079,46.7780382372998],[16.3102504562583,46.7780225400314],[16.3098638229319,46.777944827821],[16.3095229577594,46.7778751372816],[16.3091301206396,46.7778115282166],[16.3088068346599,46.7777646656171],[16.3087437998532,46.777746583758],[16.3085617530759,46.7777349909129],[16.3083766260639,46.7777043602955],[16.3080360955654,46.7776429383335],[16.307694069854,46.777562999537],[16.3070509416813,46.7773353572003],[16.3065406472955,46.777049876209],[16.3060203926131,46.776801752365],[16.3058326210044,46.7767211269515],[16.3055671865263,46.7766347298777],[16.305259009124,46.7764973594312],[16.3049864685919,46.776404024749],[16.3050710454565,46.7762352743688],[16.3051013969892,46.7760877445039],[16.3049195938626,46.7760805514029],[16.3047443256706,46.7760728336735],[16.3045246090509,46.7760302659262],[16.3043794325073,46.7759563497726],[16.3043032655622,46.775904048301],[16.3040728053282,46.7758123909649],[16.3039657061048,46.7757968778394],[16.303842629505,46.7757758788317],[16.3036400908968,46.775696227762],[16.3034052813052,46.775592473275],[16.3032156082431,46.7754978305856],[16.3030893551531,46.775399406566],[16.3029955704747,46.7753061006007],[16.3030399161055,46.7751684880649],[16.3027538190189,46.7750447141228],[16.3026275308353,46.7749610443467],[16.3023239909744,46.7749609906598],[16.3022116989152,46.7749744139499],[16.3017687802179,46.7749234049195],[16.301428361137,46.7749851249304],[16.3012078754404,46.7750679716047],[16.3010050109579,46.7751702300104],[16.3008548270478,46.7748989817923],[16.3009211250949,46.7744601855724],[16.3006393041109,46.7744103094531],[16.3003514213942,46.7743425084025],[16.2999478047247,46.7741994607138],[16.2996814646121,46.7741017245966],[16.2992679641907,46.7739014786724],[16.2991180313352,46.7738470424085],[16.298745567379,46.7737739899042],[16.2986292723626,46.7737406729969],[16.2983479602596,46.7735864253488],[16.2981017518252,46.7735142772624],[16.2979015431599,46.773432790281],[16.2975811432083,46.7732974270356],[16.2974277119837,46.7732334918696],[16.2971462944522,46.7730800521471],[16.2969397009605,46.7729615700218],[16.2967180612626,46.7728490158263],[16.2964482835426,46.7727875672759],[16.296261574479,46.7727391217893],[16.2962506129753,46.7727734328967],[16.29613900826,46.772706233252],[16.2959407230804,46.7726500913538],[16.2957236120406,46.7726170135525],[16.295445416712,46.7725648344459],[16.2949931952865,46.7724414821832],[16.2947226295804,46.7723797685849],[16.2945221911636,46.7723320153943],[16.2939396991851,46.7722419804498],[16.2936913263538,46.7722156398473],[16.2934831601529,46.7722005397591],[16.2933579211062,46.7721980868365],[16.2931992011221,46.7722355970318],[16.2930721904494,46.7722466586611],[16.29267675821,46.7722471679264],[16.2922584129938,46.7722477546523],[16.2920461213641,46.7722517712494],[16.291653943443,46.7722733821543],[16.291177759142,46.772335794405],[16.2908566905547,46.7723577697391],[16.2904931278496,46.7723604309752],[16.2901742317264,46.7723418054012],[16.2897747582887,46.7722553534488],[16.2895107982886,46.7722012901182],[16.2892597341798,46.772149869818],[16.2889564260016,46.7720710581578],[16.2884776831849,46.7719823457559],[16.2883076537226,46.7719520524662],[16.288137359393,46.7718447513375],[16.2876374769768,46.7716875396546],[16.2871808728989,46.7715440535403],[16.2866270866559,46.7714434023901],[16.2857351273943,46.7714765490956],[16.2851550930547,46.771494310599],[16.2848756536654,46.7715267774151],[16.2847162655539,46.7715473698063],[16.2844348198255,46.7715450413774],[16.2841809026654,46.7715935937561],[16.2839094510115,46.7716095948268],[16.283733612264,46.7715054981538],[16.2835612636933,46.7714435559333],[16.2832795987003,46.771305199114],[16.2829793336422,46.7711885519262],[16.2828022460519,46.7710923847946],[16.2823107996677,46.7710082872859],[16.2819738691458,46.7710513774369],[16.2818920248947,46.7710455468991],[16.2817886504345,46.7710704558195],[16.2815934085432,46.7710202826709],[16.2813036744978,46.7709499353982],[16.2808293089763,46.7708957787485],[16.2804003571871,46.7708959010492],[16.2798249598221,46.770926808594],[16.2793967432076,46.7709911543557],[16.279116740851,46.7710330597892],[16.2789191525215,46.7710827701352],[16.2788125164027,46.7710639895321],[16.2781882432306,46.7710547705866],[16.2778546627964,46.7710569667941],[16.2774531591694,46.7711049031207],[16.2773119704148,46.7711199740519],[16.2770385658246,46.7711364304476],[16.2769480481839,46.7711292537182],[16.2768294464366,46.7711692623674],[16.2767330191255,46.7711890511241],[16.276638785967,46.771185334298],[16.2764249180163,46.7713164608911],[16.2761145481394,46.7714033206401],[16.2758602992821,46.7714270277366],[16.2754210964412,46.7714590035122],[16.274942818798,46.771499779766],[16.2745193918662,46.7715566767072],[16.274271635675,46.7715947924155],[16.2741104908402,46.7715799431434],[16.2739155727166,46.7715488260023],[16.2736973194731,46.7715553939555],[16.2734688235162,46.7715162829959],[16.273298939188,46.7715139450921],[16.2730441479423,46.7715147107369],[16.2728014996067,46.7715195691325],[16.2721550699454,46.7716372352489],[16.2718953829935,46.7716859144526],[16.2716694878048,46.771757248731],[16.2711759016598,46.771921162299],[16.2707217814159,46.7720930022756],[16.2701196001966,46.7722831275677],[16.2695485845837,46.7725124887664],[16.2690590735239,46.77272223039],[16.2687184808768,46.7729448033683],[16.2684315476743,46.7731272856552],[16.2681908682919,46.7733446110736],[16.2677618308709,46.7736766597839],[16.2673387447913,46.7740002741531],[16.2669965605308,46.7742896139933],[16.266902096255,46.7743990683443],[16.2668088529751,46.7745605991408],[16.2665449866947,46.7747836656129],[16.2659929237487,46.7751473875628],[16.2656385769174,46.7753988923773],[16.2653675449326,46.7755512324865],[16.2650451922399,46.7757041393116],[16.2648867372298,46.7757766038181],[16.2645460879073,46.775886438062],[16.2642733029317,46.7759641235624],[16.2640069910371,46.7760442559433],[16.2637964621931,46.7761187335736],[16.2636271678695,46.7762149769633],[16.2634002936699,46.7762961118712],[16.2631902009138,46.7763613171196],[16.2628429574929,46.7764358626236],[16.2626037724278,46.7764778168847],[16.2623239346718,46.7765005166584],[16.2620611046743,46.7765113326572],[16.261638434466,46.7765356059531],[16.2608013243733,46.7766114066859],[16.2601642654072,46.7766629568885],[16.2595926228372,46.7766839149587],[16.2591620633892,46.7767069164584],[16.2589490612093,46.7767037721526],[16.2586954475165,46.7766718353821],[16.2585323880473,46.7766371028532],[16.2580516993476,46.7764531910848],[16.2579091510856,46.7763713601503],[16.2576157506176,46.7763965365973],[16.2577154284214,46.7764931436032],[16.2578431273749,46.7766683422416],[16.2579239370165,46.7767981737917],[16.258090173713,46.7769411906915],[16.2582362544919,46.7770340483067],[16.2585815703651,46.7772360019137],[16.2590319343242,46.7774332001204]]]},"properties":{"fill-opacity":0,"stroke-opacity":1,"stroke":"#ff0000","lov":"0811","lov_naziv":"LPN KOMPAS PESKOVCI","luo":"08","luo_naziv":"Pomursko","povrsina":12535.04},"id":"pregledovalniklovisca.1"}]}