{"type":"FeatureCollection","features":[{"type":"Feature","geometry":{"type":"Polygon","coordinates":[[[16.090258650581,46.5459397676873],[16.0885323239869,46.5437016846418],[16.0884909659059,46.5435439132591],[16.08867220078,46.5430543780808],[16.0892392165703,46.5427456952486],[16.0890532696381,46.5425233538079],[16.0876276895942,46.5428929246594],[16.0866175207075,46.5430211945621],[16.0851471477967,46.5430616046103],[16.083846754156,46.5430079873181],[16.0826777594284,46.5428345327902],[16.0817955719267,46.5426714894964],[16.0800319973776,46.5423849611656],[16.0789609322261,46.5423291226559],[16.0779485356227,46.5423387582481],[16.0764975945782,46.5424051448227],[16.0751776718063,46.5423253419052],[16.0745248219513,46.5421600865128],[16.0734458411979,46.5417087683025],[16.072653801589,46.5412679747114],[16.0711575568541,46.5409655767966],[16.0700957854948,46.5408964328073],[16.0690156306796,46.5408670370117],[16.0679765156008,46.5409756197023],[16.0666236046759,46.5411596343912],[16.0657938459893,46.5412333161869],[16.0649705091393,46.5411421095089],[16.0636195068234,46.5409372261514],[16.0621464656808,46.5408454712058],[16.0610574406694,46.5408423534747],[16.0596448427997,46.5409082605226],[16.0570954983282,46.5409780038748],[16.0559811121159,46.5411531202179],[16.0547762731232,46.5415861903417],[16.053985376896,46.5421801667199],[16.0537940080033,46.5421687045843],[16.0535267610901,46.5421778241229],[16.0497402142862,46.5429971650455],[16.0492939042719,46.5431330643086],[16.0491822327134,46.5432856858647],[16.0489427777145,46.5442437988331],[16.0450976235775,46.5449079672702],[16.0442239158277,46.5449585921139],[16.042039733068,46.5450832348808],[16.0418290990745,46.5451011680264],[16.0415723518027,46.5451283376312],[16.0414026773619,46.545133481332],[16.0412022390712,46.5451459223773],[16.040909305872,46.5451628035896],[16.0406675304823,46.5451614948018],[16.040462641981,46.5449410463241],[16.0402378051953,46.5446728256253],[16.0400016927446,46.544312489169],[16.0398025156838,46.5438923471852],[16.0395769326844,46.5435846357036],[16.0391603580828,46.543285136842],[16.0388989727603,46.5431029855953],[16.0387196388426,46.5432166252568],[16.0383140072672,46.5434906639014],[16.0379912716301,46.5435990363685],[16.0361948300859,46.5435823962203],[16.0354307449788,46.5435893156392],[16.0349614677919,46.5435342734798],[16.0346636493771,46.5434446600625],[16.0342289471362,46.543191551105],[16.0336008800711,46.5428215193721],[16.0333867273255,46.5426124779265],[16.0331108460419,46.542166746345],[16.0326225680037,46.5416108308442],[16.0324181909683,46.5414149246855],[16.0320899594933,46.5412332712233],[16.031348839284,46.5409433295372],[16.0308510396269,46.5408885276885],[16.0305522448764,46.5407461907105],[16.029479678587,46.5401098743998],[16.0289390857783,46.5398115443303],[16.0287438774374,46.5395891882627],[16.0286046525619,46.539300381379],[16.0283398300042,46.5389401888199],[16.0278945566061,46.538627771358],[16.0270547120659,46.5381672985764],[16.0264088369728,46.5378566763953],[16.0256401074157,46.5376196670244],[16.0239035571094,46.5372134521918],[16.0231268167849,46.5370555801168],[16.0220249966323,46.5368874725068],[16.0215350348275,46.5367336844708],[16.0207470571528,46.5364902463852],[16.0201985130693,46.5362710283415],[16.0199466154315,46.5360820913357],[16.0194529554037,46.5357369638931],[16.0191251730188,46.5355751521965],[16.0189591821619,46.5353854475342],[16.0187924522118,46.5351561629709],[16.0185672698103,46.5348615415929],[16.0182831364473,46.5344817943632],[16.0179616764329,46.5341484426096],[16.0174388817541,46.5337773847732],[16.0171489369236,46.5335953476977],[16.0167162394096,46.5334410297139],[16.0160136192154,46.5331572139117],[16.0158014171044,46.5330470875848],[16.0155008615437,46.532805851141],[16.015277426795,46.5326035156204],[16.0149950461291,46.532315962529],[16.0146638515613,46.5319761200751],[16.014438460236,46.5316683568517],[16.0142120884809,46.5313077901928],[16.0139498529231,46.5310793452617],[16.0135557416695,46.5309444663419],[16.0131992074416,46.5307762346571],[16.0128503504962,46.5305089682104],[16.0125578671212,46.5301885699037],[16.0122863833866,46.529966860687],[16.0107391492065,46.529459804375],[16.0103343203606,46.5292590619111],[16.0101495856587,46.5290892130375],[16.0100508825929,46.5289121264113],[16.0099879163362,46.5286094875525],[16.0100295083006,46.5282794745454],[16.009976676032,46.5280031070229],[16.0098475835468,46.5277405482421],[16.0097198445458,46.5275439245068],[16.0094365430905,46.5272036438844],[16.0091522672562,46.5268105594334],[16.0092224152658,46.5264738169121],[16.0094051635792,46.5260304572343],[16.0094843346165,46.5256672740005],[16.0095356934016,46.5253437425337],[16.0094024587802,46.5248571072547],[16.0096236274766,46.5239058935829],[16.009592026909,46.5237480072247],[16.0095365050036,46.5233331109423],[16.0093907115584,46.5226818532814],[16.0092860404308,46.5221817401431],[16.0091817307128,46.5217080745403],[16.0092183189744,46.5211078389467],[16.009229532427,46.5206857857316],[16.0092534423057,46.5204285335126],[16.0092123304782,46.5202706409166],[16.0090805775114,46.5198631644528],[16.0089201652147,46.5194492829182],[16.008810009631,46.5191733301242],[16.0087190036039,46.5189038660302],[16.0088211062197,46.5187448000782],[16.0089626077109,46.5186512437615],[16.009248782342,46.5186354934862],[16.0102471129136,46.5189167398231],[16.0105730672948,46.5189798075505],[16.010743714704,46.5189189201472],[16.0107706712607,46.5188263737741],[16.010691866172,46.5186952656391],[16.0105468234358,46.5185976713384],[16.010258083392,46.5184749852851],[16.0100274035021,46.5183978499107],[16.0097673334793,46.5182749094336],[16.0094298063139,46.5180933624408],[16.0091588755189,46.5179045691708],[16.0088489125472,46.5176699654591],[16.0086920461911,46.5174472362651],[16.0086878994666,46.5172231601027],[16.0087793792646,46.5170113760281],[16.0088137777888,46.5168067530596],[16.0087715730516,46.5165895802848],[16.0087291239553,46.5163591841994],[16.0087350986409,46.5161679473852],[16.008817805744,46.5159892592346],[16.0089671039067,46.5158033258947],[16.0091737355539,46.5156169764622],[16.0092561868589,46.5154316325261],[16.0091865360383,46.5152806493239],[16.0088012074791,46.5150994321968],[16.0083999569762,46.5150506985707],[16.0081789499993,46.5152137813939],[16.0075032460079,46.5156165888059],[16.0069021622547,46.5158828821046],[16.0068204666494,46.5159755496006],[16.0065103057308,46.5160890312949],[16.0063452940725,46.5161161244533],[16.0060854033945,46.5161854377396],[16.0056904051385,46.5163981794773],[16.0054326811727,46.5166627948975],[16.005243642444,46.5168217222979],[16.0052114427864,46.5168424282548],[16.0050512193276,46.5169455912172],[16.0049662037525,46.5170068873668],[16.0049499025401,46.5169921857151],[16.0048328600756,46.5170411675043],[16.0042865164671,46.5171676940631],[16.0041163848797,46.5172071547022],[16.0038567694002,46.5172918451825],[16.0035461199936,46.5173653768631],[16.0031987964538,46.5174715282368],[16.0029124393418,46.517562119162],[16.0027029784486,46.5175891469554],[16.0026586423283,46.5176940795713],[16.0025606304248,46.5179347060292],[16.0025731320975,46.5179412541484],[16.0026333954885,46.5179723949627],[16.0029177415132,46.5181194304107],[16.003042482054,46.5181840138826],[16.0030686683392,46.5181976394535],[16.0030497911307,46.5182129197891],[16.0024763116119,46.5186789485607],[16.0022592151258,46.5188863402317],[16.0020629038044,46.5192602618351],[16.0020229801988,46.5193855784634],[16.0019776700197,46.5196007312633],[16.0019676248366,46.5198554313491],[16.0019930720378,46.5201691100218],[16.0019708690266,46.5204785277279],[16.001961265276,46.5207572456094],[16.0020019633845,46.5210071826072],[16.0020912730584,46.5216254762472],[16.002144896097,46.5218906846004],[16.0021629350519,46.5220990744575],[16.002149069936,46.5222877707516],[16.0021032846005,46.5224700890106],[16.0020602216329,46.5226020008157],[16.0020709331956,46.5230144143231],[16.0020129936206,46.5232517200246],[16.0019086775101,46.5235967648104],[16.001897392506,46.5237415336136],[16.0018682844036,46.5239874036049],[16.0018009087968,46.5242291103164],[16.0017266689713,46.5244094283622],[16.0015393961545,46.5247373854174],[16.0012378780051,46.525083346397],[16.000984028591,46.5254203423507],[16.0006532778107,46.5259990370502],[16.0002191703135,46.5264224487304],[15.9999274623146,46.5267925219652],[15.9997002742053,46.5272478607746],[15.9995541938158,46.5275557511894],[15.9995236721142,46.5276612814245],[15.9994981705982,46.5277846715733],[15.9993862467011,46.5283274417078],[15.9993054488174,46.5285418235505],[15.9991938122957,46.5288090165089],[15.9990874095902,46.5290560106199],[15.9989938630253,46.5292790506065],[15.9989430333388,46.5294004125924],[15.998770939443,46.5297973282581],[15.9984415796102,46.5298144188693],[15.9980335257622,46.5298480297234],[15.9979412425049,46.529855672549],[15.9976951074954,46.529875903509],[15.9972019117297,46.5299940149601],[15.997120675701,46.5300354790345],[15.9969064105089,46.530144679478],[15.9968951699374,46.5301501755746],[15.9968189359469,46.530187187367],[15.9965369950085,46.5303238775542],[15.9965167064183,46.5303335910079],[15.9964391767613,46.5303710636778],[15.996420183287,46.5303803159878],[15.9964043462492,46.5303839627341],[15.9963190664094,46.5304039589282],[15.9963113790073,46.5304184208928],[15.9963025531055,46.5304347821177],[15.9962975838181,46.5304339257152],[15.9962549686721,46.5304274592809],[15.996113296548,46.530742684151],[15.9957075254672,46.5312154942679],[15.9952789696226,46.5313620045912],[15.9946656682761,46.5315644611608],[15.9945963388397,46.531601411416],[15.9944680094535,46.5316770213649],[15.9944585930908,46.5316825013595],[15.9942564880297,46.5318014876327],[15.9940953586074,46.5318870988978],[15.9938479413741,46.5320019798161],[15.9933803002436,46.5322361822413],[15.9931245740579,46.5323531130597],[15.9928298652074,46.5324913443984],[15.9926538404472,46.5325681760076],[15.9920550148949,46.5328223148673],[15.9918131145782,46.5329256275112],[15.9917536771179,46.5329547529453],[15.9917019931011,46.5329801224066],[15.9915698604234,46.5330405573418],[15.9912459882021,46.5331884841079],[15.9909532360881,46.5333201259091],[15.9908294029267,46.533442746426],[15.9907792041447,46.5334924841213],[15.9905988438356,46.5336108256782],[15.990416498606,46.5337347621946],[15.990404650697,46.5337427820313],[15.9901856611364,46.5338948357994],[15.9899275704603,46.534061802489],[15.9895388426742,46.534292966906],[15.9893078717396,46.5345249248583],[15.9890275148066,46.5348731890448],[15.9888869824854,46.5351535769431],[15.9888587526927,46.5354944424173],[15.9887360534981,46.5360391838085],[15.9888806364872,46.5368435132863],[15.988743686209,46.5372856335709],[15.9887862657692,46.5377208036971],[15.9887829164997,46.5378666718154],[15.9887940962082,46.5380731431605],[15.9887581795577,46.5382348573753],[15.9887513177654,46.5384817006462],[15.9887126291832,46.5386056519735],[15.9886911550728,46.5388806917438],[15.988683964426,46.5389729717361],[15.988670661318,46.5391020117576],[15.988641512226,46.5393852150101],[15.9885873349185,46.539568139622],[15.9883427506606,46.5401434432824],[15.9881444418739,46.5404381843847],[15.9875478566636,46.5408505346095],[15.9869693077298,46.5412154025809],[15.9862743654345,46.5417125354306],[15.9862920152036,46.5417223697531],[15.9863095329848,46.5417321152424],[15.9861450260695,46.5418135157259],[15.985551570753,46.5421194855823],[15.9853567265597,46.5422898553232],[15.9853245107013,46.5423181130703],[15.9849167374174,46.5426756513365],[15.9848327946952,46.5427492486503],[15.9846307657508,46.5429263366661],[15.9842511060887,46.5431950114795],[15.9838416590586,46.5435111747191],[15.9836017708085,46.5436643849863],[15.9831167560324,46.5438903271776],[15.9830767670864,46.5439070451502],[15.9828966177202,46.5439820976269],[15.9828401916861,46.5440056144322],[15.9827342762155,46.544646560601],[15.9826792023513,46.5447811768342],[15.9825847861444,46.5450117675465],[15.9823573550553,46.5455669374345],[15.982105424588,46.5457038736514],[15.9813990337082,46.5460561354502],[15.9810958017886,46.5463277425807],[15.9808616078626,46.5465375783188],[15.9808277110913,46.5465886112177],[15.9808173004884,46.5466042650371],[15.9805626720066,46.5467439200135],[15.9802677546215,46.5469056021093],[15.9801631751096,46.5469780232607],[15.979627517993,46.5473486938826],[15.97957392029,46.5473919779011],[15.9792428536215,46.547762693768],[15.9789250292301,46.5479563273412],[15.9784970859872,46.5484079419954],[15.9773078049557,46.5496056031576],[15.9762820069445,46.5503380691943],[15.9763242717755,46.5503897102023],[15.9767064136346,46.5508577923709],[15.9769700625423,46.5511247263245],[15.9770994273503,46.5512555150281],[15.9774482464664,46.5514358004508],[15.9773757506934,46.551443707369],[15.9773088519315,46.5514510266094],[15.9775579636675,46.5516560951567],[15.9770331313086,46.5520230620287],[15.9768304887399,46.5521256473378],[15.976693988655,46.552186012163],[15.9765350328657,46.552303158662],[15.9762926701656,46.5524816555617],[15.9762062096349,46.5525326858203],[15.9761153607877,46.5525862725763],[15.9759553061803,46.5525476923463],[15.9757370879189,46.5524654335804],[15.9757230310445,46.5524524181036],[15.9756217016364,46.5523578259514],[15.9755933207752,46.552331437372],[15.9755494214462,46.5522905162899],[15.9755037474337,46.5522160521128],[15.9753186253449,46.5518482204809],[15.9753019927334,46.5518151639593],[15.975154982289,46.5518202859977],[15.9750958126888,46.5518223198815],[15.9750850101197,46.5519545755558],[15.975486555074,46.5530396794372],[15.9753497577814,46.5533093116418],[15.9751592339815,46.5534190780625],[15.9750520964027,46.5534808100141],[15.9735885750028,46.5540631358678],[15.9734328003897,46.5541035978815],[15.9731622721388,46.5541739158863],[15.9726999672013,46.554218693786],[15.9718258444858,46.5542581525064],[15.9715938058388,46.5543295792723],[15.9713021724042,46.5542478456711],[15.9709315358492,46.554226161074],[15.9705300229573,46.5542794109991],[15.9696561428483,46.5547938839919],[15.9688238359668,46.5550877556296],[15.9681687149479,46.5554598335535],[15.9680667157254,46.5555178267359],[15.967943851325,46.5556419431835],[15.9679381016575,46.5556633143336],[15.9679288087379,46.5556981207484],[15.9677459858408,46.5558608909057],[15.9674206791886,46.5560273850322],[15.9669789818763,46.5562716051994],[15.9666959437717,46.5564904613524],[15.9662716118522,46.5568904470943],[15.9662532693184,46.5569077859895],[15.9662096441493,46.556962945201],[15.966223774117,46.5572960684695],[15.9662045825421,46.5575153933762],[15.9662836699035,46.5577166141795],[15.9665199051837,46.5579978385268],[15.9666960170306,46.5580734531391],[15.9670812653815,46.5583362329348],[15.9670809350172,46.558537854671],[15.9669721580317,46.5587139425385],[15.9669552959378,46.5588807063493],[15.9667516150076,46.5590815277842],[15.9666040871788,46.5594552432182],[15.9665372694918,46.5596660636893],[15.9665246113216,46.5599007179294],[15.9665804374073,46.5602533716502],[15.9665801162942,46.5604335807932],[15.9665800685447,46.5604529243727],[15.9665365159059,46.560571060842],[15.966197278777,46.5614901634787],[15.9660786477369,46.5616553575092],[15.9656145755303,46.5625747927425],[15.9655905583335,46.5626767495484],[15.9655695716293,46.562765725342],[15.9654983329164,46.5629042479494],[15.9652321613081,46.5632085176071],[15.9648210114972,46.5635903925774],[15.9643757799349,46.5640514554953],[15.964250915972,46.5642188593334],[15.9639457049075,46.5649046502291],[15.9638369155813,46.5651034069906],[15.9638000208993,46.5651708341276],[15.9638524513473,46.5651925245234],[15.9638575744649,46.5651945506231],[15.9638630588546,46.5652537934431],[15.9638763680238,46.5653939416912],[15.9638616952009,46.5654861027779],[15.9641214191701,46.5658549427388],[15.9643437480117,46.56606404398],[15.9644983414583,46.5661901355076],[15.9645277865618,46.5662470170151],[15.9647304252442,46.5666402684171],[15.9647826560729,46.5667388828448],[15.9648056403526,46.56678448278],[15.9649279331128,46.566891143123],[15.9650235200333,46.5669556536357],[15.9651239967887,46.5670237215374],[15.9652593837277,46.5671478148329],[15.9654103338764,46.5672520735911],[15.965695586273,46.5673971235695],[15.9663045843704,46.5677243229652],[15.9664104127245,46.5677850571022],[15.9665222823716,46.5678260370708],[15.9667828196316,46.5680260837565],[15.9668894921827,46.5681416009125],[15.9669798627043,46.5682353035507],[15.9673931961075,46.5684520506998],[15.9676005690241,46.5685010387672],[15.968011671893,46.5685555000237],[15.968120269115,46.5685810315994],[15.968328647797,46.5686937972435],[15.9687353520943,46.5691165327044],[15.9691715061871,46.5694711812138],[15.9692915788385,46.5694231104884],[15.9697519347362,46.5692396322638],[15.9703633730316,46.5690647671301],[15.9718529128687,46.5686804631814],[15.9719448555671,46.5686644773742],[15.9722087531804,46.5693140539145],[15.9730759294597,46.5694489199416],[15.9732619774474,46.569559617349],[15.9741603319986,46.5701021253574],[15.9741924606678,46.5701260531623],[15.9743554984029,46.5701754065516],[15.9748601465652,46.5698653052093],[15.9753880777834,46.5696536081602],[15.9755775903401,46.5697753383391],[15.9755869554764,46.5697665315582],[15.9757398650809,46.5698766978442],[15.9765970578701,46.5705517909512],[15.9761855399907,46.5709117572419],[15.9758767017455,46.5711198796001],[15.9761331495067,46.5712564223202],[15.9763956286013,46.5713437004267],[15.9772401613153,46.5716971707061],[15.9771548389156,46.5717478318934],[15.9768865078375,46.5718942526686],[15.9770027704,46.5719028863075],[15.9771423441458,46.5719891431055],[15.9776560055276,46.5720934355702],[15.9779219692635,46.5720040730077],[15.9792499439401,46.5722310377959],[15.9799074384279,46.5724763283057],[15.9803132098589,46.5721674098683],[15.9806738733181,46.5720196497009],[15.9811033051301,46.5720103892806],[15.981613555622,46.5721059663261],[15.9818570634401,46.5722184058275],[15.981806959193,46.5722757856951],[15.9821077119174,46.5724011385561],[15.9823398638896,46.5723975257075],[15.9825867320401,46.5725297277762],[15.982826736937,46.572635807563],[15.9835824095422,46.5733890029112],[15.9837013720831,46.5733086280879],[15.9839937361728,46.5733447098043],[15.9843212872457,46.5734796328252],[15.9842697947195,46.5735539397067],[15.9844946376715,46.5736940644104],[15.9847194904486,46.573813046086],[15.9850756354169,46.5740642294477],[15.9852023683882,46.5741896331179],[15.9853158164677,46.5743018358036],[15.9855403408879,46.5744240575357],[15.9856005390672,46.5744126527348],[15.9857955616981,46.5744762890349],[15.9859366074734,46.5743403012531],[15.9860350090729,46.5743132723631],[15.9860456842181,46.5742400362967],[15.986128383433,46.5741744564074],[15.9861530468218,46.5741172040242],[15.9863293920359,46.5740285945075],[15.9875085554131,46.5743756842367],[15.987658782205,46.5744294477097],[15.9876414562146,46.574545836058],[15.9880765383192,46.5744946655346],[15.9884885255325,46.5743931308711],[15.9891350512158,46.5740027486324],[15.9891396166788,46.5736583113146],[15.9890842639648,46.5733405728014],[15.9893679637444,46.5732156728075],[15.989744291186,46.5730191657914],[15.9899548001092,46.5729014652615],[15.9902674759116,46.5726700599186],[15.99047760965,46.5724602343207],[15.990748177067,46.5722880313927],[15.9914563018019,46.571951263122],[15.9916437233631,46.5718628192648],[15.9920142814186,46.571715747234],[15.9923289286121,46.5715789655683],[15.9925730313705,46.5714726646029],[15.9932901836699,46.5711528105542],[15.9940662372305,46.5716366652852],[15.9946134090184,46.5719239454423],[15.9952143393808,46.5721971700829],[15.995049134625,46.5722660833861],[15.9956096940848,46.5728208974389],[15.9970062299734,46.574235268065],[15.9971204219407,46.5743582487489],[15.9975437165121,46.5742340008902],[15.9975564727474,46.5742750950337],[15.9975970377183,46.5743386186155],[15.9976368659745,46.5744259901516],[15.9977057208479,46.57448836728],[15.997872145575,46.5745782332051],[15.9979511144554,46.5746371931353],[15.9980138521084,46.5747216656255],[15.9980431833879,46.5747701724169],[15.9981458888412,46.5747931178091],[15.9981297710615,46.5748674821204],[15.9982297238743,46.5749536990191],[15.9993452132437,46.5753946092464],[15.9994479072378,46.5756085557958],[15.999426116823,46.5757433384216],[16.0001262652428,46.576200824502],[16.000592092456,46.5766222996871],[16.0012294797181,46.576986221347],[16.0012122605548,46.5774470984635],[16.0014837389976,46.5776224988481],[16.0017995701881,46.5777052929141],[16.0020224622109,46.5780477383302],[16.0021069669504,46.5780738085366],[16.0028704329963,46.5783323434514],[16.0029642471375,46.5787783021956],[16.003291881212,46.5790124048392],[16.0032041763754,46.5791241945949],[16.0033456058001,46.5796048229],[16.0035060183674,46.5798554161844],[16.0037490296174,46.5798022722028],[16.0037810294859,46.5799383829191],[16.003941245092,46.5800085014752],[16.0038693949995,46.5800744488213],[16.003870947434,46.5801090728825],[16.004019417381,46.580193149479],[16.004285724098,46.5802214908461],[16.0045127031768,46.5801974556991],[16.004571702674,46.5802411118758],[16.0047558170344,46.5804111538037],[16.0048314600749,46.5806847118489],[16.0048741316187,46.5807838416171],[16.0052259548554,46.580906615681],[16.0055291715501,46.5809550525302],[16.0058249221119,46.5812276645142],[16.0060550842624,46.5812203323727],[16.0060365906734,46.5814338091435],[16.006389831185,46.5815129326774],[16.0065469588246,46.5815638215882],[16.0066688905351,46.5815601395462],[16.0070070449037,46.5816348055674],[16.0071054056405,46.5816265622553],[16.007200874689,46.5816383172146],[16.0073295626192,46.5816964729602],[16.0074992156042,46.5816768053234],[16.0075521538715,46.5817029695808],[16.0075919902962,46.5819163826442],[16.0077092234292,46.5819548459004],[16.0081329860926,46.5820229064833],[16.0084250127174,46.5822203312933],[16.0084899504485,46.5822250669185],[16.0086843706533,46.5822391870704],[16.0087530575978,46.5822983201182],[16.0089036919184,46.5823435950664],[16.009182605841,46.5824248049822],[16.0092004751471,46.5824877148906],[16.0092913408704,46.5824692794744],[16.0095330699211,46.5825294942064],[16.0097074867595,46.5825625024946],[16.0099193232419,46.5825869031017],[16.0101379519615,46.5827170456853],[16.0101133171157,46.5827606277907],[16.0101453929644,46.5829139198868],[16.0102493286401,46.5830019803491],[16.0102369879659,46.5832086558104],[16.0102827969763,46.5832372209285],[16.0102570759435,46.5833136509643],[16.0104486964571,46.5833805140763],[16.010516219694,46.5835453687022],[16.010620734911,46.5835662176262],[16.0106672847815,46.5836627018605],[16.0105836530775,46.5837053658075],[16.0105853220042,46.5837389990833],[16.0105934550208,46.5838325838853],[16.010620743284,46.5839036873986],[16.0106479830725,46.5839791997631],[16.0106930609193,46.5841368752],[16.0108155958283,46.5842987244614],[16.0109016880152,46.5844094339756],[16.0109560788175,46.5845134960633],[16.0110282084354,46.5845680089354],[16.0110923998187,46.58458156654],[16.0112032131401,46.584625211122],[16.0112827464518,46.5847269815286],[16.0113047088769,46.5848694765382],[16.012265292476,46.5850616087361],[16.0126871901976,46.585147032753],[16.0132032497066,46.5850755268343],[16.0137697643004,46.5849457220528],[16.0143934288284,46.5847528799509],[16.0148099201762,46.5845485572885],[16.0151344509077,46.5842692961925],[16.0153682839847,46.5843251602262],[16.0162316021957,46.5845003087925],[16.0167201286921,46.584687599512],[16.0175456815121,46.5850615431323],[16.0183732434628,46.5854655121899],[16.0189105163033,46.5856767408738],[16.0192250645198,46.5857428541286],[16.019347631941,46.5856960582674],[16.0195283102152,46.5856515333731],[16.0196200869713,46.5857581370945],[16.0205074179982,46.5859940376042],[16.0206460716039,46.5857684204946],[16.0210176507609,46.5858972674209],[16.0211338406397,46.5859139539744],[16.0212120959459,46.5858423606412],[16.0212932224768,46.5858750144749],[16.0215133617136,46.58601393865],[16.0216749362982,46.5860430847756],[16.0219558547434,46.5861317129607],[16.0222626076688,46.5862548372143],[16.0225012656472,46.5862957988306],[16.0227485472252,46.5864483330672],[16.0234099396443,46.5863541592195],[16.0240661433088,46.5861924620647],[16.0248341058579,46.5859648030752],[16.0254866276638,46.5856083501043],[16.0259506295405,46.5852405389833],[16.0263557969785,46.5847563854516],[16.0268840299896,46.5838035621135],[16.0289039390516,46.5800712616432],[16.0295435808958,46.5790395106835],[16.030169202115,46.578267620066],[16.030999253004,46.5773511041774],[16.0318333465846,46.5766422819942],[16.0334856301036,46.5753935429648],[16.0348041405115,46.5744205831027],[16.0351384986033,46.5741452242764],[16.0354429272282,46.5739152094291],[16.0357081589121,46.5737850534529],[16.0373044941815,46.5743526824924],[16.0386527220315,46.5748658623992],[16.0398760864419,46.5753090867331],[16.0406846695202,46.5755998876451],[16.0417640552068,46.5760444015618],[16.0420950613634,46.5761265863425],[16.0439268984999,46.5765581945399],[16.0462129851085,46.57777940837],[16.0466966201316,46.5779747131638],[16.0474601133604,46.5783998412004],[16.0481145431234,46.5788588918174],[16.0484068097447,46.5790147372691],[16.0492610875054,46.5796060918755],[16.0495974341681,46.579801025918],[16.0500338006519,46.5799726388253],[16.0507199436605,46.5802408309383],[16.0518055485595,46.5812272504063],[16.0526802508602,46.5818858675582],[16.0528420215106,46.5813385424852],[16.0530482872814,46.5813507688086],[16.0538210120781,46.5808466689793],[16.0537756623749,46.580634132316],[16.0542453630326,46.580430974906],[16.0548031604525,46.5805252474383],[16.0550645204422,46.5801962529318],[16.0549338192068,46.5798282293291],[16.0556516904199,46.5796796369563],[16.0562226487353,46.5793903370698],[16.0575736607128,46.5800310227544],[16.0581366021816,46.5793300034294],[16.0611534173539,46.5798558106915],[16.0614341071176,46.5794697623873],[16.0628398040563,46.5797407393304],[16.0643857241463,46.5808623022478],[16.0650899198351,46.581068702028],[16.0661244886343,46.5813145737171],[16.0658399059528,46.5825526673953],[16.0658245787022,46.5828225344771],[16.0659090471506,46.5831643457954],[16.0659501376407,46.5833501068118],[16.065941402734,46.5836500517394],[16.0660297447272,46.5839563794155],[16.066097090655,46.5840436505624],[16.0670926931383,46.5846812375681],[16.0675710015021,46.5849837455767],[16.0682398811162,46.5853353040027],[16.0681878335832,46.5854491497606],[16.0684007675607,46.5855938990102],[16.068916090879,46.5860128341298],[16.0689720148822,46.5859966570984],[16.0690529396027,46.5867410159476],[16.0689520031564,46.5871824425899],[16.0689735391767,46.5873817903692],[16.068862070629,46.5878385198952],[16.0687352926565,46.5879148277119],[16.0687592096061,46.5879764122671],[16.0686976099473,46.5880292591848],[16.0686641502573,46.5880863415809],[16.0685680191783,46.5881749584114],[16.0685695688942,46.5882405305984],[16.0685219916862,46.5882698547515],[16.0684703519862,46.5883315153378],[16.0685310036878,46.5884163284195],[16.0685117691831,46.5884469172679],[16.0685420803879,46.588528415027],[16.0688271408783,46.5884846365016],[16.0689321598112,46.5885095659703],[16.0700604813267,46.5887036938662],[16.0706229066884,46.588636263424],[16.0708716088086,46.5890125207287],[16.0710536697186,46.5894107238711],[16.0712470536214,46.5894164703399],[16.0712610329418,46.589596095435],[16.0712493370605,46.5897111840319],[16.0714055784597,46.5901366187532],[16.0713672805231,46.590246108591],[16.0713316956796,46.5903012323562],[16.0712578380892,46.5904406546422],[16.0711863898529,46.5905566626463],[16.0710182391626,46.590732325123],[16.0707975022087,46.5908885067257],[16.0706889499934,46.5909826396442],[16.071028346585,46.5911857589264],[16.0713811315812,46.5914654944586],[16.0718102065096,46.591841499543],[16.0722630426901,46.5922639736293],[16.0724693760408,46.5924823708109],[16.072718207064,46.5924337041549],[16.0727519407535,46.5925162482716],[16.0727247440997,46.5925731831114],[16.0731920383098,46.5925241759304],[16.0735860309705,46.5923254284295],[16.0740993916988,46.5927652307938],[16.0743215033925,46.5929494685939],[16.0744421520613,46.5929590416257],[16.0747439174968,46.5927294876626],[16.0747600056054,46.5926124681672],[16.0750952331615,46.5921085565265],[16.0753032286566,46.5919551854657],[16.0753849492959,46.5916397093736],[16.0754206172402,46.591417423126],[16.0754759454555,46.5912653969267],[16.0755812412014,46.5910994056853],[16.0757083206248,46.5909593002022],[16.0759069638593,46.5907161379609],[16.0758296060441,46.5906715216737],[16.0759299343709,46.5905711634563],[16.0760333386195,46.5904679872078],[16.076153450515,46.5903452206033],[16.0762521034586,46.5902130291968],[16.0762868853328,46.5902164805988],[16.076340352746,46.5901156632309],[16.0763883226838,46.5899810696082],[16.0764897800861,46.5897533056067],[16.0767127916385,46.5894230934812],[16.0767681744426,46.5892806926605],[16.076815717536,46.5891971147041],[16.0770068248597,46.5891011190705],[16.0771701998262,46.589028146165],[16.0772714816586,46.5889103239683],[16.0773814495625,46.5887567025765],[16.0775600745873,46.5884985213056],[16.0777477689435,46.5882305377506],[16.0780707782118,46.5878963217753],[16.0782385240316,46.5878071118889],[16.0784762103722,46.5876847639202],[16.0785961465033,46.587553719281],[16.0789041217595,46.5869884248456],[16.0800086956907,46.5861313122261],[16.0807133554695,46.5858096789016],[16.0810176112787,46.5854789604274],[16.0811322585362,46.5853252911013],[16.081262851773,46.5850286016548],[16.0813850196073,46.5847741867141],[16.0814818926284,46.584442098436],[16.0814685445406,46.5840071390488],[16.0824818172899,46.5838124904453],[16.0824545223561,46.5837719931992],[16.0815306857455,46.5821781300988],[16.0820735359883,46.5819703880597],[16.0813255257677,46.5808045472274],[16.0825728991802,46.5804959440205],[16.0822347384242,46.5800520922383],[16.0822738028471,46.5799432210691],[16.0826694630848,46.5792838790284],[16.0824193985762,46.5791818825373],[16.0824749087666,46.5786603516787],[16.0826193769725,46.5782818379327],[16.082770194901,46.5780519812528],[16.0826917816213,46.5776194367684],[16.0822779053657,46.5766545760564],[16.0817654281366,46.5763466043312],[16.0819583303375,46.5761467598938],[16.0818423789286,46.5760238804167],[16.0816454376685,46.5759287571477],[16.0811073072356,46.5759246676871],[16.0809721714214,46.5754534318351],[16.0810304015501,46.5753767684385],[16.0811441935601,46.5752270655006],[16.0813517541435,46.5748196168053],[16.0812668653958,46.5746446213755],[16.0814064870976,46.5741077206748],[16.0818598560402,46.5739900736867],[16.0818524377869,46.5738663475671],[16.0820512005693,46.5735942929296],[16.0821450584025,46.573465920047],[16.0821187334437,46.5734083195139],[16.0823617882742,46.5730872624429],[16.0827217561214,46.5728329343152],[16.0830870377238,46.5726490898335],[16.0832477561211,46.5727338474812],[16.0836157321483,46.5725937003587],[16.0837836036168,46.5724939545776],[16.0840536264598,46.5723681393489],[16.0843523288325,46.5722871257044],[16.084495841518,46.5722482483883],[16.0848653928984,46.5722528412191],[16.0850800532996,46.5722229149696],[16.0850772280447,46.5721532163696],[16.0851657947287,46.5720478330661],[16.0852978624904,46.5720565665586],[16.0853225127743,46.5720366296245],[16.0855836865617,46.5718076111617],[16.0857761435318,46.5717503640315],[16.0858123219813,46.5716217258631],[16.0859421518232,46.5716491032864],[16.0860516767066,46.5716722649067],[16.0861908660836,46.5715803452258],[16.0863298225626,46.5716401140892],[16.0863238605452,46.5715244715154],[16.0863716797419,46.5714104774076],[16.0866966104733,46.5714151282153],[16.0868915374844,46.5713249273473],[16.0868668835133,46.5712270961854],[16.0869666029681,46.5712100443112],[16.087074903888,46.5711915612715],[16.087204025297,46.5711117018094],[16.0872387678174,46.570989734473],[16.0873619608955,46.5709592337961],[16.0876037206135,46.5710779426899],[16.0877082196961,46.5710520278308],[16.0877171127619,46.5708639095565],[16.0878091313264,46.5708532279545],[16.087983796392,46.5707350578284],[16.0881835617435,46.570600004516],[16.088345114496,46.5706220391976],[16.0883780274846,46.5705457028323],[16.0887130960609,46.5703922671261],[16.0887772204861,46.5703045674703],[16.0888567976701,46.5702980520186],[16.0890197272287,46.5702846251339],[16.0892720492532,46.5703053444518],[16.0893653503857,46.5701893864763],[16.0894053421623,46.5700562123963],[16.0892270677559,46.570026421233],[16.089275644431,46.5699245643825],[16.0894947882355,46.5698715552434],[16.0895979016208,46.5697179868261],[16.089548070421,46.5694965996497],[16.0894657683853,46.5694060657337],[16.0894096121013,46.5693443425115],[16.0896477149593,46.5691047381621],[16.0895359980115,46.568939360954],[16.089585969264,46.5689072161131],[16.0895806733553,46.5688512162984],[16.0894454016143,46.5688059011648],[16.0893959823469,46.5687483422753],[16.0893458010307,46.5687178710853],[16.0893353780091,46.5686077591571],[16.0894009966093,46.5684645344378],[16.0892101672835,46.5684459289207],[16.0891553538662,46.5683599912987],[16.0890142988411,46.5683515277645],[16.0890035189689,46.5683213110696],[16.0888977508076,46.5682574508235],[16.0883825528915,46.5678374337145],[16.08811119993,46.5677450987458],[16.0878125390882,46.5675004365429],[16.0878321622247,46.5674379918355],[16.0876184867435,46.5672551388144],[16.0874886546953,46.5672467466234],[16.0873953840419,46.5671096219023],[16.0874039668002,46.567036486018],[16.0875146319802,46.5669474448846],[16.0874675848085,46.5668125797872],[16.0872878301617,46.566708125942],[16.0874027107592,46.5666733857233],[16.0872718036719,46.5665980670564],[16.087262257506,46.5665054903973],[16.0874473567833,46.5664792594327],[16.0879424999161,46.5664583567731],[16.0885597346891,46.5662937802603],[16.0888114316321,46.5662255278362],[16.0891500944164,46.5661096632715],[16.089432435857,46.5660149368891],[16.0897457810673,46.5659246827607],[16.0903158950398,46.5657331053035],[16.0909078321392,46.5655176551836],[16.0915445328727,46.5653620536374],[16.0917852990194,46.56532151925],[16.0919640543151,46.5652914728757],[16.0922625426944,46.5652412996202],[16.0924814263177,46.5651764113536],[16.0933398576863,46.5647670402704],[16.0936394088398,46.5646206770485],[16.093781111495,46.5645514859626],[16.0941362862085,46.564395052877],[16.0944056088615,46.5642765071088],[16.0946588946511,46.5641648618068],[16.0948481434459,46.5640990830045],[16.0950372378332,46.5640321357768],[16.0954385626544,46.5639201510385],[16.096292397035,46.5637702705745],[16.096559999565,46.5637350469431],[16.0968474828341,46.5637154664864],[16.0970687957356,46.5637004785829],[16.097368528007,46.563667374041],[16.0975246714498,46.5636354666146],[16.0977742276745,46.5636303727746],[16.0978718951773,46.5636029846784],[16.0993366967286,46.5631952141535],[16.0991429834642,46.5627747639875],[16.0986081934911,46.5609591204354],[16.098434705189,46.5609907460873],[16.0982637489328,46.5609862698154],[16.0981701263914,46.5609553198726],[16.0981085709966,46.5609169544972],[16.0980496149167,46.5607940837591],[16.0979118819772,46.5605032783031],[16.0977627295378,46.5601700271823],[16.0980723712794,46.5600601725215],[16.098216314766,46.5599865459029],[16.0982640619269,46.5599288675178],[16.0982509497424,46.5598220209078],[16.0981877480795,46.5597149354651],[16.098078968036,46.5594562408301],[16.0979791728067,46.5592096955479],[16.0979584428582,46.5590807897701],[16.0979545123886,46.5588859557699],[16.0978842067625,46.5586658479498],[16.0977172894787,46.5585573285293],[16.0973436792415,46.5584697753335],[16.0971360806536,46.558445855841],[16.0970751677407,46.5582256574173],[16.0965364211375,46.5571853894695],[16.0958340406025,46.5559648602428],[16.0950249122704,46.5550506117194],[16.0948290519738,46.5546758783],[16.0942975537931,46.5535251384555],[16.0940631074581,46.553098770957],[16.0939344118297,46.5527818730124],[16.0937832892377,46.552289840618],[16.0935883602408,46.5519605301439],[16.093325372866,46.55152147843],[16.0931593947162,46.551224369115],[16.0930390526616,46.5508553883862],[16.0928646616948,46.5500805357498],[16.0914885622443,46.5483539523756],[16.090258650581,46.5459397676873]]]},"properties":{"fill-opacity":0,"stroke-opacity":1,"stroke":"#ff0000","lov":"0805","lov_naziv":"VIDEM OB ŠČAVNICI","luo":"08","luo_naziv":"Pomursko","povrsina":4185.68},"id":"pregledovalniklovisca.1"}]}