<?xml version="1.0" encoding="utf-8" ?>
<kml xmlns="http://www.opengis.net/kml/2.2">
<Document id="root_doc">
<Schema name="pregledovalniklovisca" id="pregledovalniklovisca">
	<SimpleField name="lov" type="string"></SimpleField>
	<SimpleField name="lov_naziv" type="string"></SimpleField>
	<SimpleField name="luo" type="string"></SimpleField>
	<SimpleField name="luo_naziv" type="string"></SimpleField>
	<SimpleField name="povrsina" type="float"></SimpleField>
</Schema>
<Folder><name>pregledovalniklovisca</name>
  <Placemark id="pregledovalniklovisca.1">
	<Style><LineStyle><color>ff0000ff</color></LineStyle><PolyStyle><fill>0</fill></PolyStyle></Style>
	<ExtendedData><SchemaData schemaUrl="#pregledovalniklovisca">
		<SimpleData name="lov">0103</SimpleData>
		<SimpleData name="lov_naziv">PLEŠIVICA</SimpleData>
		<SimpleData name="luo">01</SimpleData>
		<SimpleData name="luo_naziv">Novomeško</SimpleData>
		<SimpleData name="povrsina">9093.81</SimpleData>
	</SchemaData></ExtendedData>
      <MultiGeometry><Polygon><outerBoundaryIs><LinearRing><coordinates>14.946958058022,45.7918659637051 14.9458222088033,45.791694919179 14.9444619360272,45.7921527128393 14.9429236099881,45.7924960372369 14.9404024962533,45.7925313718082 14.9391240937727,45.7921627707494 14.9385726764038,45.7921623856552 14.9368363910107,45.7927041967324 14.9353369044011,45.793332856073 14.9338387974612,45.7933105832658 14.9322665370914,45.7929170805566 14.9306458182521,45.7929290653862 14.9294187290653,45.7934262617178 14.9281841552202,45.7944259767414 14.9270721299545,45.7953229097604 14.9259509128679,45.7955573955171 14.9238240335162,45.7958810939242 14.9230953147185,45.7965404266733 14.9229643325193,45.7971231366774 14.9224533567184,45.7974227831856 14.921369646347,45.7982933154194 14.9203479699111,45.7989394713264 14.9194228317637,45.7989054402256 14.9183833567307,45.7990313037918 14.9171147168859,45.7992772046646 14.9166569983232,45.7998882831954 14.9139722741374,45.800265737407 14.9116636064666,45.8002775628092 14.9097721601492,45.8000323301181 14.9089272700462,45.7998489112349 14.9085476512564,45.7996870946256 14.9079302437285,45.7992490279265 14.9074318896776,45.7988578437748 14.9067328016622,45.7981956550487 14.9064133075067,45.7977838269401 14.9061825678204,45.7976846601103 14.9059740366946,45.7976897075195 14.9052666028619,45.797720346118 14.9045365805448,45.7978708143504 14.9039034786518,45.7979120342053 14.9032631427621,45.7978958374169 14.9027868702797,45.7976297233124 14.9022265350513,45.7978432168015 14.9003250017958,45.7987794315752 14.8989090983708,45.7990386786701 14.8970445028633,45.8000530636111 14.8961745881994,45.8006903218269 14.8956118738594,45.8011145128097 14.8944277005424,45.8009705372371 14.8930983023702,45.8018977105763 14.8915415127718,45.8014441860419 14.8904854334172,45.8015184016553 14.889061368596,45.8020722918773 14.887498092459,45.8027461500381 14.8855990451009,45.8032085590069 14.8827911890778,45.8037223758457 14.8805401085147,45.8045901467329 14.8790097294775,45.8056179023069 14.877823128179,45.8067370645657 14.8763255455833,45.8082444095183 14.8757033959363,45.8086211983352 14.8753349127575,45.8084441671902 14.8751953497549,45.8076789192939 14.8746302293956,45.8075247056482 14.8730014750936,45.8087293518554 14.8713154999216,45.810390825813 14.8702442146585,45.8112771714873 14.8692723081276,45.8116350815941 14.8682284635327,45.81221056069 14.8672536789322,45.8132260197579 14.8664825986467,45.8141149275855 14.8653970512236,45.8146105201218 14.8640726589501,45.8149468248707 14.8626224297908,45.8159524994794 14.8612698895515,45.8168777426423 14.8596883720311,45.8178552366307 14.8580902420396,45.8188155918647 14.858117587461,45.8190438133599 14.8582191897194,45.8195748173843 14.8583145876457,45.8200158342808 14.8583009997458,45.820299252205 14.8582156298244,45.8210280684961 14.8578363216059,45.820897127247 14.8578546178302,45.8212930588344 14.8578462597159,45.8220488742995 14.8578765100638,45.8228047376917 14.8578940659436,45.8235425893408 14.8579115164553,45.8242714428376 14.8579102460123,45.8247708259528 14.8578199496928,45.8248516949303 14.8578050980805,45.8256299966416 14.8577969932184,45.826336323285 14.8578402530664,45.8270382147965 14.8578515204339,45.8276680830709 14.8578446613626,45.8278345360085 14.8577063010937,45.8281374136364 14.8577077302113,45.8285362930502 14.8577448671296,45.8291661933813 14.8577245060389,45.82958007211 14.8580657053977,45.8295355068662 14.8579222687073,45.8302641596353 14.8578307264434,45.8308309142883 14.8578405255508,45.8310771093594 14.8578866097394,45.8316317979571 14.8579370917028,45.8320772573174 14.8580128575944,45.8326532177316 14.8580766907731,45.8328602489495 14.8581078758301,45.8332516967174 14.85779206547,45.8334267633326 14.8581457716757,45.8335351778838 14.8582277150049,45.8342146216091 14.8583098917891,45.8348535749066 14.8576977901874,45.8351137535319 14.8571051873366,45.835297471057 14.8561465605558,45.8351523917224 14.855380907669,45.8350029598066 14.8550527086753,45.8349845481439 14.8544615762012,45.834601385745 14.8540182233485,45.8343173861323 14.8536393773104,45.8339794799835 14.8528530620026,45.8344013717442 14.8521763760089,45.8347379198315 14.8517058911309,45.8349802536731 14.8512863763566,45.8354161968607 14.8507635740254,45.8359643874514 14.8505506462282,45.8361620630545 14.8504326431686,45.8370122105322 14.8503411342623,45.8375339690532 14.850288616897,45.8379163110771 14.8502170788018,45.8381906533103 14.8501833868069,45.8387529779203 14.8501431125042,45.8393692812271 14.8501550156646,45.839778701229 14.8499425306961,45.8398054160821 14.8485715342542,45.8397452110761 14.8488861617849,45.8400785498268 14.8492009074091,45.8403219088724 14.8496251182489,45.840551914303 14.8501712466552,45.840925954443 14.8503641116094,45.8410161861332 14.8508459281003,45.8413722329681 14.8513596600135,45.8418317950644 14.8518285296277,45.8422688019126 14.8522200567278,45.8426967089093 14.8526432290937,45.8433316068826 14.8529443646057,45.8438673694177 14.8531748837973,45.8443805456658 14.8532964824303,45.8446506385726 14.8527359741793,45.8448253764485 14.8514607735167,45.8450532620773 14.8507463481854,45.8450073416936 14.850366448472,45.8450428364059 14.8491115115134,45.844865727312 14.8485516350767,45.8448020013987 14.8477273146548,45.8449268763488 14.8467226457596,45.8450875851134 14.846136635998,45.8451632796075 14.8458187196907,45.8460626400077 14.8455075088706,45.8469080211254 14.8452804480894,45.8475375659769 14.8450792953513,45.8481086591821 14.8448716506918,45.8486977389318 14.8445474971541,45.8495566862775 14.8442880366905,45.8502536688987 14.8441322567568,45.8507078495314 14.8436043408983,45.8507071282073 14.8439307913437,45.8513824155945 14.8438394873403,45.8518006922646 14.8441602627099,45.8522060347515 14.8444159989976,45.8528947209281 14.8442419276078,45.8529799636238 14.8442155841947,45.8531913778321 14.8442918517667,45.8535468979247 14.8441744164427,45.8541001072317 14.8436065392471,45.8545627220063 14.8436057069239,45.854859650738 14.8435587886237,45.8551056783796 14.8432431950558,45.8556015685985 14.8434608817513,45.8560382638656 14.8440657216025,45.8561785578726 14.8446899808857,45.8562827936021 14.8455452366673,45.8566753602673 14.8458470469556,45.8569681986429 14.8463292446973,45.8572252874528 14.8467215635318,45.8573877760488 14.84735219938,45.857568577641 14.8480214659819,45.857704437782 14.8484012455667,45.8577454326749 14.8487556119628,45.857660422491 14.8491166594302,45.8574854413254 14.849291017001,45.8572967161358 14.8495174051172,45.8569146049754 14.8496989785011,45.8563884684513 14.8499181834983,45.8562806921217 14.8500469442705,45.8562853601008 14.85036181034,45.8565197175352 14.8506964610447,45.856628129741 14.8512240131902,45.8567862805748 14.8520155797353,45.8569357733147 14.8526722222023,45.856977112235 14.8532130395477,45.856991305041 14.8539918428475,45.8571002772695 14.8548157790052,45.8571868068631 14.8553885128227,45.8573090043677 14.8561740306182,45.8573144047241 14.8567152103673,45.857189114414 14.857256640937,45.8569648452698 14.8577143526029,45.8567449682729 14.8580561645358,45.8565249455236 14.8583782124302,45.8564803557551 14.8587326012246,45.8563773188972 14.8592606278433,45.8563554757808 14.8597954318908,45.8561986704568 14.8603885747666,45.8558843811667 14.8608590750738,45.8556915007766 14.8612521080662,45.8555795052669 14.8616449163494,45.8555574868652 14.8620183085044,45.8555759340995 14.862481341836,45.8557969401735 14.8626611683126,45.8559816128392 14.8631693331956,45.8561801756628 14.863214194065,45.8562657091589 14.8636774797132,45.8563877340695 14.86447577277,45.8564831612968 14.8652740049831,45.8565515892586 14.8660401213515,45.8565884814471 14.8668771396702,45.8565938685918 14.867224657298,45.8566662558923 14.8677789393108,45.8564329539338 14.8685264818812,45.8561548824375 14.8689517698855,45.8560114050073 14.8696537473707,45.8559402249263 14.8705166881072,45.8558692230401 14.8707549776419,45.8558430390623 14.8714504721282,45.8557892065035 14.8721653002141,45.8557270233199 14.8726803665176,45.8557365962458 14.8731890659961,45.8557146672292 14.873858749969,45.8556839158988 14.8745350336662,45.8555811849053 14.8751147566607,45.8554693465432 14.8755913101588,45.855424877011 14.8762284572752,45.8555470402092 14.8766853470405,45.8556599176156 14.8772903062834,45.8557820401473 14.8777667523135,45.8557870497301 14.8781273725288,45.8557604412972 14.8788554119696,45.8555407675736 14.8793451224011,45.8553658271712 14.8795773567257,45.8551591210548 14.8797706674951,45.8550873416218 14.8801184535577,45.855038218713 14.8801439659684,45.8551507188992 14.8803358222476,45.8558167625964 14.8804643821389,45.8559158737531 14.8805986108268,45.8563749055724 14.8803796480825,45.8563971712449 14.8804240726741,45.8566986464391 14.8805195547626,45.8572116249588 14.8804290457229,45.8573824898237 14.8803643781514,45.8575128912547 14.8805246639058,45.8578324833334 14.8800474455984,45.8581784013438 14.8797124206365,45.8582725267888 14.8796992712248,45.8583984831087 14.8799180416108,45.8585291823109 14.8803552700071,45.8588175727266 14.880915025972,45.8590206094691 14.8811596875747,45.859029862047 14.8813012683051,45.8590660006738 14.8810240758286,45.8592141772139 14.8808305697499,45.8593714382506 14.8805019394048,45.8594835683935 14.8802572469527,45.8594878111763 14.8798645247851,45.8594604053678 14.879626193743,45.8595006449548 14.8793103874842,45.8596362696091 14.8789305935874,45.8595854797919 14.8786217256083,45.8594906745244 14.8782223491492,45.8595622325395 14.8779966780928,45.859701458752 14.8777262283218,45.8597056686113 14.8776422049435,45.8598495445353 14.8778930230963,45.859989279759 14.8778926784141,45.8601467420463 14.8780917594872,45.8603898969833 14.8781236110772,45.8605473936042 14.878335710303,45.8607275769284 14.8787474256315,45.8609079718419 14.8790949173408,45.8610118154832 14.8793319739302,45.8610280822582 14.8800735302296,45.8610803307152 14.8808141447733,45.8610315273598 14.8814646664818,45.8609557221684 14.8822440745517,45.8608305579078 14.8825854550964,45.8607814209371 14.8825531038499,45.8609163556623 14.8827324079851,45.8613889276857 14.8827831088618,45.8617758878401 14.8828918872063,45.8621044213728 14.883046006493,45.8623070311249 14.8830835486741,45.8628289455408 14.8830058983168,45.8630088232953 14.8827155564309,45.8632784614968 14.8825472018633,45.8637192737235 14.8825147635171,45.8638946986486 14.8825781074878,45.8643941449622 14.8825260601342,45.8646460315182 14.8824292856828,45.864731411647 14.8823454946048,45.8647673168394 14.8823453047942,45.8648572952289 14.88242875459,45.8649833511364 14.8823960630094,45.8652172618048 14.8824339234581,45.8655862129235 14.8823173628627,45.8658920200806 14.8821818332506,45.866031347202 14.8817115959261,45.8660938463931 14.881557213083,45.8660127057686 14.8809964342807,45.8662550652609 14.8807386593771,45.8663402761515 14.8802039906534,45.8664161986557 14.8797660634149,45.8664247365691 14.8795279454907,45.8663525029279 14.8792792938363,45.8663273164495 14.8791093966106,45.8663340651849 14.878374610366,45.8666303046896 14.8778650940735,45.8669806776026 14.877781237525,45.8670435729294 14.8777423417384,45.8671605034355 14.877452041753,45.8673896377691 14.8771168678441,45.86752424564 14.8768524325759,45.8677039180506 14.8766459157071,45.8679016480881 14.8765106260656,45.8679239965982 14.8764844675119,45.868103925396 14.8762645986131,45.86851308984 14.8761419076832,45.8686614214887 14.8759613653059,45.8687602020323 14.8758196632696,45.868769045982 14.8758710123816,45.8689040695555 14.8757867899329,45.8691289243337 14.8756577264451,45.8692457560392 14.8756567331107,45.869691238571 14.8756562616148,45.8699026875489 14.8760912596417,45.8701236073967 14.8760864592674,45.8701391684721 14.8760864647503,45.8701391713925 14.8760896755937,45.8701408815514 14.8775696896323,45.8695942377953 14.8782827272207,45.8691910859782 14.8791155580165,45.8687798684276 14.8805454866182,45.8680737810267 14.8828051152972,45.8676676182662 14.8828155769488,45.8678990537947 14.8851579394377,45.8670844267142 14.8868769222397,45.8664291179659 14.887386977242,45.8669295426127 14.8882846402513,45.8678588223421 14.8892182584896,45.8689878820437 14.8898343577042,45.8698171797633 14.8899566131086,45.8700029232143 14.8898330720199,45.8704027586051 14.8905082496281,45.8702176919207 14.892430989007,45.869919619725 14.897462925243,45.8690530738203 14.902842413058,45.8681436824808 14.9077922988541,45.8673194414588 14.9099397737595,45.8669926424595 14.9101446269229,45.8667928713896 14.9108830989949,45.8668262018854 14.9117462700681,45.8666829061092 14.9120171273933,45.8664401728793 14.912467717963,45.8665663989239 14.9130864198716,45.8662609440861 14.9164069166243,45.863512506238 14.9177171096199,45.8624565684191 14.9183109288476,45.8619427666373 14.9189843909459,45.8627145428385 14.9196773511344,45.8640005563654 14.9204748454292,45.8639868075596 14.9212523858658,45.8636016977644 14.9221717554122,45.8640165891003 14.9221939448278,45.865097696921 14.9232490117863,45.8658542304389 14.9240218265483,45.8659177318905 14.9261954605406,45.8667331024949 14.926256333682,45.8670616534764 14.9266425399421,45.8674006712748 14.9281275708257,45.8684166627853 14.9285030242725,45.8687199459784 14.9292595886547,45.8687347234257 14.929668859103,45.8684779074197 14.9308576811193,45.8685943453093 14.9322994621434,45.8692520517671 14.9326113440189,45.8698508631206 14.9331484412244,45.8701883280345 14.9332895996357,45.8706293051431 14.9337144043468,45.8709534749026 14.9347873324702,45.8709840550773 14.9356565438488,45.8709667320764 14.936126524136,45.8712241542459 14.9374762997097,45.8711106280799 14.9419577414292,45.8712637961668 14.9420164854714,45.8705132254701 14.9429789338559,45.8693710728162 14.9433892154836,45.8683142991702 14.9444331285224,45.8674293328292 14.9445357784615,45.8670437346665 14.9442499746085,45.8666579475279 14.9450928616505,45.865965520756 14.9452740259931,45.8652301228452 14.9456942031253,45.8643838947933 14.9463401121552,45.8627597262806 14.9464838864791,45.8621742128607 14.9479551784299,45.8628319163018 14.9491226743744,45.8612471986747 14.95024797154,45.860119181984 14.9522528482105,45.8589203517734 14.9531738759436,45.8578494467218 14.9524184533177,45.8569636542999 14.9540154716118,45.8545219256576 14.953361763304,45.8541502284563 14.9516864565919,45.8532925747374 14.9513799634567,45.8531781717095 14.9511355308442,45.8523353262745 14.9521593999793,45.8506075368759 14.9533261462543,45.8490083759788 14.953511277307,45.8479514700293 14.9540834714662,45.8480945877948 14.9555018412576,45.8458199434159 14.9565393444494,45.8442774746548 14.9575224357377,45.8427683580252 14.9594441563407,45.8422549166203 14.9592198547277,45.8415978105554 14.9599559647937,45.8412695577441 14.9603436145865,45.8419695491847 14.9615071691792,45.8415963544945 14.9661695312988,45.840429003328 14.9671914517254,45.8404149946575 14.9684984496078,45.841672278484 14.9691519232602,45.8423866196157 14.9696222339243,45.8421153691416 14.9717889839924,45.8415161249874 14.9726275176296,45.8406164494003 14.9737315989559,45.8400026020949 14.9734457384074,45.8396025794765 14.9751626920231,45.8392745422953 14.9768287958756,45.8385879926939 14.977860484198,45.8388466169101 14.9783512133438,45.838518197633 14.9790271407373,45.8386407851054 14.9795807304164,45.8385329105784 14.9801470791703,45.8387399620658 14.9819264183005,45.8407470584624 14.9842961738894,45.842732794124 14.9857465740626,45.8442754928158 14.98642064448,45.8449755207637 14.9873811079831,45.8455040768828 14.9897431149122,45.8462695836781 14.9915092049741,45.8469613961108 14.9924902302558,45.8474328640335 14.9937983516681,45.8475042957476 14.9963733282611,45.8488042408518 14.9975587608685,45.8493613312525 14.9982946108018,45.8493042080505 14.9993415342568,45.8494220011597 15.0000496998336,45.8488011491339 14.9998951936435,45.848234282422 15.0002943322865,45.8480363286358 15.0017900908256,45.8486615779519 15.0027916815987,45.8486615578717 15.0034864965585,45.8494470539594 15.004015561402,45.8494488361685 15.0044275676812,45.8492238738864 15.0045949688487,45.8494308185737 15.0054190299422,45.8495657506977 15.0056635784592,45.8486659505607 15.0062815897722,45.8485219521207 15.0066549385862,45.848171013511 15.0080454751928,45.8480809452224 15.00940983352,45.8485368537785 15.0101297847746,45.8489754390368 15.0104976632311,45.8484041302119 15.0107225103795,45.8472756846013 15.0104364848063,45.8462331259722 15.0074321853117,45.8420340452998 15.0070642835084,45.8413199057465 15.0070030358301,45.8405486998743 15.0085972147887,45.8407342176504 15.0098438625059,45.8412055168089 15.0110088329334,45.8380203346426 15.0112953086823,45.8382619003023 15.0126641467404,45.8389770897947 15.0135838180169,45.838976984167 15.0147487150616,45.8389340097501 15.0166697463745,45.8387481189926 15.0195309077633,45.8385906524304 15.0198602157229,45.8382575834013 15.0185601542696,45.8370967128334 15.0186111729069,45.8364502052539 15.0190862170532,45.8358125354637 15.0197583336823,45.8351916558022 15.0204812638103,45.8348747122727 15.0209668936171,45.8344106021995 15.0212985198629,45.8338305358138 15.0215471594679,45.8333664671169 15.021460864788,45.8325614404973 15.02050899144,45.8304605131949 15.0213049885105,45.8298676750386 15.0210607026336,45.8295535131859 15.0200788838306,45.8291781169984 15.0214045158657,45.8286097480281 15.0223432046701,45.8276709957196 15.0230424990762,45.8264899701287 15.0244114860325,45.8263896290053 15.0268014083979,45.8248033000102 15.0274345409958,45.8243887954627 15.0283948185919,45.8242314571503 15.0299269282083,45.8236453013864 15.0313569805454,45.8235734743853 15.0336244039516,45.8227585175443 15.0358512857059,45.8226434769245 15.0383230793854,45.8219855561697 15.0401410093975,45.8214419971296 15.0407946895545,45.8211560814458 15.0424085433895,45.8210554369218 15.0453899289104,45.8191255854744 15.0458798879778,45.8185539312129 15.0465523156794,45.8178318451516 15.0474921415241,45.8172755661051 15.0476198055132,45.8165325535773 15.0482472994916,45.8155383784237 15.0472457835725,45.8149245077972 15.0448762256991,45.8149825998913 15.0430783510056,45.8146689939059 15.0418524212014,45.8142980146496 15.0389515677043,45.8141561530933 15.0388285016553,45.8131560740681 15.0373163210801,45.8121850702905 15.0378460937882,45.8101419131216 15.0381315938915,45.8093703343901 15.0374161798498,45.8083561424083 15.0364762831158,45.8077421564229 15.0341270394266,45.8070856720453 15.0307773136238,45.8072008973671 15.0286327287678,45.8073014221105 15.026385790813,45.8070019714444 15.0253235229464,45.8063164780413 15.0247473889496,45.8054383142587 15.0248227548455,45.8039300610155 15.0251689563462,45.8024954412503 15.0257182245313,45.8006776414488 15.0260469098879,45.7990146538717 15.0255340075248,45.7978675293637 15.0260210716987,45.7968439009999 15.02642221556,45.7956010098136 15.0246859523847,45.7942155310065 15.0243992794948,45.7919582714909 15.024644224827,45.7914725083082 15.0248682001862,45.789829429495 15.0260311576493,45.7872860717762 15.0257652404941,45.7860146272678 15.0256783178602,45.7857752105131 15.0248609879621,45.7837323088882 15.0245843319989,45.7827997274005 15.0241471611619,45.782097977543 15.0237220309298,45.781257474421 15.0227216188317,45.7811862337 15.0209258838654,45.779574046628 15.0193118425546,45.7795009971875 15.0188518537289,45.7791213586944 15.0168745127819,45.7802165435738 15.01429073118,45.78126723143 15.0122689161392,45.7814592135812 15.0106722500228,45.78168585327 15.0083491081591,45.781116743822 15.0059196832431,45.7807453684825 15.0041231867558,45.7812312489436 15.0003396420457,45.7826029762877 14.9989432434235,45.783713863394 14.9975531143988,45.7842934923241 14.994996711443,45.7851028676819 14.9924240772122,45.7855599136181 14.9914642775757,45.7862741957985 14.9910900187544,45.7870679691596 14.9895951792363,45.7882399196891 14.9880945550196,45.7891026793126 14.9876769196223,45.7903201512673 14.9874755915503,45.7916280749864 14.9866998570172,45.7927145825253 14.9853608471285,45.7932233440904 14.9843220595193,45.7940975390727 14.983143751495,45.7942869585407 14.9818340415062,45.7942708314151 14.9809000481554,45.7939175087902 14.9804234740138,45.7931869728721 14.9802405888291,45.7920279125959 14.9798864364694,45.7910859429014 14.9789935219867,45.7907782314514 14.9777493459735,45.7908077792372 14.9757865273552,45.7914944654792 14.9741842213845,45.79240929855 14.9731480539556,45.793923328334 14.9720834866638,45.7942382720803 14.9713351022764,45.7937620041908 14.9704157441951,45.7943330509611 14.9699738703755,45.7936663660808 14.9699740876717,45.7932617273893 14.967899414217,45.7915232949485 14.9665039434611,45.7917847354169 14.9656878897657,45.7908322376576 14.9637819209414,45.7910934904724 14.9629324909027,45.7895458361617 14.9602099170431,45.7896638737456 14.9562954760502,45.7905194107846 14.9548989317505,45.7917567194345 14.9527198692936,45.7927080040221 14.9516297311145,45.7937787562089 14.9513732403427,45.7943749428073 14.9504071222859,45.7934746405706 14.9493998940214,45.7932638263998 14.9487604189826,45.792773061989 14.9480063217904,45.7921738162832 14.946958058022,45.7918659637051</coordinates></LinearRing></outerBoundaryIs></Polygon></MultiGeometry>
  </Placemark>
</Folder>
</Document></kml>
