<?xml version="1.0" encoding="utf-8" ?>
<kml xmlns="http://www.opengis.net/kml/2.2">
<Document id="root_doc">
<Schema name="pregledovalniklovisca" id="pregledovalniklovisca">
	<SimpleField name="lov" type="string"></SimpleField>
	<SimpleField name="lov_naziv" type="string"></SimpleField>
	<SimpleField name="luo" type="string"></SimpleField>
	<SimpleField name="luo_naziv" type="string"></SimpleField>
	<SimpleField name="povrsina" type="float"></SimpleField>
</Schema>
<Folder><name>pregledovalniklovisca</name>
  <Placemark id="pregledovalniklovisca.1">
	<Style><LineStyle><color>ff0000ff</color></LineStyle><PolyStyle><fill>0</fill></PolyStyle></Style>
	<ExtendedData><SchemaData schemaUrl="#pregledovalniklovisca">
		<SimpleData name="lov">0115</SimpleData>
		<SimpleData name="lov_naziv">ŠKOCJAN</SimpleData>
		<SimpleData name="luo">01</SimpleData>
		<SimpleData name="luo_naziv">Novomeško</SimpleData>
		<SimpleData name="povrsina">5074.64</SimpleData>
	</SchemaData></ExtendedData>
      <MultiGeometry><Polygon><outerBoundaryIs><LinearRing><coordinates>15.2976164206561,45.8723795170143 15.2972551484177,45.8725318988258 15.2969483610482,45.8727562104609 15.2965034515354,45.8730467469914 15.2960224224328,45.8731597567094 15.2954939935156,45.8732231148084 15.2947727414799,45.8733904763799 15.2943721368871,45.8735372824748 15.2941880654299,45.8735866184446 15.2939433817244,45.8736957673948 15.2937573979559,45.8736033001612 15.2934735574258,45.8734700550689 15.2931568773404,45.8733867426466 15.2927156469835,45.8733787933724 15.2920478690668,45.873426582833 15.2915324335173,45.8733192127349 15.291245716772,45.8738625242572 15.2910701827243,45.8740777021238 15.289849441785,45.8744122828202 15.2893193097841,45.87454284566 15.2880839253702,45.8751583422638 15.2878017028799,45.8754221028961 15.2874282788817,45.8759015645874 15.2871838947124,45.8761686065541 15.2867709424208,45.8763245680623 15.2863037361122,45.8761853033634 15.2858612849715,45.8761695609894 15.284355376153,45.8761674503264 15.2836916344709,45.8762063628403 15.2827416864438,45.8763796221755 15.2824913211297,45.8765923988648 15.2821171349129,45.877131225929 15.2822503882757,45.8776212817371 15.2821958756675,45.878175902041 15.2820008030372,45.8785668322164 15.2816169865904,45.8790115990638 15.2814259525674,45.8792758885642 15.281321199591,45.8793690689721 15.2811606194846,45.879425645479 15.2809553866037,45.8794008740937 15.2802742737553,45.8791160454565 15.2798433465548,45.8789963234735 15.2796421777433,45.8789799653644 15.2794208323831,45.8789496126198 15.2791612673776,45.8789165443219 15.2791615931639,45.8789811486341 15.2791886013398,45.8790714933555 15.2792125209248,45.8791116399389 15.2792429250556,45.8791593171212 15.2792833602702,45.8792027558789 15.2794324925981,45.8792684002368 15.2796754691889,45.8793578682106 15.2798435367153,45.8794238585717 15.2800209207131,45.8795169454447 15.2801218472504,45.879592538074 15.2803364343623,45.8798757127655 15.2804499531998,45.8800552036259 15.2805590340575,45.8801532480273 15.2806561424019,45.8802681741459 15.2806927355348,45.8803467344994 15.2806851258667,45.8804324261588 15.280434530649,45.880681749223 15.2800064450373,45.8804564185263 15.2796101605608,45.8803468561437 15.2793103058556,45.8802896929377 15.2789883472336,45.8802616915757 15.2785280591859,45.8802659715518 15.2781255232672,45.8802774864374 15.2777226251313,45.8804222600523 15.2775747601285,45.8804543845212 15.2774305481639,45.8804956777501 15.2772593374309,45.8806651528098 15.2771281573849,45.8806964405138 15.2768173671548,45.880531907253 15.2765507765603,45.8804465371411 15.2762064587443,45.880429919818 15.2759680191005,45.8804091748934 15.275719462801,45.8803230391442 15.2754244878053,45.8801963638126 15.2752959872419,45.8800657108598 15.2751843369056,45.8798933475042 15.2751134032294,45.8797183200108 15.2749384456357,45.8798204206376 15.2747552304294,45.8799720295782 15.2746145656907,45.8801507053795 15.2738327725928,45.8807712057259 15.2736098666663,45.8810522087456 15.2734412170993,45.8811638782309 15.2732780372734,45.8813476004546 15.2729616742862,45.8815757835864 15.2724927681099,45.8818638103581 15.2714166240554,45.8823637049636 15.2710191885178,45.8826077077809 15.2707250823576,45.8826109950596 15.2705167646899,45.8827156671843 15.2702616715989,45.8828412868471 15.2701129719677,45.8829368875605 15.2700367285762,45.8830323156428 15.2699051084139,45.8831338284527 15.269722746343,45.8833188022875 15.2696427277924,45.8834805276474 15.2697719657818,45.8837978937438 15.2695811403949,45.883994792601 15.2695672473952,45.8841454732617 15.2691388018748,45.8846179228869 15.2690424527391,45.8845243931156 15.268845885226,45.884417706498 15.2688319193512,45.8845076746809 15.2688041783496,45.8845789139421 15.2688087000467,45.8846588866172 15.2688469196651,45.8847841451392 15.2688556627202,45.8849395184491 15.2687699980124,45.8850265720225 15.268887691237,45.8851274918067 15.2689413860222,45.8852136824454 15.2689373133475,45.8852523849408 15.2686353637372,45.885421068934 15.2690956370208,45.885820511352 15.2693504784659,45.8860773693533 15.2694321176765,45.8862126058191 15.2696327548189,45.886457512189 15.2697874644309,45.8865399153122 15.2700014674095,45.8867239453407 15.2700918223297,45.8868978534074 15.2699967953123,45.8870766665885 15.2693137811491,45.8871560264065 15.2696922604212,45.8880475380594 15.269070459456,45.8883972196486 15.2682703925177,45.8885736584872 15.2678464180239,45.8890427197838 15.2668574306109,45.8895929109981 15.2649905624115,45.8911736735038 15.2629682690248,45.8924989549008 15.2600261361419,45.893975120814 15.2584466404266,45.8952692603874 15.2581459950757,45.896602695775 15.2583211776724,45.8975868402289 15.258790686525,45.8981224971926 15.2583750198476,45.8982205241229 15.2568095721953,45.8988782834615 15.2565864897796,45.8985693499962 15.2572503589695,45.8983299554146 15.2566172966388,45.8978434276627 15.2558294727483,45.897047808274 15.254992725427,45.8967639980061 15.2548543169066,45.8963120768177 15.2545110037339,45.89580113644 15.2547300375745,45.8952295572677 15.2545415645397,45.8950157393225 15.2537393273928,45.8948031955631 15.2523882334864,45.8938421618392 15.2508859681362,45.8933811826644 15.2482945228548,45.8933032530599 15.2480916571527,45.8935832557855 15.2468571090627,45.8942936974388 15.2459582477681,45.8949235030594 15.245285285684,45.8951775181335 15.2454538409172,45.895792246631 15.2458583495839,45.8964936561906 15.2466487107736,45.8973141728575 15.2477345837542,45.898248225865 15.2488357123274,45.8989253478166 15.2496997391633,45.8997171595655 15.2503198223106,45.9009376147977 15.2502983362152,45.9016627048114 15.2498078462203,45.9019833800159 15.2490312087124,45.9024417135471 15.2479855353255,45.9032944596102 15.246939556325,45.9040273459597 15.2463698569538,45.9050104152954 15.2457524930788,45.9063247929682 15.2454776561839,45.9072501769545 15.2458392982764,45.9074777635208 15.2465697539879,45.9076875479199 15.24784150472,45.9079418637457 15.2465676952334,45.9091147820528 15.2457846198885,45.9100412617968 15.2455832465132,45.9108808284654 15.2451424881254,45.9113670254846 15.2446418146074,45.9117431261632 15.2439183098099,45.9122478289305 15.2435963357325,45.9130490486284 15.2429463079996,45.9139144895495 15.2421331140151,45.9151772545777 15.2406896553395,45.9161177826043 15.2397924224079,45.916864235014 15.2390934760869,45.9177698861482 15.2386170180294,45.9184347379303 15.2383623206354,45.9198296545697 15.2377591840814,45.9203920121302 15.2369338157321,45.9209039900152 15.2356897264691,45.9213947817038 15.2347156616531,45.9217816211387 15.2336010447826,45.922043310731 15.2327093031204,45.9224526390844 15.2319924627243,45.923192633409 15.2317528666911,45.924079129689 15.2313574104642,45.9249719694778 15.2309583454778,45.9254021500252 15.2301083898106,45.9259254650173 15.2311781798436,45.9262410169228 15.2321533616899,45.9276119185493 15.2322058904414,45.9279331218593 15.2329591286732,45.928574298839 15.2334375189537,45.9287637152152 15.2339853231006,45.9292386663145 15.2340031439226,45.9294290223889 15.234939301825,45.9305673873955 15.2354609453647,45.9312825351442 15.2355323306092,45.9320319909734 15.2350593843584,45.9331395984048 15.2350291832665,45.9340796556189 15.2354581461678,45.9346737938263 15.2360942216704,45.935814925685 15.2372076319122,45.9368718348293 15.2382905284702,45.9387735947552 15.2392150133294,45.9395095682193 15.2402575064836,45.9399120997149 15.2407702469461,45.9401133798078 15.241711396959,45.9407541017068 15.2425993438044,45.9409308253254 15.2438099582476,45.9407499137537 15.2447326637301,45.9410573737767 15.2468467285197,45.940708033519 15.2477861030299,45.9409322037898 15.2481631748933,45.9413003829018 15.2482506005649,45.9417880504421 15.2485267668466,45.9424895437135 15.2482917891361,45.9433586960155 15.2479859533581,45.9436687022484 15.2473583281643,45.9445028928253 15.2478627440637,45.9449047184535 15.2487810169088,45.9454694903622 15.2480224520402,45.9460110931177 15.2475029629995,45.9463113039864 15.2467361478004,45.9468011790358 15.2461741221679,45.9465864455379 15.2458632151842,45.9462811919735 15.2456594300302,45.946866482744 15.2457527072762,45.9479807410218 15.2467249039761,45.9486277423916 15.2488791460799,45.9488073447072 15.2490924654693,45.9487439858289 15.2510671381534,45.9496595923183 15.252334468481,45.9506565383746 15.2535813540923,45.9513466931994 15.2539364686755,45.9516565060988 15.2548798561777,45.9512461792518 15.2562264693849,45.9509220392149 15.2569731453789,45.9502948408318 15.2573376343517,45.9492550531895 15.2572263663809,45.9489868114998 15.25767565116,45.9485179174996 15.258930326292,45.9478852406066 15.2601185743267,45.9475343300375 15.2627152268714,45.9463468981576 15.2630885651846,45.9456517742554 15.2636366982639,45.9448286580711 15.2643004247541,45.9442053814969 15.264823435328,45.9435302402954 15.2653883717566,45.9433462757123 15.2669209147065,45.9425266116941 15.267294109919,45.9422473494009 15.2673756923781,45.9418867091382 15.2672533153508,45.9408433475368 15.2671488002978,45.9404032424563 15.2674522354472,45.939029747143 15.267395017923,45.9383679169995 15.2678205769831,45.9378816720806 15.268219573691,45.9377186869157 15.2678563842128,45.9372832380551 15.2679706268179,45.9369049748897 15.2679807704746,45.9363335941411 15.2684507560164,45.9362659977198 15.2698067303681,45.9361017446997 15.2703473415772,45.9358668855196 15.2706870077438,45.935944811777 15.2710217019491,45.9358225489088 15.2718015575311,45.9358592971064 15.2719834346494,45.9360272122622 15.2725191322076,45.9361339090341 15.2727736646881,45.9357857187454 15.2734268894008,45.9353510960242 15.2740581239739,45.9357163322375 15.2745420625417,45.9357871526508 15.2748703661848,45.9356783904819 15.2754356325918,45.9359224880668 15.2757792096615,45.9363976403498 15.2763612097959,45.9367889860704 15.2769218059778,45.9371534774065 15.2776827306212,45.9371651276228 15.2780832227721,45.93730811773 15.2781167895358,45.9375734695633 15.2796574164545,45.937507265468 15.2804758910741,45.9374221204426 15.2813542493449,45.9376780166785 15.2816393051991,45.937942748024 15.2811698494361,45.9381913420225 15.2812509863838,45.9388838787336 15.2811312988588,45.9394691165498 15.280842424069,45.9397262625009 15.2813360852533,45.9404358699049 15.2813472437992,45.9413671086275 15.2811988253796,45.9420611096783 15.28074013066,45.9424303349229 15.2801136655171,45.9434201836934 15.2770685896354,45.9458584350217 15.2768678540878,45.9460573215305 15.2765287042957,45.9464865247248 15.2757118601875,45.9469286673817 15.2744285441618,45.9479613665804 15.2729904088804,45.9487078434597 15.272112996482,45.9492265855641 15.2722781951551,45.9500359875241 15.2722817332413,45.9503634063476 15.2721083091527,45.9509046726834 15.2721296613347,45.9513140183138 15.2723757593848,45.9515203796915 15.2727937039962,45.951258448806 15.2731247528181,45.9517418256354 15.2730434899937,45.9521891166916 15.2727927467091,45.9523516745074 15.2743088913498,45.953095666119 15.2755543960976,45.9538835694423 15.2760774174941,45.9539992775103 15.276937802894,45.9544830726613 15.276723225276,45.9547322894028 15.2767149653676,45.9550684641775 15.2762534251746,45.955645434744 15.2758168502203,45.9560558853754 15.2761676381652,45.9565544114903 15.2758643773665,45.957054607132 15.2767080648248,45.9575698460898 15.2770635902955,45.9579800003037 15.2774914659988,45.958125804862 15.2776154609893,45.9584134305525 15.2779833817241,45.9584620236295 15.2784356182142,45.9592976199965 15.2791072993488,45.9600518792836 15.279499247609,45.9597449992022 15.2805811480208,45.9593869384918 15.2820758873859,45.9590322581576 15.2822906522455,45.9588721984233 15.2824441814898,45.9588480651246 15.2825800684886,45.9587287794421 15.2829218808403,45.9585891890162 15.2838131497176,45.9579705457233 15.2841915165082,45.9577403436866 15.2852107142213,45.9577468023697 15.2874071626001,45.9569645269097 15.2887297412779,45.9571891052577 15.2890625348879,45.9566843918935 15.2890821821653,45.9565677317922 15.2891501234529,45.9561623027469 15.2889679995719,45.9558703375874 15.2890428046323,45.9553707750674 15.2886677440712,45.9551872698279 15.2880277229494,45.9549054565367 15.288502419053,45.9544273800312 15.289005654661,45.9544531016747 15.2894363487549,45.9541730823668 15.290151020919,45.9539283316629 15.2902920435909,45.9538839746782 15.2909301852969,45.9536834123169 15.2913097837236,45.9535024909084 15.2921086882089,45.9533339938216 15.2923640311658,45.9528294684344 15.2922073929539,45.9524789578645 15.2924047315644,45.9519835783308 15.2927132018461,45.9517713421386 15.2930726975212,45.9514510015684 15.2939109779796,45.9514173567028 15.2942002572936,45.9512366578659 15.294541250242,45.9510783193323 15.294893923505,45.9506905076313 15.2949142923083,45.9503964093796 15.2949417395907,45.9500020581633 15.2949134366437,45.9495297505192 15.29517623686,45.949223149285 15.2954383410489,45.9487860821612 15.2956060182892,45.948517966119 15.2957005368197,45.9483670096243 15.2960021181915,45.9480783015346 15.2962975349077,45.947843595 15.2963568543427,45.9475989728456 15.2964679211199,45.9471413300943 15.2965291406288,45.9465518198161 15.2966029298907,45.9458767983533 15.2966063317151,45.9453054334164 15.2968445770369,45.9451159523718 15.2969980555397,45.9449939942094 15.2973672633833,45.9446695655163 15.2974602065434,45.9445878941262 15.2978333210911,45.9444159653595 15.2983152417128,45.9440907898791 15.2985247605066,45.9440060239499 15.2988300286398,45.9438824969887 15.299370679094,45.9436876306272 15.2999174833075,45.9434387591263 15.3003861458674,45.9430506254812 15.3012147694828,45.9424725891671 15.3017223254954,45.9421248372817 15.3022554485118,45.941736435693 15.3025120412106,45.94148831889 15.3026785987942,45.9412854287045 15.3028379474939,45.9409430923813 15.302939455297,45.9406369001255 15.3028732822687,45.940326743393 15.302807231946,45.9400389906603 15.3026760390859,45.9396299408906 15.3024990504592,45.9390995426245 15.3023229631455,45.9387580942972 15.3022057239567,45.9385424585079 15.3023715158489,45.9382001056308 15.3024720959644,45.9379371952565 15.3030608199548,45.938081309029 15.3034382357652,45.9375269461205 15.3035983056778,45.9373195728037 15.3041619125067,45.9366207486648 15.304295742832,45.9363324644343 15.3043841910449,45.9359993121708 15.3044542348067,45.9357908276864 15.3045491493294,45.9355084953242 15.3045922580077,45.9351619670443 15.3047391011647,45.9348961419133 15.3047958732026,45.9346665478528 15.3048136633346,45.9343830712262 15.3051025967568,45.9341618552698 15.3053453086493,45.933742811524 15.3056660540074,45.9334450282104 15.3058195822792,45.933224172497 15.305959422808,45.9328593891488 15.3062151164031,45.932458304211 15.3064395359362,45.9322327587696 15.3068170771073,45.9317143748104 15.3070802741386,45.9315067194761 15.3071801722092,45.9309395923085 15.3071720362332,45.9306336904193 15.3070929818702,45.9303279791096 15.3070328725176,45.9299502347598 15.3070368373052,45.9295003361439 15.3070548379189,45.9292573482642 15.3076858240983,45.9291071880785 15.3076908283289,45.9288462395512 15.3074563017687,45.9284059804774 15.307886801224,45.9281438863549 15.3080981989151,45.9279228714453 15.3083662927434,45.9276489762732 15.3088491852593,45.9273269919532 15.309124447881,45.9269753349205 15.3092908381266,45.9267544394953 15.3094566767078,45.9264345699041 15.3095843090077,45.9262002823304 15.3095761606462,45.9258943803897 15.3094828303474,45.9253411806065 15.3093893273708,45.9247565789539 15.3093225371806,45.9243383635703 15.3095462359518,45.9239913437785 15.3096412049831,45.9236806634763 15.3096252840119,45.9231363415712 15.3095071953806,45.922790247317 15.3095247328692,45.9224662800783 15.3096522307306,45.9222094982004 15.3098176281317,45.9218131479635 15.31000351405,45.9216236906439 15.310091479092,45.9212140533375 15.3103028202762,45.9209660409094 15.3106163168259,45.920542293869 15.3107761104839,45.9202989195226 15.3111416448456,45.9199605083226 15.3113983747652,45.9197618579865 15.3117582874105,45.9195719233959 15.3122206249017,45.9192557390098 15.3127347511075,45.918979901013 15.313139774694,45.918789838582 15.3135269596616,45.9185230726137 15.3137561874799,45.9183652523106 15.3141224272176,45.9181572972976 15.3147191069869,45.9176652766846 15.3149565275388,45.9174756692266 15.3151096950577,45.9172053136095 15.3153529462953,45.9169077158788 15.3159813685573,45.9163571153898 15.3164236541371,45.9159239981002 15.3168530420227,45.9154909148268 15.317051799338,45.9153059090267 15.317482947726,45.9151832419575 15.3178498717603,45.9151012419335 15.318111921079,45.9147136080977 15.3185486064208,45.9144333703903 15.3189932023454,45.9144096357382 15.3194561786388,45.9142193889732 15.3198936809819,45.9140831983439 15.3201960383308,45.9139833759241 15.3204134416498,45.9136813407758 15.3207018689837,45.9134016003624 15.3209840817087,45.913162366699 15.3214138543342,45.912805746173 15.321793231028,45.9126517161321 15.3221721891237,45.9124257037121 15.3224677756737,45.9122719076158 15.3226403587323,45.9123355747058 15.3227584280967,45.9123790605166 15.3232475725733,45.9122607067046 15.3235825312556,45.9122282664721 15.3236368265827,45.9121442533385 15.3237805482266,45.9119217808198 15.3239881241835,45.9115970021964 15.3240707720118,45.9114679195177 15.3241957008703,45.9112727630424 15.3244763935017,45.9107770879751 15.3246808714838,45.9104750812323 15.3248278690117,45.910263215415 15.3254150819819,45.9103875138173 15.3257378227272,45.910472073319 15.3263747528064,45.9102813024015 15.3262635832537,45.9100071872369 15.3262298307308,45.9097463476564 15.3262557119708,45.9096757310843 15.3263503560752,45.909417584129 15.3265485325457,45.9091425853424 15.3266629562224,45.9088948190201 15.3267008226694,45.9087800788908 15.3267832659929,45.9085300644298 15.3267303894271,45.9083052707897 15.3268948849265,45.9077829283016 15.3268548712042,45.9075535989961 15.3266925186571,45.907342615069 15.3266781782733,45.9070952166946 15.3268494319642,45.9066268416184 15.3267957122177,45.9062580855984 15.3267766665,45.9061094064796 15.3267484374892,45.9058893111013 15.3263671959954,45.9057149435069 15.3259929278035,45.9056305327214 15.3256824718859,45.9054379652864 15.3254426942205,45.9052092045455 15.3251068859603,45.9050886901205 15.3252211214694,45.9047869388068 15.3245749503835,45.9045098441807 15.3243091428758,45.9042361659559 15.3245334544291,45.9040240808412 15.3243643625646,45.9037591258143 15.3241825413899,45.9035212000406 15.3239556138187,45.9032834018487 15.3240760341203,45.9029366450416 15.3244312376813,45.9030706041788 15.3245776400104,45.9027597642713 15.3247633336389,45.9025567861333 15.3249227254983,45.9022639044448 15.3247282814432,45.9020710043852 15.3248556629211,45.9018142049383 15.3248669499987,45.9015397398301 15.3251889031657,45.9014983339853 15.3255811852207,45.9013622499326 15.3255732426095,45.9011058351283 15.3260303268531,45.9010325495157 15.3263145099058,45.9009682138682 15.3264936690209,45.9009277518762 15.3265824034753,45.9006754697884 15.3269554509189,45.9005574315772 15.3269798523905,45.9003234188029 15.3273151600509,45.9003629489999 15.3273456334315,45.9000659341016 15.3277252511143,45.8999703690596 15.3276656973173,45.8997051045331 15.327779211464,45.8995915865743 15.3278599274618,45.8995110046027 15.3279588448949,45.8994137243932 15.328094502244,45.8992089947696 15.3282218086964,45.8989431938451 15.3281995132955,45.8984618751128 15.3282028821368,45.8979399924841 15.3284513885699,45.8974668934413 15.3289403369109,45.8973395176812 15.3293229533613,45.8973624398209 15.32944310073,45.89736956169 15.3296352818684,45.897180053451 15.3299700128553,45.8971251005225 15.3301685546252,45.8969220762939 15.3305090061473,45.896745634796 15.3309649255279,45.8964833786956 15.3311634346463,45.8962758539028 15.3315559330261,45.8961847376436 15.3317284787929,45.8959457948397 15.3320763278785,45.8959312878056 15.3321974062254,45.8957059905547 15.3320092422963,45.8954860909638 15.3322588592027,45.8952064332162 15.3324444223843,45.8951632438848 15.3326899527747,45.8951062030034 15.3329269204956,45.8948670707698 15.3334031381665,45.8947712052926 15.3336272693305,45.8945411068585 15.3337167833113,45.8944260333556 15.3338062980015,45.8943111397344 15.3340306684017,45.8941215299638 15.3339131858262,45.8938699344589 15.3338210445243,45.8935462822609 15.3342577825793,45.8933155612617 15.3346048580599,45.8931750793384 15.3346105012257,45.8931277342934 15.3346478226108,45.8928194497391 15.3344523254913,45.8924512015053 15.3342443019599,45.8921638799492 15.3342682914851,45.8918668817362 15.3346793785654,45.891658638658 15.3351540233686,45.8913063325504 15.3354626723422,45.8912064508592 15.3359773741756,45.8910879670522 15.3362337741325,45.8908712652056 15.3365286098832,45.8906184583028 15.3367078587021,45.8904289760215 15.3373113293491,45.8900762812107 15.3375291193765,45.8898686882035 15.3376820474952,45.8895893038762 15.3378087682579,45.8892380142158 15.3373285844485,45.8882013536743 15.3362987901647,45.8871258195141 15.3362215391641,45.8860245327216 15.3352448968524,45.8849289470569 15.3348031942023,45.8837854479425 15.3339604768315,45.8826896383739 15.3344434649171,45.8812061023765 15.3353364716861,45.8807053650275 15.3362505503257,45.8798349274476 15.3372570974151,45.8803698519539 15.3390943876012,45.880061997307 15.3407283628644,45.8793107661242 15.3428622070223,45.8782780899023 15.3443380092124,45.8780474465852 15.3451163372954,45.8779394638946 15.3454343672873,45.8832142051786 15.3457399640987,45.8848963255069 15.3446160357247,45.8860323673807 15.3458192182353,45.8870794089605 15.3457179265192,45.8882600503483 15.3459331173166,45.8882418533491 15.3467578353241,45.8882572593984 15.3469229809946,45.8878788494529 15.3472954508561,45.8876887636942 15.3476297704,45.8875797732209 15.3477829058005,45.8873633594136 15.3481948816317,45.8872901222188 15.3483349611193,45.8870467539588 15.3488157915333,45.8870440275369 15.3486346349715,45.8875587162254 15.3484954394861,45.8879640430094 15.3482914820554,45.8883155800481 15.3480741878822,45.888595174724 15.3485649829318,45.88878263303 15.3497713913709,45.8880231293999 15.3505705085607,45.8880656697465 15.3513955092902,45.8881261205658 15.3526850925016,45.8883021042394 15.3535037777597,45.8893972192161 15.3538896341215,45.8892880510186 15.3551655069941,45.8893290817662 15.3558229722713,45.889381023375 15.3571769778955,45.8895297622348 15.3575120971275,45.88954670992 15.3591236202677,45.8896856219275 15.3604256239476,45.8897804087827 15.362140298089,45.8899279506721 15.3648862426356,45.8901441610878 15.3659928067458,45.8899066789147 15.3667778341023,45.889760196739 15.367692060584,45.8896671904828 15.3689023956617,45.8895373200533 15.3686920130052,45.8888991534703 15.3684946981531,45.8882879377693 15.3683885890246,45.8878293907325 15.368152153209,45.8871463178138 15.3701218211732,45.8868970137468 15.3720528791558,45.8866567992583 15.3724518645562,45.8865925147171 15.3732242446803,45.8864909285471 15.3739323232477,45.8864076332239 15.3746274551935,45.8863153781267 15.3752579226206,45.8861873398506 15.3755786876709,45.8859883337766 15.3757428421524,45.8854929134498 15.3756378917685,45.88521432573 15.3761398716831,45.8851406918469 15.3770278743397,45.8849938001101 15.3778637886578,45.8847660932327 15.3782486488059,45.8845218784859 15.3786992064077,45.8844663092368 15.3791109906687,45.8843929611659 15.379740628964,45.8841479290286 15.3796874400553,45.8839051642706 15.3792348058451,45.8836547279911 15.3791295355293,45.8833311552758 15.3789990506405,45.8830886465903 15.3790098536397,45.8827826843684 15.3789433585482,45.8824770684679 15.3787215947521,45.8820729010379 15.3786795159925,45.8815871573035 15.3789743543522,45.8813702317698 15.3789335649567,45.8810554427174 15.3790212971085,45.8806952382236 15.378813156267,45.8803989997295 15.3785412770098,45.880201948237 15.3783189146299,45.8797078034494 15.3787815215228,45.8795353119836 15.3784325356098,45.8793655092906 15.3779168133582,45.8793042311705 15.3779665126143,45.8790341315656 15.378145454313,45.8788445848824 15.3779248698887,45.8786113707474 15.3773971257621,45.8786760998194 15.3774468879187,45.8784149980455 15.3778053932105,45.8780898909788 15.3781784243713,45.8780076764557 15.3780858089561,45.8776480692068 15.3776591186489,45.8774155362664 15.3772843253751,45.8772369074306 15.376946780171,45.8768511140956 15.377048313243,45.8766258330019 15.3774856225568,45.8765254129161 15.3779099265996,45.8764070384754 15.3781137758501,45.8760734438459 15.3784490033669,45.8761173233338 15.3783951562057,45.8757755835072 15.3779312373563,45.8757501252513 15.3774660935649,45.8755627079215 15.3772840476197,45.8753113694146 15.3774367366599,45.8750319319173 15.3770756928557,45.8749791367984 15.3772803334677,45.8747625129843 15.3777048683791,45.8746801298959 15.3779870369434,45.8744992399125 15.3779464413755,45.8742114430362 15.3782536976212,45.8739314930585 15.3784454487484,45.8737149097823 15.378844028422,45.8736056148527 15.3792046365971,45.8735954208934 15.3796555344724,45.8736029215484 15.3800542949431,45.8735206153436 15.380505437925,45.8735641032292 15.3808387991596,45.8735629926883 15.3797140919866,45.871873969843 15.3786045320874,45.8710778323262 15.3774289265317,45.8704529513159 15.3756341290062,45.8703171491768 15.373491980114,45.8707817118069 15.371551738384,45.8713580510682 15.3703336546288,45.8727045747086 15.3694631754329,45.8740500516519 15.3686109633985,45.8750668613473 15.3680643354991,45.8758970550672 15.3668906081054,45.8764555467773 15.3660247077946,45.8768521593197 15.3653697667535,45.8769283975498 15.3647788235542,45.8767646351994 15.3641450179858,45.8763098361281 15.3633852239092,45.8753587531202 15.3627158277305,45.8747950052799 15.3620636541014,45.8739058366947 15.3610866053105,45.8735487443921 15.3599135397018,45.873295016717 15.3578877128768,45.8728952165141 15.3563685481582,45.8722768632034 15.354511353836,45.8712424883801 15.3531536233441,45.8701495842619 15.3525516846314,45.8694316145875 15.3516132956121,45.8686059833166 15.3504464933686,45.8679522741983 15.3492402926466,45.8675843555256 15.3478959885914,45.8674566375771 15.3465041002298,45.867608881512 15.3451707111011,45.8679951460329 15.3445919785799,45.868573565394 15.344611303113,45.8691161678277 15.3453111300381,45.8697882644625 15.3462723188906,45.8702940045155 15.3472659791692,45.8707368327493 15.3481626882576,45.8714312577667 15.3493129131592,45.8720221455109 15.3495368184715,45.8725412666835 15.3492358995237,45.8729704844291 15.3485412744424,45.8733093947644 15.3474530100205,45.8735693276116 15.3459628527649,45.8737904271273 15.3447444022636,45.8742278058749 15.3436497718535,45.874881827358 15.3429110369687,45.8753050558282 15.3419746379115,45.8762668523525 15.3410958103426,45.8772740882638 15.3400609166046,45.878213308208 15.3392205583486,45.8788208207772 15.338067453138,45.8791837917154 15.3374762543603,45.878968511332 15.336989836608,45.8784617488031 15.3368535026245,45.8775601171568 15.3365462180943,45.8768701682002 15.3359698873475,45.8763808518037 15.3349258867787,45.8757729628795 15.3334814509974,45.8753430413396 15.3318169920254,45.8751250100527 15.3307847874091,45.8746699223352 15.3302665125763,45.8742485226285 15.3303526828621,45.8734429661498 15.3307010384605,45.8726253137301 15.3307144910203,45.8720484226095 15.3301452594982,45.8712616768894 15.3292241690196,45.8705443261989 15.3281083533525,45.8702216332903 15.3270588582939,45.8700700588084 15.3259373057912,45.870238553943 15.3245290657453,45.8704362858384 15.3231596093384,45.870171221082 15.3219775137275,45.8696944324939 15.3209016932896,45.8691715341568 15.3195641127086,45.8687064943635 15.3184316726255,45.8683208583478 15.3171103930706,45.8678386484137 15.3159289157703,45.8674531236144 15.3148297239492,45.8671530195064 15.3136824679686,45.8670986782966 15.312528154933,45.8672785591151 15.3112850761348,45.8677555994023 15.3099274381245,45.8682728873753 15.3083412939851,45.8689791010987 15.306648716183,45.8697085229082 15.3053571080228,45.8703512791823 15.3040158653538,45.8708969760431 15.3029685226608,45.8711792309758 15.301951675115,45.8709817202569 15.301299492759,45.8704295108691 15.301299492759,45.8704295108691 15.3007690432547,45.87080511749 15.3005668193114,45.8708060129518 15.3004056133269,45.8709124353444 15.3004491695407,45.8710346920668 15.3006041516667,45.8710868297903 15.3006615310368,45.8711452544375 15.3008387801548,45.8711230098927 15.3008498683823,45.8711961337581 15.3009443268121,45.8712274661839 15.3010387386326,45.8712264960532 15.3010750079562,45.8713349150254 15.3011817382075,45.8714436869657 15.3010495661166,45.8715123318673 15.3011040501228,45.8716066657407 15.30147686756,45.8718509601915 15.301393372386,45.8719172267366 15.3016355019615,45.8721001416547 15.3015509570212,45.8722812247863 15.3017387076094,45.8725723590161 15.3012704264534,45.8729104160521 15.3012787084979,45.8729553027766 15.3013162571514,45.8730381245144 15.3013678075933,45.8730841794972 15.3013603499477,45.8731908563301 15.300889256261,45.8730124709948 15.3006555073898,45.8728839788463 15.300422578689,45.8726157901755 15.2998621954565,45.8721927993454 15.29951598205,45.8720702156498 15.2994034584472,45.8720677050962 15.2992268800269,45.8721074673273 15.2990583932124,45.8721584319982 15.2986488109781,45.8722072262429 15.2985563965548,45.8722074693109 15.2984638006667,45.8721740317007 15.2983507957458,45.8720817039608 15.2982123438798,45.8719562198675 15.2976164206561,45.8723795170143</coordinates></LinearRing></outerBoundaryIs></Polygon></MultiGeometry>
  </Placemark>
</Folder>
</Document></kml>
