<?xml version="1.0" encoding="utf-8" ?>
<kml xmlns="http://www.opengis.net/kml/2.2">
<Document id="root_doc">
<Schema name="pregledovalniklovisca" id="pregledovalniklovisca">
	<SimpleField name="lov" type="string"></SimpleField>
	<SimpleField name="lov_naziv" type="string"></SimpleField>
	<SimpleField name="luo" type="string"></SimpleField>
	<SimpleField name="luo_naziv" type="string"></SimpleField>
	<SimpleField name="povrsina" type="float"></SimpleField>
</Schema>
<Folder><name>pregledovalniklovisca</name>
  <Placemark id="pregledovalniklovisca.1">
	<Style><LineStyle><color>ff0000ff</color></LineStyle><PolyStyle><fill>0</fill></PolyStyle></Style>
	<ExtendedData><SchemaData schemaUrl="#pregledovalniklovisca">
		<SimpleData name="lov">0111</SimpleData>
		<SimpleData name="lov_naziv">TREBELNO</SimpleData>
		<SimpleData name="luo">01</SimpleData>
		<SimpleData name="luo_naziv">Novomeško</SimpleData>
		<SimpleData name="povrsina">4089.4</SimpleData>
	</SchemaData></ExtendedData>
      <MultiGeometry><Polygon><outerBoundaryIs><LinearRing><coordinates>15.0921833883109,45.9135258647835 15.0931118153488,45.914094491651 15.0940015884115,45.9144337893187 15.0950604019125,45.9146399523692 15.0963945452653,45.9149049890981 15.0975171876879,45.9152589090147 15.0989410587252,45.9160927688672 15.0990438720154,45.9163499262512 15.0990863263504,45.9167358040841 15.0992570620413,45.9174895795381 15.0998064628596,45.9181176855592 15.1009095277437,45.9182203712094 15.1026083371474,45.9182618678569 15.1036929599137,45.9182180594374 15.1066897879234,45.9178326255474 15.1076792551851,45.9179865491929 15.108600833379,45.9182953804942 15.109641048578,45.9182230348702 15.1113110195709,45.9175069971519 15.112924803165,45.9172662529962 15.1147232320724,45.9173648768767 15.1159825240626,45.9177005724122 15.11664601326,45.9183592540018 15.1169760707257,45.9192939652068 15.1164978333288,45.9198732804016 15.1157075159254,45.9204143095102 15.1145598152742,45.9213342280832 15.1137450844889,45.9226919953145 15.112665624317,45.9245610907282 15.1140429541581,45.9244775749508 15.1153921610681,45.9247614496757 15.1166427494497,45.92504576907 15.1180949086611,45.9251646677127 15.1193300708485,45.9252792758142 15.1201471105386,45.9255145210318 15.1213550912724,45.9256935597921 15.1226491097752,45.9259451054099 15.1232409058269,45.9268708782247 15.1237038976089,45.9278482545065 15.1238523052097,45.9283112983722 15.1250842704681,45.9284013737849 15.1265880578251,45.9280999126109 15.1274952041964,45.9278999637092 15.1293793789224,45.9275074333262 15.1304350678155,45.9273186299759 15.132637280545,45.927463568486 15.1338655609679,45.9280069506047 15.1351853348032,45.9285711760528 15.1356544742174,45.9285403876587 15.137278474911,45.9294796137588 15.1375449561826,45.9266972763323 15.1383049333262,45.9258781926469 15.139760414328,45.9251363559027 15.1406672818886,45.9243027700939 15.1415209032489,45.924342386064 15.1423155393632,45.9240540106233 15.1433663802425,45.9240276833486 15.144590338449,45.9238391677292 15.1464583713448,45.9234858760712 15.1476275266172,45.922670703663 15.1477836406637,45.9206736270242 15.1489791101981,45.9213382696853 15.1498363012183,45.9213776389503 15.1509218936558,45.9203513643795 15.1522172452215,45.9200497506026 15.15333965871,45.9196859997469 15.1542681212852,45.9195862245424 15.1553018738561,45.9190122061011 15.15758716541,45.9188599844602 15.159337137493,45.9190537993101 15.1605764373451,45.9191008325653 15.1614526719128,45.9181587907285 15.1619196646198,45.9175580683761 15.1625615690504,45.9166435228471 15.1636362827926,45.9160621722063 15.1653126233664,45.9155762189039 15.1668514530215,45.9156279691515 15.1682986090456,45.9159712717678 15.1690161529666,45.9164885747507 15.1692629814382,45.9171117553648 15.1701239932362,45.9175743121804 15.170535995277,45.9181600831056 15.1720202108283,45.9180353088793 15.1729173541292,45.9175839761526 15.1741411456059,45.9154411866681 15.1747855647294,45.9153993529344 15.1757629144194,45.9156298166512 15.1769537353693,45.9154098727484 15.178039086164,45.9153874920752 15.1788730187924,45.9148702571092 15.1798883445132,45.9144837383029 15.1809375069022,45.9142399516669 15.1820515870509,45.91390445457 15.1829638201451,45.9140496615112 15.1840075067983,45.9142228126324 15.1853698498252,45.9141606856544 15.1874021576774,45.9136503459459 15.1880227196584,45.9131566980065 15.1886509011134,45.9125943809847 15.1897717865169,45.9120474393247 15.1909610490128,45.9119001439758 15.1919112191788,45.9116108930541 15.1924677644855,45.911186161347 15.1937573767672,45.9113614184044 15.1949305761946,45.9117141159121 15.1960261248399,45.9119380863011 15.1966676307449,45.9113430402611 15.197422965046,45.9109729185877 15.1984066466261,45.910769214639 15.1989034122985,45.9102245248069 15.1993770196907,45.9098385941579 15.2005643186737,45.9094525808697 15.2012117571171,45.9095218954125 15.2021535601382,45.9101491786609 15.2032846173477,45.9102139358178 15.2045354323183,45.9103512595981 15.2058725894171,45.910237465871 15.2069207673457,45.9098849289281 15.2077725798091,45.9096245169882 15.2090118168777,45.909596793389 15.2107242251007,45.9097376131699 15.211661063873,45.9095723020029 15.2124208874911,45.9090936493875 15.2130093904917,45.9084783647735 15.2137276618562,45.9080274940178 15.2134514204511,45.907146946523 15.213018266223,45.9053735697028 15.2138001603537,45.9047530611393 15.2151995873837,45.9050839826647 15.2158826173564,45.9053328330915 15.2165646345819,45.9053196655369 15.2172438651265,45.9045921641525 15.2178408779614,45.9046625601225 15.2196637785344,45.9042901609345 15.219523630522,45.9033616775133 15.2187863097811,45.9023152977527 15.2191936256463,45.9018382635897 15.2197891077828,45.9015275954524 15.2201619628945,45.9009435501927 15.2210464665605,45.9004299576578 15.2215551409631,45.8997503581844 15.2222024622523,45.8996181832663 15.2225940980692,45.8994865030111 15.2228141865379,45.8990931399272 15.2224196544625,45.8984986136517 15.2218899254503,45.8981899389558 15.2206103892181,45.8979661214525 15.2193066970235,45.8976268940996 15.218013306016,45.8969521938912 15.2168178678153,45.8960083486082 15.2147164550994,45.8948691444657 15.2143910308264,45.8944886980998 15.2144210550943,45.8934170921301 15.2139084278695,45.8931083480788 15.2138211139112,45.8925846586718 15.2134797951012,45.8924900099441 15.2132059133269,45.8922047506234 15.2131165957304,45.891121400071 15.2127591497641,45.8912887057285 15.2122983413922,45.8911466774022 15.2121418332493,45.8903135001041 15.2115425020707,45.8896239384957 15.2111855509185,45.889886525275 15.2107940905202,45.8900538876784 15.2102817842747,45.88981665926 15.2103485526468,45.8894474457793 15.2108420456692,45.8892084539727 15.2115990668486,45.889182670612 15.2111293448789,45.8885530620621 15.2110941632638,45.8882793233217 15.2120999452863,45.8883132722692 15.2125423598754,45.8880982120953 15.2116837951317,45.8876079847376 15.2111751798395,45.8871837786001 15.2105608215577,45.8870062154825 15.2083414996102,45.8860813478004 15.2073701728699,45.8861544673506 15.2069438288398,45.8860837975014 15.206586616997,45.8863105592044 15.204865991932,45.8865396822368 15.2045909161332,45.8859091575349 15.2049654931148,45.8858132892853 15.2051860032925,45.885515245448 15.2058159278256,45.8853117514994 15.206822139395,45.8854767545009 15.20825322576,45.8852837613929 15.2088316751538,45.8849970247236 15.2097351883069,45.8850550255909 15.2120829153927,45.8838721568694 15.2119968106474,45.8836579883371 15.2109543125951,45.882921645619 15.2096227696592,45.8823643408809 15.2087018535453,45.8822230509621 15.2070307449849,45.8820115824623 15.2065184847366,45.8817624596238 15.2062263675331,45.8811557234087 15.2053531599985,45.880073686721 15.2046349052296,45.8794318998702 15.204546258479,45.8785152689476 15.2039491941238,45.8783496061931 15.2030449296709,45.8780891994694 15.2027197265073,45.8777205955185 15.2018825030942,45.8771148135027 15.1999456255089,45.8771016629263 15.1992391947738,45.8768205445846 15.1979942501113,45.8765607812949 15.1964579671783,45.8758371270686 15.1959807007979,45.8758022251662 15.1956230540937,45.875862313723 15.1950095780997,45.8758871165985 15.1945043342673,45.8757344745187 15.1943602262965,45.8753763356526 15.1940526021617,45.8751149312579 15.1935239555096,45.8750086634565 15.1927559266154,45.8746289928717 15.1915786716079,45.8742141924905 15.1914919312633,45.8737501390616 15.1908250224588,45.8730608499918 15.1900182462374,45.8712766615003 15.1884488112265,45.8707315613969 15.1873393286238,45.8701738093892 15.1862476749262,45.8698183791807 15.184320689828,45.8693690017287 15.1826851268586,45.869442891207 15.1820388911528,45.869276652451 15.1814453159426,45.8689447659431 15.1810199483781,45.8688464641939 15.1803122309637,45.8680656696561 15.1794426573094,45.8678527095974 15.1785893529358,45.8674492329006 15.1774987935755,45.8674033334427 15.1773107479869,45.867201083662 15.1769699487332,45.8672016119646 15.176561376266,45.8673569171208 15.1745348220873,45.8677169753213 15.1736328665841,45.8680985987148 15.1731216976403,45.8681117013477 15.1714534688928,45.8686972774678 15.1705865743053,45.8694364887557 15.1703839261633,45.8700557532855 15.1696054254038,45.8703937009662 15.1684429492459,45.8706059701405 15.1678579474903,45.8708749668961 15.1670292805764,45.8708578255473 15.1650525460293,45.8708366735776 15.1642343798133,45.8707544423407 15.1632806121741,45.8709462036458 15.162377652244,45.8709830318141 15.1619855550648,45.8709359896845 15.1615596350442,45.8709960684405 15.16065735909,45.8712709651307 15.1601309734907,45.8719620188957 15.1591426216431,45.8719633096464 15.1577977241901,45.8724650051534 15.1569297186856,45.8728945879623 15.1561296371689,45.8732051198414 15.156131574934,45.8739431204455 15.1543232452704,45.8732781167603 15.1535225210935,45.8733625153814 15.151715505371,45.8731146987213 15.1502480883361,45.8724497171954 15.1491243697941,45.8727964365481 15.1479256760327,45.8736800533549 15.1468792400724,45.8744305636955 15.1464337027238,45.8751303578826 15.1458718286974,45.875829219072 15.1450607612318,45.8763141554385 15.1444374061617,45.8760169365607 15.1437450430335,45.8754822580741 15.1433701559959,45.8749705718556 15.14239756776,45.8745073193112 15.1420888867553,45.873733709009 15.1416794811285,45.8735674872811 15.1403332788269,45.8736285342188 15.1396704925669,45.8743318979222 15.1385980762148,45.8747856152331 15.1372176580632,45.8747753140517 15.1364516925282,45.8751333556338 15.1362890582691,45.8756327499922 15.1352614675047,45.8762659793116 15.1340024747455,45.8771604082504 15.1328788721974,45.8776379759398 15.1321124161752,45.8778173817384 15.1309874970485,45.8777471439336 15.1304758659406,45.8776048435884 15.1297943880333,45.8777126939451 15.128857791146,45.8780232795552 15.1283639353557,45.8782144095799 15.1272904275945,45.878263119011 15.1263708932793,45.8786093866108 15.1251271016411,45.8787297967023 15.1243087755143,45.8786591570326 15.1233560376557,45.8791483220972 15.1215332905923,45.8797455719936 15.1206472941187,45.8799011836335 15.1202896679919,45.8800206020028 15.1189434658418,45.8801053311111 15.1185346898974,45.8802247972127 15.1182794734633,45.8804036686686 15.1180419667943,45.8809158909799 15.1177355969518,45.881154379681 15.116850220633,45.8815601009365 15.1166947955539,45.8817804367069 15.1164948900673,45.8827868681002 15.1162399533476,45.8831086201694 15.1149111676531,45.8834314565457 15.1144346198676,45.8837533372061 15.1144864773078,45.8840986219115 15.1142313941619,45.8844203695712 15.1131926383045,45.884897658216 15.1126312900126,45.8854101891946 15.1115736020546,45.8850063246138 15.1110453976108,45.8850901589931 15.1105694275538,45.8857216380568 15.1104167908539,45.8860671221717 15.1099740916578,45.8863294757484 15.1091048146664,45.8863421861445 15.1088486561763,45.8860685366499 15.1078615501747,45.8868433754937 15.1073675898883,45.8870581688246 15.107283432512,45.8875821910878 15.1073864471424,45.8879512749691 15.1072507092997,45.8883204930848 15.1068256847889,45.8888805556518 15.106144408647,45.889190715506 15.1059069795137,45.8898220428474 15.1054816594187,45.8902391252112 15.1047488915881,45.8903826846026 15.1035727314711,45.8903836666979 15.103079182511,45.8907770476591 15.1023300924004,45.8913015738106 15.1016310795977,45.8912426320803 15.1010004691964,45.8913145438677 15.1003022078505,45.8916723721913 15.0995356876766,45.8919825672797 15.0989056793265,45.8923998930902 15.0978659949014,45.8925078622154 15.0973550405902,45.8927821021517 15.0969126453753,45.8932111340384 15.0963336371437,45.8935569596803 15.0961637522263,45.8939023488368 15.0955842826595,45.8939861547429 15.0954142084511,45.8944502240513 15.095570487985,45.896235978793 15.0959817221139,45.8975214208356 15.0976805784194,45.8968493747364 15.099090839151,45.89688793087 15.1004217504853,45.8975155358102 15.1015551268925,45.8978564508492 15.1025439364774,45.8982736958581 15.1039216646295,45.8983986004864 15.104004297798,45.8988272707148 15.1046395691222,45.899341095239 15.1047086976825,45.9005346804434 15.1051805572984,45.9001495910664 15.1055354881382,45.900358912626 15.1054099821332,45.9009134730081 15.105457114731,45.9015070144434 15.1060302006227,45.9021662928062 15.1066560939734,45.9023970437741 15.1075627421308,45.9027861585742 15.1080536288762,45.9034401053061 15.107772182632,45.9039898665386 15.107326077916,45.9045048703411 15.1061084866757,45.9049695738112 15.1049646706645,45.9058145332749 15.1044275638455,45.9064851809802 15.1039379398343,45.9074662966776 15.1029434223975,45.9083783131332 15.1030394409706,45.9089316806007 15.1038402703911,45.9094871989762 15.1043223864977,45.910061088634 15.1052748808512,45.9106434516504 15.1068517458007,45.911270843341 15.1072207565847,45.9116563227155 15.1078354042308,45.9120129563929 15.1072426829445,45.9123993391229 15.1064460933384,45.9131573372837 15.1056282811255,45.9135438310285 15.104686965051,45.9135875266666 15.1045236841921,45.9138163097457 15.102810654449,45.9136801077062 15.1023315463575,45.9136994330776 15.1016396259147,45.9135840691777 15.1006158818798,45.9135269394363 15.0997026965499,45.913373067945 15.0989001852439,45.9132577838855 15.0980143907555,45.9129880737324 15.0972117873079,45.9128148321693 15.0962711760543,45.9128155384695 15.0952753312314,45.9128549735546 15.0942796484614,45.9129909460305 15.0936708325205,45.9129140657618 15.0931446447601,45.9126054220297 15.0930609205977,45.9121804349694 15.0929218668972,45.9117362375616 15.0923405240863,45.9115048358899 15.0915657686371,45.911389567835 15.0907635231222,45.9114094630886 15.0907369141777,45.9120082867526 15.0908523963948,45.91302665404 15.0921833883109,45.9135258647835</coordinates></LinearRing></outerBoundaryIs></Polygon></MultiGeometry>
  </Placemark>
</Folder>
</Document></kml>
