<?xml version="1.0" encoding="utf-8" ?>
<kml xmlns="http://www.opengis.net/kml/2.2">
<Document id="root_doc">
<Schema name="pregledovalniklovisca" id="pregledovalniklovisca">
	<SimpleField name="lov" type="string"></SimpleField>
	<SimpleField name="lov_naziv" type="string"></SimpleField>
	<SimpleField name="luo" type="string"></SimpleField>
	<SimpleField name="luo_naziv" type="string"></SimpleField>
	<SimpleField name="povrsina" type="float"></SimpleField>
</Schema>
<Folder><name>pregledovalniklovisca</name>
  <Placemark id="pregledovalniklovisca.1">
	<Style><LineStyle><color>ff0000ff</color></LineStyle><PolyStyle><fill>0</fill></PolyStyle></Style>
	<ExtendedData><SchemaData schemaUrl="#pregledovalniklovisca">
		<SimpleData name="lov">0105</SimpleData>
		<SimpleData name="lov_naziv">TREBNJE</SimpleData>
		<SimpleData name="luo">01</SimpleData>
		<SimpleData name="luo_naziv">Novomeško</SimpleData>
		<SimpleData name="povrsina">5490.23</SimpleData>
	</SchemaData></ExtendedData>
      <MultiGeometry><Polygon><outerBoundaryIs><LinearRing><coordinates>15.0016691066166,45.9577241501534 15.0031339922343,45.9577028847723 15.00469049576,45.9579584564536 15.0069794798446,45.9578307520463 15.008993698833,45.9571067454016 15.0098786163673,45.9567234597694 15.0089323673475,45.9551690026293 15.0089608043233,45.9539187677601 15.0084590965898,45.9528761504531 15.0073039198772,45.9527997495106 15.006278406974,45.9528931167941 15.0057816030304,45.9525375531555 15.0053548215998,45.9518886584035 15.0042588170292,45.9510151157781 15.0045128869,45.9504558076246 15.0045002037152,45.949936279604 15.0043313131443,45.9493888646167 15.0048855349363,45.9489010756187 15.0045295022723,45.9485715036097 15.0039126793069,45.9484600445728 15.0036685938058,45.947810236885 15.0058493465523,45.9466020211834 15.007156755957,45.9459492515173 15.0080995350316,45.9454661904412 15.0084066780399,45.9448938226012 15.0093710370594,45.943292241174 15.0105377421247,45.9419347412613 15.010926540393,45.9410201747909 15.0113359190387,45.9405343470521 15.0124007028884,45.9406342913199 15.0128101480805,45.9405056684792 15.0134242392242,45.9402770554378 15.0142023373132,45.9404198454752 15.0151551839571,45.9410086250336 15.0167188054934,45.9414296810314 15.0185928172354,45.9416493861667 15.020538325764,45.9416061338814 15.0225805998812,45.9413453540995 15.0237003306438,45.9407690922207 15.0248227526228,45.9404955026512 15.0263641969224,45.9402598665802 15.0278856987276,45.9396302935475 15.0276324636236,45.9389608332122 15.0286346124118,45.9368887663502 15.0297995565354,45.9369832147623 15.0309782925669,45.9365950985451 15.0319664298405,45.9360136620714 15.0332757152896,45.9355449556717 15.0347684130821,45.935377963001 15.0361360031361,45.9349945946449 15.0367471832361,45.9345006033748 15.0375724957576,45.9331719973507 15.0385458363224,45.9318939925656 15.0390578933823,45.9304297943017 15.0389608023332,45.9296993897082 15.0390839536346,45.9287966027866 15.0390834208805,45.9278544477745 15.0384747837144,45.9268555431378 15.0397641958644,45.9267409201773 15.0410749993527,45.9266171872414 15.0427924044361,45.9259179709028 15.0446102541889,45.9254410242088 15.0467746846329,45.9251677965298 15.0484617924958,45.9247520267333 15.0501601316667,45.9242370717104 15.0517771009528,45.9242935763157 15.0526274255604,45.9243226105769 15.0528909941591,45.923544722126 15.0529626616088,45.9225784188496 15.0541081936392,45.9219349917397 15.0551102512849,45.9212058736166 15.0565433250133,45.9215481684756 15.0588577575789,45.9231189997815 15.059457424504,45.923623733933 15.0602711157849,45.9241186346307 15.060967644029,45.924632757295 15.0616228681071,45.9248610390203 15.0619506571802,45.9251324142803 15.0622170293289,45.9253609027149 15.0629750284071,45.9259321153352 15.0636300309659,45.9259460589497 15.0653489005086,45.9255451384519 15.0662084824995,45.9255304272133 15.0671504621987,45.9258443493628 15.0681535979488,45.9259724235047 15.0686073141679,45.9258644488114 15.0709369633958,45.9257137535921 15.0720428306256,45.9261132822221 15.0734147643863,45.9265554588474 15.0745095506486,45.9267422636194 15.0760139564239,45.9262538641545 15.0768518815635,45.9253959969913 15.0766871522414,45.9246816852746 15.0759909584594,45.9244249042737 15.0757038593716,45.9240677936074 15.07615238185,45.9228243643274 15.0769081199537,45.9216807818581 15.0790076784786,45.9215150503366 15.0803456677746,45.9210785354755 15.0811434383946,45.9207208503287 15.0813971032032,45.9203310664859 15.0807945440681,45.9200780268858 15.0807122028542,45.9197493964941 15.0802213680532,45.9199926819278 15.0797300580477,45.9199071870285 15.0793810017978,45.9191357811274 15.0796052558712,45.9185498701266 15.0799937620044,45.9183352718725 15.0806079575911,45.9184492019892 15.081180972391,45.9184344899058 15.0824499629461,45.9185623395262 15.0823465056776,45.9177336291708 15.0820998870417,45.9171193485581 15.0823631779989,45.916629410158 15.0832169434,45.915836987266 15.0849304546942,45.9148402124419 15.0888681738942,45.9135139145628 15.0889082155187,45.9129994802398 15.0908523963948,45.91302665404 15.0907369141777,45.9120082867526 15.0907635231222,45.9114094630886 15.0915657686371,45.911389567835 15.0923405240863,45.9115048358899 15.0929218668972,45.9117362375616 15.0930609205977,45.9121804349694 15.0931446447601,45.9126054220297 15.0936708325205,45.9129140657618 15.0942796484614,45.9129909460305 15.0952753312314,45.9128549735546 15.0962711760543,45.9128155384695 15.0972117873079,45.9128148321693 15.0980143907555,45.9129880737324 15.0989001852439,45.9132577838855 15.0997026965499,45.913373067945 15.1006158818798,45.9135269394363 15.1016396259147,45.9135840691777 15.1023315463575,45.9136994330776 15.102810654449,45.9136801077062 15.1045236841921,45.9138163097457 15.104686965051,45.9135875266666 15.1056282811255,45.9135438310285 15.1064460933384,45.9131573372837 15.1072426829445,45.9123993391229 15.1078354042308,45.9120129563929 15.1072207565847,45.9116563227155 15.1068517458007,45.911270843341 15.1052748808512,45.9106434516504 15.1043223864977,45.910061088634 15.1038402703911,45.9094871989762 15.1030394409706,45.9089316806007 15.1029434223975,45.9083783131332 15.1039379398343,45.9074662966776 15.1044275638455,45.9064851809802 15.1049646706645,45.9058145332749 15.1061084866757,45.9049695738112 15.107326077916,45.9045048703411 15.107772182632,45.9039898665386 15.1080536288762,45.9034401053061 15.1075627421308,45.9027861585742 15.1066560939734,45.9023970437741 15.1060302006227,45.9021662928062 15.105457114731,45.9015070144434 15.1054099821332,45.9009134730081 15.1055354881382,45.900358912626 15.1051805572984,45.9001495910664 15.1047086976825,45.9005346804434 15.1046395691222,45.899341095239 15.104004297798,45.8988272707148 15.1039216646295,45.8983986004864 15.1025439364774,45.8982736958581 15.1015551268925,45.8978564508492 15.1004217504853,45.8975155358102 15.099090839151,45.89688793087 15.0976805784194,45.8968493747364 15.0959817221139,45.8975214208356 15.0959619214796,45.8975476210819 15.0956143752361,45.8977051040828 15.0951435021767,45.8975626119294 15.0947343931304,45.897591474862 15.0945090976364,45.8974201632173 15.0937931058025,45.8974206631461 15.0929332404871,45.8970783692589 15.0923196685712,45.8971360026716 15.0918487849951,45.8969791004452 15.091460262349,45.8970651611657 15.0910102574491,45.8970655204432 15.090743902611,45.8968370079968 15.0900079133297,45.8971376669422 15.0885147166642,45.8972958450286 15.0885154432032,45.8977531129938 15.0878611493494,45.8979822521765 15.0866146652961,45.8989404802261 15.0867762845204,45.8976256882773 15.0866734515377,45.8972971664212 15.0860188905024,45.897354707104 15.0852416019347,45.8973838126024 15.0848717076564,45.8963409720917 15.0849118829651,45.8958979801227 15.0833362564423,45.8955560535626 15.0827619689237,45.8946419334853 15.0823524313039,45.8943706754108 15.08192205455,45.8937708306971 15.0817578784447,45.8934137351111 15.081143207481,45.8927854060208 15.0809584263428,45.8923424847027 15.0815297090308,45.8913275748491 15.0815495904345,45.8909132112079 15.0816512717484,45.8904844825844 15.0819782831048,45.8902985335006 15.0818546715934,45.8896555480283 15.0819562404698,45.8892411256522 15.0824461859003,45.8884977332263 15.0823835638228,45.8877119086701 15.0830565425193,45.8863397033843 15.0819519564025,45.886240355102 15.0809693885195,45.8856980368107 15.0803334404849,45.8844552560084 15.0798807110634,45.8824836092413 15.078958319023,45.8810695212778 15.0782833762219,45.8810698956683 15.0775273512219,45.8814990678121 15.0758907710607,45.8812856581045 15.0747879874417,45.8806211753976 15.0733126725825,45.8803584049289 15.0731800736147,45.8806268952915 15.0721782609483,45.8808989970806 15.0717694278808,45.881056446717 15.070930761489,45.8809712210243 15.0686618876973,45.8820869882823 15.0678436079545,45.8819302849179 15.0671067112432,45.8814164039909 15.066513291708,45.8810738435538 15.0650418640655,45.8821319357461 15.064653075642,45.8820464070484 15.0634670265425,45.8821471278135 15.0630782242336,45.8820472872146 15.0625665509119,45.8816333083643 15.0618704369812,45.8809050429391 15.0616041868366,45.8804766199992 15.0596819452177,45.8807347981812 15.0572694766406,45.8817360517542 15.0566775270756,45.8830364433833 15.0563709731289,45.8832366167589 15.0559822620321,45.8832225013017 15.0544063100151,45.881866029813 15.0542421785241,45.8813374852383 15.0535256848349,45.8804663830038 15.0536065759144,45.8793804864584 15.0528475734731,45.8767092921724 15.0527032322177,45.8752806817404 15.052927529787,45.8744947965191 15.0532535258573,45.8735134302251 15.0531513641872,45.8730945381433 15.0524347572253,45.8721090652344 15.0509412608731,45.8711811629475 15.0505323483237,45.8712384808405 15.0494073856657,45.8708532350258 15.0484050666482,45.8703250403791 15.0477914304248,45.8701681062371 15.046953045108,45.870025657924 15.0460741183163,45.8705403327584 15.0455836466632,45.8710405399095 15.0447456523491,45.8715551880979 15.0437847410622,45.8718841617018 15.0432943437162,45.8723558357075 15.0428242683126,45.872798886807 15.0414542619391,45.8728422217609 15.0412902587316,45.8722851345293 15.0403902651612,45.871756832696 15.038897397842,45.8716144647999 15.0377726047002,45.8713719902361 15.0371591582128,45.8714721574519 15.0363411320108,45.8713295347132 15.035380165907,45.8716441310953 15.0347462802333,45.8716158024223 15.0349094773207,45.8707871408702 15.0351748658552,45.8700441070833 15.0352973638572,45.8696440248975 15.0339023933831,45.8702444239077 15.0329014265705,45.8702124142151 15.0317269427511,45.8699236454318 15.0299605236941,45.8697026851285 15.0285700990868,45.8699888129392 15.026934593741,45.8706464130557 15.0257692847804,45.8714896001947 15.0247266018058,45.8721184201585 15.0236430258021,45.8726615795175 15.0227419651826,45.8732276368755 15.0224271033601,45.8743986784882 15.0226727411821,45.874684311517 15.022734197288,45.8750271170904 15.0219780735166,45.875755910202 15.0226941608408,45.8763556562375 15.0227966831317,45.8769413051876 15.0224901735233,45.8774698989495 15.0220199056409,45.8776271827633 15.021590700366,45.8780415250965 15.0191579070589,45.8796564405259 15.0194650030803,45.8803134104646 15.0206720444143,45.8811273223964 15.0223082397749,45.8812411072036 15.023065210202,45.8814551053182 15.0223707294864,45.8831838165597 15.0217871553518,45.8833128682004 15.0214505514454,45.8834269343699 15.0209327456995,45.8840762236869 15.0202851760506,45.8843414164671 15.0192828257722,45.8839988627596 15.0188326715251,45.8836275974757 15.0156624448403,45.8838141510519 15.0156213986221,45.8835426921959 15.014926027211,45.8833857730327 15.0148235190748,45.8830714922149 15.0134534775993,45.8835717610426 15.0132476357987,45.883192436638 15.0124714752326,45.8829434640733 15.0114487398935,45.8827294227747 15.0112238353177,45.882929466835 15.0103647432545,45.8828153655305 15.0099559217703,45.8833725474541 15.0086061832404,45.8838584498229 15.0090563199824,45.8845297429302 15.0084840316217,45.8854583624986 15.0077479688933,45.8864155133723 15.0066433883625,45.8863300136219 15.0044548910553,45.8866445938331 15.003862011922,45.8874875314438 15.0032688068826,45.8874733333933 15.0030641870922,45.8872304878394 15.0025119647098,45.8873733867321 15.0015912059893,45.8862735993407 14.9995254706708,45.8865166406551 14.9979914465911,45.8870025064433 14.9976437079708,45.8867168189193 14.9954962675131,45.8883597567606 14.9958235099675,45.8887597223056 14.9941872343249,45.8902882902353 14.9937168009702,45.8902454357252 14.9917736086619,45.8909740455706 14.9914462161443,45.8908169196536 14.9870687421138,45.8917026130735 14.9867210403797,45.8913740629479 14.985514082544,45.8917882657313 14.9848798342465,45.8923453282666 14.9851049047494,45.8925025496408 14.984294332543,45.8945500733127 14.9824248577045,45.8943880204408 14.9809519548241,45.8948164401282 14.9801539288993,45.8954878108801 14.9788650256385,45.8958447927913 14.9782513055464,45.8963446858543 14.9758370231923,45.8974872822924 14.9766347254147,45.8980873318933 14.9757957421769,45.8987728799744 14.9740361931348,45.898915558829 14.9723916354126,45.8994847343117 14.9714786358198,45.899858008884 14.9706311075686,45.8999581197083 14.96896194129,45.9006289145592 14.9682658696953,45.9015573863815 14.9674270617863,45.9014571848095 14.9670382060477,45.9017285369295 14.9666085946515,45.9018284677348 14.9665877180551,45.9028998295124 14.9659122021424,45.9036138751473 14.9651035005045,45.9043771840254 14.9627397629996,45.9059130810584 14.9618515501758,45.9065439831447 14.9616138126339,45.9070127784564 14.9608822186852,45.9077625861974 14.9624897261454,45.9080093046866 14.9622265808789,45.9090698773579 14.9617898169692,45.9095425658938 14.9606914470088,45.9099694982588 14.9608806620893,45.9108958852421 14.9605568136465,45.9113343259533 14.9606426168841,45.9113973400272 14.9622495671053,45.911858658686 14.9641490314187,45.9127096508367 14.9658841012859,45.9135097248652 14.9675637267283,45.914641054952 14.9693735890094,45.9155950489085 14.972218916257,45.916854205081 14.9747673492358,45.9178287153492 14.9767219342166,45.9182168442823 14.9772031103668,45.9190153136708 14.9781395483849,45.9190786610016 14.9783135278981,45.9198956918019 14.9794130053965,45.920124168602 14.9789414756709,45.9213207860327 14.9782213377925,45.9228920211513 14.9779825951716,45.9234660328524 14.9780747356754,45.9252128764357 14.9782203965263,45.9262858873588 14.9781841034904,45.9271025171427 14.9779117193682,45.9282509387203 14.9778504285409,45.9290105175063 14.9779061611244,45.929584855059 14.9784121442874,45.9298876362494 14.9779390175446,45.930621132816 14.9777023523118,45.9313912945647 14.9775181182573,45.9322714185675 14.9773603485199,45.9327481782413 14.9764929777583,45.9334815896703 14.9759408459277,45.9345818094284 14.9752835841814,45.9357003590189 14.9755725771019,45.9362871641338 14.9765295905325,45.9371724727882 14.9766901099679,45.9381824122862 14.9767130011887,45.9389518138136 14.9766208887395,45.939641111881 14.9769423669122,45.9403464199836 14.9774477060977,45.9408754978472 14.9780450170202,45.9413884851841 14.9786653573291,45.941741223973 14.9793084359205,45.9427030201914 14.9796240258608,45.9434278443859 14.9797676022698,45.9447709614352 14.9810312316568,45.9458129354201 14.9823639459854,45.9459412765284 14.9835357322003,45.9463901681119 14.9848913901264,45.9466467006689 14.9857415187376,45.9471275585131 14.9864078471884,45.9476566160966 14.9864538205459,45.9479611946037 14.9866147326428,45.9482176487618 14.9881082743403,45.9487626262191 14.9891422934861,45.9491313659257 14.9916011413415,45.9494839239681 14.9927960723054,45.9496601809731 14.9938531455711,45.9496120149187 14.9956454802814,45.9492432805556 14.9963577511363,45.9492912633467 14.9975526930388,45.9494674706229 14.9983800214955,45.9496918885788 14.9995727852882,45.9499070348318 14.9998182503098,45.9507795446536 14.9994341002252,45.9519575250373 14.9987433141484,45.9528170716673 14.997714151288,45.9534783880069 14.9964941872847,45.9539177156332 14.9951987540958,45.9541804018826 14.993575794102,45.9542904542251 14.9922544389433,45.9543403096346 14.9914745066543,45.9543199192741 14.9921994466441,45.9546125767847 14.9929861948366,45.9548352312649 14.9939004097119,45.954998592251 14.9944745493611,45.9554734308695 14.9944744844832,45.9561262150204 14.994640974701,45.956690919422 14.9947451774987,45.9570484933497 14.9950492233849,45.9573008927435 14.9963117940706,45.9576300767475 14.9973944231819,45.9577349298926 14.998653917393,45.9582295558192 15.0002217686461,45.9586632531466 15.0011502523961,45.9585119960742 15.0016691066166,45.9577241501534</coordinates></LinearRing></outerBoundaryIs></Polygon></MultiGeometry>
  </Placemark>
</Folder>
</Document></kml>
