<?xml version="1.0" encoding="utf-8" ?>
<kml xmlns="http://www.opengis.net/kml/2.2">
<Document id="root_doc">
<Schema name="pregledovalniklovisca" id="pregledovalniklovisca">
	<SimpleField name="lov" type="string"></SimpleField>
	<SimpleField name="lov_naziv" type="string"></SimpleField>
	<SimpleField name="luo" type="string"></SimpleField>
	<SimpleField name="luo_naziv" type="string"></SimpleField>
	<SimpleField name="povrsina" type="float"></SimpleField>
</Schema>
<Folder><name>pregledovalniklovisca</name>
  <Placemark id="pregledovalniklovisca.1">
	<Style><LineStyle><color>ff0000ff</color></LineStyle><PolyStyle><fill>0</fill></PolyStyle></Style>
	<ExtendedData><SchemaData schemaUrl="#pregledovalniklovisca">
		<SimpleData name="lov">0926</SimpleData>
		<SimpleData name="lov_naziv">LOKA PRI ŽUSMU</SimpleData>
		<SimpleData name="luo">09</SimpleData>
		<SimpleData name="luo_naziv">Savinjsko Kozjansko</SimpleData>
		<SimpleData name="povrsina">3037.96</SimpleData>
	</SchemaData></ExtendedData>
      <MultiGeometry><Polygon><outerBoundaryIs><LinearRing><coordinates>15.5126993739227,46.1783895451713 15.5128009444332,46.1780995540122 15.5131322972608,46.17786647466 15.5140865278955,46.1773844266546 15.5151864348838,46.1768728326254 15.516449745062,46.1759984352909 15.5172563145609,46.1753144066228 15.5175864095879,46.1749510378355 15.51835030201,46.1741802798131 15.5191329732467,46.1731777486418 15.519565522093,46.1726256833746 15.5201053207364,46.1724060318003 15.5208831523936,46.1708968674086 15.5213344706357,46.1701419985028 15.5219745126026,46.1695020625508 15.5220153884093,46.1694149611036 15.5214495710522,46.1690700642546 15.5215288618603,46.1686353984377 15.5210855569581,46.1680293762503 15.5202247369718,46.1673383382623 15.520635698315,46.1667139375734 15.5211942325395,46.1662770881213 15.522397138303,46.1656780391157 15.523684231069,46.1651654166287 15.5245133341743,46.1646983393753 15.5249308372069,46.1647688520102 15.5254118558793,46.1649548677195 15.5260161764638,46.164966574335 15.5263311029115,46.165211203595 15.5265636184884,46.1655720980945 15.5267530425491,46.1657594509394 15.5271081599655,46.1658591247096 15.5276901113937,46.1656971858857 15.5279397376398,46.1656526658447 15.5281259883582,46.1655214332369 15.5285629724012,46.1654615602816 15.5306336295141,46.1662627226732 15.530676726882,46.1664217765245 15.5305344013472,46.1667844023847 15.5307865452164,46.1670148248552 15.5308096216834,46.1672464006247 15.5310835829567,46.1675636359427 15.5315229499593,46.16774981936 15.5319418895663,46.1679794635789 15.5324210039326,46.1679627472897 15.5328382721848,46.1680187463048 15.5330695732525,46.1682348650158 15.5335282602503,46.1682616067784 15.5340293464718,46.1683606676263 15.5345505814462,46.1683872030444 15.5347594979974,46.1684440791653 15.5347635671585,46.1688639684538 15.5348276567925,46.1690229224688 15.5350154472177,46.1690510153258 15.5355148563198,46.1689762478827 15.5355642231221,46.1697795736665 15.5362340998178,46.1700949409602 15.5374086202299,46.1708712086292 15.5380725913982,46.1705785492746 15.5386138500974,46.1705180571218 15.5392406394198,46.1706888417693 15.5399818465269,46.171620081733 15.5402485465832,46.171465866018 15.5408590201151,46.1699573560625 15.5424326587544,46.1689075519491 15.5442004428964,46.1664089409499 15.5449796893021,46.1651312870429 15.546595822417,46.1641969286311 15.5472099043175,46.1630647268551 15.5467009570501,46.1621695811016 15.5435655555364,46.1614946122111 15.5423382415987,46.1592079924421 15.5410761116268,46.1579689120098 15.5395169416223,46.1581781833003 15.5379772380601,46.1583932799899 15.5366428103794,46.158415477707 15.5355135192651,46.1582289488607 15.5348548427938,46.1567290152334 15.5342486604998,46.1559003990369 15.5338514918728,46.1552626284462 15.5339324920318,46.1543607991779 15.5342282385229,46.1537632486445 15.5345485550238,46.1533105307764 15.5349164886773,46.1530027175043 15.5349450085838,46.1517238709416 15.5353839526912,46.1509702614672 15.5355412859377,46.1504538822792 15.5353964732727,46.1498583014805 15.5350675693352,46.1494087107186 15.5341126569985,46.148961955719 15.5328562509366,46.1485004931264 15.5316906630378,46.1478292242259 15.5313116156207,46.1470878892519 15.529944880448,46.1461028971061 15.5284208418671,46.1455022661158 15.5276575251597,46.1450580800753 15.5274687056678,46.1445473576542 15.5272310616723,46.1437489422809 15.5276148870337,46.1429796903633 15.5276046308212,46.1418924878334 15.5273851678233,46.1411942199291 15.5276735770172,46.1410478502805 15.5280381890411,46.1408303180943 15.528549236711,46.1404960408015 15.5289857477333,46.1400831086589 15.5295037892403,46.1397101057022 15.5301154727072,46.1394252909079 15.5307379719779,46.1390679032487 15.5313711294813,46.1386218378489 15.5316588167135,46.1384029420604 15.5319014875309,46.1383212860341 15.5321564520384,46.1383200993502 15.532702697665,46.1384867069139 15.5334885557536,46.1382413707089 15.5344131727697,46.1379711773345 15.5353719700357,46.1376363047295 15.535980813466,46.1370775895872 15.5365353147821,46.1368816332039 15.5374718823676,46.1366596751863 15.5381543226421,46.1365114255695 15.5407152925714,46.1364752269096 15.5412816047055,46.1363114024524 15.5420086230747,46.1359856690582 15.5425836751436,46.1355398167656 15.5431328302577,46.1348040069302 15.5435587005521,46.134495889488 15.5444121220225,46.134064809258 15.5454893994342,46.1340113571621 15.546925366917,46.1338997652635 15.5475264761842,46.1337518487111 15.5480913511691,46.133434950702 15.5485629818259,46.1330861965559 15.5489407177497,46.1326009502007 15.5492033786527,46.1322049703678 15.5497431703468,46.1317108448457 15.5504434634406,46.1310387841116 15.5510724008561,46.1301817154777 15.5519667125894,46.1292187217074 15.5527505786021,46.1287959223561 15.5523197,46.1285805366067 15.5519226178777,46.1282762711209 15.5521846724882,46.1278237830167 15.5524426507294,46.1275982298757 15.5529415172502,46.1275089923015 15.5534360318827,46.1269853763044 15.5539745248674,46.1266932295808 15.5536805138544,46.1264339976822 15.5538007379295,46.1259701360363 15.5535492668918,46.1257976131348 15.5536304373537,46.1255945971966 15.5538375993039,46.1254777063389 15.5541697864218,46.1253892708373 15.5542519541355,46.1252730751158 15.5539994842681,46.1250136425423 15.5532037445186,46.1245542170705 15.5520707903548,46.1236910794348 15.5506896324543,46.1230813254414 15.5490876032718,46.1229896102845 15.5485560887741,46.1232146695744 15.5478818815247,46.1233909243588 15.5462872985847,46.1240660780944 15.5434755800671,46.1239797892552 15.541936340005,46.1230218493545 15.5418257152947,46.1226265752949 15.5394415352868,46.1225877358719 15.5381639769398,46.1229398003793 15.5376268919625,46.1225834188868 15.5358994687687,46.1223932264536 15.5334266419389,46.1223917466933 15.5315144439544,46.1214724756739 15.5300256274568,46.1220603552478 15.5289436640479,46.1223990830662 15.5275564745869,46.1224422034243 15.5274837775969,46.1222817542193 15.5266015173878,46.1211475527225 15.5261547065516,46.1209269229737 15.5239579228291,46.1199963284841 15.5224631144651,46.1199409081665 15.5218708575787,46.119386850311 15.5217107412595,46.119228955834 15.5213018806696,46.1191598311761 15.5208359199819,46.1190449881763 15.5205744084769,46.1189598037476 15.5204947345051,46.1186878131513 15.5202057379943,46.1188164429456 15.5198229000576,46.1190925174598 15.5195118402694,46.1192831484132 15.519272086659,46.1193378627425 15.518783006999,46.1194063048766 15.5183951561893,46.1196319215281 15.5180668909073,46.1199203390637 15.5176768392778,46.1203951930868 15.5170622400192,46.1206155336344 15.5167554255627,46.1207777958053 15.5164411206033,46.1208586639166 15.5161392758475,46.120846800993 15.5158388589252,46.1209324633677 15.5157589607322,46.1209115898819 15.5155799997301,46.1209653023328 15.5154973773637,46.1210546599162 15.5154021510948,46.1210550893276 15.5152854292844,46.1211786109267 15.5150910182812,46.1212268138267 15.5149283992941,46.1213126625399 15.5148194992478,46.1213037057235 15.5147280670247,46.1212252996828 15.5146361961375,46.1212526157699 15.5145555810501,46.1212103307024 15.5144422993695,46.1212171388163 15.5142969539727,46.1211988082068 15.5141254071598,46.1212847859208 15.5138925851951,46.1213767972485 15.5135621030076,46.1216530651363 15.513150783226,46.1217937432873 15.5129150014952,46.1218042488683 15.5125756493505,46.1218782906729 15.5124948254824,46.1219669182076 15.5121647608971,46.1221078582853 15.5121109926356,46.1221421096045 15.5121526673198,46.1222270389013 15.5120042233409,46.1223632956987 15.5117692406164,46.1224464048705 15.5116883271684,46.1225255848894 15.5116255859992,46.1226109817384 15.5113593970111,46.122747764644 15.511248299701,46.1229911031284 15.5110191244984,46.1232129256507 15.5110336428631,46.1233137223009 15.5109486068752,46.1234370977548 15.5108495762963,46.1235163581473 15.5108689440853,46.123651863344 15.5107428292674,46.1237407819945 15.5106743621322,46.124173056029 15.5105346888381,46.1242651841254 15.5100413569379,46.124860229137 15.5100739607336,46.1249578860441 15.5099982232426,46.1250938157045 15.5100179963788,46.1252734067509 15.5098377213061,46.1253972062353 15.5098761760745,46.1256241305791 15.5094155095763,46.1258342957146 15.5091397644265,46.1259333266292 15.5090365013911,46.1260314989283 15.5086277656834,46.1259796935435 15.5082195374163,46.1259689128508 15.5075852902521,46.1260473996352 15.5049667212907,46.1263428672969 15.5045097079831,46.1262471729093 15.5040618248378,46.1260882742782 15.5036347907662,46.1260018015419 15.5031637771352,46.1260733362231 15.502729049536,46.1261509176258 15.5022674918221,46.126266494565 15.5015809188436,46.1266546904577 15.5013855082273,46.1267102522912 15.500964985451,46.1266569416449 15.50091229423,46.1271396161743 15.4983257601125,46.1276967071497 15.4983524235561,46.1286300767963 15.497284057034,46.1288618253354 15.4954430482407,46.1288982515848 15.4928301679049,46.1288527727805 15.4923410546253,46.1289305490924 15.4914706985851,46.1289784720292 15.4905087336252,46.1289258300607 15.4888028551182,46.1288638570806 15.4857348525774,46.1292595069689 15.4841980051659,46.1292303973392 15.4826293566307,46.1292938051515 15.4814781571289,46.1293996113409 15.4808532391345,46.1295031932639 15.4800542877869,46.129430792837 15.4793646803881,46.1294021957915 15.4779169629464,46.1298182716504 15.4773545697763,46.1298206216079 15.4758864822711,46.1299781700577 15.4740803594662,46.1298784254141 15.4729364287867,46.1297633179767 15.4714179039114,46.1293343839129 15.4705831108148,46.1293063325564 15.4705731928846,46.1292054219831 15.469546258975,46.1289826392605 15.4685219754879,46.1290562125007 15.46745149913,46.1290542969051 15.4654175341372,46.1289236758584 15.4645681267352,46.1294958600354 15.4606623034069,46.1305501528723 15.4600916007034,46.1303792504872 15.4598037425173,46.1299846109619 15.4598709281264,46.1294896608894 15.4596520386365,46.1287980074943 15.4594485374866,46.1287580671704 15.4592127934998,46.128777909122 15.4581967883852,46.1292736069528 15.4574519374927,46.1295733261239 15.4573114346257,46.1297964852295 15.4563232051178,46.1308391900266 15.4556882187065,46.1315341667088 15.4558564178668,46.1331294629825 15.4571128789084,46.1335457057276 15.458685129149,46.1338669145528 15.4589399917025,46.1352111891723 15.4595798010296,46.1356092746609 15.4599178439864,46.1358879154102 15.4600343969291,46.1360674851836 15.4602855106446,46.1362731455025 15.4604314771151,46.1365342031926 15.4607881568488,46.1367495142608 15.461010526538,46.1369686050386 15.4609785085845,46.1371487729075 15.4610563688246,46.1372818009276 15.4609908397694,46.1374787492089 15.4611075940976,46.1376816203914 15.4610611544411,46.1378551883314 15.4612069755677,46.1380978907764 15.4613332719637,46.1388541555049 15.4613080752513,46.1392776765006 15.4613213835472,46.1397243454259 15.4614401627082,46.1401688790924 15.4617260771875,46.1405244728056 15.46174924544,46.1410043922577 15.4616268596853,46.1412748995009 15.4621479510201,46.1422162645912 15.462478572931,46.142761611285 15.4627028452303,46.1432040970174 15.4628615372883,46.1432501512142 15.4630888423608,46.1434825339204 15.4632336713448,46.1435886566068 15.4635003281739,46.1439442337424 15.4640112540841,46.1442388960901 15.463951720782,46.1445791505037 15.4645881468595,46.1449732622145 15.4641213980379,46.145361867614 15.4641718028364,46.1456450818514 15.464442676433,46.145930639579 15.4647797412404,46.1460825857121 15.4648338838972,46.1462557459275 15.4646496600926,46.1465765332777 15.4651996168182,46.1469676638546 15.4652396909365,46.1471608553829 15.4654376678865,46.1473201136077 15.4654967156096,46.1475065696859 15.4655413835003,46.1476763490866 15.4656475851966,46.1477592326505 15.4658259571981,46.1478652153354 15.4658651176246,46.1479651070768 15.4658139620851,46.1481619991783 15.4658661728539,46.1485351793823 15.466088868871,46.1489075745618 15.4661222102003,46.1494374766095 15.4661202070479,46.1497676000833 15.4658048231247,46.1501478569333 15.4656917394624,46.1507077771139 15.4655979224103,46.1509581974956 15.4656844269802,46.1515445666526 15.4656677411891,46.15183795038 15.4655585010422,46.1525318261075 15.4655345959346,46.1531053286567 15.4652461742568,46.1535998310476 15.465131786308,46.1536837025599 15.4648110764198,46.1543267024946 15.464852025143,46.1546232706102 15.4650079374461,46.1549192811233 15.464780754006,46.1552769523702 15.4645057039853,46.1556547919058 15.4645933901117,46.1558127899673 15.4650152952032,46.156346150372 15.4653503018868,46.1568298373691 15.4656779367888,46.1570068317654 15.4660291059026,46.1571186780222 15.4662082407269,46.1573113018667 15.4662573557107,46.1574545202133 15.4661387893911,46.1576116486068 15.4661644447645,46.157813265838 15.4664935276124,46.1581452772659 15.4668130166216,46.1584906430661 15.4673334622955,46.1587752638673 15.4672505629733,46.1591689692658 15.4673769396502,46.1593684649264 15.4672834258312,46.1596555045027 15.4674102555356,46.1599083528578 15.4673366545309,46.160268729832 15.4673089101523,46.1604021847549 15.4670986527428,46.1604963471451 15.467042236885,46.1606232610719 15.4668341217519,46.1609708710177 15.4669218367926,46.1611304865652 15.4668811499749,46.1612648039934 15.4669620805159,46.1613570566806 15.4668862182106,46.1614506695908 15.4670603372917,46.1616299962926 15.466873202128,46.1621774427431 15.4665292690092,46.1623588848538 15.4664544759632,46.1625792664458 15.4662169675475,46.1628668924605 15.4656554433694,46.1633958888641 15.4655628140383,46.1637896323498 15.4657479421858,46.1641223217497 15.4660668422093,46.1643943629083 15.4661638051308,46.1645139928019 15.4664152968706,46.1647462694277 15.4664072925755,46.1649329980352 15.4667277230863,46.1653850689326 15.4667199457552,46.1655985188751 15.4668356413865,46.1656513110293 15.4669791656126,46.1656107763878 15.467054372551,46.1654237732115 15.4674561547488,46.1652821314862 15.4677540975228,46.1653409253662 15.4681403886286,46.1656326591299 15.4685635414707,46.1657509506855 15.4687574833396,46.1659902060347 15.4690183486717,46.1661958061578 15.4694902291238,46.1663938811625 15.4698545185941,46.1663657521602 15.4703368377384,46.1666637417915 15.4705506940828,46.166989557011 15.4705345993642,46.167349698876 15.471438697436,46.1675860243097 15.4719614493973,46.1679457423222 15.4740699501431,46.1673880868586 15.4750704034765,46.167412995112 15.4768228828161,46.167666443102 15.4773704355332,46.1683590263548 15.477752963685,46.1692548279323 15.4773926893523,46.1710510419059 15.4779908729676,46.1728144589375 15.4785321493356,46.1739404661495 15.4827195872675,46.1749944486605 15.4830765875964,46.1753114478493 15.4839322436647,46.1754525966486 15.4855155343139,46.1753735442272 15.4883480977216,46.1751588578456 15.4892248727915,46.1753288483777 15.4895783165712,46.1752260247388 15.4916805491533,46.1749129807311 15.4948048493738,46.1747113649504 15.4974339213553,46.1750619196589 15.5016916129275,46.1757309832128 15.502984152338,46.1757832465325 15.5040247513173,46.175619409581 15.5048978684731,46.1753694782666 15.5054405389349,46.1754539948633 15.5071345804434,46.176112478275 15.5089150067916,46.1770889692034 15.5106374965765,46.1785580275002 15.5116611659909,46.1788140143039 15.5122646953314,46.1787244867336 15.5126993739227,46.1783895451713</coordinates></LinearRing></outerBoundaryIs></Polygon></MultiGeometry>
  </Placemark>
</Folder>
</Document></kml>
