<?xml version="1.0" encoding="utf-8" ?>
<kml xmlns="http://www.opengis.net/kml/2.2">
<Document id="root_doc">
<Schema name="pregledovalniklovisca" id="pregledovalniklovisca">
	<SimpleField name="lov" type="string"></SimpleField>
	<SimpleField name="lov_naziv" type="string"></SimpleField>
	<SimpleField name="luo" type="string"></SimpleField>
	<SimpleField name="luo_naziv" type="string"></SimpleField>
	<SimpleField name="povrsina" type="float"></SimpleField>
</Schema>
<Folder><name>pregledovalniklovisca</name>
  <Placemark id="pregledovalniklovisca.1">
	<Style><LineStyle><color>ff0000ff</color></LineStyle><PolyStyle><fill>0</fill></PolyStyle></Style>
	<ExtendedData><SchemaData schemaUrl="#pregledovalniklovisca">
		<SimpleData name="lov">0903</SimpleData>
		<SimpleData name="lov_naziv">VELENJE</SimpleData>
		<SimpleData name="luo">09</SimpleData>
		<SimpleData name="luo_naziv">Savinjsko Kozjansko</SimpleData>
		<SimpleData name="povrsina">5868.26</SimpleData>
	</SchemaData></ExtendedData>
      <MultiGeometry><Polygon><outerBoundaryIs><LinearRing><coordinates>15.1878786765663,46.3863463416997 15.1881114646154,46.3859860775823 15.1884606719185,46.3854546774696 15.1883807153935,46.3848879958481 15.1883407222881,46.3846001565006 15.1884051079247,46.3844201096733 15.1884292462263,46.3839162357161 15.1888697207333,46.3834655671322 15.1890508604338,46.3832133506945 15.1890765199788,46.3831143408254 15.1890241761016,46.3830154599085 15.1889459555035,46.3829526098872 15.1883860967162,46.3827106134219 15.1875383475283,46.3819562552862 15.187498946222,46.3818393583406 15.1873814820287,46.3817045952303 15.1869777065865,46.3814803300485 15.1867297827574,46.3812108238373 15.1866767703482,46.3809140079376 15.1866472984913,46.3799333781472 15.1867240706471,46.3795733709793 15.186801087256,46.3792853397119 15.1869430396642,46.3789792081496 15.1870979214811,46.3786910493368 15.1875514636871,46.3782313669837 15.1879795492069,46.3779697496902 15.1882775695296,46.3777263390937 15.1889521055864,46.3773113622666 15.1889906375993,46.3771763428436 15.1896253853841,46.3765364115078 15.1898839935704,46.3761401121296 15.1898159439565,46.375258513962 15.1896589626924,46.3749708687135 15.1891763915851,46.3745398094462 15.1893963404245,46.3742425425807 15.1900059893178,46.3738726520004 15.1904592747888,46.373394964031 15.1906535287624,46.3731877080429 15.1906141271775,46.3730708119912 15.1911073367407,46.3728630565155 15.1915349859472,46.3724934616967 15.1918336577274,46.3724119875417 15.1921709124374,46.3722134860216 15.1923521893979,46.3720152459685 15.1924689180382,46.3719430730983 15.1924551616543,46.3717271668436 15.1924937443639,46.3716101401387 15.1926876676071,46.3713128206206 15.1925818794341,46.3708361546526 15.1924771712237,46.3706293985515 15.1924377079948,46.3704585208146 15.1919041733549,46.3703154644295 15.1915782597114,46.3700371019954 15.1914347217112,46.3698753952647 15.1913561401244,46.3697045826114 15.1912510304845,46.3693808642084 15.1911980052365,46.369084049808 15.1912364317937,46.3689220384186 15.1914826242206,46.3687056969244 15.191650580334,46.3684175095253 15.1915981515663,46.3682916384827 15.1917011797306,46.3680575421419 15.1918177788383,46.3679133935844 15.1920636137433,46.3676340719435 15.1924532045414,46.3675433563225 15.1926869303796,46.3674439950151 15.1928422244632,46.3672907831238 15.1930230390988,46.3669665836857 15.1932298132104,46.3666333430143 15.193657145245,46.3661917638418 15.193812372127,46.3659845683051 15.1940192651578,46.3656873142196 15.1941084553718,46.3651832370388 15.1940808696395,46.3647334303845 15.1939761967711,46.3645716607263 15.1938315672433,46.3644667302156 15.1931614313374,46.3641205772162 15.1929042544237,46.3637192021411 15.1927554705789,46.3633925894135 15.1927548241281,46.3632087803201 15.1928812652019,46.3627999200851 15.1927717991078,46.362418718737 15.1924950712872,46.3620718978486 15.1924059978042,46.3619086608872 15.1930934941467,46.3616214850731 15.1935884072706,46.3614863219814 15.1936527169535,46.3612972745161 15.1937692935509,46.3611890221641 15.1937818408867,46.3610990301469 15.1935995274543,46.3609553857359 15.1939352384466,46.3603790040047 15.1941164087893,46.3601267784546 15.1942851540274,46.3600725094195 15.1946358919982,46.3600719129813 15.1949085333263,46.3599994719867 15.1954011921377,46.3596747364224 15.1956478401617,46.359602248102 15.1959071615995,46.359439946697 15.1960754842448,46.3592686237461 15.1961138577248,46.3590977034184 15.1961785097876,46.3590075317631 15.1963340935665,46.3589082968759 15.1963338035439,46.3588273236612 15.1966195925816,46.3587998413924 15.1969944667291,46.3582857328767 15.1973621752117,46.3554223171918 15.1945492426798,46.3545144731369 15.1937543189076,46.3531657199061 15.1915072989344,46.3533758983056 15.18762793041,46.3538316438882 15.1853445772909,46.3537255131659 15.1815509962225,46.3535849464478 15.1813392037715,46.3532325966757 15.1806690214545,46.3523334987891 15.1801752371905,46.3516896364004 15.1800329043554,46.3511181854389 15.1806252951816,46.349670068976 15.1805698312776,46.3488066154874 15.1800210357255,46.3473844101195 15.1821014802191,46.3446085698948 15.1820465637607,46.3439154306332 15.1818519804355,46.3434534691036 15.1819202459407,46.3428453362542 15.1821655112911,46.3426868666742 15.1826038208867,46.3425280884567 15.1827434106182,46.3422359993796 15.1832881278673,46.3423933866418 15.1835862931731,46.3422835035356 15.1834094436658,46.341882336485 15.183030443248,46.341592877054 15.1822486831536,46.3412881340957 15.1813869928211,46.3408515250327 15.1814559038178,46.340437908636 15.1814898603559,46.3400607859408 15.1821547445769,46.3393666814214 15.1822929860853,46.3387096720813 15.1821591390053,46.3370911249958 15.181111404846,46.3370573406246 15.1805139390132,46.33683929562 15.1801079056792,46.3361344721542 15.1789297317585,46.335489609161 15.176859913009,46.3341308457025 15.175599401888,46.3337485214482 15.1758504767189,46.3331806873236 15.1751135828931,46.3310524695722 15.1753388523077,46.3305810350094 15.1759423312498,46.3302311995952 15.1776253116913,46.3287806903223 15.1805687376442,46.3276776208993 15.1817758323703,46.3271001620536 15.1824537156123,46.3264187194832 15.1838677273278,46.3245085227804 15.1842069332498,46.3234226525617 15.1835858983478,46.3226789584377 15.1808802004808,46.3215768026211 15.1795400186015,46.319863700179 15.1787246676885,46.3193909181548 15.177128072813,46.3189416560573 15.1756891109858,46.3167773639025 15.1755889965963,46.3159652553592 15.1750979514585,46.3150407417448 15.1746088879844,46.3148157511668 15.1740870095905,46.3144778942376 15.1738254591866,46.3140946537077 15.1729474205939,46.3144116051164 15.1719384908775,46.3144805153305 15.1712556394186,46.3147295015019 15.1706697935308,46.314775273203 15.1693335854849,46.3142353615509 15.1687471190933,46.3140780586685 15.1681941452213,46.3142141005521 15.1677724433765,46.3147334956656 15.1657240148103,46.3155931912719 15.1648470625424,46.3163387028461 15.1649492616962,46.3179404970197 15.1644331062991,46.3196333328904 15.1627016590801,46.3198705450583 15.1619085370956,46.3198409006191 15.161071932043,46.3199944037368 15.1603230088483,46.3200257766107 15.1598827611568,46.3201483942449 15.1594435344399,46.3206678725593 15.1589596112424,46.3209126386854 15.1582548725003,46.321005027143 15.1575935821051,46.3208530790808 15.1550388284393,46.3210694438457 15.1544225989143,46.3212837797974 15.153806919212,46.3217423839518 15.1532347004731,46.3219567442388 15.1523096538946,46.3219882105291 15.1510772702713,46.3225084403547 15.1501542087819,46.3233642940527 15.1488789918548,46.3243426003369 15.1482627014732,46.3245569030409 15.1448735245827,46.3260257102877 15.1438625235884,46.3270342153315 15.1428944214436,46.3275236133879 15.1413535270389,46.3281052134911 15.1399891286542,46.3287475773403 15.1393725213847,46.3288702416067 15.1387128334396,46.3294204082144 15.1354537167687,46.3301865516776 15.1343877461062,46.3257697703711 15.1339617340048,46.3252759679016 15.1335240177319,46.3250393154896 15.1332267795751,46.3249453722554 15.1330946117186,46.3248541153132 15.1330072721697,46.3247189000785 15.1332249969498,46.3242110284144 15.1326380991096,46.3240377061556 15.1325865656274,46.3242087114436 15.1325089280992,46.3243257641622 15.1323925037424,46.3245148387979 15.1322367714153,46.3245600046622 15.1320680953849,46.3246231795285 15.1320031832633,46.3246322516143 15.131834355454,46.3246324463869 15.1315877149742,46.3246777161416 15.1314189947443,46.3247228958363 15.1312373735078,46.3248040786158 15.1311076345125,46.3248582102355 15.1310297566232,46.3248762937655 15.1309647152089,46.3248313826201 15.1308344182137,46.3246515891441 15.1307692700365,46.324561692348 15.1307429094907,46.324453756906 15.130885377111,46.3242916455387 15.1308722188008,46.3242196835393 15.1307551888366,46.3241568374947 15.130573290217,46.3241210568205 15.1304174719847,46.3241302317775 15.1302746189822,46.3241303946189 15.1301447526153,46.3241305425017 15.1300150567581,46.3242026671043 15.1298851902188,46.3242028146925 15.1296774037538,46.3242030505268 15.1294697658578,46.324266265743 15.1292232097983,46.3243475188343 15.1290155285308,46.3243927390085 15.1289116772018,46.3244108503999 15.1288466803156,46.3243839322607 15.1287815357107,46.3242940343242 15.1287814723755,46.3242670429982 15.1288462578678,46.3242039900881 15.1288071289765,46.3241320571111 15.1285601931786,46.3240513608142 15.12827438242,46.3240066961314 15.1278718394796,46.3240251412635 15.1275212218308,46.3240345299493 15.1272615521086,46.3240618106415 15.127183674076,46.3240798915547 15.1270670235751,46.3241789897009 15.1268463129107,46.3242062261496 15.1267684137542,46.3242153096704 15.1267036050878,46.324269364296 15.1266516999274,46.3242874160636 15.1264439545729,46.3243056402413 15.1262752312358,46.3243508123523 15.1259119135093,46.3244861699776 15.1258339931708,46.3244862557526 15.1257819433838,46.3244414173303 15.1257426738353,46.3243064135653 15.1257680492832,46.3240454688135 15.1257157318467,46.3238835779526 15.1256505105697,46.3237576897764 15.1256372150808,46.3236227473855 15.1256756327308,46.3234427624963 15.1257401322492,46.3232537517766 15.1257657133974,46.3230827780946 15.125765445384,46.3229658156423 15.1257003693273,46.322902907257 15.1254794368458,46.322831172837 15.1252325733692,46.3227774606615 15.1249077925357,46.3227238330934 15.124557039747,46.3226702328966 15.1244920674619,46.3226523093825 15.1244140273553,46.3225984115105 15.1244137826213,46.3224904461553 15.1244006332315,46.3224184833796 15.124296458103,46.3222926367716 15.1242443096186,46.3222027220903 15.1241791954987,46.3221218186009 15.1240101720799,46.3220320306761 15.1237370695258,46.3219153637662 15.1234773153467,46.3218437574407 15.1232174517773,46.3217809678359 15.1231133121573,46.3217270971897 15.1230484110113,46.3216822713379 15.122996094969,46.321574361985 15.1228526241034,46.3212955150055 15.1227483540554,46.3211246813783 15.1226181530776,46.320971869736 15.1224880333365,46.3208551363769 15.1224229033391,46.3207652347477 15.1223965905872,46.3206123115697 15.1224090547193,46.3203783726307 15.1223955471517,46.3201443715124 15.1223690943746,46.319928468487 15.1223167508115,46.3197485817042 15.1222773635094,46.3196136667362 15.1222251303709,46.3194247826434 15.122133931401,46.3192899229888 15.1220167120945,46.3191910795888 15.1218866575937,46.31910124689 15.1217046617995,46.319011469338 15.1213538363963,46.3189128736563 15.1209120354935,46.3187784745403 15.1206131741756,46.3186888187634 15.120457211724,46.3186260031802 15.1204051517617,46.3185719851917 15.1203790035358,46.3184910384501 15.1203917325198,46.3183741521799 15.1205211110355,46.3181579945115 15.1207541326533,46.3178338515455 15.1208574592367,46.3175818223848 15.1208569838455,46.3173658914533 15.1208306176935,46.3171859764501 15.1207654353961,46.3170690824437 15.1206729806031,46.3171865028053 15.1194775547282,46.3183089820528 15.1177916933795,46.3189231665588 15.1171436167282,46.3188747979144 15.1164294053634,46.3191748622401 15.1162508576126,46.3192988445521 15.1152167692085,46.3198314422095 15.1147753989346,46.320209855899 15.1143536073009,46.3205144717481 15.1139323784051,46.3210298883964 15.1139834124529,46.3212171579323 15.1139334878593,46.3216269372951 15.113664435894,46.3222007724779 15.1132441127298,46.3220945734663 15.1096661518333,46.3225465681627 15.1087207264009,46.3226660532221 15.1072017985607,46.3223094013641 15.1044069212193,46.3216379220528 15.1012837496037,46.3215572376794 15.0981613885484,46.3215615802154 15.0977427360532,46.3214988689195 15.0975518345715,46.3214221064256 15.0973268048722,46.3213591382848 15.0970049282556,46.3213120868618 15.0966916832128,46.3212255298033 15.0964494273714,46.3211133601598 15.0962471290359,46.3210523500852 15.0960677865012,46.3210485421604 15.0959341107507,46.3210939999609 15.0958829748954,46.3211848239635 15.0958062357675,46.3212637931761 15.0957098205056,46.3214532636439 15.0956308073413,46.3217926117581 15.0953398629036,46.3215364363335 15.0947865783861,46.3210398045116 15.0945235711716,46.3204875979832 15.0943059796625,46.3198368346781 15.0943448138557,46.3193120894725 15.0943896254356,46.3189411903744 15.0941382624107,46.3185073755227 15.0938869709166,46.3181130574791 15.0938867533529,46.3180617739497 15.0936591696234,46.3180895818133 15.0931181516279,46.3180584437087 15.0923381694599,46.3180827387172 15.091797697833,46.3183001849461 15.0915477316566,46.318612046318 15.091240598018,46.3187503979155 15.0908934677561,46.3188887804849 15.0906491553762,46.3191691453754 15.0905071531609,46.3193625164258 15.0902510914819,46.3194495412154 15.0898698157142,46.3195168702039 15.0894315774668,46.3196119536748 15.0890387871809,46.3197069101126 15.0885322988747,46.3198375819572 15.0884078543216,46.3202952727087 15.0882317869929,46.3204690534666 15.0879143156888,46.3206509502059 15.0872643091898,46.3207735392698 15.0865011854091,46.3207267941669 15.0862623950238,46.3209045780511 15.0857795209811,46.3215322216836 15.0855076292487,46.3223057291328 15.0851551472148,46.3226176529222 15.0850589312328,46.322960965206 15.0848545063709,46.3232846540172 15.0848872819587,46.3235686691862 15.0848274537964,46.3240145215078 15.0849555992379,46.3241611695977 15.0850274099025,46.3244089872052 15.0848112643961,46.3245471637236 15.084281652516,46.3245397278078 15.0839972545735,46.3247174504768 15.0836625924064,46.3254041768918 15.0834302364469,46.3260750826688 15.083134548475,46.3263514199105 15.0827079878337,46.3266555622647 15.0824520451777,46.3267662318354 15.0822009464627,46.3267299742509 15.0818762671447,46.3264707300164 15.0819379348335,46.3258473647551 15.0820108876556,46.3253028061603 15.0818169525469,46.3251017692531 15.0814525638672,46.3251177743771 15.0810656636025,46.3252798177275 15.0809063528268,46.325394374055 15.080132245909,46.3256040124551 15.079449559193,46.3259910954835 15.07848772326,46.3262561853517 15.0772125294719,46.3265450516159 15.076181627334,46.3263760572426 15.0754697289051,46.3263252456838 15.0745762813408,46.3267598533389 15.0742638805594,46.3271980368247 15.0738374445169,46.3276362031446 15.0734958071796,46.327683838096 15.073114244842,46.3276919102057 15.0720386546589,46.3281148280098 15.0712136573964,46.3285966909847 15.0708835428037,46.3287231257593 15.0703596626449,46.3287589879532 15.0701037418072,46.3290155631856 15.0695650602428,46.3291602060408 15.0686337146163,46.3308327041555 15.0685570519979,46.3314308787412 15.0681590481316,46.3319219995396 15.0686682698749,46.3318757195941 15.068535713716,46.3321288880919 15.067395827357,46.3325437029998 15.0672412768489,46.3328735383751 15.0666434893931,46.3329428962307 15.0659463892344,46.3333804703311 15.0658031995323,46.3339865086402 15.0656271319081,46.3347994992297 15.0657715394218,46.3352059059045 15.0655173141548,46.3356201890103 15.0649528564168,46.3357815593632 15.0645216167022,46.3363416938507 15.0638909504566,46.3366564970437 15.0634373620854,46.3370018787908 15.0634605625231,46.3379682455898 15.0626748933774,46.3383904634176 15.0618004725162,46.3386823557094 15.0611585392235,46.3390661576107 15.0602060931669,46.338944032462 15.059785483654,46.3390746212437 15.0595311119761,46.3394121455043 15.0591103674594,46.3395428218332 15.0581038544156,46.3406246999469 15.0578500157686,46.3413610617671 15.0583601580098,46.3420893880343 15.0586043838105,46.3425724075667 15.059180375454,46.3426641512811 15.0592913742394,46.3429555099269 15.0592592910221,46.3439219052159 15.0597245984279,46.3441210388812 15.0608211402825,46.34418182113 15.0611424504316,46.3443274028005 15.0604453729715,46.3449565806808 15.059848357535,46.3458619128165 15.0598837018276,46.3477715279463 15.0608925100912,46.3485532925176 15.0609603529879,46.3497420421844 15.062246178856,46.3506003017412 15.0623356712069,46.3513748124238 15.062491901589,46.352333366889 15.062822220748,46.3526981977186 15.0653456257446,46.3538553383292 15.0648855468343,46.3540988814833 15.0645432287557,46.3541563866364 15.064105960019,46.354021316453 15.0640504706911,46.3543498310991 15.0640142879715,46.3550775354803 15.0642010331804,46.3556506349184 15.0649461760209,46.3563586443471 15.0657748601988,46.3569313746994 15.0664167566514,46.3573365920413 15.0674093952178,46.3582762959026 15.0676875677774,46.35855540088 15.0678127332699,46.3586809259253 15.0678650022556,46.3589148189236 15.0679696308185,46.3594545813753 15.0682821009402,46.3598232753314 15.0685292781939,46.3600391472513 15.0688935386263,46.3603538260028 15.0691408454063,46.3606685743494 15.0694266809474,46.3608251302004 15.0693423970903,46.3611775967165 15.0691732619704,46.3615384817848 15.0690404699398,46.3618656955934 15.0683992516197,46.3624785116065 15.0680257941681,46.3627205756474 15.0675395491112,46.3628732742458 15.0676103503609,46.3630628006844 15.0676102205131,46.3630628907319 15.067440796278,46.3632028052484 15.0673377131616,46.3632878883083 15.0667649225499,46.3634526006298 15.0673906593697,46.3640706021604 15.0674691345196,46.3644754239699 15.0677298149674,46.3650870704756 15.0680646822491,46.3656752798169 15.0680294196976,46.3655367459773 15.06814675712,46.3658335793007 15.0681467572318,46.3658336692713 15.0681866494521,46.3662457111017 15.0685510090175,46.3668159971523 15.0689150702267,46.3671430015601 15.0691820515987,46.3673693864213 15.0698373456236,46.3679731408983 15.0728678052569,46.3686090517676 15.0731226778722,46.3688018760479 15.0735832715416,46.3688770659462 15.0739349212804,46.3690278997898 15.0726390337555,46.3695739521575 15.0725183719537,46.3698341337423 15.0728458422618,46.3700772960705 15.073415147453,46.3698924023088 15.0744813187166,46.3696903586685 15.0755238273843,46.3698659273203 15.0775300231582,46.3697957572648 15.0781680474956,46.372422193889 15.0786596814558,46.374445564163 15.0799004015532,46.3742703411276 15.0805112159307,46.3742788198055 15.0964119795566,46.371115840753 15.0979541345524,46.3710239298088 15.1011858447543,46.3704293794006 15.1021916976842,46.3699927573727 15.1027524109252,46.3711707796756 15.1021688380754,46.3725107843798 15.102637413143,46.3741719408182 15.1136040423921,46.3765062038278 15.1178320843056,46.3779382143081 15.1185008147794,46.3774159644339 15.1193008292264,46.3772541754356 15.1198123273289,46.3771248929141 15.1206381780488,46.3761258020293 15.1225620012955,46.37512571346 15.1239921979291,46.3739521256092 15.1238140801869,46.3733598625667 15.1234917875201,46.3732161682107 15.1230500527614,46.3729613079529 15.1223936188477,46.3707982201634 15.1229127751652,46.3699990843371 15.1238529170979,46.3701848489459 15.1245065933431,46.3711694970241 15.1272928938244,46.3728860369579 15.1283651565406,46.3737349700924 15.1284694866068,46.3745462972051 15.1295499703396,46.3750023984607 15.1295735635358,46.3769536521058 15.1305439667158,46.3779958461991 15.1304334981092,46.3784983673675 15.1314959566569,46.3790960839915 15.1314428151145,46.3801909055243 15.1308213452256,46.380977239995 15.1312684148966,46.3811377747552 15.1318934277603,46.3817167350415 15.1338222369664,46.3826547749671 15.1355527762299,46.3824596603026 15.1378410061557,46.3819997854327 15.1394874450203,46.3817209500797 15.1406036401365,46.3815135508966 15.1422766789902,46.3807258598635 15.1422371780851,46.3798822561688 15.1436076284238,46.3807757492945 15.1451555245913,46.3818944666357 15.1463480956321,46.3823502662906 15.1480883581337,46.382309428667 15.1503323210316,46.3827187452349 15.1522228846348,46.3831478323393 15.1534806894323,46.3836549337344 15.1562907661999,46.3834580513316 15.15727829431,46.3837723135725 15.158694903493,46.384459529667 15.1608297517795,46.3855965617856 15.1610259528891,46.3859987231017 15.1617554417034,46.3870056314036 15.1631338737205,46.3873128114482 15.1636568352957,46.3878466679517 15.1642719198183,46.3880968932408 15.1643307844777,46.3890821635617 15.1650145850823,46.3896071453119 15.1656777938382,46.3911861546244 15.1666957057954,46.3922344484725 15.1672203028481,46.3932769776158 15.1676215014041,46.3935919158996 15.1694302896666,46.3944909320453 15.170673190921,46.3959638755883 15.1707987038,46.3958475366731 15.1708097704847,46.3952267257166 15.1708348790181,46.3949387835264 15.1708858535386,46.3946058175576 15.1709240208257,46.3943358498475 15.1711428367888,46.3936607458593 15.1712976635019,46.393273642022 15.1713742171121,46.3928056820466 15.1714243800312,46.3922566983411 15.1715277256604,46.3920406147551 15.1717212990016,46.3915724788686 15.172160501868,46.3906541216976 15.1733169732533,46.3904184521187 15.1747331351772,46.3900743200182 15.1756171432678,46.3900279807537 15.1760067474326,46.3898834293174 15.1764354719785,46.3897748043208 15.1770331354103,46.3896389252247 15.1777864118535,46.3893767527899 15.1787212396758,46.3889704292675 15.1793055036952,46.3887175978039 15.1796432878585,46.3886360944029 15.1804616064394,46.3883917961702 15.1812412997786,46.3882646046846 15.1828008857836,46.3880731846666 15.1838403108456,46.3878196015181 15.1844638683894,46.3877016359723 15.1853993486788,46.387511095519 15.1865558876496,46.3872932858705 15.1867634832259,46.387166988549 15.1872049820339,46.3870043200503 15.1874770827539,46.3867699513958 15.1877007104372,46.3865807368011 15.1878786765663,46.3863463416997</coordinates></LinearRing></outerBoundaryIs></Polygon></MultiGeometry>
  </Placemark>
</Folder>
</Document></kml>
