<?xml version="1.0" encoding="utf-8" ?>
<kml xmlns="http://www.opengis.net/kml/2.2">
<Document id="root_doc">
<Schema name="pregledovalniklovisca" id="pregledovalniklovisca">
	<SimpleField name="lov" type="string"></SimpleField>
	<SimpleField name="lov_naziv" type="string"></SimpleField>
	<SimpleField name="luo" type="string"></SimpleField>
	<SimpleField name="luo_naziv" type="string"></SimpleField>
	<SimpleField name="povrsina" type="float"></SimpleField>
</Schema>
<Folder><name>pregledovalniklovisca</name>
  <Placemark id="pregledovalniklovisca.1">
	<Style><LineStyle><color>ff0000ff</color></LineStyle><PolyStyle><fill>0</fill></PolyStyle></Style>
	<ExtendedData><SchemaData schemaUrl="#pregledovalniklovisca">
		<SimpleData name="lov">0701</SimpleData>
		<SimpleData name="lov_naziv">LOKA PRI ZIDANEM MOSTU</SimpleData>
		<SimpleData name="luo">07</SimpleData>
		<SimpleData name="luo_naziv">Posavsko</SimpleData>
		<SimpleData name="povrsina">3853.16</SimpleData>
	</SchemaData></ExtendedData>
      <MultiGeometry><Polygon><outerBoundaryIs><LinearRing><coordinates>15.2357461431077,46.0370338320085 15.2350651436347,46.0372410994333 15.2340850942434,46.037640984176 15.2337315875465,46.0378172505629 15.2332635938822,46.0380506143108 15.2324890688833,46.0384815572206 15.2317009481919,46.0389700169787 15.2316567479016,46.0389973692563 15.2310332346979,46.0394604773301 15.2303357630292,46.0400679622957 15.230091291938,46.0403108495981 15.2299254335233,46.0404749393787 15.2297258617282,46.0406723877351 15.2290800135732,46.0413356361132 15.2285217392308,46.0419021616652 15.2281035373401,46.0423178754647 15.2279512434165,46.0425157661479 15.227795093343,46.0427187929267 15.2274036712044,46.0433660483917 15.2271114707422,46.0439498523597 15.226672149568,46.0445472637975 15.2262863666461,46.0449997065363 15.2258101671993,46.0454298326673 15.2253255240592,46.0457871830526 15.2250369980869,46.045947908311 15.2245404785268,46.0461828217421 15.2239029303832,46.0463730214976 15.2231175730464,46.0465032225845 15.2221851472223,46.0465644229475 15.2214356250355,46.0465452730728 15.2204390400049,46.0464599230349 15.2201029204286,46.0464191819655 15.2195829672659,46.046355399541 15.2185203472921,46.0461684870379 15.217436234717,46.0459358078893 15.2163215869755,46.0456571986416 15.21509642956,46.0453337986619 15.2140658302721,46.0450982875214 15.2132889200851,46.0449737739076 15.2123023747179,46.0448676397458 15.2112879329455,46.0448317297283 15.2105761775721,46.0448492388987 15.2099439744101,46.0449240920455 15.209579245834,46.0449672299668 15.2084767624753,46.0452274766178 15.207775567593,46.045409604697 15.2071754317594,46.0455969438759 15.2064477238287,46.045878984919 15.2059655474909,46.046100295382 15.2051994828306,46.0464958569568 15.2047992635095,46.0469041648056 15.2043820413608,46.0472936067286 15.2040462628306,46.0476945985762 15.2037957729167,46.0480981366384 15.203643501907,46.0485059979521 15.2035929450593,46.0488138048845 15.2035927374276,46.0490738349908 15.203679342908,46.0497844885606 15.2037154411709,46.0504646402828 15.2037241812689,46.0509087445618 15.2037359319273,46.0515038225767 15.2036326863211,46.0525252300674 15.2034865395092,46.0535134226898 15.2034245209969,46.0542207413771 15.2034285590349,46.0549333409292 15.2034945206502,46.0556512286958 15.2036683943507,46.0562276624491 15.2038704094222,46.0566888769662 15.2041318908886,46.0571535839227 15.2044492652783,46.057703667052 15.2048522241266,46.0582940848833 15.2049761152956,46.0585943810667 15.2049977962278,46.0588651685379 15.2049228766666,46.0591559238414 15.204757306886,46.059468435635 15.204518052142,46.0597423895697 15.2042925078002,46.0599146461555 15.2039070587059,46.0601852609769 15.2032672778399,46.0605346057574 15.202626914433,46.0607975714878 15.2017764012138,46.0610645038166 15.2010622637623,46.0612673973634 15.2000654415467,46.0615030827934 15.1987867535063,46.061749147386 15.1982684948563,46.0618310254925 15.197437063119,46.0620224029506 15.1968864297745,46.0620881351185 15.196248399569,46.0621477164409 15.1957379625159,46.0621773838606 15.195293391891,46.0621925404028 15.1947181799799,46.0621800254513 15.1941027146687,46.062114490439 15.1933464438671,46.0620708744733 15.1927219674083,46.0620521345168 15.1921169100826,46.0620423560576 15.1916741582759,46.0621348743763 15.1911771003789,46.0622967629392 15.1907242266028,46.062528756484 15.1901734796059,46.0629039721001 15.1896362541587,46.0633422353997 15.1891646871801,46.0637820970275 15.1887720534698,46.0642497187268 15.1884056844448,46.0648027724106 15.1880547346891,46.0654070854898 15.1876485884046,46.0660510772395 15.1871570139418,46.0667401950879 15.1868059769352,46.0672113406832 15.1864195471803,46.0676150613491 15.1860222945262,46.0679540160181 15.1857337774519,46.0681472124816 15.185565722502,46.0682598646911 15.1853376344791,46.068433887242 15.1846001973673,46.0689452409762 15.1842508356578,46.0692312965127 15.184089432236,46.0693635504358 15.1835739470459,46.0698421486495 15.1831142692691,46.0703512467223 15.1826945131415,46.0707775017866 15.1823951382006,46.0710182140553 15.1819469434457,46.0714481107136 15.1816002645781,46.0718122523291 15.1812255051781,46.0722087385332 15.1807329885497,46.0726899865296 15.1803206826778,46.0731126219045 15.1801378839894,46.0733108558002 15.1797636480946,46.0738351011925 15.179489442945,46.0742720022255 15.1791822866776,46.0748348296363 15.178928143847,46.0753219939669 15.1786485789863,46.0757048261262 15.1783422040608,46.0760337142572 15.177976983205,46.0763168058135 15.1774750595773,46.0766262013486 15.1769586044166,46.0768403333803 15.1762212160867,46.0771015010495 15.1757655143245,46.0772335665517 15.1753444113498,46.0774321588349 15.1747425569655,46.0776292265277 15.1740955912428,46.0778308585245 15.1732456456959,46.0781174613694 15.1727190838797,46.0783341987854 15.1724053967194,46.0784898796092 15.1720155447002,46.0786834638044 15.1717692055513,46.0788781807147 15.1715335190979,46.0792150419242 15.1713602499987,46.0796264884831 15.1712445449862,46.0800062672307 15.1712028189921,46.0801431819995 15.1711199053475,46.0805077056605 15.1711056597571,46.0808766252241 15.171170158785,46.0812049380402 15.1712940192625,46.0815376606154 15.1715137446936,46.0819296228355 15.1716517897364,46.0822488274226 15.171702974928,46.0824934829621 15.1717477338626,46.0827921332127 15.1717992805362,46.0831529460511 15.1716974541834,46.0836731553451 15.1721299740908,46.0838416580731 15.1725319573398,46.0842098600617 15.1729869351476,46.0846113611922 15.1734212474692,46.0849769017948 15.1737896922947,46.0852831573194 15.1739260449618,46.0853861513711 15.1742822224405,46.0856549043348 15.1746733961769,46.0859080370098 15.1751320076921,46.0861817593005 15.1756682345748,46.0864229694482 15.1761460857784,46.0866039837367 15.1764955089261,46.0866952193147 15.1769677671921,46.0867835644594 15.1775859697181,46.0868572849867 15.1781631944377,46.0869345750768 15.1787971221339,46.0870316580614 15.179426999714,46.0871152476244 15.1798046098132,46.0871632407916 15.1803157228056,46.0872677064845 15.1807907956637,46.0873434348753 15.181153053071,46.0874013451264 15.1813472999768,46.087408415066 15.1815551261933,46.0874160029579 15.1820635067089,46.0874349888506 15.182548396175,46.0874278272541 15.1831715116406,46.0874187326499 15.1840187912392,46.0874695572833 15.1847355777463,46.0875529776386 15.1854494646364,46.0876579922198 15.1862399573469,46.0877781733109 15.186687959974,46.0878754253313 15.1870151517934,46.0879621662873 15.1874981843066,46.08809273856 15.1879381869116,46.0881936877756 15.1882606064713,46.0883209217869 15.18860412525,46.0885677869029 15.188965777979,46.088898297799 15.189301048818,46.0893026307661 15.1895829884775,46.0897277454481 15.1897383224387,46.089923903217 15.189884566501,46.0901087390146 15.1901673879508,46.0904492742043 15.1904491830458,46.0907160308643 15.1907006783643,46.0908955616016 15.1913367411117,46.0912166092164 15.1919596199444,46.0914629061804 15.1925153096019,46.0916869091451 15.1929997390957,46.0919083304934 15.1934905371602,46.0921747265015 15.1939830463685,46.0924852052355 15.1943411005732,46.0927320282668 15.194617091652,46.0929573959208 15.1948130114144,46.0931397114026 15.1950650775099,46.0934739884628 15.1953070062652,46.093829876264 15.195535708845,46.0940652196949 15.1956594538726,46.0941693789102 15.1958599893108,46.0943381884133 15.1961697118839,46.0945895871928 15.1964149718949,46.094824000667 15.1966810734715,46.0950997662263 15.197000596225,46.0954861082864 15.1970950582347,46.0956095710261 15.1972019945978,46.095749387605 15.1974798057699,46.0960061463457 15.1978739975298,46.0962573944701 15.1983326968705,46.0964635418463 15.1986847954644,46.0966239855023 15.1989286771806,46.0967573540505 15.1995429215056,46.0970930595664 15.2001193566167,46.0973430818631 15.2010554439295,46.0976914416108 15.2019567575509,46.0979704844597 15.2024279907748,46.098094716029 15.2029562038124,46.0981675587974 15.2034839439196,46.0982520967042 15.2037999844027,46.0983774985274 15.2043162487567,46.0987157822766 15.2044929139808,46.0989583985859 15.20473766402,46.0993547497486 15.2048942538269,46.0995538535214 15.2050053623527,46.0996952747757 15.2054313360796,46.100199269091 15.2058037052644,46.1004424311712 15.20610953842,46.1006353260944 15.2065312242462,46.1009908654345 15.2069137629158,46.101252900212 15.2073829258843,46.1015389798059 15.2078676498586,46.1017999261792 15.2083742142611,46.1020203419911 15.208820049081,46.1022219717927 15.2093401617235,46.1026025137765 15.2096456326065,46.1030005424592 15.2099368080509,46.1033797018406 15.2100648515271,46.1036493910817 15.2103181459793,46.103929646757 15.2106112163841,46.104158542931 15.2109654997624,46.1044287137991 15.2112848587706,46.1046980483688 15.211749022029,46.1050498906986 15.2120696353496,46.1052733335761 15.2123456161716,46.1054608685495 15.2133782768862,46.1058403486694 15.2138209525392,46.1059816816258 15.2144053233467,46.1062361154035 15.2147356875074,46.1063677581909 15.2154640341717,46.1066210162284 15.2160556793007,46.1068133452349 15.2163420596271,46.1069423672514 15.2167713009827,46.1071502955133 15.2172724479097,46.107320206124 15.2177700046388,46.1074974093289 15.2183642961504,46.1077330891524 15.2188088194145,46.1079093094261 15.2192470326756,46.1080920182517 15.2196500520557,46.1083044846941 15.2199524091157,46.1084784543074 15.220331053004,46.1087404513474 15.2204751142814,46.1088587602869 15.2206283908571,46.1089846091344 15.220927093286,46.1092782496067 15.2211481427536,46.1095621423239 15.2213536536983,46.1099063477594 15.2214713549202,46.1102246303017 15.22126983847,46.110879136767 15.2220528955192,46.1111395346652 15.2229878607818,46.1114061091283 15.2237961902348,46.1114182955271 15.2248509600776,46.1112071243585 15.2253380215455,46.1110482596158 15.2254475336524,46.1108430812814 15.2253157313127,46.1104353957889 15.2250863198434,46.1101690727089 15.2247290711924,46.1098637715758 15.2241480771085,46.1097933824332 15.2239203653624,46.1096891881215 15.2238724564273,46.1095183299681 15.2240137488033,46.1093339648451 15.2246621958427,46.1089416619787 15.2250146813376,46.1089045288762 15.2253272268487,46.1090024355423 15.2256786584541,46.1092459336906 15.2263340718151,46.1094209882992 15.226824334723,46.1094482685653 15.2272392767872,46.109373125289 15.2280699039891,46.1092156347522 15.2287613247949,46.1091496512416 15.2296301338305,46.1090923947797 15.2303152229186,46.1089357200443 15.2309363255915,46.1087292345037 15.2312461082703,46.1084735298022 15.2312850926259,46.1082683084875 15.2311485196194,46.1079969509482 15.2306924553394,46.1076375233559 15.2306437840732,46.1074435459992 15.230874262118,46.1072490051342 15.2313592793204,46.106954076884 15.2317328115604,46.1066649510641 15.2320110735221,46.1064536656616 15.2323213510393,46.1063199627504 15.2325923819132,46.1062971878 15.2327282473103,46.1063689810624 15.2335521685629,46.1070270856581 15.2339118898482,46.1072369810528 15.2341592521148,46.1072752537199 15.2344700108568,46.1072246807012 15.2349233995004,46.1069797381992 15.2351616333009,46.1067574604984 15.2354240078145,46.1065849786054 15.2356947916036,46.1065345745498 15.2359421991603,46.1065839101681 15.2361338211566,46.1066555842774 15.2366771403647,46.1069038706905 15.2371871958152,46.106875101223 15.2376649763663,46.1067409461459 15.2383575315234,46.1064677802401 15.2388027812388,46.1062007054876 15.2390649740964,46.1059894364614 15.2391840254003,46.10585053625 15.2392794483989,46.1058114674263 15.2394391076518,46.1058500022086 15.2396154695771,46.1060713305385 15.2397197061593,46.1062153415756 15.24001461526,46.1061813420718 15.2401892353685,46.1060008457433 15.2403841957365,46.1059172092247 15.2406070838034,46.1058308143456 15.2407700448638,46.105736177618 15.240893129033,46.10563334702 15.2409723226501,46.1054917397085 15.2410356214448,46.1053834565346 15.2411229106731,46.1052890688144 15.2412023003403,46.1052223199612 15.2412617820201,46.105158402292 15.2413291745268,46.1050695448675 15.2414603607224,46.1049861310997 15.2416593981641,46.104919129118 15.2417549475445,46.1048801479285 15.2418423071446,46.1048023148672 15.2418935255601,46.1046829898608 15.2419800721413,46.1044194503867 15.241995423788,46.1042918335908 15.2419913492552,46.1042474846295 15.2419550633397,46.1041727923649 15.2419228312539,46.1040785669711 15.2419142174315,46.1039427232138 15.2419614332499,46.1037956943823 15.2420323758042,46.1036319699467 15.2421074814458,46.1034738150844 15.2422413365346,46.1030853800403 15.2422922730646,46.1029022632523 15.2423394385114,46.1027441674383 15.2423707183806,46.1025915937507 15.2423702570884,46.1024863241547 15.2423336434541,46.1023366836302 15.2422401296068,46.101923807282 15.2421837757575,46.1017852754353 15.2420996788212,46.1016912499036 15.2419914879357,46.101588907657 15.2418873395966,46.1014644229345 15.2418511118305,46.1013729951522 15.2419060214729,46.1011815923867 15.2419612541135,46.1010345465174 15.2419608176339,46.1009347653059 15.2419282397015,46.1007906045358 15.2418479843122,46.1006577015243 15.2418270117751,46.1004166132148 15.24181773209,46.1001282633393 15.2417446770893,46.0998373490986 15.2417516661941,46.0996016900695 15.2417670174692,46.0994741631721 15.2418382539824,46.0993492172923 15.2419332156914,46.09920766577 15.2420042090161,46.0990272957544 15.242054924538,46.0987943333101 15.2421211794035,46.0984476096288 15.2421441843424,46.0982369296192 15.2421636646161,46.098137016191 15.2421911154557,46.0980261089295 15.2423105700374,46.0978963818516 15.2427738019708,46.0974146628889 15.2431456981587,46.0971051684102 15.2435293879704,46.0968903012147 15.2436977984756,46.0966892981687 15.2438394954662,46.096531089956 15.2445038051516,46.0961357605662 15.2449423841104,46.0960232526374 15.2459165765553,46.0956623407665 15.2463826310071,46.0954771583925 15.2467589963686,46.0954812051658 15.2470587134199,46.0954950437151 15.2472536092541,46.0954364984726 15.2475250654489,46.0953486352434 15.247964349389,46.0953961796383 15.2484382490706,46.0954048679038 15.2489327943024,46.0953455781464 15.2494339290585,46.0951990861263 15.2500678202966,46.0951250013204 15.2504600002616,46.0951090268649 15.2508965998049,46.0949922715801 15.251458956922,46.0948018184602 15.2520047442573,46.094750680362 15.2530670752427,46.0943628805105 15.2534914020658,46.0939127851452 15.2538974112447,46.0937842994836 15.2540560398284,46.0936037271106 15.2542497765919,46.0932678695535 15.2548262484787,46.0929754267296 15.2551409935431,46.0929414338591 15.255543084095,46.0928628872036 15.256108135076,46.0926758241609 15.2563624505595,46.0924950341148 15.2567244353091,46.0923583594059 15.2567957320514,46.0922556277352 15.2568782308792,46.0920031524133 15.2570997185237,46.09188343754 15.257310985636,46.0917908277248 15.2575082470891,46.0915232476455 15.2577980126318,46.0912371037117 15.2584572786329,46.0907105206018 15.2591567931619,46.0903036891554 15.2597384517589,46.0901640772473 15.2605184763835,46.0900240104342 15.2612973220114,46.089607717566 15.2614670902289,46.0891376595241 15.2618160361912,46.0887122684285 15.2619040557687,46.0885393146394 15.2619091005861,46.0882117937955 15.2617845854142,46.0878863692352 15.2618892643201,46.0875451238585 15.2620071629983,46.0871012764523 15.2620173134562,46.0869509947686 15.2620409787205,46.0867601933014 15.2619768713229,46.0861655148094 15.2619387501552,46.0859794436633 15.2620002123111,46.0858516281074 15.2620972706538,46.0856497713495 15.2621231896511,46.0855800711696 15.2622596782287,46.0852130194764 15.2625408323217,46.084541069569 15.2625359733627,46.0843890227428 15.2627127138022,46.0839496279275 15.263106295451,46.0832395384769 15.2631432756185,46.0826684709572 15.2633398194105,46.0822627701362 15.2634417269594,46.0814521288473 15.263464640161,46.0807245366197 15.2635151951097,46.0802086822139 15.263950144837,46.0798576750688 15.2644777928312,46.0795340741848 15.2651374771999,46.0791640973311 15.2655589115185,46.0787486031066 15.2656367036115,46.0784168636079 15.2655512721968,46.0771830516202 15.2654944869906,46.075856138332 15.2653745322478,46.0751051232869 15.2658559901741,46.074623446425 15.266223539848,46.0742213910769 15.2662542054335,46.0741999955012 15.2663637817799,46.0740816026252 15.2666687015098,46.0739102984589 15.2667130237453,46.0738792435385 15.2677983939859,46.0737615373473 15.2685571109318,46.0736780596241 15.2687114501134,46.0737008205442 15.2690457488201,46.073751050147 15.2692634515568,46.0733519468601 15.2696467381366,46.0732680860464 15.2701093986509,46.0731840364008 15.2703597206322,46.072980820153 15.2707161866645,46.0728325968507 15.2710465039147,46.0727304118361 15.2712043057115,46.0725366805413 15.2715606761532,46.0723700098764 15.2728823503789,46.0721271678371 15.2743499770334,46.0719392951071 15.2745861741921,46.0719159641676 15.2747626079737,46.0719890500335 15.2748979006091,46.072029573532 15.2750914165849,46.0719760225017 15.27534866595,46.0717668402355 15.2756119825765,46.0715822959975 15.275680490771,46.0715290453282 15.2756231152376,46.0714554938877 15.2755257569253,46.0714523095527 15.275461858941,46.0714708185351 15.2752666489021,46.0715472280157 15.2751050996409,46.0715817176138 15.2749807136756,46.0715506155305 15.2748448076617,46.0714383832491 15.2746630726747,46.0712083932297 15.2744966851289,46.0710490866852 15.2743117875094,46.0709368814302 15.2741813467311,46.0708052005546 15.2741103686615,46.0706991098943 15.2739105134119,46.0706464135675 15.2734752838613,46.0705207704211 15.2733517674469,46.0704556537918 15.2731282861131,46.0703825881875 15.2726345939793,46.0703020692037 15.2721995992378,46.0701967550661 15.2719113147269,46.0700625681602 15.2718696658825,46.0699523574278 15.2719455123626,46.0698663404918 15.2723328961172,46.0698327571004 15.2726027951904,46.0698035015465 15.2727083950862,46.0697746374751 15.2727665994012,46.0696764254313 15.2727897036209,46.0695906237587 15.2727126105746,46.0694231835936 15.272770492749,46.0692596501829 15.2728050290507,46.0691328824184 15.272774840045,46.0689612814315 15.2728214294652,46.0688671459564 15.2728031766939,46.0687568796946 15.2726793429154,46.0686263509667 15.2725495755569,46.0685245384014 15.2724902860217,46.0684020432994 15.2724057508173,46.0679036911085 15.2723334130988,46.0675196684977 15.2724433781348,46.0671965746584 15.2726827147324,46.0669222087317 15.272781658886,46.0667503895113 15.2729568132419,46.0665414983044 15.273272738686,46.0663078870037 15.2735011926015,46.0662133162512 15.2738704168843,46.066093934512 15.2739875695055,46.0660241927099 15.2742033154982,46.065713080133 15.2745071769483,46.0654467432642 15.2746941035812,46.0652419599425 15.2747874853553,46.0651232378163 15.274798193225,46.0649106900596 15.2748972487143,46.0647633420015 15.2753418142983,46.0644353910903 15.2756506267256,46.0641534734379 15.2760175635979,46.0638122107294 15.2762118443737,46.0635551313555 15.2763460475333,46.0633035054611 15.2764129391866,46.0631357193969 15.276238408462,46.0628429112404 15.2761097698752,46.0626809062863 15.2759360768194,46.0625556299852 15.2758151186495,46.0624302261746 15.2756793513631,46.0623676608466 15.2754148962434,46.0621064696977 15.2753062444465,46.0617781409329 15.2744421333566,46.0607721334122 15.2729499976909,46.0603851227123 15.2726413012014,46.0599538869773 15.2717296834756,46.0598919053161 15.2717696541556,46.0595826543537 15.2718365816722,46.0594992678284 15.2719640020852,46.0594435397813 15.2721877978683,46.0593794843271 15.2726916196934,46.0594110345195 15.2735580795594,46.0593854804271 15.2741661042999,46.0594232529149 15.2746727126559,46.0594690938011 15.2750441580294,46.0594682005681 15.2752466560051,46.0594364016156 15.275349572973,46.0593660627854 15.2756170362578,46.0592474602074 15.2761457539497,46.0591913889364 15.2767528387701,46.0590411010498 15.2771905692638,46.0588049342196 15.2774606042091,46.0586334154539 15.2777858137421,46.0585371614778 15.27818016226,46.0586458825853 15.2784508285236,46.0587549936852 15.2785633979919,46.0587547193901 15.2787205098565,46.0586681397967 15.2787764253446,46.0585818068519 15.2790908840122,46.0584557034982 15.27934963518,46.0584315877712 15.2795178308451,46.0583136684929 15.2795392220758,46.0580706821687 15.2796275912744,46.0577570811217 15.2796938778564,46.057498329151 15.2798167782309,46.0573178072703 15.2800522439734,46.0571370094995 15.2803555270956,46.057026585765 15.2806470097322,46.0568065099665 15.2810058425393,46.0565393005967 15.2813533484047,46.0562563722419 15.2817683512649,46.0559811043177 15.2819029633765,46.0558945757701 15.2821947134752,46.0557293804346 15.2824303642333,46.0555877166415 15.2825085085797,46.0554778432606 15.2825497689055,46.055180461871 15.2820842778988,46.0547515282245 15.2819551866335,46.0546779767674 15.2810857455346,46.054177064562 15.2797479794557,46.0534189728684 15.2787992595966,46.0528723495995 15.2776174427005,46.05219914922 15.2761909573023,46.0514078501318 15.2751303855041,46.0510147850018 15.2748521068668,46.0508991159796 15.2745062835235,46.0510260029819 15.2739580422203,46.050881557788 15.2735921972634,46.0509058277713 15.2734778083664,46.0508746100413 15.2732089603043,46.0508885693971 15.2729889776214,46.0508538245565 15.2729004798941,46.0508319018765 15.2726514998971,46.0508129713607 15.2724062627368,46.0507667687529 15.2721512148722,46.0506436597765 15.2719383036136,46.0503906150787 15.2716730497879,46.0500829891827 15.2712341892745,46.0497094626845 15.270839604407,46.049536565345 15.2706611438831,46.049403194232 15.2705493698541,46.0491125674344 15.2700194104306,46.0487626454966 15.2697065841744,46.0486330093056 15.2696673762344,46.0484625078747 15.2691041083346,46.0481695248887 15.2688726605002,46.0479795010184 15.2685698565527,46.0479166900816 15.2682345957783,46.0477955602752 15.2677680480233,46.0475132307084 15.2674429299297,46.0472437948108 15.267210991446,46.0469500266749 15.2669079100126,46.0467743824019 15.2667264166232,46.0467050748909 15.2663915971173,46.0465658535013 15.2661004360491,46.0463960277156 15.2655594675861,46.0460563678053 15.265169888121,46.0462723143345 15.2650547718788,46.0463291760914 15.2647344306415,46.0464874660423 15.2645392527908,46.0465553097781 15.2641874674846,46.0466776806679 15.2639007888293,46.0467694883661 15.263655653652,46.0468480630625 15.2630842627539,46.0470113360229 15.2628435181236,46.0470625462458 15.2623443425605,46.0471686947702 15.2621531474079,46.0472054836549 15.2617711431323,46.0472788796283 15.2612627056972,46.0473673194183 15.2604168065398,46.0474673234146 15.2595997672836,46.0475498902884 15.2595333811709,46.0475566092787 15.2583590626723,46.0476411476834 15.2580119893181,46.0476698241649 15.2577983459932,46.0476874916049 15.2577473140247,46.0476894062117 15.256887527144,46.0477228333662 15.2562894480409,46.0477376723752 15.2555554787826,46.0477627095012 15.2550405549134,46.0477925619139 15.2549753176456,46.0477963964699 15.2549424913172,46.0477953000106 15.2543448971353,46.0477753071599 15.2536081583984,46.0477319563985 15.2531976177158,46.047700025458 15.2530006204599,46.04768471594 15.2528056349462,46.0476571649352 15.2522930871265,46.0475846073471 15.2515638154301,46.0474773441629 15.251447548935,46.0474551960492 15.2507864207414,46.0473288830676 15.2500844454352,46.0471699944534 15.2500698291274,46.0471666973316 15.2500039759352,46.0471484863453 15.2494075478773,46.0469836941829 15.2490692502484,46.0468662937537 15.248858688616,46.0467932422341 15.2483398429318,46.0466099204938 15.2477946385856,46.0463393770763 15.2475797830276,46.046229892329 15.2473954923537,46.046135996801 15.2470095865928,46.0458875986389 15.2468988263153,46.0457950729595 15.2466046774924,46.0455492644171 15.2463881332411,46.0453202932592 15.2461046239819,46.0449378772722 15.2460617279061,46.044880115215 15.2459459835835,46.0446536254148 15.2458177284407,46.0444028689391 15.2457910494915,46.0443306757724 15.2456294116227,46.0438941009049 15.2453526032238,46.0432421011083 15.2451226895322,46.0428207879187 15.2451010664644,46.0427812449413 15.2450429014356,46.0426885146386 15.2448058233247,46.0423114842255 15.2446411192937,46.0421431322516 15.2445567564714,46.0420570259965 15.2442072317419,46.0416989498148 15.2440906815682,46.0415796209267 15.2440689836108,46.0415521346644 15.2438944963183,46.0413322463413 15.2435691922356,46.0408093707453 15.2432928054294,46.0404504160001 15.2432326422629,46.0403721751012 15.2428320915526,46.039864033515 15.24247126413,46.0394268871355 15.2423760802946,46.0393462907133 15.2419862706168,46.0390162754858 15.2416085627374,46.0387643323727 15.2415623047109,46.0387333884778 15.2411268882471,46.0384605113619 15.2405626663692,46.038127619921 15.2404651327737,46.0380700606573 15.2397969040105,46.0376743111007 15.2390947189386,46.0372813279261 15.238544970894,46.0370338732696 15.2383984414548,46.0369679567475 15.2383882237391,46.0369652787829 15.2380127589525,46.0368676276671 15.2377051469835,46.0368362364233 15.23751282489,46.0368165716218 15.2369843333522,46.0368243268592 15.236797317541,46.0368370411701 15.2364572533017,46.0368601492088 15.2357461431077,46.0370338320085</coordinates></LinearRing></outerBoundaryIs></Polygon></MultiGeometry>
  </Placemark>
</Folder>
</Document></kml>
