<?xml version="1.0" encoding="utf-8" ?>
<kml xmlns="http://www.opengis.net/kml/2.2">
<Document id="root_doc">
<Schema name="pregledovalniklovisca" id="pregledovalniklovisca">
	<SimpleField name="lov" type="string"></SimpleField>
	<SimpleField name="lov_naziv" type="string"></SimpleField>
	<SimpleField name="luo" type="string"></SimpleField>
	<SimpleField name="luo_naziv" type="string"></SimpleField>
	<SimpleField name="povrsina" type="float"></SimpleField>
</Schema>
<Folder><name>pregledovalniklovisca</name>
  <Placemark id="pregledovalniklovisca.1">
	<Style><LineStyle><color>ff0000ff</color></LineStyle><PolyStyle><fill>0</fill></PolyStyle></Style>
	<ExtendedData><SchemaData schemaUrl="#pregledovalniklovisca">
		<SimpleData name="lov">0706</SimpleData>
		<SimpleData name="lov_naziv">STUDENEC</SimpleData>
		<SimpleData name="luo">07</SimpleData>
		<SimpleData name="luo_naziv">Posavsko</SimpleData>
		<SimpleData name="povrsina">4340.67</SimpleData>
	</SchemaData></ExtendedData>
      <MultiGeometry><Polygon><outerBoundaryIs><LinearRing><coordinates>15.2977056864192,45.9618684596606 15.2972651915725,45.9623697888788 15.2969881201173,45.9624295342032 15.2964330588755,45.9623771690059 15.2962406362309,45.9624151883994 15.296118082908,45.9625390445339 15.2959423003208,45.9628188786705 15.2956274775841,45.9630345587211 15.2949360259908,45.9634177580376 15.2941945690186,45.963715693658 15.293885941001,45.9638607209438 15.2936699505431,45.9641035843642 15.2935698323679,45.9644218204659 15.2936167833585,45.9646634681558 15.2937098909103,45.9650206176907 15.2935059628761,45.9652275489152 15.2929269391205,45.9655784153061 15.2923956680505,45.9663499790722 15.2923973812609,45.9666756014835 15.2930247745655,45.9668328039758 15.2938239252083,45.9671881407993 15.2941664333771,45.9673461590738 15.2942602212832,45.9678302637745 15.2941487258768,45.9682911429854 15.2940042985857,45.9689665218991 15.2938350099932,45.969284575978 15.2939052878096,45.9696417837609 15.2942716172445,45.9699823036343 15.2941471650611,45.9701414333422 15.2940358351088,45.9706102298007 15.293753360846,45.9710477042858 15.2934253316159,45.9714852950099 15.2931078985016,45.9717798842492 15.2925580432477,45.9721696335502 15.2919943809288,45.9722908343631 15.29153794424,45.9721649522281 15.2911508618068,45.9721977008658 15.2909373847724,45.9723868361381 15.2904823083657,45.9728664009725 15.2900017802619,45.973143940419 15.2906978991426,45.973919212358 15.2909884524938,45.9751155253686 15.2912518115641,45.9756515665299 15.2917432156037,45.9768524039278 15.2918132021389,45.9769828716254 15.2918898183743,45.9771224100058 15.2920094418931,45.9774644662899 15.2921156845384,45.9777894610334 15.2922388636804,45.9781690282856 15.2924538605662,45.9784123155058 15.2925859004908,45.9785377651368 15.2927863592867,45.9787890968713 15.293117609054,45.9789038679738 15.2934800608004,45.9790127095004 15.2938698877163,45.9790997050992 15.2941828816546,45.9791782593953 15.2946597566835,45.9793010189168 15.2948374336738,45.9793671435156 15.2950191209256,45.9794349670448 15.2955761118721,45.9795513974742 15.2957674659169,45.9795680879858 15.2959525940674,45.9796031495675 15.2960017192136,45.9796186783068 15.2962295694766,45.9796543485951 15.2964110490684,45.9796827606075 15.296737243522,45.979766852225 15.2970288958696,45.9798351967739 15.2972532019418,45.9798835609602 15.2976201189763,45.979955937123 15.2978757184108,45.9800154656885 15.2980837163235,45.9800548730684 15.2984739139516,45.9801601172717 15.2987440862682,45.9802172664365 15.2989486254262,45.9802372462948 15.2991894542912,45.9802855634564 15.2994482217789,45.9803336531557 15.2996877178311,45.9804218324775 15.3000749956955,45.9805589306482 15.300517086514,45.9806409075674 15.3007839631888,45.9806844740768 15.3012717165968,45.9807376252939 15.3015298223905,45.9807344252528 15.3017242855829,45.9807284234346 15.3018916854321,45.9808009525356 15.3020819476906,45.9809242578458 15.3022956941963,45.9810227571062 15.302449978254,45.9810802039783 15.3027703301852,45.9811784201744 15.3030310839677,45.9812107505562 15.3052720036781,45.9816342458994 15.3072161106012,45.981918041799 15.3081889463898,45.9821879621724 15.3096605833137,45.9827041398712 15.3100175930104,45.9829838994657 15.3094305114785,45.9839183694062 15.3089733111516,45.9847699764578 15.3085026629515,45.9853408905052 15.3087048383966,45.985488896134 15.309735836589,45.9855522394862 15.3109784540415,45.9853508262738 15.3117856044214,45.9856376323375 15.3124867533941,45.9860319748053 15.3127607584931,45.9863036747412 15.3131999380415,45.9864759471012 15.3136501911477,45.986482990161 15.3139454909918,45.9863418156996 15.3141566173847,45.9859697217254 15.3145122872443,45.9855721261457 15.3146641644946,45.9854053411368 15.3147392041306,45.9853228058094 15.3152056913697,45.9853036148064 15.3154018876473,45.9853502213222 15.3155456821662,45.9853516239289 15.3157066611509,45.9852653415615 15.3159112568455,45.985109386403 15.3163142541108,45.9849796050098 15.3168656841703,45.9847372097709 15.3170023223093,45.9844574531042 15.3172224802888,45.9842929945949 15.3173881123492,45.9842540246896 15.3176794518631,45.9844170628626 15.3181638249804,45.9845024530023 15.31870377287,45.9846455411608 15.3188705662044,45.9848088335578 15.3188275257881,45.9851806474856 15.3191637259408,45.9854221063674 15.3195910011988,45.9858337254979 15.3207733124866,45.9854535906794 15.3218409507876,45.9852890808855 15.3227020140156,45.9850264401234 15.3240416857306,45.9851214439783 15.3244027012106,45.9852101265954 15.3250208455657,45.9852353633313 15.32571580597,45.9851975740714 15.3262960672971,45.9853215263579 15.3267478128653,45.9855177345972 15.3275752105344,45.9860718720265 15.3278236014121,45.9862775663712 15.32783900504,45.9865473623233 15.3281726166812,45.986845127492 15.3285894550552,45.9871812524154 15.3284663381052,45.9874032189172 15.3283950915613,45.9875785182965 15.3284640179693,45.9876438232475 15.3287397278877,45.9879054924999 15.3287241075998,45.9882758814387 15.3284816128639,45.9885889776807 15.3284568526127,45.9888111112624 15.3284378496805,45.9889809518429 15.3283319377177,45.9892099768404 15.3280428821573,45.9894431266289 15.328146195726,45.9897133898378 15.3282657546875,45.9898274068162 15.3285648507916,45.9901129430059 15.3287607247827,45.9903619749301 15.3291947824689,45.9903750317712 15.3295238870912,45.9903649956962 15.3296510027114,45.9903595904208 15.3299328504127,45.9903475300274 15.330575923708,45.9903653766273 15.3306664833258,45.9903340727051 15.3309494976734,45.9902362586864 15.331584894933,45.9902658188008 15.3317727039754,45.9903509315149 15.3320205339465,45.9904138252878 15.3323335874962,45.9904826472902 15.3324930232784,45.9905501159221 15.3326251530136,45.9906059668434 15.3328601857877,45.9906870713189 15.3330905762221,45.9907258098437 15.3333078005462,45.9907645863024 15.3335081479098,45.9908518190296 15.3338282626419,45.9909779314439 15.3339432918898,45.9910232135433 15.3341037634598,45.9910262536264 15.3343689345585,45.9910311466525 15.3346946658056,45.9910606053005 15.3348818693565,45.9911296988273 15.3350949464203,45.9911866593187 15.3353081151998,45.9912587352172 15.3355084666936,45.9913671989035 15.335691264929,45.9914332448282 15.3358625861786,45.9914584747998 15.3360345535484,45.9914837925914 15.336360802196,45.9915767684659 15.3366173465488,45.9916487142503 15.3369563775315,45.9916992717832 15.3374997318548,45.9917886348692 15.3375141830751,45.9923184645002 15.3375390387289,45.9923725570153 15.3376767964492,45.9926730318633 15.3376389645236,45.9929051033297 15.337579725096,45.993268153963 15.3375515199408,45.9936611650682 15.3375607051323,45.993982894228 15.3377521583722,45.9942815007379 15.3380877466355,45.9943786729384 15.3383833755984,45.9944642655153 15.3389171839839,45.994549961048 15.3392765999849,45.9946164670539 15.3395603745654,45.9948318379972 15.3400362549953,45.9953440093871 15.3406523077779,45.9947563373421 15.3411151051425,45.9944403088644 15.3416015749179,45.9941539899908 15.3422348680789,45.99389683176 15.3428726996102,45.9937065989782 15.3434335854351,45.9935993723464 15.3437504671055,45.9935515418707 15.3446940684854,45.9935008322862 15.3457112316239,45.9934678877343 15.3460598032281,45.993471961464 15.3468609986726,45.9934601750852 15.3481605824679,45.993525595429 15.3486292865962,45.9935624966564 15.3495505946029,45.9936622558481 15.350396763935,45.9937603484977 15.3507487621058,45.9937956192991 15.3512945208208,45.9938501784302 15.3527294252639,45.9940402882326 15.3538017832628,45.9941597016132 15.3550480345256,45.9943599036773 15.355958885952,45.9944759294458 15.3566305316895,45.9945318704663 15.3570559267141,45.9945367506262 15.3573930159669,45.9945407356859 15.3578527392482,45.9945239111447 15.3580171144953,45.9944899250502 15.3582049538944,45.9944511863964 15.3584588702698,45.9942896021133 15.3587600172174,45.9939457563825 15.3592584721885,45.9936710216408 15.3595697139243,45.9934918891669 15.3596337628591,45.9934550671611 15.3600966340628,45.9931687437471 15.3605941448895,45.9928699823589 15.3608937541644,45.9926899831877 15.3610293575924,45.9926197330466 15.3613610295855,45.9924476392715 15.3619435948889,45.992208077554 15.362640811657,45.9919330582308 15.3626959195502,45.9919113789419 15.362754371262,45.9918877995037 15.3634499897356,45.9916064819356 15.3639329868216,45.9914419072462 15.3642022915556,45.9913678083771 15.3647930847751,45.9912053158453 15.3652689646385,45.9910784584274 15.3652786286933,45.9910758182173 15.3652795310899,45.9910756353799 15.3660754518831,45.9908961946304 15.3664609483283,45.9908252272836 15.3666330676749,45.9907935433326 15.367276677257,45.9906557020506 15.3676862112559,45.990589422079 15.3679691196964,45.9905437031757 15.3680245663639,45.9905347069286 15.3681472179992,45.9905184760107 15.3686638749668,45.9904499579027 15.3692225376915,45.9903896695879 15.370018651139,45.9903587521884 15.3705250216088,45.9903742071878 15.3710312638665,45.9903897503363 15.3715938038922,45.9904078075083 15.3722218337047,45.990470906893 15.3727514721628,45.9905294650373 15.3733480042374,45.9906111961501 15.3738303218196,45.9906772819555 15.3746251829559,45.9908240404513 15.3752560771343,45.9909468582643 15.3761066607382,45.9910671502938 15.3767536775569,45.9911300723071 15.3768364764718,45.9911381671531 15.3770616838048,45.991150201041 15.3774352644173,45.9911701124023 15.3776436795868,45.9911804910424 15.3783133448293,45.9912136370915 15.3787564306869,45.9912417718404 15.3790511328538,45.9912604996762 15.3798757438454,45.9912807057845 15.3803674629737,45.9912850987446 15.3807963130983,45.9912888892923 15.3816088635919,45.9912445198482 15.381792355382,45.9912345494417 15.3827585303717,45.9911734627166 15.3833701747576,45.9910851250104 15.3840382687976,45.9909840876001 15.3844154487036,45.9909270340132 15.3854337116895,45.9907093700258 15.3863215431128,45.9905032950322 15.3865194963015,45.9904572774854 15.3868538526409,45.9903686888817 15.3874752755594,45.9902039958781 15.3876163022314,45.9901581694173 15.3883599407707,45.9899165768536 15.3897108882642,45.9895069931716 15.3904704678202,45.9892219637242 15.3907551639838,45.9891221063039 15.3913170857534,45.9889251142097 15.3915473754891,45.9888349786139 15.3922719654946,45.9885513166988 15.393098619993,45.988226989598 15.3931223043502,45.988217640531 15.3937565432096,45.9879003587071 15.3945773924408,45.9875063988974 15.3949264258244,45.9873260496803 15.3949680940627,45.9873045812032 15.3959361739386,45.986852427593 15.3966678996657,45.9865264239149 15.3970411876658,45.9863643392714 15.3975091787271,45.9861612545638 15.397885156966,45.9859790030064 15.3980338499015,45.9859069537318 15.3980622764387,45.9858931782606 15.398237465762,45.9858082597319 15.3988419130278,45.9855920972274 15.3989777363654,45.9855435755614 15.3996741835781,45.9852524967071 15.3998180003206,45.9852208617132 15.4001815373955,45.9851410396322 15.4006619800465,45.9851461945411 15.4008140384483,45.9851478207962 15.4014078190474,45.9851547344648 15.4016249458112,45.9851942812227 15.4017955456264,45.985225353385 15.4022356175692,45.9853947611888 15.4028796620547,45.9856579240109 15.4029994106748,45.9857069890179 15.4035950276056,45.9859657297393 15.4042424756274,45.9862513670215 15.404657608396,45.9864148252411 15.4063729387784,45.9863165126569 15.4067729487843,45.9862823380854 15.4077021932449,45.9861643065455 15.4100189778073,45.9858363308237 15.4110301215218,45.9856769489595 15.4129003062561,45.9854572325453 15.4134995755697,45.9852992261534 15.4143817400162,45.9851894984901 15.4155116752693,45.9851774779765 15.4165715685029,45.985223016808 15.4172076635522,45.9852782815872 15.4173128892874,45.9851794628361 15.4172647308508,45.985040084729 15.4171464044205,45.9849584578842 15.4168048955535,45.9849431481718 15.4164750161905,45.9848951334964 15.4162507260653,45.984813801846 15.4161909488802,45.9846909313427 15.4162368898553,45.9845348343014 15.4165884168381,45.9843202185584 15.4166580313663,45.9841886886758 15.4166684278689,45.9839916916202 15.4164312270591,45.9837544776307 15.4163590842899,45.9835659692013 15.4160973521656,45.9831893798557 15.4158472457292,45.9827963718091 15.415575181902,45.9826249659051 15.4152680082261,45.9824700627068 15.4147363753679,45.9822092609701 15.4144178227471,45.9821200798349 15.4141073769191,45.9821313725236 15.4138175576805,45.9821221649498 15.4136263237685,45.9817289387858 15.4132587755566,45.9813854773107 15.4127029423856,45.9810263189387 15.412441429463,45.9806742839425 15.4120152890678,45.9803638713882 15.411685136227,45.9802747244305 15.4110838509389,45.9801537105634 15.4109026868068,45.9795305526676 15.4109229047987,45.9790709682297 15.4108957138987,45.9785704347909 15.4109862801856,45.9780777557592 15.4110422738547,45.9776918235556 15.411041363127,45.9775687384722 15.411128022204,45.9769495658003 15.4114058396339,45.9763002825701 15.4118843345703,45.9757569881208 15.4120707952719,45.9754937633554 15.4127855154269,45.9750481377769 15.4137822062916,45.9745523597231 15.4147180816272,45.9737776851979 15.4149162650568,45.9735144131536 15.4153244294829,45.9729959230477 15.4155586944027,45.9728474192837 15.4162245167818,45.9721528935528 15.4167641919408,45.9719322827484 15.417386481765,45.9717332320928 15.417832181972,45.9715264559493 15.4190410744527,45.9710873509595 15.419840745863,45.9710210722253 15.4202042821499,45.9708207070509 15.42066065086,45.9704744162841 15.4212125150304,45.9703001676605 15.4216116527592,45.9701674194353 15.4217517102974,45.9699532972684 15.4219278423521,45.969952917064 15.4220577612974,45.9700181205419 15.4221293403421,45.9701492225821 15.4222365860473,45.9703211323346 15.4223202198412,45.970493219216 15.422580065986,45.9706072492779 15.4229448464418,45.9706058998629 15.4233912681765,45.9704977140996 15.4240240695022,45.9701425681939 15.4250319402784,45.9695809668642 15.426159354568,45.9692650879711 15.4280449215533,45.9688267813482 15.4275471359458,45.9683607642147 15.4272747288125,45.9681401695905 15.4270712023588,45.9676813276772 15.4270108523837,45.9674845934586 15.4267610142299,45.9672112766793 15.426477860041,45.9670350789274 15.4263449209748,45.9665759721958 15.4260818071446,45.9661520818246 15.4254457319323,45.9656505800081 15.4252159952028,45.9651355964982 15.4251821793097,45.9649317442869 15.4254896260626,45.9646426733823 15.425487904012,45.9644177370887 15.4253827597595,45.9641661926661 15.4251744013496,45.9639150321796 15.4249792218499,45.9636998131332 15.424873599819,45.9633852860187 15.4251166000059,45.9631054533272 15.4254636373304,45.962933205359 15.4257703482563,45.9623307460458 15.4263868448453,45.9614451421293 15.4266650821469,45.9606988230592 15.4270398410275,45.9601911218955 15.4275271654109,45.9589716389407 15.4276181185946,45.9587872053552 15.4278338087707,45.9576453074574 15.4278551545301,45.9569825454918 15.4279509549684,45.9557357324757 15.4272088809619,45.9553101273656 15.4256979554452,45.9544784374356 15.4236959620198,45.9535093542973 15.4237089006188,45.9532436034874 15.4235216574724,45.9529130012834 15.4234770799814,45.9522597515495 15.4234357973031,45.9520390103063 15.4231961533473,45.9517546700146 15.4228373024882,45.9514338796467 15.4226771433898,45.9511860448283 15.4225688432437,45.9508367035956 15.4223415968878,45.9504510911473 15.4223117888012,45.9499910573617 15.4226657304934,45.9496676300772 15.4222396370836,45.9483541865881 15.4215583971846,45.9471378684821 15.4208964133038,45.946280484851 15.42056540757,45.9458660080269 15.420177227709,45.9454631675715 15.4197738777419,45.9452370071009 15.4183373171526,45.9449296934391 15.4178909936609,45.9447160105097 15.4176378167791,45.9445623548734 15.4174460940385,45.9441245055383 15.4174352749607,45.9437656251983 15.4174334374909,45.9435036176987 15.4175215779453,45.9432354329544 15.4176098472044,45.9429673376361 15.4169541642291,45.9429700917232 15.416445297818,45.942875401448 15.4161577867363,45.9427853916576 15.4160073486119,45.9423986765609 15.4160277819494,45.9408024923811 15.4154869782697,45.9408320829531 15.4151438897182,45.9408279311674 15.4148129305683,45.9406689731068 15.4142025259207,45.9402018647261 15.4138971560558,45.9399452756755 15.4136258318928,45.9396187400605 15.4131159386436,45.9395892722947 15.4124152708206,45.9393986214195 15.4121131016062,45.9391023359502 15.4114562819417,45.9381781145606 15.410990596183,45.9376368660899 15.4109229386319,45.9374163046043 15.4111055580596,45.9371210614412 15.4115530418396,45.9369629798967 15.4123030021647,45.9366749578945 15.4123419094054,45.9365827705161 15.4121016463495,45.9362155391535 15.4118752136249,45.9359218590349 15.4119533015202,45.9357743743319 15.4117747114397,45.9354628859207 15.4116056504578,45.9350795608159 15.4114471446756,45.9347107737957 15.4112838215489,45.9336900264926 15.411185676223,45.9330601767944 15.4110782658025,45.9325897105667 15.41116873275,45.9321982525539 15.4111438511415,45.9316405709952 15.4110807148824,45.9315249069845 15.4108197070534,45.9313303242674 15.4108252089563,45.9306783267687 15.4111534884288,45.9301701222879 15.411467482843,45.9291258815356 15.411484332487,45.928597112264 15.4112862020322,45.9284819343074 15.4110248861854,45.9282438038856 15.4109391230194,45.9278746640879 15.4105643990483,45.927731146953 15.410008007731,45.927588280524 15.4094570963887,45.9274888509579 15.4086781632093,45.9274336936245 15.4079938779025,45.9275376335188 15.4074461752863,45.9278582884769 15.4071061368366,45.9282071739896 15.4067762736481,45.9285198512373 15.4060423575804,45.92892808049 15.4056371752428,45.9288860602402 15.4047856340873,45.9288311340892 15.4040393619577,45.9289786390412 15.4033614404368,45.9291460528697 15.4037888312268,45.9294054786456 15.4038682844202,45.9296931262761 15.403598489558,45.9298290458724 15.403277443208,45.9300101345116 15.4029420021235,45.9299843244828 15.4025190365648,45.9303367277719 15.4018637097425,45.9306539557781 15.4015687661514,45.9308799365953 15.401338551348,45.9311416803748 15.4009138164679,45.9312511443546 15.4005171360777,45.9316755199835 15.3999637094119,45.9318214224181 15.3994483174632,45.9318772116415 15.3989725112343,45.9320588289612 15.398587350721,45.9322941147159 15.3982532503552,45.9324572391701 15.3979716920655,45.9327551460371 15.3976522180998,45.9331611572152 15.3972427964148,45.9336124689532 15.3971542019428,45.9338467185298 15.3970540601409,45.9342699610032 15.3969276771812,45.9346303102255 15.3968264412938,45.9349005944283 15.3967379072137,45.9351438411723 15.3962748954141,45.9353164049764 15.3963028651499,45.9356222315825 15.3962143917294,45.9358744754314 15.3958288737374,45.9360648541811 15.3954438001486,45.9363181243691 15.3949932229494,45.9364276556541 15.3946724934827,45.936662705306 15.3942856887175,45.936673038272 15.3938729651493,45.9366654637617 15.3936809316192,45.9368640759808 15.393914520444,45.9370522238061 15.3937099083661,45.9372958681673 15.3933617226838,45.9372970671977 15.3929751039102,45.9373343883348 15.3925485274706,45.9371918904274 15.3924731207926,45.9374710796702 15.3921254413311,45.9375442551913 15.3917124581234,45.9375006827706 15.3913772301931,45.9375108290877 15.3909779656737,45.9375841777717 15.3905273061646,45.9376846939521 15.3899994589419,45.9378124650451 15.3896906508567,45.9379124937364 15.3893687567889,45.9379855729322 15.3888524798573,45.937924436553 15.3883370827478,45.9379891733562 15.3879888890503,45.9380083515396 15.3879137755744,45.9383145299779 15.3875027327788,45.9385498659493 15.3871288720878,45.9385691285396 15.3867689706796,45.9387413043716 15.3866803240258,45.9389755457837 15.3863586072812,45.9390756091255 15.3860110969482,45.9391757586881 15.3857426473855,45.9395185795052 15.3856164288659,45.9399149062966 15.3854763768109,45.9401763134084 15.3853108420598,45.9404827949815 15.3849529774919,45.940951883721 15.3846579105978,45.941177820874 15.3845048919518,45.9414302726369 15.3840808527933,45.9416566421482 15.3836701463077,45.941927954027 15.3836074615765,45.9421890989819 15.3835583557499,45.9425491734714 15.3833407190583,45.9427838449917 15.3831488127697,45.9430094320825 15.3830600821991,45.943234673048 15.3831524697133,45.9435402864913 15.383295827386,45.943755751507 15.3831298362109,45.9439992470823 15.3828751103319,45.9444679831925 15.3828650001272,45.9448729152726 15.3825036215024,45.9448381344564 15.3820654762775,45.9448935865492 15.3817287814794,45.9446967614767 15.3812772456049,45.9446802733742 15.3809287050567,45.9446364470059 15.3805809654521,45.9447095874999 15.3801304137308,45.944837055392 15.379409686251,45.9450643939191 15.3789601162398,45.9453178222455 15.3784816173933,45.9451304555034 15.3779004236497,45.9450334037627 15.3772162414216,45.9449456867942 15.3767772371932,45.9448752430993 15.3765735641008,45.9452538193812 15.3761762933979,45.9456330327052 15.3758164946984,45.9458321666842 15.3754181821749,45.9460584192567 15.3750328856361,45.9463026231877 15.3745967212183,45.9466549653745 15.3743018847647,45.9469258634632 15.3739420104805,45.947115994006 15.3733628657389,45.9473068399936 15.3728614076159,45.9475424182634 15.3722685734783,45.9476163328254 15.3716504825075,45.947771306046 15.3713027710224,45.9478534159015 15.3708650706581,45.9479808054289 15.3704012720157,45.9480632892074 15.3699498914494,45.9480737490459 15.369589038019,45.948119905296 15.3691768296182,45.9482022172452 15.3687388232867,45.9482846109489 15.368275495597,45.9484390664277 15.3678895062794,45.9485662778892 15.3674770541894,45.9486125935592 15.3668191749248,45.948605709392 15.3663424665254,45.9486882181237 15.3656465419024,45.9487804242004 15.3650923211495,45.9488451802309 15.3645770305525,45.9489458003071 15.3642003814951,45.9485511910859 15.3638249032715,45.9483544369897 15.3634504387647,45.9482926444055 15.3628565270566,45.948204554385 15.3622496602798,45.948107504611 15.3616685921978,45.9480103699697 15.3612681604403,45.9479216592123 15.3608533720878,45.9476080490729 15.3606973097312,45.94741059163 15.3605657029749,45.947006108942 15.360447754235,45.94671855354 15.3586593261679,45.9471455442348 15.357845111042,45.9473951744303 15.3572423549026,45.947573865693 15.3565449729345,45.9475998875831 15.3551772858764,45.9477314643759 15.3551854966898,45.9480274642403 15.3550126012968,45.9486048460263 15.3544542264455,45.9486063992988 15.3535145903553,45.9481856966411 15.3524440385269,45.9477837454251 15.3505646052329,45.9472326565301 15.3481667043293,45.9477948772864 15.3476108282089,45.9476996638913 15.3466220480312,45.9474335450474 15.3458491918733,45.9471667643863 15.3446880365816,45.9466809757826 15.3437345322646,45.9468164743182 15.3434579647504,45.947020744595 15.3431528310837,45.9471945976609 15.342667674396,45.9475215913836 15.3422750981978,45.9477397031595 15.341975725091,45.9479286519948 15.3418726892405,45.9480373829391 15.3415525915416,45.9482336808138 15.3410778228842,45.9485749430682 15.340696479009,45.9489233029853 15.3402002245528,45.9491489148013 15.3396101756989,45.9492663805837 15.339019598201,45.9493187013253 15.3384807406861,45.9493492712899 15.3383662765246,45.9492772685131 15.3381474917863,45.9491042599102 15.3378977989645,45.9489603149647 15.3374525422007,45.9489405759151 15.3370898669707,45.9489681895634 15.3369845605869,45.9490872701649 15.3368093975863,45.9492581135592 15.3365698130362,45.9495477364938 15.3363803270214,45.949760820745 15.3362368141457,45.9500041817421 15.3360254955932,45.950340328558 15.335858321055,45.9504894624439 15.3356124352005,45.9506130037853 15.3353508640811,45.9508094722109 15.3351664209734,45.9510474633046 15.3349977835624,45.9512114464509 15.3349167892125,45.9514063946357 15.3347315304895,45.9516166743977 15.3343593145789,45.9517769337802 15.3338517343077,45.9518434712637 15.3331571541433,45.951852696422 15.3328359641694,45.9518753168337 15.3327326005367,45.951933473198 15.3325055797547,45.9521077000607 15.3322315465044,45.9522940301217 15.3321753185134,45.9525986765552 15.3320489049951,45.9528799528576 15.3316232090936,45.9537007915093 15.3318694209847,45.954298065367 15.3320825112984,45.9547269975569 15.3324617110046,45.9550399154786 15.3326583822236,45.9553107143955 15.3327479183505,45.9555707577564 15.3327633763899,45.9558472126523 15.332601435229,45.9561421794028 15.3324924848236,45.9563892138668 15.3321445396745,45.9567315990587 15.3318290020388,45.9570791977289 15.331691725037,45.9573147065794 15.3316290217029,45.9576164919994 15.3316762635361,45.9579666359733 15.3318052631195,45.9582460904534 15.3318559758624,45.958356165211 15.3319546887351,45.9586836652644 15.3320238122061,45.959176089298 15.3320874792397,45.959705149794 15.3319340937894,45.9600742316831 15.3316863057496,45.9603199588116 15.33112951885,45.9606512495855 15.3308948386985,45.9607809564984 15.3305300213066,45.9609825711855 15.330064343806,45.9611028668101 15.3298955920694,45.9611465430742 15.3294708925979,45.9613243033242 15.329087653903,45.9615757238268 15.3288758930275,45.9617645654986 15.3287269287973,45.9620567897885 15.3284262473101,45.9626128128946 15.3283679226757,45.9627206830569 15.3280721589408,45.9628870003339 15.327773555684,45.9628784095519 15.3270995684265,45.962858836099 15.3268344478475,45.9630370294079 15.3268394597773,45.9631214135681 15.3268579476949,45.9634350207557 15.3265819219171,45.963668220635 15.3260410071602,45.9637028766638 15.3255131776378,45.9636367185523 15.3249019472321,45.9632302319409 15.3245136598992,45.962954205787 15.3241917099607,45.9627254080577 15.3239431523931,45.9625370710406 15.3235118253661,45.9622905859484 15.3230782079613,45.9623152966285 15.3224236986931,45.9624937700666 15.3215453157283,45.9624679920496 15.3211043611908,45.9624066977936 15.3208425008815,45.9623703626936 15.3201819542659,45.9623532300665 15.3197551606902,45.9623085366889 15.3194020608854,45.9622005618433 15.3191175076433,45.9620764685754 15.3187966108606,45.9619365500395 15.3181812628113,45.9617680282688 15.317733325412,45.9618377470842 15.3175740342364,45.9618005794171 15.3171584300171,45.9617033886005 15.3168465017838,45.9618681021208 15.3168233250791,45.9620799724377 15.3168019906304,45.9622755517833 15.3167943859536,45.9623447652396 15.3165360600821,45.9625886890764 15.3161752509953,45.9626669781692 15.315648061347,45.9627324091766 15.3155226133958,45.9627479617189 15.3146439011549,45.9629148624567 15.3145398934618,45.9629345838107 15.3140501559365,45.9630300466761 15.3137250395681,45.963032739176 15.3132728440163,45.9630364989878 15.3129338589942,45.9632800058843 15.312351725959,45.9634424774084 15.3119816850702,45.9634411487794 15.3116120819615,45.9634028371857 15.3110938489378,45.9632957367216 15.3107517032937,45.9632528487452 15.3104133017282,45.9633027159285 15.3100677462319,45.9633885923444 15.3096081399753,45.9635217447752 15.3092889985721,45.9635553605758 15.3083411653712,45.9635714183629 15.3076521737542,45.9635919004682 15.3068290888294,45.9633482059564 15.3064323319327,45.9634855857345 15.3058463113048,45.9635784822695 15.3040017182078,45.9629471760983 15.3025429068823,45.9625954579548 15.3009182146408,45.9629859290566 15.3002294228111,45.9628753592778 15.2996120092867,45.9627459729846 15.2989488517444,45.9624109254555 15.2984289205083,45.9621254374199 15.2982853347372,45.9620074024396 15.2980516390081,45.9617585956857 15.2978889628997,45.9616169460124 15.2977056864192,45.9618684596606</coordinates></LinearRing></outerBoundaryIs></Polygon></MultiGeometry>
  </Placemark>
</Folder>
</Document></kml>
