<?xml version="1.0" encoding="utf-8" ?>
<kml xmlns="http://www.opengis.net/kml/2.2">
<Document id="root_doc">
<Schema name="pregledovalniklovisca" id="pregledovalniklovisca">
	<SimpleField name="lov" type="string"></SimpleField>
	<SimpleField name="lov_naziv" type="string"></SimpleField>
	<SimpleField name="luo" type="string"></SimpleField>
	<SimpleField name="luo_naziv" type="string"></SimpleField>
	<SimpleField name="povrsina" type="float"></SimpleField>
</Schema>
<Folder><name>pregledovalniklovisca</name>
  <Placemark id="pregledovalniklovisca.1">
	<Style><LineStyle><color>ff0000ff</color></LineStyle><PolyStyle><fill>0</fill></PolyStyle></Style>
	<ExtendedData><SchemaData schemaUrl="#pregledovalniklovisca">
		<SimpleData name="lov">0723</SimpleData>
		<SimpleData name="lov_naziv">VELIKI PODLOG</SimpleData>
		<SimpleData name="luo">07</SimpleData>
		<SimpleData name="luo_naziv">Posavsko</SimpleData>
		<SimpleData name="povrsina">2870.38</SimpleData>
	</SchemaData></ExtendedData>
      <MultiGeometry><Polygon><outerBoundaryIs><LinearRing><coordinates>15.4403839211545,45.8597166336778 15.4399973049723,45.8596821315391 15.4395748921875,45.8600076807382 15.439203915179,45.8603240327943 15.4389220884813,45.8605140710097 15.4386786107415,45.8606679698182 15.4392229568395,45.8611067744637 15.4396894751054,45.8614738930178 15.440130229836,45.8618231131419 15.44046705325,45.8620737556488 15.4407130914475,45.8622437665071 15.4404441386384,45.8624337587585 15.4401107209286,45.8626150008106 15.4390696234436,45.862879944124 15.4383113488903,45.8630808083516 15.4377073292486,45.8632450852924 15.4370261049229,45.8634186522036 15.4366056740844,45.8635260743208 15.4362034927138,45.8636287463342 15.4355609653135,45.8638111546366 15.4348926762089,45.8639936573686 15.4342629383729,45.8641491060615 15.4333889992983,45.864386368547 15.4323864731185,45.8646511045748 15.4316153408265,45.8648609708118 15.4307285002064,45.8650982616456 15.4298933069389,45.8653533470207 15.4291991531501,45.865526915836 15.4285437015856,45.8657093331523 15.4282616731101,45.8658813499118 15.4283578398861,45.8666638035198 15.4284693682142,45.8677521266067 15.428552384936,45.8684986376666 15.4285891942983,45.8688804587281 15.4286363722136,45.8693711149417 15.4282385183042,45.8700782186264 15.4280333297132,45.8706317257344 15.427942575846,45.8709409620352 15.4278275136947,45.8711039841364 15.427527197386,45.8713978083597 15.4270416293491,45.8717897710038 15.4240728221714,45.8717712243905 15.4191730678296,45.8717907428345 15.4142007035568,45.871815893061 15.4091911453587,45.8718459989026 15.4095641903582,45.8796509248432 15.407611831217,45.8812744576495 15.404789998879,45.8812683823609 15.4037200356665,45.8812655091663 15.4069848337902,45.8846653674423 15.4100911965584,45.8878771047137 15.4102918403078,45.8915911366684 15.4102938279163,45.891861064198 15.4104288405931,45.8938339813344 15.4105094885715,45.8955628922179 15.4106813286192,45.8967078766164 15.4140208873329,45.8968085684908 15.415429506287,45.8968395374837 15.4156800580597,45.8968095634071 15.4198879655371,45.8968794784634 15.423237807823,45.8969053612814 15.4233365463162,45.8971123051778 15.4234932227913,45.8971765988837 15.4238951690134,45.897245291518 15.4242120516608,45.8973801625465 15.4243175909212,45.8975657555144 15.4244359675245,45.8979138911811 15.4245128903259,45.8982843153273 15.42467367496,45.8984135563452 15.4245488889593,45.8986113420383 15.4244756999485,45.898764846662 15.4246826617858,45.8988823989199 15.42480798943,45.8989584144814 15.4247272171182,45.899080725043 15.4247058530371,45.899202814764 15.4248034557443,45.8993271616311 15.4248191765221,45.8994283285587 15.4247714048416,45.8995012084529 15.4246015929101,45.8996421154088 15.4242735523287,45.9000068453523 15.4241432346672,45.9004435429169 15.4239156818951,45.9007029843127 15.4238678041693,45.900880778651 15.4240548355555,45.9010203605809 15.4241414452216,45.9011732718185 15.4240161765611,45.9013087038179 15.4238120989485,45.9013510307461 15.4237314195766,45.9014862970492 15.4238110782534,45.9016911516457 15.42408000662,45.9018719996175 15.4240776236502,45.9020329792207 15.4239634560968,45.9021709793077 15.4240051206879,45.9022773587459 15.4242287986223,45.9023544495822 15.424396515318,45.9024109628948 15.4244157063216,45.9024939413679 15.4241605377036,45.9026481214184 15.4241650459821,45.9027493299953 15.4242850681283,45.9028891602124 15.4242788982132,45.9030605013273 15.4242987329051,45.9032110509337 15.4243997227627,45.9032885969 15.4248133124921,45.9034247265303 15.42482559417,45.9035648666615 15.4245410066137,45.9037658554982 15.4245645105855,45.9039242194973 15.4246579083864,45.903986227233 15.4249850449818,45.9039901398238 15.4251044572357,45.90404944108 15.4250734951477,45.9043663689026 15.4252902629979,45.9045161855844 15.4254724120371,45.9045207262639 15.425686224445,45.9042836476801 15.4257936907972,45.9042468961773 15.4258271201214,45.9051972094672 15.425967616687,45.9079284177342 15.4260050706118,45.9084268460388 15.4260162894278,45.909792219666 15.4260175211623,45.9104081140619 15.4264951582892,45.9106189502764 15.4273545504839,45.9109745715989 15.4274361621575,45.9116653867659 15.4275023719319,45.9128346719035 15.4275322924228,45.9142299370057 15.4276578494691,45.9181234383216 15.4277757666177,45.9181516099193 15.4282669502241,45.9183207280225 15.4286419760739,45.9184722842096 15.4290818076343,45.9186685847508 15.4294828291413,45.9188470338994 15.4303134162142,45.9192431407753 15.4313585262434,45.9197042957694 15.4327910204645,45.9203591365143 15.4342564096156,45.9209791028167 15.4350385817809,45.921242552003 15.4363182506492,45.9214693659937 15.4376462736011,45.9214990191541 15.4400852826006,45.92142009956 15.4435366920467,45.9213372029792 15.4480506681435,45.921284862393 15.4493283322328,45.9212566315407 15.4506888318347,45.9212049354523 15.454847435165,45.9203427576204 15.457265263578,45.9197190999721 15.4576952217187,45.9195321144252 15.4581073066652,45.9191944860803 15.4583699754648,45.9188574556492 15.4593146074212,45.9186915227089 15.4597844778135,45.9185780606679 15.4605105322378,45.9184367512094 15.4615940004693,45.9183493303448 15.4629553203856,45.9182976648089 15.4647264248529,45.9182258718516 15.4662861343129,45.9181733596635 15.4712955389239,45.9179866205321 15.4725382189162,45.917963043234 15.4724175110133,45.9177605523162 15.4721753416435,45.9172816114046 15.4718390292006,45.9166001586391 15.4714908269962,45.9160664075343 15.4707162336994,45.9151559655584 15.4699280506628,45.9141902376765 15.4692740141337,45.9134454789992 15.4688856376563,45.9128657259755 15.4687094643767,45.9123497055418 15.4685734087966,45.9118980344712 15.4681574363714,45.9111614704517 15.4679571268498,45.9109315874671 15.4678624095242,45.9106736486254 15.4676733636834,45.9102037478147 15.4673604741571,45.9091530055945 15.4673036020737,45.9086733856514 15.467310738917,45.9082336340806 15.4673203492621,45.9072131543843 15.4674335381417,45.9054652284583 15.4677029589416,45.9049029330995 15.4684238258531,45.9036626923252 15.4699759751825,45.9012966442722 15.47069262953,45.8995845604636 15.4720462534105,45.899668325093 15.4731440552092,45.8997659100947 15.4738480105778,45.8998319164452 15.4742866251541,45.8998082321399 15.4744748590397,45.8996963277455 15.4746992234558,45.8994689210014 15.4748678558822,45.8993255150552 15.4752559148139,45.8992526391113 15.4754944972401,45.8992421089228 15.4762655290212,45.8993008029624 15.4771125889039,45.8994638189501 15.4776330609306,45.8997138533572 15.4780014662559,45.899873823637 15.4785589351219,45.9001390853048 15.4787986544051,45.9003803921964 15.4793478969631,45.9004674378292 15.4799518201286,45.9005286973893 15.4807194139089,45.9005000070641 15.4813959678852,45.9005099358388 15.4828994370092,45.9010011712108 15.4850987052279,45.9015914703066 15.4876455438041,45.9022185750009 15.4882146829208,45.9024840096026 15.4889496529737,45.9030086785825 15.4903601633422,45.9036564152436 15.4913994577237,45.9042241212485 15.4934938117969,45.9049642531067 15.4953213016357,45.9058210353366 15.4951501050951,45.9054258739127 15.4952886747169,45.9050653612366 15.4953885784442,45.9047050159976 15.4954374893361,45.9044078763808 15.4954724712649,45.9039938256448 15.4954820773544,45.9036248739329 15.4954778351413,45.9031480085546 15.4954741533071,45.9027341253635 15.4954703114789,45.9023022472187 15.4954411751589,45.9019244655672 15.4954118792042,45.9015286889558 15.495370096565,45.9011779554925 15.4953279144202,45.900782234669 15.4952855728943,45.9003685188701 15.4952577988887,45.9001436939482 15.4952154895172,45.8997479735635 15.4951609826898,45.8994152906835 15.4951301707081,45.8988485619306 15.4951140852326,45.8984887190497 15.4950715872581,45.8980570080539 15.4950428558792,45.8977242133475 15.4950007588263,45.8973374896139 15.4949710689772,45.8968967251946 15.4949551760885,45.8965728726059 15.4949524582187,45.8962669585681 15.4949630260983,45.8960059760612 15.4950354223523,45.8958435217637 15.4949438171161,45.8953088182577 15.4951453568698,45.8952069896146 15.4950535725922,45.8946521317946 15.4948440343397,45.8942159252291 15.4947121293226,45.8936844551543 15.4946651200745,45.893280836385 15.4941391385607,45.8926874561742 15.4937158764437,45.8922551406749 15.4930878739486,45.8915612406653 15.4926913634235,45.8912379494822 15.4925341992399,45.8909506965649 15.4923905082039,45.890744365804 15.4922200648347,45.8904121805133 15.4920500207663,45.8901249823689 15.4920198819031,45.8896302315977 15.4920557548207,45.8893151531273 15.4919488661891,45.888883717538 15.4921255130083,45.8884600589072 15.4922513357045,45.8881175993993 15.4922745113559,45.8878385667981 15.4923625540042,45.8875952460286 15.4924885323607,45.8872707812008 15.4927050945666,45.8869909148404 15.4925093703433,45.8867128257666 15.4923256575653,45.8863357084253 15.4922995592536,45.8860212565914 15.4918973156221,45.8859776397446 15.4912008019324,45.8858906575468 15.4902204545421,45.8857599899089 15.4895497134062,45.8856728870774 15.4887757474726,45.8855682262149 15.4880019419734,45.8854815550933 15.4876537696344,45.8854470501248 15.4867508173508,45.8853249302561 15.4861059322999,45.8852466949 15.4853571971399,45.8850789186957 15.4849177483058,45.8849188233477 15.4842585015914,45.8846696796248 15.4838835541876,45.8845183047611 15.4834047107551,45.8842863877005 15.4827314260079,45.8839023269733 15.4821747995627,45.8835987506018 15.4818255535077,45.8834382626696 15.4815026197865,45.8833406476621 15.480663276713,45.8831192353853 15.4800951820924,45.8829777481582 15.4790362977819,45.8826942612185 15.4782357773067,45.882490664012 15.4773677917471,45.8821260117859 15.4770049410298,45.8812161357803 15.476954097387,45.8808298907207 15.4771478617322,45.8806045856427 15.4776737827429,45.879977668173 15.477809331948,45.8796345535693 15.4776693101596,45.8794406955692 15.4773712617,45.8788757067356 15.4773267655447,45.8785537697607 15.4774196141342,45.8779480967901 15.477569744838,45.8775180022248 15.477720709039,45.8771854406122 15.478039976674,45.8769205584597 15.4784161080273,45.876782396981 15.4786658419248,45.8765665724975 15.4789560587437,45.8761749397721 15.4794565232493,45.8758605256421 15.4798165919674,45.8754587899141 15.4802189796422,45.8751252588497 15.4806621372465,45.8746353521586 15.4808694003904,45.8743514077188 15.4811890135909,45.8741450911941 15.4818418109251,45.873664014531 15.4822160981022,45.8733013517876 15.4822618306575,45.8728550451805 15.4818360677123,45.8727758605948 15.4814356011574,45.8726425807179 15.4810457147897,45.8722573149512 15.4807857759698,45.8719884732744 15.4803569986788,45.8715583794612 15.4797857704495,45.8710389036428 15.4795141238048,45.8709050760389 15.4790751128332,45.8707809474482 15.4784809237417,45.8705854841949 15.4780546434394,45.8704433026532 15.4769711712947,45.8702678731783 15.4766362114278,45.8702602729947 15.476121544693,45.8703254036199 15.4751439589755,45.8704825263024 15.4741406830182,45.8706486550954 15.4731887692949,45.8707965666777 15.4718510512016,45.8710180469402 15.4708091905422,45.8711933036399 15.4702046492015,45.8712947692915 15.4697027697711,45.8713508205138 15.4687621239511,45.8713096938969 15.4678858812642,45.8712682958488 15.4668550755836,45.8712275226668 15.4657856302987,45.8711868976962 15.4641620322959,45.8711125236151 15.4636328912704,45.8709887017809 15.4628823230639,45.8705688453878 15.4622998051243,45.8702203771156 15.461988967468,45.8700146835243 15.4616777596341,45.8697640012837 15.4611976267016,45.8693340429255 15.4608085521988,45.8690116896627 15.4601858641595,45.8684743274657 15.4597836446945,45.8681340278824 15.4592777072273,45.8676951673065 15.4589012385987,45.8673367653457 15.458524256972,45.8669153791417 15.4580822195274,45.8664132717086 15.4575760896398,45.8659474106511 15.4571349534425,45.8655532702439 15.4568361740847,45.8652575355835 15.4563687017853,45.8647915145312 15.4559147780447,45.8644064182752 15.4556168751265,45.8642006555444 15.4551636222439,45.8638965344002 15.4545815148442,45.8635839262582 15.4541680079562,45.863414701013 15.4536646458369,45.8632817325397 15.4530457449088,45.863194209333 15.4520532963342,45.8630991633026 15.4516406742098,45.8630378098464 15.4511761751651,45.8629316703987 15.4509437662096,45.8628906577397 15.4504281341495,45.8627996534905 15.4497576572971,45.8627033178935 15.448997251257,45.8626343253673 15.4484691644284,45.862627401313 15.447696749207,45.8626664216952 15.4471045586371,45.8626957339488 15.4461006895289,45.8627806382794 15.4454698615013,45.8628100928938 15.4451221433897,45.8628114479345 15.4446969393427,45.8627861098895 15.4443747631798,45.8627603696445 15.4437681163841,45.8625917677049 15.4435222104735,45.8624397586581 15.4432888266927,45.8622427111526 15.4430551586828,45.862009672786 15.4428990484043,45.8618124148068 15.4427415956282,45.8614621080274 15.4425851303277,45.8612197716416 15.4423373072062,45.8608248249002 15.4420125053747,45.8604661668818 15.4417661860883,45.8602601683652 15.441442245686,45.8600094798402 15.4411055015954,45.8597678376866 15.4403839211545,45.8597166336778</coordinates></LinearRing></outerBoundaryIs></Polygon></MultiGeometry>
  </Placemark>
</Folder>
</Document></kml>
