{"type":"FeatureCollection","features":[{"type":"Feature","geometry":{"type":"Polygon","coordinates":[[[14.9932197468983,46.3318317175266],[14.9943850747763,46.3305596778184],[14.9957736966661,46.3298547230884],[14.9967409179638,46.3298029313198],[14.9978075982241,46.3304342848118],[14.9984153113596,46.3305372219201],[14.9992731851387,46.3302308785941],[14.9999463596514,46.3296556048798],[15.001778246688,46.3275806741954],[15.0055049230699,46.3254591227263],[15.0111250197344,46.3227930438732],[15.0152788708326,46.3219892101532],[15.0168667137991,46.3195341181277],[15.016622249897,46.3188568492657],[15.0163778460767,46.3179255005218],[15.0167441988573,46.3172059460107],[15.0201644261146,46.316063206643],[15.024806325475,46.3157246309945],[15.0278599789157,46.3150473424062],[15.0308527207463,46.3147085512748],[15.0347956748002,46.3150689247366],[15.0377236521877,46.3142644610776],[15.0402097701785,46.3139195629248],[15.0419226528931,46.3139193076382],[15.0432484028385,46.3134978373198],[15.0452365655063,46.31227210614],[15.0461754005616,46.3116209669301],[15.0468377599492,46.3107783841389],[15.0475550098947,46.3094761999126],[15.0477752774948,46.308365679117],[15.047332147786,46.3068340072978],[15.0469441179501,46.3050342852924],[15.0468931775737,46.3043671665943],[15.0468322014256,46.3030429889744],[15.0467761160762,46.3019707296901],[15.0468298817084,46.3000177823152],[15.0477128875887,46.2988687484614],[15.0518523064323,46.2948853364347],[15.054777843137,46.2927018862909],[15.0556044611029,46.2907486487019],[15.0569284972987,46.2890633640465],[15.0588600610682,46.2877225247344],[15.0602945325443,46.2861903654732],[15.0611767346037,46.2848880930174],[15.0620043470475,46.2841218959831],[15.064100073543,46.281593787499],[15.0679058650804,46.2776098786722],[15.0687326997195,46.2763841450441],[15.0714901953571,46.2736642171873],[15.0759560753807,46.2687606442343],[15.0771693721789,46.2678410356392],[15.0795394177305,46.2649295294751],[15.0808078327772,46.2640098432851],[15.0823524115547,46.2632814053126],[15.0848894429277,46.2617100730869],[15.0886319968462,46.2590682547341],[15.0933572742801,46.2574406728284],[15.0974068779965,46.2558759136357],[15.0948762415772,46.2542488211521],[15.079298506288,46.2511563672858],[15.0710811444762,46.2494059582868],[15.0667471920723,46.2486872610136],[15.0643096999745,46.2484688551923],[15.0609243851163,46.2484072786303],[15.056154370846,46.2469173466271],[15.0538540716755,46.2465629717739],[15.0518096754425,46.2463562598396],[15.0484453346488,46.2465338111733],[15.0418017054449,46.2469476077428],[15.0341786835462,46.2475086902099],[15.0298771682348,46.2475673876449],[15.0264276628742,46.248128315987],[15.0231056319119,46.2482164888946],[15.0211891563689,46.2483342742712],[15.0184632708113,46.248008686561],[15.0147151013048,46.2476828100958],[15.0111800492888,46.2473567900939],[15.0050896797727,46.2478571107888],[15.0024233342206,46.2480993144474],[15.0024747620552,46.2496940760144],[15.0024167489315,46.2546596569989],[14.9990557112256,46.2577880186474],[15.0002963903621,46.2583485499717],[15.0020923155512,46.2602411893892],[15.0011878069913,46.2602218583136],[15.000178490082,46.2606008277727],[14.9994291155231,46.2607541393197],[14.9988346225558,46.2607540448334],[14.9981162420692,46.2609815752434],[14.9972493486585,46.2608051219618],[14.9966053010872,46.2608393841063],[14.9956144951668,46.261165590008],[14.9929391170274,46.261749106446],[14.9919731422984,46.2614395379801],[14.9919976613241,46.262315959881],[14.9916259488166,46.2627282762683],[14.9910809269066,46.2631061186455],[14.9897927247683,46.2634150656761],[14.9889751605669,46.2636553956826],[14.9883806036136,46.2638098191962],[14.9868693480925,46.2642217286088],[14.9858919399062,46.2649565055854],[14.9834068675419,46.2676152112627],[14.9816774965634,46.2704240588622],[14.9802183908598,46.2723714428706],[14.9780034642975,46.2734942502322],[14.9765444525173,46.2750295141545],[14.97546313279,46.2770144311338],[14.9733800060371,46.2778891232962],[14.9725663495718,46.2780443126911],[14.9710133919921,46.278075419751],[14.9704426097926,46.2780333466496],[14.9698374788792,46.2779253121319],[14.9694311084036,46.2778713109514],[14.9690072971849,46.2779132138037],[14.9685835534267,46.2780629915869],[14.9682635049093,46.278176807808],[14.9675802496994,46.2785304761535],[14.9666548115786,46.2787401147672],[14.9659628971182,46.2790097370115],[14.9652969090355,46.2793094135848],[14.964933601604,46.2794771905367],[14.9647864209604,46.2797288870186],[14.9647670022065,46.2798603301551],[14.9649126317745,46.2800063995199],[14.9651735071604,46.280127671581],[14.9654183926827,46.280296893291],[14.9659684244796,46.2805613960856],[14.9662170042358,46.2806387557554],[14.9665580429994,46.2806071858663],[14.9671853962497,46.2806991390801],[14.9675987093793,46.2806743347073],[14.9681126781703,46.2807198250913],[14.9683291657735,46.2808737373857],[14.9685266989842,46.2810450086458],[14.9687645356095,46.2813127405554],[14.9691659847883,46.2816247824154],[14.9696715066093,46.2819459376721],[14.9699831514153,46.2820475982809],[14.9704872404858,46.282153086697],[14.9704699306567,46.2822475528067],[14.9701757683494,46.2826869895571],[14.9701612224314,46.2827087589793],[14.9701420010116,46.2827375449925],[14.9697947718894,46.2833870513885],[14.9695535383401,46.2838381967745],[14.96924957254,46.2839115325437],[14.9687626205682,46.284454021368],[14.9687598293636,46.2845700844126],[14.9688045354891,46.2849143292608],[14.9688536773551,46.2849892892809],[14.9690797132701,46.2850438736234],[14.9693647817992,46.2851257348466],[14.9694934964868,46.285398474186],[14.9698389249956,46.2854584871319],[14.9708175496534,46.2859676222967],[14.9713501210685,46.2860276782818],[14.9719256697533,46.2865566759662],[14.9721845330889,46.2871555022702],[14.9725374036805,46.2879332146616],[14.9728708498304,46.2894326756022],[14.9728702219926,46.2904414399212],[14.9728594181362,46.2907680351622],[14.972622938797,46.2913008819953],[14.9725768231516,46.2926822983482],[14.9724153584755,46.2929467766366],[14.9720465097903,46.2931567712296],[14.9717837017465,46.293363281942],[14.9716218609199,46.2935908705477],[14.9713591972431,46.2937623812755],[14.971106516937,46.2939514384179],[14.9709625985237,46.2941504195651],[14.9707197569504,46.294381945022],[14.9704733833795,46.2946607941998],[14.9703173416217,46.2949486634966],[14.9703171714839,46.2952635646686],[14.9723946838492,46.2966379539308],[14.9741533082218,46.2986941291731],[14.9744303775099,46.2988395857647],[14.9748039945943,46.2990510122634],[14.9753644295287,46.2992147029586],[14.9757772668802,46.299398873279],[14.9760427920439,46.2995420742066],[14.9762885994094,46.2996580090004],[14.9766326414153,46.2998489098086],[14.9768391191064,46.2999648353683],[14.9769080049702,46.3000671471218],[14.9769373659067,46.3003193437099],[14.9770257882486,46.3005783900098],[14.9771732983648,46.3007829251993],[14.9774584410555,46.3009124510232],[14.9776648773652,46.3011442585873],[14.9778796605678,46.3016062149286],[14.977749815701,46.3023247034711],[14.9779052985965,46.3027359940719],[14.9782370210198,46.3029569380996],[14.9784168885529,46.3031053354443],[14.9784760099892,46.3032969861985],[14.9784515317023,46.3034820532615],[14.9779961096846,46.3038583178996],[14.9774404714566,46.3042082892541],[14.976711174508,46.3047510318411],[14.976355849356,46.3047636449168],[14.9756871329205,46.3047839282405],[14.9754804873499,46.3050089031388],[14.9749592254683,46.3053564404985],[14.9747027980603,46.3054180146092],[14.9743664237843,46.305705398991],[14.9741095505197,46.3061570885438],[14.9737044781644,46.3064718067306],[14.9735265069967,46.3069713779162],[14.9732101629885,46.3076831593992],[14.9727454217474,46.3081211211614],[14.9723402822633,46.3085248162686],[14.9721130953003,46.3087505897071],[14.9717673814562,46.3089558199663],[14.9716577502947,46.3093119002563],[14.9714412203313,46.3097549562538],[14.9713327565439,46.3103547693674],[14.9711506484215,46.3107554567685],[14.9709193456358,46.3123519427279],[14.9706728059663,46.3125495471503],[14.9704465268856,46.3127334806052],[14.9704758245416,46.3130607145003],[14.9705741084783,46.3133129299224],[14.9708002155379,46.3134561325222],[14.9710756995325,46.3135312387586],[14.9711674504457,46.3136209635005],[14.9714378636492,46.3139615734211],[14.9716870724167,46.3141343806344],[14.9719323340065,46.3141577437127],[14.9722296760609,46.3141551171692],[14.97250404992,46.3141244132313],[14.9727106534603,46.3140775875869],[14.9729212883425,46.314017446745],[14.973274778335,46.3138984076742],[14.9733983981008,46.3138783728606],[14.9736243149499,46.3138971392634],[14.973925529167,46.313940034771],[14.9740144491925,46.3139868401818],[14.9741051713405,46.3140672052918],[14.9741745711766,46.3142077564313],[14.9742324059177,46.3143682785863],[14.9743212880568,46.3144981274131],[14.9744698827615,46.3146628084735],[14.9746571850723,46.3147993368531],[14.9748367215363,46.3148836797654],[14.9750047133236,46.3149439075198],[14.9752151678333,46.3149974863504],[14.9753813683318,46.3150002213983],[14.975499149193,46.3149747847724],[14.975673046654,46.314895916929],[14.9759453664976,46.314815630024],[14.9760844406275,46.3147915468438],[14.9762080445365,46.3148103766653],[14.9763084023322,46.3148384685997],[14.976410825647,46.3148947219401],[14.9764880455291,46.3149829998489],[14.9765015316616,46.3150244794648],[14.9765015110204,46.3150727041635],[14.9764260985045,46.3153108430911],[14.9764337289361,46.3153818321427],[14.9764433191635,46.3154246605314],[14.9764954909465,46.3154862117423],[14.9765901328971,46.3155236592822],[14.9767515100546,46.3155752458495],[14.9777698070752,46.315473870584],[14.9795985535991,46.3158439941564],[14.9809327830051,46.316072571956],[14.9816548693305,46.3160618035404],[14.9825105045281,46.3158443866575],[14.9829502123912,46.3156976196623],[14.9841199072561,46.3151266492967],[14.9869079784952,46.3139086988521],[14.987479807431,46.3138978763456],[14.9881702533341,46.3147626656762],[14.9883975880925,46.3154860595011],[14.9884130433826,46.3160842812307],[14.9886539621786,46.316463984871],[14.9884643018867,46.3168512929217],[14.9880976129174,46.3174226638754],[14.9877794422931,46.3181680435031],[14.9872418920311,46.3191155636118],[14.9873933320013,46.3201191212717],[14.9879851441284,46.32165760541],[14.9885658835241,46.3222729790257],[14.9891952309008,46.3227567261621],[14.9902030142067,46.3232438317825],[14.9910579116903,46.3240483354444],[14.9914125289891,46.3243559745543],[14.991606092261,46.3248056655326],[14.9914465094802,46.3254762098114],[14.9910022548714,46.3260836618716],[14.9902846250225,46.3265964394572],[14.9900699726855,46.3271651294366],[14.9900451919372,46.3284582841815],[14.9893248173901,46.330189355725],[14.990540873576,46.3310588546284],[14.9921077787976,46.3328960952948],[14.9932197468983,46.3318317175266]]]},"properties":{"fill-opacity":0,"stroke-opacity":1,"stroke":"#ff0000","lov":"1410","lov_naziv":"BRASLOVČE","luo":"14","luo_naziv":"Kamniško Savinjsko","povrsina":5163.19},"id":"pregledovalniklovisca.1"}]}