<?xml version="1.0" encoding="utf-8" ?>
<kml xmlns="http://www.opengis.net/kml/2.2">
<Document id="root_doc">
<Schema name="pregledovalniklovisca" id="pregledovalniklovisca">
	<SimpleField name="lov" type="string"></SimpleField>
	<SimpleField name="lov_naziv" type="string"></SimpleField>
	<SimpleField name="luo" type="string"></SimpleField>
	<SimpleField name="luo_naziv" type="string"></SimpleField>
	<SimpleField name="povrsina" type="float"></SimpleField>
</Schema>
<Folder><name>pregledovalniklovisca</name>
  <Placemark id="pregledovalniklovisca.1">
	<Style><LineStyle><color>ff0000ff</color></LineStyle><PolyStyle><fill>0</fill></PolyStyle></Style>
	<ExtendedData><SchemaData schemaUrl="#pregledovalniklovisca">
		<SimpleData name="lov">1409</SimpleData>
		<SimpleData name="lov_naziv">DRETA NAZARJE</SimpleData>
		<SimpleData name="luo">14</SimpleData>
		<SimpleData name="luo_naziv">Kamniško Savinjsko</SimpleData>
		<SimpleData name="povrsina">4869.2</SimpleData>
	</SchemaData></ExtendedData>
      <MultiGeometry><Polygon><outerBoundaryIs><LinearRing><coordinates>14.882016734971,46.2388956288188 14.881170233471,46.2391568425229 14.8806241239008,46.2396148642867 14.8802600565994,46.2398953782129 14.8800118869359,46.240067145748 14.8797968143645,46.240164360213 14.8795487676549,46.2402787243135 14.8792344881994,46.2404389039827 14.8789781941688,46.2405877176515 14.8788210513093,46.2406391055292 14.8786145797074,46.240656161251 14.8778842852109,46.24053706953 14.8775326145598,46.2405403822498 14.8771423566511,46.2405774821441 14.8769850000266,46.2406077236971 14.876772316297,46.2406771334872 14.876516257848,46.24065967244 14.8761940430847,46.2407109682724 14.8759213874568,46.2407508004933 14.8756735371503,46.2407734742657 14.8751363023009,46.2408932721927 14.8750088825693,46.2405303632609 14.8745615505327,46.2408029403198 14.8745597326971,46.2408040179971 14.8741549185859,46.2409106405731 14.8738625193238,46.2409641219905 14.8732360228732,46.2410460239616 14.8725665030495,46.2411713313367 14.8722525139409,46.2412513264958 14.8719145456945,46.2413266153529 14.871311064763,46.2415446611468 14.8713109350916,46.2415446610008 14.8713108054202,46.2415446608549 14.8712786363962,46.2415491232728 14.8706100915545,46.2416413103508 14.8699140446988,46.2417374210253 14.8678196655078,46.2423496218418 14.8672224542035,46.2426450297153 14.8668342627994,46.2428372995696 14.8668214102291,46.2428434027365 14.866816087264,46.2428460057417 14.8645714106275,46.2439024364012 14.8639609670547,46.2441335710558 14.8626880140679,46.2446155620095 14.8616438682999,46.244965016343 14.8616406236008,46.2449660920873 14.8604609543273,46.2459269150627 14.8598726381579,46.2466197939763 14.8590203910114,46.2471633501047 14.858141749691,46.2482800820847 14.8574212558258,46.2489613575166 14.8568747217033,46.2494192645485 14.8563705073636,46.2495104042 14.8557669528088,46.2496987666008 14.8553617726289,46.2498072114394 14.8547740768749,46.2502249285509 14.8543274363452,46.250413572509 14.8536742687162,46.2505732493584 14.8533432468478,46.2507848903868 14.8528462110705,46.2509976664851 14.8533163991131,46.2530718661726 14.8536568842855,46.2534523461189 14.8535963361748,46.2547601979053 14.8534139001141,46.2564429880969 14.8525204485267,46.2575673037476 14.8525492469274,46.2577597918121 14.8525946093456,46.2579668767441 14.8528527520515,46.2586386730615 14.8532659154806,46.2584813025539 14.853621621625,46.2585162179251 14.8538093510191,46.2587465174521 14.854005014112,46.2588227941117 14.853939320421,46.2596267031724 14.8539135518485,46.2605379101257 14.8532912770678,46.2611794258012 14.8530661889533,46.2618694943592 14.8533259377773,46.262629014204 14.8561867142025,46.2651973981972 14.8563709309096,46.2684743285678 14.8567231918825,46.2692097534617 14.8572761901432,46.2710862751219 14.8585139444363,46.2724896696513 14.8592875111462,46.2744555256164 14.8570668370735,46.2761578323767 14.8584614104202,46.2767686782292 14.8599546434712,46.2774758979998 14.8604860319831,46.2776662987167 14.8610422212992,46.2779027028233 14.8619493997777,46.2784535309991 14.8634363860894,46.2793612452082 14.8647444580343,46.2799607541871 14.8658482738069,46.2808942546953 14.8661900269411,46.2808601059084 14.8666101571082,46.2808260475636 14.8669517061597,46.2808758401485 14.8671432665991,46.2811326630649 14.8671286570228,46.2813250962075 14.8672482599581,46.2814494864705 14.8676725307716,46.2817453563554 14.8678375896326,46.2818010599865 14.8680624746452,46.281801319708 14.8681672976247,46.2818673001185 14.8679667608135,46.2821029752885 14.8678808451196,46.2823769307233 14.8676485836749,46.2828522540105 14.8676880124975,46.2830765997849 14.8677650549875,46.2832013900696 14.8681634704943,46.2833005494068 14.8684262060827,46.2835920913162 14.8687175414447,46.2838095285502 14.8690513860348,46.2841603521702 14.8695138947504,46.2842694770855 14.8695401131614,46.284595655338 14.8697763733022,46.284674470179 14.8700755455816,46.284600763608 14.8706095611954,46.2846013691697 14.8712499380253,46.2847353405123 14.871619823833,46.2848887087323 14.8720969257274,46.2848102480599 14.8722450527349,46.2850656640744 14.8724165342944,46.2851560974075 14.8729417309573,46.2850443072783 14.8734206110839,46.2850387203361 14.8737342823587,46.2848663210222 14.8739620349847,46.2848665723056 14.8742365496743,46.2849612551507 14.8743767868396,46.2852096419058 14.8742896958276,46.2857823075361 14.8740099381508,46.2861613212672 14.8742129213902,46.2864962403102 14.874748505889,46.2868984629058 14.8741567514319,46.2876192978817 14.8737811681244,46.288522831534 14.8726858021616,46.2894756789504 14.8704817776063,46.2908053270016 14.8709084703655,46.2910475639058 14.8713570875519,46.291018468783 14.8717908288479,46.2912459549321 14.872843524713,46.2917604198313 14.8731278390636,46.2919532753912 14.873120465759,46.2921111677777 14.872804659548,46.2931870598603 14.8726189609803,46.2935074227029 14.8720471605617,46.2944791095319 14.8720254372152,46.2946665864385 14.8721461893696,46.2947605621039 14.8720615145049,46.2955053437974 14.8718568746326,46.2961503022288 14.8718253432607,46.2963128458709 14.8716439580885,46.2965023028768 14.872198699467,46.296794072887 14.8725970652565,46.2970165677504 14.8732804786662,46.2970716701317 14.8739425040566,46.297171100924 14.8742839694801,46.2973047250328 14.8744975462207,46.2973395088092 14.8747940582018,46.2973784317609 14.8751669069903,46.2973549969168 14.8755729801569,46.2972764443339 14.8763275284064,46.2973908072982 14.8769038428781,46.2976283248018 14.8771453197834,46.2979000292606 14.8774225835923,46.2981322739742 14.8776715672291,46.2982411365064 14.8781129472391,46.2982810154861 14.8780967398765,46.2985652189093 14.8793978599962,46.2983550751353 14.8794625747768,46.2986774221132 14.8804140546453,46.2986783312221 14.8809734200662,46.2987847216266 14.8810308788054,46.2989256771462 14.8805890978424,46.299186314568 14.8808993199943,46.2994342402899 14.8804412460392,46.2995445174133 14.879926754834,46.2992749628581 14.8795277367407,46.2993880874491 14.8788864180587,46.2995947047772 14.8781239169988,46.2998308800621 14.8771333840137,46.300160555964 14.876755395908,46.3004414906834 14.8765556078155,46.3006189692702 14.8764340580346,46.3008704888118 14.8761301627311,46.3010458747118 14.8758777139202,46.30125982354 14.8755996093136,46.3014520607171 14.8753005306214,46.3016189023253 14.8748795808849,46.3018313154651 14.8746868988677,46.3020186954044 14.8745155953583,46.3021666009124 14.8743942245632,46.3023342648183 14.8743253598193,46.3024184026323 14.8744267466727,46.3026450626817 14.8745276692377,46.3027911974845 14.8744697315646,46.302922132633 14.8744912185181,46.3030631418121 14.8745922835474,46.3032041483189 14.8745336653898,46.3034055305493 14.8746495911976,46.3035767837774 14.8747512455835,46.3036876502745 14.8746339807104,46.3038184305126 14.8746429526498,46.3039827285747 14.8746996698461,46.3042163571261 14.8747349487792,46.3044580596029 14.8750082685053,46.3058629057581 14.8748472865242,46.3062050716547 14.8746755024586,46.3063873459225 14.8745804852491,46.3065515298917 14.8747977889982,46.3066187968842 14.8750468058597,46.306727665003 14.8752593931233,46.307157241584 14.8755586357453,46.3071033147744 14.8758720026588,46.3071184107289 14.8766478119224,46.3073068410686 14.8775659126492,46.3076138211959 14.8785198041361,46.3078269916037 14.8793025887781,46.3080992648284 14.8795798373624,46.3083660529583 14.8790300691564,46.3089873561412 14.8788371037544,46.3092981835217 14.8794941146245,46.3096836861779 14.8794936099387,46.309913652933 14.8793699511319,46.3101172181286 14.8797087347588,46.3101546433133 14.8805075657529,46.3101709560114 14.8807818249365,46.3102673319015 14.8812430777971,46.3104091571819 14.8815219319593,46.3105433241118 14.8818335449626,46.3103576753912 14.8823377930015,46.3100676772665 14.8826407218531,46.31005485274 14.8828775169736,46.310186453993 14.8830481450609,46.3103568548018 14.8832751296692,46.3106459853548 14.8831631456914,46.311043275254 14.8824581886764,46.3113226341258 14.8818627351992,46.3117560431012 14.8818726956026,46.3121353733105 14.8822673183935,46.3133258334099 14.8823843327713,46.3133129979365 14.8846272410913,46.3131738478238 14.8846273709318,46.3131738479549 14.8859333088487,46.3127992572503 14.8867828248085,46.311930616872 14.8870209630655,46.3113551246473 14.887107098927,46.3106972479122 14.8871258644858,46.3100950869107 14.8872768070505,46.3098050775697 14.8873806126961,46.3095814206059 14.8884163435428,46.3089136774267 14.8895980387772,46.308409004336 14.8900949433219,46.3083855505945 14.8905523357994,46.3086444776412 14.8909919055673,46.3091852667613 14.8916185306857,46.3095500672939 14.8916839333494,46.3095666840336 14.8916786128988,46.3095653294202 14.8921774402041,46.3096915811186 14.8928384087272,46.3097627401779 14.8932360370493,46.3098548831205 14.8932961226693,46.3098687948259 14.893923094898,46.3099986673032 14.8942731028897,46.3100778065454 14.8945634142558,46.310143483924 14.8946010497075,46.3101519759467 14.8946010495348,46.3101520659181 14.8951463462771,46.3099504911658 14.8954392221779,46.3095559641953 14.8957320673943,46.3091070036257 14.8961171859479,46.3088803559082 14.8967904452447,46.3086266159752 14.8970111631639,46.3084152918276 14.8972316791905,46.3083803113488 14.8975704678913,46.3084157942245 14.8979982336303,46.3084279628956 14.8987746405597,46.3084138075563 14.8996576495581,46.3084638902738 14.9006116863235,46.3086523142326 14.9011667966236,46.3088205923625 14.9015084008021,46.3089541350047 14.9016720791638,46.3090480262419 14.9020445325405,46.3090658903752 14.9037796151269,46.3094249105867 14.9045777131493,46.3091885943229 14.9055211397951,46.3083167435315 14.9060097622563,46.3083489061881 14.9065305079137,46.3084251790894 14.9069541687864,46.3084092397701 14.9074633871292,46.308470293846 14.9078877320188,46.3085884092585 14.90834577885,46.3088954903976 14.9088198868692,46.3095412354268 14.9091843035139,46.3098687519664 14.9097850016207,46.310129605135 14.9103944250207,46.3103777759866 14.9112275083092,46.310496828342 14.9121682025097,46.3102261106612 14.9128327154721,46.3101295398745 14.9136704112324,46.3102887052597 14.9142815123392,46.310555750675 14.9146566209964,46.3111298696878 14.9151855564522,46.3117287538116 14.9161398920666,46.3117935174252 14.9170712764404,46.3114960310993 14.9176946348598,46.3109684386165 14.9182860149903,46.3102845392768 14.9190164234785,46.3099577424487 14.9196282730628,46.3099060806278 14.9204221597331,46.3102041717845 14.92088525256,46.3106715353857 14.9215315509081,46.311866352712 14.922064953033,46.3123948502784 14.9223606889551,46.3132475314188 14.9234231042019,46.3134863124221 14.9248614975652,46.3134797990392 14.9265178408226,46.3131253081335 14.9282227748028,46.3124330707071 14.9288885314597,46.3122772961498 14.929586274333,46.3122851955874 14.9301549458709,46.3124044866951 14.9304767202371,46.3125831862554 14.9309049848674,46.3134685854149 14.9314502783918,46.3140211585869 14.9334793332841,46.3150914879923 14.9349601471699,46.3155906917823 14.9368921540227,46.3159115329336 14.9379068692422,46.3162923077911 14.9381950899445,46.3164451454779 14.9386694366387,46.3166686200239 14.9390927302869,46.3169155479545 14.9393275494543,46.3172218455708 14.9415585784392,46.3189857275514 14.943684426583,46.3201252922817 14.9466772417935,46.3210654884046 14.949329542519,46.3214319782244 14.9515849343769,46.3211626814453 14.952567985792,46.3215977450997 14.9550992763244,46.3232882489987 14.9552954587918,46.32493552076 14.9556845054295,46.3261105173802 14.955907068231,46.3259946304289 14.9564154139144,46.3256296318491 14.9565096175892,46.3255693869496 14.9567871597644,46.3253920687758 14.9571022684078,46.3253347857361 14.9575846463492,46.3252799032499 14.9581707870929,46.325056990341 14.9589206192694,46.3247511797975 14.9596963967096,46.3239418939803 14.9611888409898,46.3224426781404 14.9609915046535,46.3221825937996 14.9615250495942,46.3218954060764 14.9622171960682,46.3215397101904 14.9626523769847,46.3213222124366 14.9629682800247,46.3210061558057 14.9630930075767,46.3207199072348 14.9632219917698,46.3204745068872 14.9635218510638,46.3202534532955 14.9639200074299,46.3200358488798 14.9643496087542,46.3197830740657 14.9646284271376,46.3195557129862 14.9649254787776,46.3192409945885 14.9652841691422,46.3189874746837 14.96589591972,46.3185600247035 14.9659602315148,46.318504711452 14.9668991684159,46.3176980335112 14.9686259117852,46.3159183455591 14.9693076309131,46.3154163999094 14.9698373520233,46.3152727664829 14.9701336791252,46.3149989711436 14.9708943414274,46.3146980328052 14.9712406606885,46.3144038237601 14.9716870724167,46.3141343806344 14.9714378636492,46.3139615734211 14.9711674504457,46.3136209635005 14.9710756995325,46.3135312387586 14.9708002155379,46.3134561325222 14.9705741084783,46.3133129299224 14.9704758245416,46.3130607145003 14.9704465268856,46.3127334806052 14.9706728059663,46.3125495471503 14.9709193456358,46.3123519427279 14.9711506484215,46.3107554567685 14.9713327565439,46.3103547693674 14.9714412203313,46.3097549562538 14.9716577502947,46.3093119002563 14.9717673814562,46.3089558199663 14.9721130953003,46.3087505897071 14.9723402822633,46.3085248162686 14.9727454217474,46.3081211211614 14.9732101629885,46.3076831593992 14.9735265069967,46.3069713779162 14.9737044781644,46.3064718067306 14.9741095505197,46.3061570885438 14.9743664237843,46.305705398991 14.9747027980603,46.3054180146092 14.9749592254683,46.3053564404985 14.9754804873499,46.3050089031388 14.9756871329205,46.3047839282405 14.976355849356,46.3047636449168 14.976711174508,46.3047510318411 14.9774404714566,46.3042082892541 14.9779961096846,46.3038583178996 14.9784515317023,46.3034820532615 14.9784760099892,46.3032969861985 14.9784168885529,46.3031053354443 14.9782370210198,46.3029569380996 14.9779052985965,46.3027359940719 14.977749815701,46.3023247034711 14.9778796605678,46.3016062149286 14.9776648773652,46.3011442585873 14.9774584410555,46.3009124510232 14.9771732983648,46.3007829251993 14.9770257882486,46.3005783900098 14.9769373659067,46.3003193437099 14.9769080049702,46.3000671471218 14.9768391191064,46.2999648353683 14.9766326414153,46.2998489098086 14.9762885994094,46.2996580090004 14.9760427920439,46.2995420742066 14.9757772668802,46.299398873279 14.9753644295287,46.2992147029586 14.9748039945943,46.2990510122634 14.9744303775099,46.2988395857647 14.9741533082218,46.2986941291731 14.9723946838492,46.2966379539308 14.9703171714839,46.2952635646686 14.9703173416217,46.2949486634966 14.9704733833795,46.2946607941998 14.9707197569504,46.294381945022 14.9709625985237,46.2941504195651 14.971106516937,46.2939514384179 14.9713591972431,46.2937623812755 14.9716218609199,46.2935908705477 14.9717837017465,46.293363281942 14.9720465097903,46.2931567712296 14.9724153584755,46.2929467766366 14.9725768231516,46.2926822983482 14.972622938797,46.2913008819953 14.9728594181362,46.2907680351622 14.9728702219926,46.2904414399212 14.9728708498304,46.2894326756022 14.9725374036805,46.2879332146616 14.9721845330889,46.2871555022702 14.9719256697533,46.2865566759662 14.9713501210685,46.2860276782818 14.9708175496534,46.2859676222967 14.9698389249956,46.2854584871319 14.9694934964868,46.285398474186 14.9693647817992,46.2851257348466 14.9690797132701,46.2850438736234 14.9688536773551,46.2849892892809 14.9688045354891,46.2849143292608 14.9687598293636,46.2845700844126 14.9687626205682,46.284454021368 14.96924957254,46.2839115325437 14.9695535383401,46.2838381967745 14.9697947718894,46.2833870513885 14.9701420010116,46.2827375449925 14.9701612224314,46.2827087589793 14.9701757683494,46.2826869895571 14.9704699306567,46.2822475528067 14.9704872404858,46.282153086697 14.9699831514153,46.2820475982809 14.9696715066093,46.2819459376721 14.9691659847883,46.2816247824154 14.9687645356095,46.2813127405554 14.9685266989842,46.2810450086458 14.9683291657735,46.2808737373857 14.9681126781703,46.2807198250913 14.9675987093793,46.2806743347073 14.9671853962497,46.2806991390801 14.9665580429994,46.2806071858663 14.9662170042358,46.2806387557554 14.9659684244796,46.2805613960856 14.9654183926827,46.280296893291 14.9651735071604,46.280127671581 14.9649126317745,46.2800063995199 14.9647670022065,46.2798603301551 14.9641739745925,46.2796841606085 14.9635641413909,46.2796138796962 14.9627341844916,46.2794260205356 14.9621110320582,46.2792956262146 14.9621110321822,46.2792954462706 14.9613588789243,46.2791962253202 14.9607750383371,46.2792635955098 14.9604244705173,46.2792004043146 14.9596848676767,46.2789797144526 14.9588476661519,46.2787930841127 14.9587183553037,46.2787139520793 14.9582837946191,46.2785384388551 14.9579337429998,46.2784887360092 14.9572263434692,46.2784300817059 14.956865722765,46.2784572077573 14.956508835676,46.2783570236543 14.9558220687349,46.2781396578227 14.9555292418242,46.2780940184499 14.9550544406657,46.2781147962802 14.9545343564496,46.2781321352036 14.9539938941047,46.2781563914108 14.9537211191413,46.2781843526066 14.9534139484028,46.2780705031996 14.9532076342388,46.2779171065835 14.9530503799004,46.277903366368 14.9527131301035,46.2779151936706 14.9524409712392,46.2778315867275 14.9524117523442,46.2775589592524 14.9523428149673,46.2774515039055 14.9521146856653,46.2771737548196 14.9521247628086,46.2770750596885 14.9521812224027,46.2767583816486 14.952187917752,46.2766688622413 14.9521284283673,46.2765908315656 14.9520093559323,46.2765426465921 14.951797623278,46.2765126867983 14.9516187857517,46.2765539084443 14.951512817192,46.2766549021891 14.9512838778649,46.2767140064941 14.9506234625788,46.2763851452005 14.9503023253818,46.2759505309098 14.9500548597654,46.2756945424782 14.9496583399765,46.2754078074872 14.9496873441554,46.2751899978237 14.9500317820797,46.274960720032 14.9510780250783,46.2743048260071 14.951287903567,46.273195739389 14.9507893095452,46.2720123923362 14.9504785006662,46.2716613667762 14.9498563389236,46.2709998002887 14.9492675368724,46.270336445702 14.9480017962477,46.269788846258 14.9476258918449,46.2697077896966 14.9460500265113,46.2693785685429 14.9448173724577,46.2691395539716 14.9436494890945,46.2695124588835 14.9424748577127,46.2698717626488 14.9420011446435,46.2699076021738 14.9404898774099,46.2699743047018 14.9392833678961,46.2700367408608 14.9389687916987,46.2698832607899 14.9383928319083,46.2698125036841 14.9375288149204,46.2697768557432 14.9369700778898,46.2696237763331 14.9365300324419,46.2693768291778 14.9356831092959,46.2691531349038 14.9349551658198,46.2690352194203 14.9343964045404,46.2685885481267 14.9334651283617,46.2681885334161 14.9318600619012,46.2676576518155 14.9318908560009,46.2675147043168 14.931180954195,46.266687884378 14.9295311754367,46.2661736778554 14.9291890973046,46.266057942157 14.928863669584,46.2659084762034 14.9282414390698,46.2660458348729 14.9272750773574,46.2662472119561 14.9268893980741,46.2662412977369 14.9264025560925,46.2664094134153 14.9257774930956,46.2662336534711 14.9252893044708,46.2660536609571 14.9245837241081,46.2657564692798 14.9242336641349,46.2652290004746 14.9231143206938,46.265082138303 14.9218491453776,46.2656831048971 14.9212294257026,46.2655967561303 14.9208252473727,46.2650175955015 14.919462174565,46.2646841959836 14.9196363303121,46.264197118717 14.9188847709396,46.263887173353 14.9182651359417,46.2637605909437 14.9176234882427,46.2636089770226 14.9167835833029,46.2634003528891 14.915909040242,46.2623488366872 14.9151541205806,46.261556252775 14.9145218999754,46.2612035402602 14.9140121814329,46.2610735979143 14.9135882194554,46.2609367002974 14.9130486113854,46.2608442495137 14.9116428180575,46.2606318267752 14.9106101868742,46.2605252166417 14.9101864373871,46.2605837264581 14.9093229149838,46.2605831348418 14.9086959888733,46.2606647806484 14.9081286772605,46.2607007649935 14.9075252491902,46.2607691073543 14.9069681048607,46.2608515198816 14.9061958209966,46.261048917956 14.9052943795331,46.2611435454828 14.9046142451586,46.2613814067262 14.9040411503611,46.2615292915176 14.9036361407134,46.2616190131658 14.9031242410855,46.2617087328323 14.9025812401537,46.2617797994421 14.9015045400662,46.2619408271207 14.9008297548373,46.26207520228 14.8998952813568,46.2622724169636 14.8989217553809,46.2624694995129 14.8983251025779,46.2625050493719 14.897715531406,46.2624415250619 14.8972749082955,46.2623511577295 14.8964057923338,46.262206417878 14.8958224708489,46.2620529349487 14.8953295109173,46.2621335497637 14.8946419603155,46.2621509127205 14.8943001647624,46.2619393422772 14.8940811583236,46.2616903661679 14.8936460911587,46.2614833858675 14.8937398359962,46.2611692897029 14.8939095481992,46.2609462259778 14.8941810472671,46.2606762906895 14.8942323478851,46.2604414204091 14.8941821546759,46.2601006487417 14.8940134421494,46.259806822761 14.8940241161324,46.2595181114087 14.8939635417408,46.2592478682891 14.8938645799985,46.2590411999495 14.8938269353884,46.2587868131528 14.8938500202904,46.2586543952778 14.8940721088027,46.258373797517 14.8943243920015,46.2582415916546 14.8942024082264,46.2581354913965 14.8935374394259,46.2583733009063 14.8932852359433,46.2584631281218 14.8928042294273,46.2584149928049 14.8928272913885,46.2583621106756 14.8929722982714,46.2583674649054 14.8932167870535,46.2583094813907 14.8934844498209,46.2581401331558 14.8938350018321,46.2577660841708 14.8941196202746,46.2574784365018 14.8949606966554,46.2569812151734 14.8956336279025,46.256499669393 14.8961149703373,46.2563623600274 14.8964039253916,46.2562412494502 14.8969023845583,46.2559656646939 14.8973231620159,46.2555421833531 14.8976509834403,46.255162613768 14.8980411039912,46.2547580864589 14.89859503051,46.254213796068 14.8988759207717,46.2536728606729 14.8990885156123,46.2530983945291 14.8991877966484,46.2524986357874 14.8991300587397,46.2518034576335 14.8989537717777,46.2515374333252 14.8987771058997,46.2514078066666 14.8979816147017,46.2512367817275 14.8970878483369,46.2511200961803 14.8961349334575,46.2510783869725 14.8952899384252,46.2510980399677 14.8949068482777,46.2510841026327 14.894651860011,46.25081808926 14.8942391757898,46.2508177082594 14.8937873109891,46.2508241272865 14.8934732905085,46.2506398414069 14.8934179375046,46.2504255653287 14.8935426739122,46.2503059281585 14.8939062009661,46.2503062660689 14.8942597666478,46.2503611169399 14.8945936590882,46.2503954348539 14.894937785298,46.2503003807577 14.8951739032491,46.2501233516792 14.8952922210351,46.2498985288616 14.8954799787264,46.2497123676167 14.8957841876533,46.2494627916774 14.8959080305205,46.2493317245841 14.8962759936234,46.2491769463976 14.8966985714842,46.2490818681553 14.8964436608501,46.2487749212615 14.8964538121017,46.2486181983339 14.8964617723285,46.2485231045921 14.8963368370805,46.2481342201194 14.8963614549528,46.2478019738958 14.8964165307851,46.2475481213234 14.8964250828738,46.2472763220411 14.896474622041,46.2469319520238 14.8963060960241,46.2466228335801 14.8962939028151,46.2463491260228 14.8962565224814,46.2458155548493 14.8960819066688,46.2453687724609 14.8958986973978,46.2450103350144 14.8957561685881,46.2446736177416 14.8952612463111,46.2442317599246 14.8946330150172,46.2444719493108 14.8939144036424,46.2444369152571 14.8935835100598,46.2446143035972 14.8933930976466,46.2448377080651 14.8931204895072,46.2448489700393 14.8905271608042,46.2444567551053 14.8889994910545,46.2441630511863 14.8875960539773,46.2436859049525 14.8875468446967,46.2434622746576 14.8872910520624,46.2433703407005 14.8867622815135,46.2433468751953 14.8854343800544,46.2433562590183 14.8846176007077,46.2432706834533 14.8841904283778,46.2430954347845 14.8840256850438,46.2415217366783 14.8837607370691,46.2404300995037 14.8837237559324,46.2398896861522 14.8836062797181,46.239520408796 14.8829628312535,46.2391128055581 14.8827813282285,46.2390381222434 14.8826493016603,46.2389290299008 14.882649607015,46.2387857937195 14.8826497692764,46.238648855475 14.882016734971,46.2388956288188</coordinates></LinearRing></outerBoundaryIs></Polygon></MultiGeometry>
  </Placemark>
</Folder>
</Document></kml>
