<?xml version="1.0" encoding="utf-8" ?>
<kml xmlns="http://www.opengis.net/kml/2.2">
<Document id="root_doc">
<Schema name="pregledovalniklovisca" id="pregledovalniklovisca">
	<SimpleField name="lov" type="string"></SimpleField>
	<SimpleField name="lov_naziv" type="string"></SimpleField>
	<SimpleField name="luo" type="string"></SimpleField>
	<SimpleField name="luo_naziv" type="string"></SimpleField>
	<SimpleField name="povrsina" type="float"></SimpleField>
</Schema>
<Folder><name>pregledovalniklovisca</name>
  <Placemark id="pregledovalniklovisca.1">
	<Style><LineStyle><color>ff0000ff</color></LineStyle><PolyStyle><fill>0</fill></PolyStyle></Style>
	<ExtendedData><SchemaData schemaUrl="#pregledovalniklovisca">
		<SimpleData name="lov">1408</SimpleData>
		<SimpleData name="lov_naziv">GORNJI GRAD</SimpleData>
		<SimpleData name="luo">14</SimpleData>
		<SimpleData name="luo_naziv">Kamniško Savinjsko</SimpleData>
		<SimpleData name="povrsina">9285.67</SimpleData>
	</SchemaData></ExtendedData>
      <MultiGeometry><Polygon><outerBoundaryIs><LinearRing><coordinates>14.8417443221854,46.2510261153085 14.8415761540161,46.2511005595743 14.8414965498997,46.2511358084303 14.8411058650187,46.2513312262094 14.8404641780083,46.251674297408 14.8400738572359,46.2517864876123 14.8395170226326,46.2519815774403 14.8394465896771,46.2520287141028 14.8381513558583,46.2528953921113 14.8371718559766,46.2533393649896 14.836184525039,46.2537509281435 14.8341642933324,46.254617059495 14.8341477625414,46.2545934627394 14.8328001605169,46.2551033530968 14.8317025178511,46.2556415771611 14.8316791553729,46.255646671197 14.8302867503174,46.2559481797453 14.8293187546627,46.2561579040235 14.8280390617924,46.2563691311138 14.8264991005803,46.2562722435894 14.8258244988802,46.2561488554137 14.8257905473713,46.2561389067218 14.8253738054415,46.2560150987425 14.825093301001,46.2559587971033 14.8247629354131,46.2559196930677 14.8239940336969,46.25580019827 14.8226789224063,46.2559298858181 14.8219548242925,46.255914904757 14.8186282330184,46.2558457956104 14.8171024310385,46.2557518630306 14.8163621978588,46.2555592151819 14.8163413338247,46.2555536933512 14.8138962056459,46.2551891299995 14.8126889500627,46.255409390421 14.8123548199454,46.2554888280127 14.8118633206082,46.2555788924445 14.8107169801516,46.2556569858573 14.8097116678372,46.2557229763595 14.8094489297738,46.2557475511058 14.8084551019251,46.2557551575987 14.808285790553,46.2557683696845 14.807639241471,46.2558335034183 14.8071904453965,46.2558378758832 14.8060889366873,46.2558521180699 14.8057286876172,46.2556846076747 14.8054811576133,46.2556261545989 14.8048527294606,46.2555186463275 14.8046073460286,46.2554771098376 14.8039527353218,46.2554383807729 14.8035174469477,46.2554020944445 14.8026873578501,46.2552159515185 14.8025765455924,46.2551923673963 14.8018698345845,46.2550716615159 14.8018688094629,46.2551402187315 14.801402363449,46.2550410695927 14.8013440160594,46.2550357498265 14.801064544101,46.2550249170658 14.8008577002145,46.2550157396784 14.8005639579047,46.2550057805616 14.7998393465178,46.2551368637381 14.7992052593047,46.2553050800049 14.7988963334462,46.2552615302217 14.7984199931274,46.2552444063692 14.798221872698,46.2553321398991 14.7981673256429,46.2553515676365 14.7981092977409,46.255329871802 14.7979546456746,46.2552713864491 14.7978313556418,46.2552201541409 14.7977402848183,46.2551899422772 14.7969956705848,46.2548341312102 14.7967202720715,46.2547393507787 14.7964021112163,46.2546341467106 14.7963295751668,46.2546078355391 14.7961207121182,46.2545491611416 14.7957765648297,46.2544569549907 14.7956399097719,46.2544432149464 14.7953579326384,46.2544096007289 14.7952709379514,46.2544000878514 14.7947406915673,46.254024221955 14.7944314998657,46.2540199775797 14.7940714620541,46.2540512698887 14.7936098227511,46.2540599745607 14.7930707060653,46.2540463139746 14.7921783289447,46.2541923401754 14.7919700241497,46.254296329389 14.7919290396836,46.2542959848925 14.7916600076532,46.2544067908856 14.7913973401444,46.2545149086829 14.7913707366828,46.2545187289561 14.7908494719296,46.2545846261105 14.7906112090276,46.2546185594765 14.7901218998729,46.2546711959107 14.7899942602752,46.2546743804867 14.7896641007919,46.2546916780899 14.789066584872,46.2547190985516 14.788640733,46.2546613595454 14.7877749505177,46.2545985744915 14.7873998608228,46.2545624284895 14.7873588876686,46.2545591132852 14.7872783722658,46.2545514058253 14.7867975675362,46.2544169911457 14.786325549464,46.2542582983014 14.7862032440849,46.2542574398541 14.7861702158482,46.2542456816697 14.7858036178751,46.2541614110494 14.7857408985261,46.254146987911 14.7854474197422,46.2541046003659 14.7847751774793,46.2540714866345 14.7843527190212,46.2540107689457 14.7836628707833,46.253903658108 14.7830213631017,46.2537410318778 14.7824622863308,46.2535941241476 14.781572288469,46.2535603071362 14.7811790943303,46.2535787194114 14.7805631644368,46.2536722799226 14.7798439199695,46.2537835427396 14.7797979843464,46.2537889425976 14.7791552665597,46.2538663388558 14.7782948016751,46.2539703012043 14.7778781640953,46.2538832989198 14.7776900010186,46.2538430754089 14.7772629945893,46.2538508816883 14.7772624608839,46.2538865997137 14.7768203593809,46.253938551407 14.7765652461757,46.2539683738525 14.7759192202221,46.2541876320104 14.7756363890773,46.2542712915523 14.7753831898568,46.2543400731854 14.7744725021861,46.2540676432936 14.7739296092499,46.2540587435127 14.7733685473572,46.2540525043142 14.7724948520587,46.2540592265346 14.7721262456416,46.2540581325766 14.7720712486673,46.254059012647 14.7715908249435,46.2540302523947 14.7709824956597,46.2539753219219 14.7704828245369,46.2539281640762 14.7701768347378,46.2539031668699 14.7697826622038,46.253874932252 14.7695079091593,46.2538551245787 14.7691634054747,46.2538286074505 14.7682869390388,46.2537857170947 14.7673577255299,46.2537334455388 14.7667653900487,46.2537012881995 14.7661569836604,46.2536664857211 14.7653963895651,46.2536130134427 14.7651126963626,46.2535917373012 14.7646541811198,46.2536885944633 14.7642338027738,46.253693126716 14.7635910147212,46.2536009272193 14.762859886719,46.2534824488972 14.7621927459949,46.2533542020346 14.7617517129222,46.25336677972 14.7610935952736,46.2533717944696 14.7603344637784,46.2531632690017 14.7600366039904,46.2527928573625 14.7596856593557,46.2526697576805 14.7592286432726,46.2523643292861 14.7590847115093,46.2522681154207 14.7587167804244,46.2517904853433 14.7583207477745,46.2516294978385 14.757718108954,46.2515283528963 14.7572701965362,46.2509866681017 14.7569684042978,46.2509266451343 14.7564558761851,46.2506286452352 14.7554338227059,46.2509656598999 14.7545697895193,46.2510555803456 14.7544858018463,46.2509853114395 14.753967380703,46.2511959922944 14.7521192208502,46.2519474093715 14.7513905456438,46.2522436361686 14.7510731646876,46.2524183919488 14.749094980757,46.2535077733216 14.7477303342933,46.2542591895352 14.7462241398626,46.2548709079498 14.7451024314055,46.2553264623883 14.7451016515206,46.2553268205393 14.7436593972283,46.2553145987677 14.7430941937574,46.2553044228773 14.7424567489938,46.255293451679 14.7416981312761,46.2552887712232 14.7414819941071,46.2552718177609 14.7410436249962,46.2552377158614 14.7396744813102,46.2552351464674 14.7396142988612,46.2552350993936 14.739576295989,46.2552350128379 14.7389436052775,46.255233839877 14.7383696021524,46.2553834115983 14.7371154832499,46.2557106437681 14.7358374981107,46.2560348379352 14.7356884404538,46.2560671534374 14.7338832475828,46.2564579449515 14.7332950581258,46.2565852349592 14.7326762072397,46.256722347219 14.7325355820282,46.2567535986542 14.7318077627276,46.2569459642264 14.7316237038211,46.2569997856974 14.7306337790021,46.2572895082027 14.7300591583122,46.2576088146418 14.730047712649,46.257615175659 14.7292777592691,46.2577199724285 14.7287466287824,46.2577924909363 14.7276345009271,46.2578960144583 14.7270883750904,46.2579836049023 14.7267224286914,46.2580424724828 14.7266153564776,46.2580286306764 14.7261865475382,46.2579736210917 14.7258964336123,46.2578337386219 14.7253085726977,46.2575508940619 14.7247679529548,46.2572897535772 14.7245715288799,46.2571950794371 14.7242193236016,46.2572043073402 14.7227501784467,46.2572428612848 14.722130337163,46.257209866181 14.7215105011932,46.2571759680051 14.7198618310534,46.2570885358832 14.7183526625495,46.2572933842266 14.7176705531543,46.2573886921501 14.7173849877841,46.2574286541606 14.7173845986614,46.2574286531988 14.7173053149725,46.2574347552617 14.7173051852649,46.257434754941 14.7172669058061,46.2574377193484 14.7167498098346,46.2574774668761 14.7152794941983,46.2576645563544 14.7152793644902,46.2576645560314 14.7152792347821,46.2576645557084 14.7148975558397,46.2575784906784 14.7140766773698,46.2573935268472 14.713379991078,46.2574717679311 14.7127277492172,46.2574342319743 14.7126445446603,46.2574210668559 14.7121253559482,46.2573395953599 14.7119220134332,46.257480339888 14.7119115986577,46.2574876014119 14.7118673359489,46.2575184403848 14.7115667143797,46.2576583092733 14.7113255124842,46.2577707958516 14.7113102031267,46.2577714769759 14.7108243216122,46.2577938218668 14.7105191718128,46.2578074452468 14.708779478856,46.2578849021526 14.7070903100377,46.2579732587254 14.7070901803289,46.2579732583931 14.7057716292192,46.2578601964132 14.7057714999919,46.2578601061083 14.7046255131026,46.257787062724 14.7046253833944,46.2577870623889 14.7040248142635,46.2582713602893 14.7046243413803,46.2577878694486 14.7040246845541,46.2582713599535 14.703802447767,46.2585440500173 14.7038024478714,46.2585440306283 14.7036683472471,46.2587086025556 14.703667825982,46.2587090510665 14.7034571408462,46.25888350113 14.7033382257318,46.2590460426808 14.7029935666062,46.2594806142519 14.7027561047039,46.259736418449 14.7025569611447,46.2600301102356 14.7023249279453,46.2604324926374 14.7022742541158,46.2605199937858 14.7014831078787,46.2610467884799 14.7013287159564,46.2612669075327 14.7009701163808,46.2618264080245 14.7005725777766,46.2624840551676 14.6999696238203,46.2631041833665 14.6994837310015,46.2637364024404 14.6989299341563,46.2641875062664 14.6984011177323,46.2645999851807 14.6977403822901,46.2651029849757 14.6973113326408,46.2652754964548 14.6964846080796,46.2655990944829 14.6959804776151,46.2659990315149 14.6956058036,46.2663768179543 14.6956700305059,46.2664921534508 14.6959022386627,46.26672849867 14.6956029552575,46.2669148446029 14.6962326419174,46.2677658575228 14.6963826838345,46.2680586659029 14.696868079538,46.2685655979095 14.6971017120146,46.2687578579797 14.697822342001,46.2690980604516 14.6982983770299,46.2693998248562 14.6989847402493,46.2698406084572 14.6991051870743,46.269926399116 14.6998136268988,46.2704608069017 14.6998066053229,46.2704636675774 14.6998123615098,46.2704787080508 14.6998173740774,46.2704636058786 14.7000343144406,46.2710553826545 14.7001914372627,46.2714587802756 14.7003836282948,46.2719271395063 14.7004619856289,46.2721190755587 14.7006520733171,46.2726648048504 14.7009023612749,46.2731639057397 14.7009690705632,46.2733511323778 14.7009294908886,46.2735193667865 14.7013458163394,46.2739315378469 14.7015352106401,46.2742253416458 14.7016485053253,46.2746512956 14.7018046440474,46.274785671458 14.7018565715687,46.2748523862663 14.7020235582318,46.2750921474888 14.7022024455237,46.2753868224591 14.7022863102606,46.2754743138355 14.7024940294463,46.2756925870857 14.7026895990959,46.2759504160952 14.7031901543386,46.2762927109658 14.7035211018169,46.2765193096627 14.7038445883915,46.2767343716358 14.70391012164,46.276781236891 14.7043196536375,46.2770900913009 14.7047606817032,46.2774304258248 14.7049257402267,46.2775739075665 14.7051334343742,46.2778002733617 14.7053422248091,46.2781129248356 14.7050213289249,46.2784280793924 14.7051905644542,46.2786402202051 14.7052680296352,46.2787372298825 14.7053868180852,46.2791863167731 14.7057092356053,46.279411447483 14.7067588430727,46.279806242529 14.7078486721814,46.2802292019728 14.7082089304677,46.2809312741573 14.7094181945249,46.2817191799662 14.7110621946243,46.2843874176584 14.7121250052889,46.2851857207861 14.7139508103974,46.2864314664778 14.714782167781,46.2871312758435 14.715656345912,46.2875355377733 14.7163589331407,46.2887256321494 14.7171801071503,46.2894245887749 14.7176529669711,46.2901718044793 14.7177045396869,46.2914004080245 14.7175323676303,46.2922979021228 14.7175797837769,46.2930976891536 14.7173330213585,46.2946919202595 14.7172362002005,46.2959513763117 14.7174085362496,46.2965897024668 14.7175592918275,46.2970332760281 14.7187662425394,46.2979118564549 14.7198773169869,46.2986607197811 14.7210128307214,46.2996641619265 14.7227420550707,46.3005306572723 14.7236313906921,46.3009949051198 14.7233811334994,46.3012228281465 14.7234166794929,46.3016655750042 14.7232318741981,46.3030469133001 14.7239248626681,46.3054177228088 14.7238493540911,46.3068539378181 14.7240964055237,46.3079406716944 14.7263058369688,46.3092149411693 14.7324958953457,46.309731002 14.7371089022323,46.3099915521208 14.7405094796086,46.3098852360093 14.7416647992695,46.3098990085371 14.7420536068253,46.3108201155752 14.7421349198251,46.3113653467092 14.7418825970945,46.3115969939854 14.7407637021455,46.3123582312134 14.7394251432896,46.3132441074207 14.7397907811272,46.3142565798713 14.7400508843013,46.3144428726869 14.7407319362111,46.3150158279964 14.7418624583289,46.3158804026866 14.742914878038,46.3169323810066 14.7439383802202,46.317260734207 14.7446704800045,46.3178743571911 14.746015480953,46.3184088140045 14.7474703029971,46.3188720602119 14.7480946571031,46.3191235579829 14.7482995535392,46.3194099384044 14.748226850546,46.3198027735373 14.7486629990906,46.3203218784546 14.7498595695176,46.3208783663282 14.7508006246447,46.3209429512258 14.7512323785927,46.321006421484 14.7515164741601,46.3208997932905 14.7518009202074,46.3207441307331 14.7525695680953,46.3204241487952 14.7529055326622,46.3202461920645 14.7530222269801,46.320112476737 14.7531318254346,46.3201127134099 14.7533804824098,46.3205217202039 14.7537398410909,46.3208888582766 14.7545839569591,46.3209979190089 14.756440518697,46.3212989741872 14.7584083868825,46.3209815011278 14.7586984309397,46.3209955193114 14.7590079219807,46.3209872648394 14.7592918773956,46.3209387385607 14.7595820586018,46.3209214447437 14.7599171370056,46.3209712731614 14.7601680736633,46.3210790456703 14.7604321534588,46.321151036547 14.7608703418038,46.3212010781508 14.7611087950143,46.3212238894846 14.7612768974051,46.3212689563463 14.763036617716,46.3226855272714 14.7632424259341,46.3238353377762 14.7646029760853,46.3252110194989 14.7647838544746,46.3254300220548 14.7648828978211,46.3256532646721 14.7650636281814,46.3259074452509 14.7651870800441,46.3261632173789 14.7651804993146,46.3264871006021 14.7652972914788,46.326873227334 14.7653908225348,46.3271110334908 14.7655145968599,46.3273227199353 14.7657855018664,46.3274474355398 14.7661468945877,46.3274282915475 14.7667039767866,46.3277525164154 14.7669303811779,46.3279591023415 14.7671249154555,46.3283309901319 14.7672848742608,46.3286182342033 14.7675137590294,46.3287925243018 14.7676422451372,46.3291211806119 14.7679651386908,46.3292710986258 14.7683951869707,46.3298819756459 14.7685176271721,46.3301062520073 14.7690936128539,46.3306086464121 14.7703551743939,46.3317528320149 14.7706416645112,46.3318856647208 14.7709817384229,46.3318773492131 14.7712959349483,46.3319697487131 14.7720722750573,46.3322161105167 14.773413169655,46.3328565813914 14.7737541849819,46.3330623010099 14.7740909342239,46.3332952724501 14.7744551221388,46.3334579395347 14.7770647521854,46.3343446848291 14.7798590580396,46.3352604269013 14.7803611759565,46.3350779412468 14.7813497016335,46.3351650384245 14.7823846520222,46.3349776233967 14.7832195390325,46.3344343437603 14.7844693152187,46.3342121381739 14.785439619731,46.3344058714869 14.7864563017093,46.3345997731486 14.7878886611265,46.3348903468566 14.7900948618688,46.3345556765094 14.7929218533936,46.3344432386493 14.7929666726642,46.334441430411 14.7936433218049,46.3344291578412 14.7944009037897,46.3345872522845 14.7955896234032,46.3344953635544 14.7965972296428,46.3343795679952 14.7971966858519,46.3344824801133 14.7977318234347,46.3336055791055 14.7980162929102,46.3332141674187 14.7980541607272,46.3321011105283 14.7981131411574,46.3314270603165 14.7983521090185,46.3310433947993 14.7986362010438,46.330714600713 14.798729434282,46.3306144469264 14.7991022016693,46.3299743272515 14.7994738812381,46.3295584127565 14.8000303975438,46.3292068799531 14.8003092424818,46.3288869795863 14.800864789469,46.3287276196222 14.8022028393506,46.3286415002489 14.8030407394422,46.3281541326499 14.8042895915796,46.328091947479 14.8059590624152,46.3269410908703 14.8067488773599,46.3260772643813 14.8083702880815,46.3253428581706 14.809019746749,46.3248632279525 14.8101320734652,46.3242241245707 14.8120270944947,46.3244509242251 14.8135538133045,46.3242607951679 14.814429549137,46.3258997877839 14.8148517367528,46.3262529797443 14.8158958819028,46.3262600639194 14.8162297747242,46.3263010881037 14.8166797655549,46.326461149589 14.8170493478914,46.3266271987242 14.8198619801324,46.3263957594994 14.8214308778222,46.3264225125786 14.8219031719282,46.326478221624 14.8222903299736,46.3265156222349 14.8226517820724,46.3264299009317 14.8231195489391,46.326359458169 14.8234519762027,46.3263734676057 14.8239491501711,46.3263660467593 14.8242662351353,46.3263044543137 14.8245901214009,46.326186999243 14.8248154788963,46.3260147797618 14.8249939172378,46.3258126175574 14.8251660387782,46.3255545732244 14.8254509679995,46.3253930601562 14.8261644696088,46.3252708863819 14.8265283300578,46.3251993719376 14.8270286220636,46.3251056599369 14.8287861412064,46.3250219325558 14.8304713547697,46.3249683913194 14.832599474174,46.3257901756285 14.8343995774665,46.3259735491192 14.8374461158847,46.326755182669 14.8392103989431,46.3270350586236 14.8402528930508,46.3272585689124 14.8426609996644,46.3270388689619 14.8445870469195,46.3269853608612 14.8465109906972,46.3275432623276 14.8487547178774,46.3284348983217 14.8506770038363,46.3294930574662 14.8515599422454,46.3294383349181 14.8521215188267,46.3294944848373 14.8536425547245,46.3306076765233 14.8550038325513,46.331498416394 14.8554851655515,46.3315544479916 14.8574930423089,46.3310560981963 14.8586452947898,46.3313355394584 14.8587875670665,46.3313667553136 14.8590780783217,46.3311290498694 14.8592074565784,46.3309209258676 14.859476914031,46.3305344710298 14.8596279860322,46.3302222764733 14.8597686151602,46.3298282850386 14.8598771655592,46.3293820707764 14.8598250108093,46.3287497788742 14.8597398272539,46.3284893875695 14.8596865875828,46.3283331321431 14.8594836375634,46.3279089383223 14.8589583372631,46.3273349046685 14.8589702040978,46.3271645137015 14.8589602466401,46.3268446535072 14.8587156221675,46.3259146781417 14.8583739957891,46.3251853079991 14.8582144765518,46.3245975076411 14.8584514770138,46.3242482626726 14.8590645125389,46.323869610803 14.8599779707785,46.3235211044112 14.8604613894995,46.3233952856254 14.8610519760262,46.3234108500743 14.8620281437413,46.3237317902322 14.8631880644072,46.3239564028026 14.8641531556119,46.3240392474004 14.8651316393363,46.3234824934416 14.8656056696932,46.3227838842549 14.8657364589222,46.3219807736399 14.8662745013527,46.3214905203666 14.8673385210036,46.3210305665119 14.8682424047,46.3201390055117 14.8690713447877,46.3191878803432 14.8698782309748,46.3184896335712 14.8706201749873,46.3179548756111 14.8713303625569,46.3172788219064 14.8720298854125,46.3164911871833 14.8726889481411,46.3158964018392 14.8739663180735,46.3147379047884 14.8748890695228,46.314932266843 14.8768109445547,46.3147409148587 14.8777886871736,46.314384867257 14.8782294520801,46.3140581112155 14.8788848061547,46.3138058974044 14.8799589416993,46.3135317173373 14.8822673183935,46.3133258334099 14.8818726956026,46.3121353733105 14.8818627351992,46.3117560431012 14.8824581886764,46.3113226341258 14.8831631456914,46.311043275254 14.8832751296692,46.3106459853548 14.8830481450609,46.3103568548018 14.8828775169736,46.310186453993 14.8826407218531,46.31005485274 14.8823377930015,46.3100676772665 14.8818335449626,46.3103576753912 14.8815219319593,46.3105433241118 14.8812430777971,46.3104091571819 14.8807818249365,46.3102673319015 14.8805075657529,46.3101709560114 14.8797087347588,46.3101546433133 14.8793699511319,46.3101172181286 14.8794936099387,46.309913652933 14.8794941146245,46.3096836861779 14.8788371037544,46.3092981835217 14.8790300691564,46.3089873561412 14.8795798373624,46.3083660529583 14.8793025887781,46.3080992648284 14.8785198041361,46.3078269916037 14.8775659126492,46.3076138211959 14.8766478119224,46.3073068410686 14.8758720026588,46.3071184107289 14.8755586357453,46.3071033147744 14.8752593931233,46.307157241584 14.8750468058597,46.306727665003 14.8747977889982,46.3066187968842 14.8745804852491,46.3065515298917 14.8746755024586,46.3063873459225 14.8748472865242,46.3062050716547 14.8750082685053,46.3058629057581 14.8747349487792,46.3044580596029 14.8746996698461,46.3042163571261 14.8746429526498,46.3039827285747 14.8746339807104,46.3038184305126 14.8747512455835,46.3036876502745 14.8746495911976,46.3035767837774 14.8745336653898,46.3034055305493 14.8745922835474,46.3032041483189 14.8744912185181,46.3030631418121 14.8744697315646,46.302922132633 14.8745276692377,46.3027911974845 14.8744267466727,46.3026450626817 14.8743253598193,46.3024184026323 14.8743942245632,46.3023342648183 14.8745155953583,46.3021666009124 14.8746868988677,46.3020186954044 14.8748795808849,46.3018313154651 14.8753005306214,46.3016189023253 14.8755996093136,46.3014520607171 14.8758777139202,46.30125982354 14.8761301627311,46.3010458747118 14.8764340580346,46.3008704888118 14.8765556078155,46.3006189692702 14.876755395908,46.3004414906834 14.8771333840137,46.300160555964 14.8781239169988,46.2998308800621 14.8788864180587,46.2995947047772 14.8795277367407,46.2993880874491 14.879926754834,46.2992749628581 14.8804412460392,46.2995445174133 14.8808993199943,46.2994342402899 14.8805890978424,46.299186314568 14.8810308788054,46.2989256771462 14.8809734200662,46.2987847216266 14.8804140546453,46.2986783312221 14.8794625747768,46.2986774221132 14.8793978599962,46.2983550751353 14.8780967398765,46.2985652189093 14.8781129472391,46.2982810154861 14.8776715672291,46.2982411365064 14.8774225835923,46.2981322739742 14.8771453197834,46.2979000292606 14.8769038428781,46.2976283248018 14.8763275284064,46.2973908072982 14.8755729801569,46.2972764443339 14.8751669069903,46.2973549969168 14.8747940582018,46.2973784317609 14.8744975462207,46.2973395088092 14.8742839694801,46.2973047250328 14.8739425040566,46.297171100924 14.8732804786662,46.2970716701317 14.8725970652565,46.2970165677504 14.872198699467,46.296794072887 14.8716439580885,46.2965023028768 14.8718253432607,46.2963128458709 14.8718568746326,46.2961503022288 14.8720615145049,46.2955053437974 14.8721461893696,46.2947605621039 14.8720254372152,46.2946665864385 14.8720471605617,46.2944791095319 14.8726189609803,46.2935074227029 14.872804659548,46.2931870598603 14.873120465759,46.2921111677777 14.8731278390636,46.2919532753912 14.872843524713,46.2917604198313 14.8717908288479,46.2912459549321 14.8713570875519,46.291018468783 14.8709084703655,46.2910475639058 14.8704817776063,46.2908053270016 14.8726858021616,46.2894756789504 14.8737811681244,46.288522831534 14.8741567514319,46.2876192978817 14.874748505889,46.2868984629058 14.8742129213902,46.2864962403102 14.8740099381508,46.2861613212672 14.8742896958276,46.2857823075361 14.8743767868396,46.2852096419058 14.8742365496743,46.2849612551507 14.8739620349847,46.2848665723056 14.8737342823587,46.2848663210222 14.8734206110839,46.2850387203361 14.8729417309573,46.2850443072783 14.8724165342944,46.2851560974075 14.8722450527349,46.2850656640744 14.8720969257274,46.2848102480599 14.871619823833,46.2848887087323 14.8712499380253,46.2847353405123 14.8706095611954,46.2846013691697 14.8700755455816,46.284600763608 14.8697763733022,46.284674470179 14.8695401131614,46.284595655338 14.8695138947504,46.2842694770855 14.8690513860348,46.2841603521702 14.8687175414447,46.2838095285502 14.8684262060827,46.2835920913162 14.8681634704943,46.2833005494068 14.8677650549875,46.2832013900696 14.8676880124975,46.2830765997849 14.8676485836749,46.2828522540105 14.8678808451196,46.2823769307233 14.8679667608135,46.2821029752885 14.8681672976247,46.2818673001185 14.8680624746452,46.281801319708 14.8678375896326,46.2818010599865 14.8676725307716,46.2817453563554 14.8672482599581,46.2814494864705 14.8671286570228,46.2813250962075 14.8671432665991,46.2811326630649 14.8669517061597,46.2808758401485 14.8666101571082,46.2808260475636 14.8661900269411,46.2808601059084 14.8658482738069,46.2808942546953 14.8647444580343,46.2799607541871 14.8634363860894,46.2793612452082 14.8619493997777,46.2784535309991 14.8610422212992,46.2779027028233 14.8604860319831,46.2776662987167 14.8599546434712,46.2774758979998 14.8584614104202,46.2767686782292 14.8570668370735,46.2761578323767 14.8592875111462,46.2744555256164 14.8585139444363,46.2724896696513 14.8572761901432,46.2710862751219 14.8567231918825,46.2692097534617 14.8563709309096,46.2684743285678 14.8561867142025,46.2651973981972 14.8533259377773,46.262629014204 14.8530661889533,46.2618694943592 14.8532912770678,46.2611794258012 14.8539135518485,46.2605379101257 14.853939320421,46.2596267031724 14.854005014112,46.2588227941117 14.8538093510191,46.2587465174521 14.853621621625,46.2585162179251 14.8532659154806,46.2584813025539 14.8528527520515,46.2586386730615 14.8525946093456,46.2579668767441 14.8525492469274,46.2577597918121 14.8525204485267,46.2575673037476 14.8534139001141,46.2564429880969 14.8535963361748,46.2547601979053 14.8536568842855,46.2534523461189 14.8533163991131,46.2530718661726 14.8528462110705,46.2509976664851 14.8515822239769,46.2505128803879 14.8506960741545,46.2505453763296 14.8493070148551,46.2506102235647 14.8482533541157,46.2505755401324 14.8424051781411,46.250686572239 14.8421101200701,46.2509146053045 14.8417443221854,46.2510261153085</coordinates></LinearRing></outerBoundaryIs><innerBoundaryIs><LinearRing><coordinates>14.7038024469025,46.2585442105706 14.7038023171925,46.2585442102346 14.703802447767,46.2585440500173 14.7038024469025,46.2585442105706</coordinates></LinearRing></innerBoundaryIs></Polygon></MultiGeometry>
  </Placemark>
</Folder>
</Document></kml>
