<?xml version="1.0" encoding="utf-8" ?>
<kml xmlns="http://www.opengis.net/kml/2.2">
<Document id="root_doc">
<Schema name="pregledovalniklovisca" id="pregledovalniklovisca">
	<SimpleField name="lov" type="string"></SimpleField>
	<SimpleField name="lov_naziv" type="string"></SimpleField>
	<SimpleField name="luo" type="string"></SimpleField>
	<SimpleField name="luo_naziv" type="string"></SimpleField>
	<SimpleField name="povrsina" type="float"></SimpleField>
</Schema>
<Folder><name>pregledovalniklovisca</name>
  <Placemark id="pregledovalniklovisca.1">
	<Style><LineStyle><color>ff0000ff</color></LineStyle><PolyStyle><fill>0</fill></PolyStyle></Style>
	<ExtendedData><SchemaData schemaUrl="#pregledovalniklovisca">
		<SimpleData name="lov">1413</SimpleData>
		<SimpleData name="lov_naziv">KAMNIK</SimpleData>
		<SimpleData name="luo">14</SimpleData>
		<SimpleData name="luo_naziv">Kamniško Savinjsko</SimpleData>
		<SimpleData name="povrsina">4263.25</SimpleData>
	</SchemaData></ExtendedData>
      <MultiGeometry><Polygon><outerBoundaryIs><LinearRing><coordinates>14.5827265801245,46.19578143913 14.5820222767293,46.1962076796339 14.580969231783,46.1969156044495 14.579573110463,46.1978040945644 14.5776521934295,46.1988093947815 14.5755267062017,46.1997348165755 14.5736304107277,46.2004870452417 14.5730824009079,46.2006590085799 14.5726707188543,46.2008788949221 14.5722370875202,46.2009880304098 14.5715752960827,46.2011438153717 14.5710490938381,46.2014423532125 14.5706378905583,46.2015989827356 14.570656384062,46.2021525682491 14.5707206052713,46.2026747447818 14.5704556986736,46.2035117613625 14.570235292098,46.2042080462956 14.5700995689924,46.2063572680091 14.5686383915072,46.2067789571377 14.5689519849774,46.2074600679622 14.5692437635424,46.2079984880399 14.5691733647889,46.2082675127106 14.5688053701381,46.208724718968 14.5682804428493,46.2088493302278 14.5678912346922,46.2090851192236 14.5676611845008,46.2093847600757 14.5669515499463,46.2098091771479 14.5664281792587,46.2103764540381 14.5663494706298,46.2110405177235 14.5663830935401,46.2116097257785 14.5663417543275,46.2120209264328 14.5664288796171,46.2125273560831 14.5666744264246,46.2131766337977 14.5669727123415,46.2132838423906 14.5672731592448,46.213297576256 14.567554519332,46.2134313513193 14.5676249238502,46.2137414852068 14.5675314739785,46.214286818966 14.5675463339081,46.2152832378408 14.5679303732418,46.2156957771774 14.5683611548803,46.215966244163 14.5690432228715,46.2161584806883 14.5695026625834,46.2164615316715 14.5698346457648,46.2169205645323 14.5702162456086,46.2176494323255 14.5698258784139,46.2180433059389 14.5696860480999,46.2184382114567 14.569479022006,46.2186904363557 14.5691129322091,46.2188789003654 14.5688158957389,46.2189885373191 14.5684055459841,46.2190186594385 14.5679523001249,46.218700692061 14.5675464216952,46.2181614782664 14.5672993575966,46.2177177858035 14.5667975264368,46.2177949716997 14.5663873034928,46.2177935065 14.5659565222209,46.2175388674325 14.5655237441133,46.2175214782311 14.5660182242791,46.2183772910817 14.5665139644402,46.2190749337608 14.5671234013485,46.2198046752788 14.5672074393967,46.2207064335781 14.5675141211533,46.22148307188 14.5676717131357,46.2225109800664 14.5664089288312,46.2237240725737 14.5654304572943,46.2235465295645 14.5645884970133,46.2234010786917 14.5639731702989,46.2234145687915 14.5630382073444,46.2235060105989 14.5624439303179,46.2237251612559 14.5621682854302,46.2240088705255 14.5622110187876,46.2243569597834 14.5622986281576,46.2248000523611 14.5619090337919,46.2250832346622 14.5620218458796,46.2252260041683 14.5626803115538,46.2255289446391 14.563291148155,46.2260847033818 14.5643322140144,46.2269741893177 14.5654417611507,46.2278639259458 14.5655087116859,46.228053933347 14.5653925147682,46.2283381660691 14.5653908868441,46.2285280027765 14.5659080301005,46.2294154810755 14.5656334977952,46.2295567755173 14.5651750613967,46.2298872128408 14.5648750831567,46.2303605886481 14.5643943195283,46.2306275968955 14.5639378703879,46.2307050329793 14.5633906619964,46.2307504502081 14.5629338348037,46.2308752065837 14.5619488315772,46.2315041261038 14.5620382102957,46.2317258918081 14.5620798200981,46.2322321486626 14.5618921233868,46.2328956093006 14.5618419565831,46.2334647653283 14.561974584516,46.2339871161069 14.5619261786068,46.234334945614 14.5617871310463,46.234619086809 14.5614888620059,46.2348709467867 14.5614641533672,46.235108110379 14.5615520247018,46.2355196232359 14.5610514098916,46.2354228709094 14.5601205349114,46.2349765368049 14.5591427740762,46.2347040217715 14.5582995184068,46.2347008569538 14.5575257332728,46.2345556177676 14.5567737546132,46.2345527949231 14.556011593754,46.2347032413161 14.5552446758728,46.2348000403065 14.5552791969556,46.2361602938782 14.5548461488815,46.2361586085491 14.5535649496489,46.2367547211799 14.5552115816971,46.2388800884948 14.5559851639229,46.2390411776378 14.5558914594,46.239357157946 14.5555230154269,46.2398143173159 14.5557232933135,46.2404160238163 14.55535381818,46.2409997702042 14.5549404840738,46.2413777569111 14.5543223929863,46.241707528465 14.5540687952643,46.242054554126 14.5538081870778,46.2421782395426 14.5539328693656,46.2421540735474 14.5538790327093,46.2423967898409 14.5540068137116,46.2424863613782 14.5540978677726,46.2425955835336 14.5543563341159,46.2427045585694 14.5549000044461,46.2428236409916 14.5550677037118,46.2429322610069 14.5551444155527,46.2430675185893 14.5554151992734,46.2432575145857 14.5558166011017,46.2433310529602 14.556567104122,46.2435319062597 14.55716222224,46.2437051610558 14.557538635385,46.2436616320733 14.5577717573113,46.243698523116 14.5580303665496,46.2438074004006 14.5583268813024,46.2440245707204 14.5587419100048,46.2440170860559 14.5591168105357,46.2441624886985 14.5595814771506,46.2444341977045 14.5598139561013,46.2445520575175 14.5599820300268,46.2446156853869 14.5600197817269,46.2447597869695 14.5594131442887,46.2448566006913 14.5597283654699,46.2451197254853 14.5598390300704,46.2452273090491 14.560435396134,46.2455563842173 14.5607858631497,46.2457590899616 14.5608496843811,46.2458218661262 14.5608879723482,46.2458666396297 14.5609647747992,46.2459115610257 14.5610670984723,46.2459922995009 14.5611947666526,46.2461147925025 14.5613520705594,46.2462939018954 14.5614923524228,46.2464610693892 14.5615604546994,46.2465238615685 14.5616288180064,46.2465539046617 14.5617186974991,46.2465690947375 14.5618301511667,46.2465784292331 14.5619200888145,46.2466026166388 14.5619926609602,46.2466415829334 14.5620267182431,46.2466804016454 14.5620265292079,46.2467041537012 14.562021657591,46.2467785424208 14.5620257236574,46.2468053698468 14.5620468602806,46.2468382008595 14.5621022677514,46.2468830395249 14.5623112018112,46.2470445307277 14.5624559458965,46.2471730258619 14.5625964228534,46.2473163499702 14.562634299714,46.2473968404417 14.5626547865048,46.2475278290011 14.5626586634496,46.2475784984264 14.5627003239101,46.2477214443542 14.5627337675309,46.2478376369655 14.562762482812,46.2480103142937 14.5627914467304,46.2481353970403 14.5628081868175,46.2481830565749 14.5628205404621,46.248260480273 14.5628285792368,46.2483260110833 14.5628405909746,46.2484301553391 14.5628568344547,46.2485403439377 14.562873373495,46.2486296600141 14.5629024087329,46.2487458357022 14.5629524523288,46.2489275017829 14.5629899403136,46.2490734906897 14.5630402681251,46.2492194386813 14.5630776504249,46.2493624580517 14.5631152340364,46.2494964809149 14.5631699129414,46.2496335381772 14.5632035715174,46.2497229195972 14.5632327729815,46.249818312143 14.5632536162595,46.2499046754914 14.5632914015815,46.2499970417413 14.5633037798584,46.2500714963607 14.5633328410203,46.2501846129406 14.5633410934363,46.2502233326752 14.5633571139877,46.2503781467224 14.5633609453541,46.2504346641427 14.5633902188509,46.2505210596524 14.5634447573906,46.2506760207671 14.5634653531376,46.2507773185679 14.5634819409207,46.2508606965163 14.5634895804234,46.2509767003449 14.5634842856713,46.2511046211412 14.5634705019673,46.2512236022374 14.5634693684569,46.2513664743636 14.5634687074764,46.2514497864455 14.5634769130613,46.2514944441728 14.5634935840808,46.2515510105998 14.5635230116118,46.2516344375515 14.5635434194351,46.2517594873624 14.563559453299,46.2518963968492 14.5635544176702,46.2519916585756 14.5635454804182,46.2520392199459 14.5635492414262,46.2521046443588 14.5635488396193,46.252155297379 14.563578433116,46.2522178513064 14.5635773947618,46.2523487574213 14.5635540048329,46.252485156509 14.5635589758191,46.2524961521374 14.5633936801693,46.25322294912 14.563304344062,46.2533176189378 14.5633038009992,46.2533206759301 14.5632691009774,46.2533622006738 14.5632547715911,46.2533700635202 14.5628877457831,46.2537587818312 14.5625881191432,46.2541689003631 14.5625763981554,46.2542075437091 14.562592949854,46.2542464751678 14.5626138764916,46.254306117043 14.5625965439109,46.2543327725756 14.5625618899267,46.2543683590868 14.5625131268961,46.2544166676991 14.5623539463179,46.2549429375933 14.5641997306419,46.2552899942922 14.5656381046253,46.2557065523547 14.5662451438677,46.2560167428921 14.5664867008914,46.2563073705171 14.5669034020803,46.2564780080966 14.5674778931932,46.2564921492159 14.5682631729306,46.2562896200989 14.5686987397286,46.2562550051366 14.5694117144489,46.2563904019584 14.5696679865345,46.2563940660039 14.5709029658691,46.2566715942451 14.5716556362273,46.2567244413183 14.5721430055222,46.2567503788432 14.5728571207026,46.2567408127541 14.5733198614923,46.2566644445006 14.5742778333487,46.2566203301803 14.5752589894933,46.2565131332773 14.5759431598005,46.2564840026058 14.5764914747556,46.256343608546 14.57699449615,46.25615562878 14.5777711775394,46.2559528225979 14.578227938007,46.2558595875295 14.5789118577068,46.2558619285422 14.5792547287986,46.2557524346935 14.5796439693065,46.2555324441301 14.5801492556706,46.2550282953946 14.5800379045159,46.254680052694 14.5799713548987,46.2544268055012 14.5801790625575,46.2540797346125 14.5803862948,46.2538116574633 14.580275065353,46.2534475801997 14.5802536864347,46.2532577496311 14.5810329545377,46.2526912616746 14.5833464301989,46.2512288446668 14.5838964569319,46.2508355083195 14.5844898585546,46.2507426554146 14.5853561889932,46.2507456206858 14.5866342842784,46.2505603167198 14.5876136501498,46.2506743397831 14.5884523500562,46.2504698851091 14.5888926814732,46.2503625124999 14.5890307910406,46.2501732568538 14.5891485540495,46.2496518390952 14.5894233632796,46.2494788193116 14.5902464966741,46.249149593517 14.5914580598512,46.2486952489553 14.5921648335726,46.2486817572004 14.5931682882583,46.2486219016065 14.5937396424692,46.2484183458765 14.5943341670826,46.2481673639616 14.5948592958467,46.2480583797589 14.596432116905,46.2480795076641 14.5968415106284,46.2482073635491 14.5972267067242,46.2485407201277 14.597466297638,46.2486570887546 14.5978187904645,46.2486217104191 14.5980706412498,46.2484802594216 14.5981643356197,46.248116919484 14.5983021912537,46.2479750672493 14.5985066589476,46.2480706165962 14.5987314296066,46.2485299061147 14.5990035531759,46.2487205231198 14.5992773047749,46.2487056477584 14.5995751174758,46.2484852686161 14.5999650300807,46.248154544671 14.6005823479608,46.2479036100116 14.6010631884388,46.2476047803045 14.6017255558786,46.2474172473887 14.6018572389191,46.2481449546839 14.6021032620905,46.2488256441631 14.602167163358,46.2494583738682 14.6019366721274,46.2498212407913 14.6018645507878,46.2503428306206 14.6018386520408,46.2507854054797 14.6018809849938,46.251244143057 14.6021009949024,46.2523674065096 14.602119605864,46.2529683078867 14.6020905208802,46.2538694614588 14.6022925020163,46.2543129189886 14.6036924546224,46.2562464306546 14.6038040884759,46.2565946511566 14.6037557148279,46.2569898225592 14.6033605333026,46.2580637131592 14.6033123834893,46.2584272147493 14.6041756516827,46.2588726911686 14.6044749055132,46.2581140894567 14.6051880014821,46.257579508565 14.6060808764277,46.2570606581065 14.6066756481186,46.2567621977414 14.6079090588212,46.2564500010828 14.6085718478806,46.2562149247463 14.609006742355,46.2559792453734 14.6100454894987,46.2559521123641 14.6104726696508,46.2568230625667 14.6110827894679,46.257615637664 14.6121056667496,46.2580774322283 14.6139048112765,46.258383670107 14.6148884697965,46.2579124729737 14.6160351819434,46.2569358099303 14.6165616547695,46.2566212335983 14.6172694046115,46.256481178592 14.618136157884,46.2564364813636 14.6191626647462,46.2563606395025 14.6196651043955,46.2562357207478 14.6208727698056,46.2563343828186 14.6222639104379,46.2562913020046 14.6227658002013,46.2562454536108 14.6234713870801,46.2564373514911 14.6239944841038,46.2566287349691 14.6249510157682,46.2567897784072 14.6257723267752,46.2567132938796 14.6269355602089,46.256653574863 14.6274628243235,46.2562125395959 14.6282858333949,46.2558829499721 14.6290385595452,46.255837889282 14.6300185585995,46.2559040455247 14.6308628656706,46.2557801833404 14.6314804476496,46.2554815775782 14.631893763081,46.2550243192987 14.6325543340911,46.2545402328467 14.6331527486465,46.2542533427866 14.6337463401103,46.2541444897127 14.6343659647604,46.2535138762769 14.6352103710052,46.2528007522532 14.6356253000328,46.2526796227863 14.6358901108689,46.2523905749585 14.642922862823,46.2529237997364 14.6466419768677,46.2532056321284 14.6477819766526,46.2518773765401 14.6493723285009,46.2502871416443 14.6498952937316,46.2493219890856 14.6507685737761,46.248186056937 14.6523697829557,46.2472894113522 14.6559771046003,46.2463983474018 14.6580073075553,46.2461669106128 14.6591468233843,46.2452884918596 14.6598339395118,46.2447529518142 14.6626383637407,46.2452430648762 14.6640372611903,46.2448551733862 14.6648031563008,46.2447687983853 14.6657942998588,46.2443624144276 14.6681048909399,46.2446451813835 14.6712059562432,46.2452664953101 14.671370806015,46.2443500581721 14.6710101013817,46.243645704626 14.6702165827104,46.2428926866286 14.6697215180333,46.2417848635951 14.669363082695,46.2407090138251 14.6691626642297,46.2399022786133 14.6691215476557,46.2391276744787 14.6692629278131,46.2383218379313 14.6689979666947,46.2378138048226 14.6671991917884,46.2368849226274 14.6670618407281,46.2366343084788 14.6671751560211,46.2362495549716 14.6672327435799,46.2359032374579 14.6668188502482,46.2354786201258 14.6663204416106,46.2352655505657 14.6662675165976,46.2348418941716 14.6661874169456,46.2343027232793 14.6664114818584,46.2339568020435 14.666636928749,46.2333607599582 14.6669465507532,46.2326300933478 14.6671337751296,46.2321354281502 14.6669509490063,46.231860118662 14.666926451552,46.2313018557793 14.6668724771298,46.2310514840279 14.6666805866698,46.2306466767014 14.6668243004054,46.2298001810356 14.6670204700193,46.229454177042 14.6671336536132,46.2290887668816 14.6677414638905,46.2276415214787 14.6675847328196,46.2278773347193 14.6677353511962,46.2275803221384 14.6677145895908,46.2275190802216 14.6676421925505,46.2275502703244 14.6673507033145,46.227281393275 14.6666227331355,46.2265190016832 14.6658147358178,46.2257455746996 14.6645752404017,46.2217111558989 14.6678522983326,46.2186362684809 14.667852395476,46.218319203739 14.6681232797624,46.2181711749868 14.6686406045702,46.2180593994944 14.6694999094654,46.2175712637827 14.6703458890936,46.2170547416343 14.6714109710322,46.2162653249661 14.6719989777775,46.2156632041004 14.6724775755776,46.2151928472728 14.6728476873924,46.2146562277242 14.6729310578381,46.2143451593084 14.6731782537096,46.2139024787269 14.6735202008675,46.2135450028314 14.6741770335578,46.2128015392749 14.6747098348039,46.2123407745229 14.6754326758689,46.2119371400471 14.6761131854188,46.2117880950516 14.6766563352623,46.2117458156134 14.6767907759221,46.2112301997263 14.6765138412614,46.2111603170715 14.6758151804521,46.2109155904401 14.6751775803993,46.2108664547523 14.6746297819653,46.2110388151357 14.6741492887821,46.2114225317509 14.6738073830695,46.2114475589683 14.6730579826709,46.2110187655687 14.6718986789825,46.2105888815353 14.6710793099967,46.2104443694521 14.67050995774,46.2104269846454 14.6699414226261,46.2102516064643 14.6694633334652,46.210187064024 14.6686884885244,46.2102481622558 14.6676846677404,46.2104983433077 14.6661109711271,46.2107943584355 14.6651994851638,46.2108391985884 14.6651519882884,46.2107388106113 14.6649594227605,46.2106396111934 14.6646125704508,46.2105377086076 14.6635337347754,46.2103544456563 14.6634540524881,46.2103311998695 14.6632848252772,46.2101412462839 14.6630544692528,46.2100173807851 14.6629763493632,46.2098943934886 14.6628701063133,46.2098216821882 14.6625615327495,46.2097068035436 14.6613053649247,46.2105344650207 14.6600335731222,46.2114696912631 14.6586250715128,46.2118518860742 14.6577899698929,46.2117059279737 14.6571017336656,46.2119805451153 14.6560541459461,46.2115253718608 14.6554307492272,46.2113453557441 14.6550612421494,46.2110145137748 14.6551299876522,46.2108366583631 14.6545222149111,46.2101998339594 14.6543823803088,46.2101625324708 14.6536144617941,46.2099835930937 14.652984034285,46.2098960153009 14.6523153280301,46.2099954863635 14.6507716790118,46.2095354311892 14.6498717378835,46.2091402455834 14.6483015281027,46.2087082952734 14.6474758008697,46.2084466366127 14.6469898951563,46.208490426682 14.6464274319513,46.2085920627578 14.6451657957343,46.2092970227029 14.6432698260138,46.210689616372 14.6422546580486,46.2100560338785 14.6408457658397,46.2098614166283 14.6401157354714,46.2100657647229 14.6401016738913,46.2100492763467 14.6392922541852,46.2093476372895 14.6381142062501,46.2090081334821 14.637642362117,46.2085053612501 14.6372708239221,46.2086969558563 14.6364018182703,46.2084945488935 14.6347394270196,46.2088405432494 14.6347847365555,46.2101172435642 14.6335973142337,46.2102296886469 14.6324273907671,46.2097323336536 14.6300807764199,46.2099687150109 14.6285951414631,46.2094944666301 14.6271864836139,46.2103447283781 14.6250278748246,46.2098205604332 14.6230692529527,46.2093456910953 14.6206931583907,46.2085421232467 14.6185195505827,46.2077186486266 14.6166084256036,46.2073787022474 14.6120512237241,46.2065699155094 14.6112575256459,46.2065154192903 14.6087251913047,46.2063424150618 14.6083214677153,46.2063147343347 14.607319033292,46.20624639748 14.6052704173072,46.2053389797921 14.6047866989509,46.2049860430297 14.6043779756885,46.2046858719892 14.6038442606027,46.2042957336899 14.6027743305948,46.2035145837124 14.6024930989923,46.2030984848937 14.6019998897348,46.202009650609 14.6008076528407,46.1999496926147 14.6005327716963,46.1996175404634 14.5999811135557,46.1991801403534 14.5995006674344,46.1988937824393 14.5989957615409,46.1986575418466 14.5984176998723,46.1985215423364 14.5976707671498,46.1984270532645 14.596126600529,46.1984551685291 14.5938941397466,46.1985027734653 14.5937415314903,46.197585042398 14.5945292026207,46.1957848614068 14.5947326058473,46.195451691224 14.5947955486835,46.1950672778654 14.5948060095342,46.1949660948139 14.5827265801245,46.19578143913</coordinates></LinearRing></outerBoundaryIs></Polygon></MultiGeometry>
  </Placemark>
</Folder>
</Document></kml>
