<?xml version="1.0" encoding="utf-8" ?>
<kml xmlns="http://www.opengis.net/kml/2.2">
<Document id="root_doc">
<Schema name="pregledovalniklovisca" id="pregledovalniklovisca">
	<SimpleField name="lov" type="string"></SimpleField>
	<SimpleField name="lov_naziv" type="string"></SimpleField>
	<SimpleField name="luo" type="string"></SimpleField>
	<SimpleField name="luo_naziv" type="string"></SimpleField>
	<SimpleField name="povrsina" type="float"></SimpleField>
</Schema>
<Folder><name>pregledovalniklovisca</name>
  <Placemark id="pregledovalniklovisca.1">
	<Style><LineStyle><color>ff0000ff</color></LineStyle><PolyStyle><fill>0</fill></PolyStyle></Style>
	<ExtendedData><SchemaData schemaUrl="#pregledovalniklovisca">
		<SimpleData name="lov">1416</SimpleData>
		<SimpleData name="lov_naziv">MOTNIK ŠPITALIČ</SimpleData>
		<SimpleData name="luo">14</SimpleData>
		<SimpleData name="luo_naziv">Kamniško Savinjsko</SimpleData>
		<SimpleData name="povrsina">4028.9</SimpleData>
	</SchemaData></ExtendedData>
      <MultiGeometry><Polygon><outerBoundaryIs><LinearRing><coordinates>14.8949075841285,46.2076316393703 14.8945200917719,46.2077736200565 14.8943147435069,46.2079474385033 14.8939951392087,46.2082319076468 14.8936992917535,46.2084261549039 14.8933744376365,46.2085407481019 14.8926277661925,46.2085153966317 14.8916484158689,46.2083879703907 14.8899404279058,46.2081649149433 14.889234498626,46.2080535661851 14.8880561463906,46.2077806994961 14.8871850231164,46.2076561300919 14.8870034009128,46.2073712756218 14.8866397392309,46.2070071540685 14.8860937490493,46.2067061009641 14.8854563043398,46.2065156206586 14.8845683691782,46.2063249741225 14.8835889094846,46.2062765651085 14.8819263017881,46.2061483577561 14.8811744245106,46.2062109198709 14.8798075880081,46.2062411616061 14.8791012621211,46.206272087404 14.8783274355819,46.2060023365906 14.8777816166697,46.20559057688 14.8773502641266,46.2049890039531 14.8769419041511,46.2043084575998 14.876465383108,46.2035170790259 14.8747682102327,46.2027338149387 14.874334011443,46.2025523123144 14.8738253779389,46.202396548231 14.8734778950103,46.2023185172829 14.8718893490094,46.2019977930098 14.8700397455548,46.2018319540516 14.8690431525368,46.2020528708015 14.8682907501795,46.2023524271458 14.8676982541332,46.2024308294968 14.8652377653502,46.2026020538318 14.864394667737,46.2027275592803 14.8639620264514,46.2026638840624 14.8633473932042,46.2025209033274 14.8624364380814,46.2024723949149 14.8612744801735,46.2025817479131 14.8595880936806,46.202848619166 14.8580388135879,46.2030048788055 14.8574463777503,46.2030516474844 14.857082365857,46.2029088553356 14.8561951233873,46.2025125802317 14.8555576233925,46.2024011094566 14.8551028174664,46.2021476191058 14.8548773543238,46.2013093221489 14.8547869699912,46.2010404572148 14.8543328474426,46.2005339597426 14.8534914834153,46.2000585454385 14.8526956136267,46.1995832735026 14.8510576231326,46.1988855676154 14.8491921940252,46.1981242871272 14.8476450713643,46.1975373191875 14.8465746268941,46.1975201422846 14.8458447033394,46.1979145031705 14.8451380215613,46.198103301818 14.8444095079739,46.1979917354328 14.8434534804341,46.1978323471683 14.8414730368301,46.1974661258547 14.8404932701499,46.1975912655512 14.8390801875233,46.1979056314573 14.8373257413121,46.1981088274632 14.8356847497751,46.1984544074811 14.830421680267,46.1989767545421 14.8293520041984,46.1987459108508 14.8279850483791,46.1988230387545 14.8265484616456,46.1993269680432 14.8233560998136,46.2004053584956 14.8216703161816,46.2004897454771 14.8202117514031,46.2007089752218 14.8187541889408,46.2006592577919 14.8157931704623,46.2006468773575 14.8149276637188,46.2006297341759 14.8144261722795,46.2007554236742 14.8139244955269,46.2008969459665 14.8139011565375,46.2010549910346 14.8132863506979,46.2010065726587 14.8129441767456,46.2011483510344 14.8128520110675,46.2014644562664 14.8125772064097,46.2018750939576 14.8120515766043,46.2023486600512 14.8115725772314,46.2025217898793 14.8110260452817,46.2024734718708 14.810206123266,46.2024563682941 14.8095677345073,46.2026292249977 14.8087236130365,46.2029757423737 14.8079483405462,46.2031958667909 14.8077397944911,46.2041758647004 14.8077687697559,46.2049708268875 14.8079944675016,46.2055403767348 14.8083634548463,46.2060468252246 14.8085374917097,46.2065690513548 14.8085090410025,46.2081184318933 14.8084817207024,46.209379359982 14.8084549703683,46.2104386589495 14.8083852428038,46.2108496293397 14.8082004010473,46.2115292462724 14.8079715718628,46.2118134471056 14.8075369923534,46.2123028898255 14.8074667945565,46.2128086903759 14.8080553168682,46.2138531878684 14.8077590380256,46.2138526900511 14.8073943651154,46.2139154173101 14.8073025142527,46.214089180491 14.8074153881079,46.2143897907827 14.8073689371904,46.2146268815388 14.8069124611356,46.2148474452379 14.8059543947268,46.2151779136904 14.8056119884602,46.2153552087453 14.804757365421,46.2154210522782 14.8039938421486,46.2154909144864 14.8025922074399,46.2156071773097 14.8014869539619,46.2156606869073 14.8013152283843,46.2158738946485 14.8011325965465,46.2159842439598 14.8003798365271,46.2162280186466 14.7993085266721,46.2163527351203 14.7985909103189,46.2163396866681 14.7980664135366,46.216433593038 14.7961297664633,46.2164619164132 14.7949900073723,46.2165864703338 14.7941467734787,46.2166482961472 14.7932809636117,46.2166467339023 14.7929151755442,46.2169623271399 14.7925253208887,46.2176098759885 14.7913370309303,46.2184932277867 14.7918590893987,46.218984262404 14.7923597952539,46.2191590907005 14.7924042187292,46.2194437559672 14.7928597693592,46.2194604175054 14.7937921572351,46.2199363506761 14.7947473039379,46.2203964818177 14.7956575553475,46.2206985321624 14.7957097950653,46.2248569050016 14.7956567789956,46.2253800027006 14.7952279031151,46.2257414662328 14.7949984058741,46.2261363958393 14.7951571509646,46.2263263432246 14.7954059144763,46.2268169609332 14.7956545652222,46.2273391583338 14.7960633329871,46.227719303803 14.7968368268428,46.2280526807971 14.7975661633539,46.2280223040736 14.7979984039998,46.228228566608 14.7982699604648,46.2287349634344 14.7984742421104,46.2289566569054 14.79888268036,46.2294001324787 14.7990179963294,46.2297639506596 14.7992902610314,46.2300806834541 14.7997676846328,46.2303818498886 14.8002909202651,46.2306357686449 14.800403674965,46.2309679652358 14.8006077294616,46.2312212348646 14.8011302347295,46.2316806463471 14.8018586495858,46.2319190793728 14.8028146375671,46.2322210613747 14.8033371145033,46.2326962078752 14.8036998133595,46.2331870029042 14.8057702394951,46.2341390319624 14.8068634795435,46.2343622169935 14.8077736422687,46.2347747464521 14.8081140905502,46.2351547334308 14.8087738486896,46.235472003056 14.8091600571228,46.2358204829715 14.8092950181652,46.2363108796014 14.809020396208,46.2366108401165 14.8078990990651,46.237501580863 14.806939645233,46.2381168175739 14.8067316501286,46.2389703969682 14.806180992664,46.2400290729906 14.8056750645494,46.2413408252906 14.8052849414117,46.2421309310808 14.8045540182146,46.2425566940242 14.8036411564099,46.24287147361 14.8034799067978,46.2433614573591 14.8036586533305,46.2444371170626 14.8038160881251,46.2450541494483 14.8040688022769,46.2457188503932 14.8040856580441,46.246193214691 14.8036378382987,46.2467091588947 14.8057671158895,46.2511556394597 14.8049358639424,46.2523743411031 14.8048527294606,46.2555186463275 14.8054811576133,46.2556261545989 14.8057286876172,46.2556846076747 14.8060889366873,46.2558521180699 14.8071904453965,46.2558378758832 14.807639241471,46.2558335034183 14.808285790553,46.2557683696845 14.8084551019251,46.2557551575987 14.8094489297738,46.2557475511058 14.8097116678372,46.2557229763595 14.8107169801516,46.2556569858573 14.8118633206082,46.2555788924445 14.8123548199454,46.2554888280127 14.8126889500627,46.255409390421 14.8138962056459,46.2551891299995 14.8163413338247,46.2555536933512 14.8163621978588,46.2555592151819 14.8171024310385,46.2557518630306 14.8186282330184,46.2558457956104 14.8219548242925,46.255914904757 14.8226789224063,46.2559298858181 14.8239940336969,46.25580019827 14.8247629354131,46.2559196930677 14.825093301001,46.2559587971033 14.8253738054415,46.2560150987425 14.8257905473713,46.2561389067218 14.8258244988802,46.2561488554137 14.8264991005803,46.2562722435894 14.8280390617924,46.2563691311138 14.8293187546627,46.2561579040235 14.8302867503174,46.2559481797453 14.8316791553729,46.255646671197 14.8317025178511,46.2556415771611 14.8328001605169,46.2551033530968 14.8341477625414,46.2545934627394 14.8341642933324,46.254617059495 14.836184525039,46.2537509281435 14.8371718559766,46.2533393649896 14.8381513558583,46.2528953921113 14.8394465896771,46.2520287141028 14.8395170226326,46.2519815774403 14.8400738572359,46.2517864876123 14.8404641780083,46.251674297408 14.8411058650187,46.2513312262094 14.8414965498997,46.2511358084303 14.8415761540161,46.2511005595743 14.8417443221854,46.2510261153085 14.8421101200701,46.2509146053045 14.8424051781411,46.250686572239 14.8482533541157,46.2505755401324 14.8493070148551,46.2506102235647 14.8506960741545,46.2505453763296 14.8515822239769,46.2505128803879 14.8528462110705,46.2509976664851 14.8533432468478,46.2507848903868 14.8536742687162,46.2505732493584 14.8543274363452,46.250413572509 14.8547740768749,46.2502249285509 14.8553617726289,46.2498072114394 14.8557669528088,46.2496987666008 14.8563705073636,46.2495104042 14.8568747217033,46.2494192645485 14.8574212558258,46.2489613575166 14.858141749691,46.2482800820847 14.8590203910114,46.2471633501047 14.8598726381579,46.2466197939763 14.8604609543273,46.2459269150627 14.8616406236008,46.2449660920873 14.8616438682999,46.244965016343 14.8626880140679,46.2446155620095 14.8639609670547,46.2441335710558 14.8645714106275,46.2439024364012 14.866816087264,46.2428460057417 14.8668214102291,46.2428434027365 14.8668342627994,46.2428372995696 14.8672224542035,46.2426450297153 14.8678196655078,46.2423496218418 14.8699140446988,46.2417374210253 14.8706100915545,46.2416413103508 14.8712786363962,46.2415491232728 14.8713108054202,46.2415446608549 14.8713109350916,46.2415446610008 14.871311064763,46.2415446611468 14.8719145456945,46.2413266153529 14.8722525139409,46.2412513264958 14.8725665030495,46.2411713313367 14.8732360228732,46.2410460239616 14.8738625193238,46.2409641219905 14.8741549185859,46.2409106405731 14.8745597326971,46.2408040179971 14.8745615505327,46.2408029403198 14.8750088825693,46.2405303632609 14.8751363023009,46.2408932721927 14.8756735371503,46.2407734742657 14.8759213874568,46.2407508004933 14.8761940430847,46.2407109682724 14.876516257848,46.24065967244 14.876772316297,46.2406771334872 14.8769850000266,46.2406077236971 14.8771423566511,46.2405774821441 14.8775326145598,46.2405403822498 14.8778842852109,46.24053706953 14.8786145797074,46.240656161251 14.8788210513093,46.2406391055292 14.8789781941688,46.2405877176515 14.8792344881994,46.2404389039827 14.8795487676549,46.2402787243135 14.8797968143645,46.240164360213 14.8800118869359,46.240067145748 14.8802600565994,46.2398953782129 14.8806241239008,46.2396148642867 14.881170233471,46.2391568425229 14.882016734971,46.2388956288188 14.8826497692764,46.238648855475 14.8827853050393,46.2375967639698 14.8830453291879,46.2369624528244 14.8842336964446,46.2362724019869 14.8851158198121,46.2355023155622 14.8859212369636,46.2347587776469 14.8860373576292,46.2340943547808 14.8917422059904,46.2343911407825 14.8942690543266,46.2346588351285 14.8951879375257,46.2347192431647 14.8953416383229,46.2343472567178 14.8952278990227,46.2336827937754 14.8944639191618,46.2325658890243 14.8941974836564,46.2315556983307 14.8939312897972,46.2304924231067 14.8930899621659,46.2298539121996 14.8938185704331,46.2291102460755 14.8950067853876,46.2283402762833 14.8966541070838,46.2277301418547 14.8985298021528,46.2279706998901 14.9007110387227,46.2286632465033 14.9025859728501,46.2294352067551 14.9039272712475,46.2286121906667 14.905191165544,46.2283737380784 14.9071231990985,46.2285285476666 14.9080238582016,46.2288134999592 14.9090889107483,46.228785830438 14.9113826506075,46.2288727456511 14.9129393487594,46.228816988871 14.9142513090175,46.227993559319 14.9157668838723,46.2279376432083 14.9161777564469,46.2270567511114 14.9152367763388,46.2262602473759 14.9128208351046,46.22571850345 14.9120430035742,46.2254905462139 14.9101640089781,46.2241889769112 14.9126258554659,46.2214754121026 14.9126479282687,46.221452305923 14.9115994632034,46.2205222593857 14.9122693413148,46.2201213160346 14.9116311901219,46.2195717195228 14.9120436252834,46.2195003291104 14.9129550133707,46.2192345266902 14.9140663354331,46.2185908909331 14.9147661734454,46.2185700912274 14.91529857745,46.2185281996062 14.9156639199516,46.2183910809377 14.9163956085611,46.2184768227703 14.9169041216499,46.2183749841857 14.9183741165444,46.2181081035954 14.9186557019346,46.2178930888815 14.9189946872394,46.2177781641296 14.9224862153793,46.2178217023814 14.9247024863819,46.2175596526188 14.9257297153039,46.2175388210093 14.9268184340573,46.2174780715326 14.9282916947647,46.2169371876268 14.9283697857313,46.2167886911326 14.9276247566746,46.2163038071705 14.9268426205026,46.2157600522093 14.9248565557742,46.2152156868177 14.9216671495901,46.213918293954 14.9205241975727,46.2131653302677 14.9193206586415,46.2128302372844 14.9184186860794,46.2119937472309 14.9172756300839,46.2113661732411 14.916072402582,46.2107802911194 14.9136052377033,46.2099428729571 14.9105369183565,46.2087288448449 14.9085644142121,46.2078375397656 14.9084108282118,46.2077710166335 14.9080317223325,46.2074895461556 14.9075513688282,46.2071552682993 14.9070961838322,46.2069615469594 14.906134814673,46.206697230243 14.9049455549204,46.2065557095166 14.9025670486022,46.2062022719181 14.9019593508754,46.2063072009645 14.8999581059396,46.2071667804791 14.8987428064366,46.2073766976286 14.8979580347871,46.2074287241379 14.8972499051689,46.2071732858765 14.8949075841285,46.2076316393703</coordinates></LinearRing></outerBoundaryIs></Polygon></MultiGeometry>
  </Placemark>
</Folder>
</Document></kml>
