<?xml version="1.0" encoding="utf-8" ?>
<kml xmlns="http://www.opengis.net/kml/2.2">
<Document id="root_doc">
<Schema name="pregledovalniklovisca" id="pregledovalniklovisca">
	<SimpleField name="lov" type="string"></SimpleField>
	<SimpleField name="lov_naziv" type="string"></SimpleField>
	<SimpleField name="luo" type="string"></SimpleField>
	<SimpleField name="luo_naziv" type="string"></SimpleField>
	<SimpleField name="povrsina" type="float"></SimpleField>
</Schema>
<Folder><name>pregledovalniklovisca</name>
  <Placemark id="pregledovalniklovisca.1">
	<Style><LineStyle><color>ff0000ff</color></LineStyle><PolyStyle><fill>0</fill></PolyStyle></Style>
	<ExtendedData><SchemaData schemaUrl="#pregledovalniklovisca">
		<SimpleData name="lov">1406</SimpleData>
		<SimpleData name="lov_naziv">SMREKOVEC ŠOŠTANJ</SimpleData>
		<SimpleData name="luo">14</SimpleData>
		<SimpleData name="luo_naziv">Kamniško Savinjsko</SimpleData>
		<SimpleData name="povrsina">5846.04</SimpleData>
	</SchemaData></ExtendedData>
      <MultiGeometry><Polygon><outerBoundaryIs><LinearRing><coordinates>15.0744813187166,46.3696903586685 15.073415147453,46.3698924023088 15.0728458422618,46.3700772960705 15.0725183719537,46.3698341337423 15.0726390337555,46.3695739521575 15.0739349212804,46.3690278997898 15.0735832715416,46.3688770659462 15.0731226778722,46.3688018760479 15.0728678052569,46.3686090517676 15.0698373456236,46.3679731408983 15.0691820515987,46.3673693864213 15.0689150702267,46.3671430015601 15.0685510090175,46.3668159971523 15.0681866494521,46.3662457111017 15.0681467572318,46.3658336692713 15.06814675712,46.3658335793007 15.0680294196976,46.3655367459773 15.0680646822491,46.3656752798169 15.0677298149674,46.3650870704756 15.0674691345196,46.3644754239699 15.0673906593697,46.3640706021604 15.0667649225499,46.3634526006298 15.0673377131616,46.3632878883083 15.067440796278,46.3632028052484 15.0676102205131,46.3630628907319 15.0676103503609,46.3630628006844 15.0675395491112,46.3628732742458 15.0680257941681,46.3627205756474 15.0683992516197,46.3624785116065 15.0690404699398,46.3618656955934 15.0691732619704,46.3615384817848 15.0693423970903,46.3611775967165 15.0694266809474,46.3608251302004 15.0691408454063,46.3606685743494 15.0688935386263,46.3603538260028 15.0685292781939,46.3600391472513 15.0682821009402,46.3598232753314 15.0679696308185,46.3594545813753 15.0678650022556,46.3589148189236 15.0678127332699,46.3586809259253 15.0676875677774,46.35855540088 15.0674093952178,46.3582762959026 15.0664167566514,46.3573365920413 15.0657748601988,46.3569313746994 15.0649461760209,46.3563586443471 15.0642010331804,46.3556506349184 15.0640142879715,46.3550775354803 15.0640504706911,46.3543498310991 15.064105960019,46.354021316453 15.0645432287557,46.3541563866364 15.0648855468343,46.3540988814833 15.0653456257446,46.3538553383292 15.062822220748,46.3526981977186 15.0622776290426,46.3525513932364 15.061175727777,46.3524968358931 15.0606447290279,46.352533916818 15.0601273546896,46.3527915966815 15.0595301456129,46.3528838593637 15.0588793749113,46.3527095628434 15.0582953983332,46.3527833682367 15.0575385441126,46.3526734472846 15.0563042111792,46.3529682664306 15.0550299384974,46.353097545083 15.0538614740202,46.3528774928606 15.0520165501365,46.3531725516798 15.0505563499933,46.3533294859526 15.0488834089717,46.3531647569318 15.0482725911768,46.3530271810552 15.0473695162086,46.3526965559041 15.0464664444268,46.3523568365429 15.0461344101258,46.3522925518367 15.0453110697003,46.3520355643402 15.0446738120874,46.3519530418652 15.0441161605468,46.3518153330048 15.0435312968228,46.3516030459219 15.0431731258748,46.3513376776249 15.0423636936603,46.3517241353953 15.0415276252818,46.3519542277019 15.0406648181748,46.3520556650462 15.0399878255685,46.3521754750813 15.0396555207253,46.3517251066162 15.0395886238244,46.3512103163881 15.0392639117785,46.3508266125142 15.0381015509928,46.3508154894407 15.0378225566714,46.3505766193558 15.0373569055221,46.3494551950802 15.0366662848193,46.3491704807078 15.0365661014594,46.3491548578468 15.0364410693099,46.3496760992872 15.0358572691534,46.3500164638544 15.0355572724068,46.3500272640689 15.0350112388721,46.3503152494804 15.0350037737691,46.3504260959178 15.0349420054427,46.3507521693477 15.0348626040493,46.3511383486579 15.034770514308,46.3513922745439 15.0347568428869,46.3515520669923 15.034705217748,46.3516905478608 15.0348369713726,46.3521036540728 15.0348275469318,46.3524037098048 15.0349026795764,46.3526565050381 15.0351696106305,46.352930924361 15.0349839855641,46.3532159190139 15.0345726651781,46.3535102488071 15.0341276552307,46.3537540235479 15.0340746609658,46.3537861589444 15.0334839445506,46.3539610568253 15.033059395633,46.3543197141603 15.0318382543822,46.3547980757265 15.0309887319165,46.355064892667 15.0297210424529,46.3553134586845 15.0286190675321,46.3551620489735 15.0283336555045,46.355290868299 15.0279820285884,46.3555299173877 15.0276434300698,46.3555852418249 15.0273782287946,46.3561230611923 15.0272786174369,46.356493764729 15.0256802771903,46.3566920706075 15.0250825274484,46.3566742091214 15.0244328527347,46.3567733176595 15.0238537896901,46.3569971972948 15.0231723648652,46.3570075041082 15.0223926681253,46.3569356828085 15.0217959643239,46.3569378674268 15.0214438178193,46.3562806972839 15.0211982613822,46.3563726032629 15.0202955446871,46.3567175351647 15.0203222683977,46.3569474058128 15.0204619217779,46.3575448769489 15.020276033918,46.3577196333291 15.0199908597011,46.3582344963523 15.0199178910106,46.3584045538528 15.0193938214609,46.3595353965239 15.0190289563046,46.3600134724347 15.0188364026585,46.3601146314362 15.0184978639258,46.360073300155 15.0181659813298,46.3601167192595 15.0174267155386,46.361031027006 15.0170909428379,46.3615398621583 15.0169118025399,46.3617604970065 15.0167258287475,46.3617375818247 15.0161824502093,46.3616243868695 15.0154806116972,46.3613455747822 15.0150387183175,46.3611746893626 15.0144207046095,46.3608694082974 15.0137463129875,46.3606231514728 15.0128100536822,46.3608501663882 15.0119860628094,46.3610577282382 15.011723975779,46.3612004489896 15.0108239617141,46.3614579439756 15.0098480120062,46.3615315382709 15.0093766625997,46.3615224008774 15.0088389180728,46.3615867727749 15.0082413775265,46.3615501093444 15.0077765998585,46.3611456335007 15.0073915307875,46.3610399434281 15.0068902628566,46.361796358635 15.0066947221125,46.362147705906 15.0069072639669,46.3626441516538 15.0069935783148,46.3628187795492 15.0069803354433,46.3629199074301 15.0066948602324,46.3632784577422 15.0065488176832,46.3635450493707 15.0064891068074,46.3641426380911 15.0064693095106,46.3648780595387 15.0062901440326,46.3653469066902 15.0062702910501,46.3656227578335 15.0058719616426,46.3657468485209 15.0053342051059,46.366155971441 15.0047035317257,46.3667719381737 15.0043848707434,46.3670201798344 15.0047984625261,46.3673928216013 15.0043566087647,46.3679146689352 15.0038497291511,46.3679866636218 15.0029269431837,46.3680856586488 15.0023809439234,46.3682746995939 15.0021859956137,46.368490632968 15.0019260649904,46.3688595171532 15.0023002967977,46.3698240850628 15.0024065053164,46.3702562116259 15.0022937044412,46.3706928411892 15.0021602202569,46.3707489854308 15.0014063858021,46.3720355763328 15.0022679311617,46.3729190733178 15.0024451141245,46.3733019842956 15.002883579476,46.3739098150124 15.0031123660246,46.3741485907959 15.0035419837535,46.374405174231 15.0042041360198,46.3744634527031 15.0044437058712,46.3745339805329 15.0048309523963,46.3747363085255 15.004972523053,46.3749041874392 15.005174803328,46.3751210973702 15.0051748257978,46.3753589793947 15.0050332957671,46.3756528293799 15.0049735243762,46.3759111373014 15.0050940512858,46.3761986777013 15.005259800032,46.3763173412779 15.0049525079001,46.3763735865559 15.0045986843453,46.3764995600177 15.0043151889441,46.3766839205955 15.0041540203246,46.3769543778382 15.0039012035707,46.3771992863884 15.0032988209295,46.3772390723028 15.0037569853309,46.3782693100106 15.0043010276048,46.3784377155436 15.004658935256,46.3787943444081 15.0045876403355,46.3796661609104 15.004330188089,46.3806073516325 15.0034714358991,46.3811027580582 15.0026268394352,46.3816178611873 15.002355033103,46.3823113589709 15.0018541415274,46.3827869516882 15.0011956688454,46.3830742359153 15.0003082481818,46.3836092956052 14.9991630135071,46.3834210749268 14.9983470902779,46.3833516988813 14.9973879100212,46.383104082502 14.9968867739403,46.3824204749343 14.9937134159904,46.3818946474708 14.9921781074519,46.381656850953 14.991750496893,46.3818598841119 14.9912352529406,46.3821099635012 14.9907377956503,46.3824740344912 14.9904228677434,46.3827934934129 14.9901728581687,46.3828411565085 14.9894293610563,46.3828084309495 14.9888982924666,46.3827839086815 14.9880720866278,46.382873705909 14.9873876035775,46.3828818197723 14.9865496912229,46.382979792013 14.9858061139341,46.3832575306867 14.9856389085904,46.3833206690194 14.9851104822756,46.3836073370369 14.9846613168496,46.3835678706482 14.9844252788612,46.3833717932896 14.9841065413586,46.3836822372106 14.9835046932458,46.3838210662408 14.9831033378872,46.3838863261349 14.9827846258423,46.3840824140091 14.9828199746989,46.3845400086049 14.9831504163572,46.3851038120302 14.9834925757917,46.3856349569018 14.9831856108918,46.3860761267338 14.9827135148217,46.3865417427957 14.9823003342234,46.3869257629208 14.9820211042927,46.3871894223775 14.9812614220306,46.3883228363732 14.9790069641166,46.3888208801966 14.9779574166694,46.3888846515938 14.9776027854948,46.3887283942578 14.9772373059758,46.3887134769961 14.9764202828221,46.3889662179506 14.9754526711419,46.3892561685314 14.9749817877996,46.3894247607738 14.9742500500266,46.389375654517 14.9739196953471,46.3890405303006 14.9738371544943,46.3887219266369 14.9731879416628,46.3887708100805 14.9725505677043,46.3888033180867 14.9720312088202,46.3886642781099 14.971500121054,46.3885824539588 14.970780177148,46.3886313060858 14.9701427587983,46.3887455836614 14.9694343993364,46.3889986629053 14.9685845013196,46.3891455340155 14.9680650219203,46.3894477802664 14.9676634956988,46.3899215409065 14.9670495774478,46.3902726995895 14.9666245517337,46.3906647567396 14.9660222529728,46.3913346778758 14.9657504214332,46.3918737885026 14.9656087396266,46.3920044727497 14.9652075056247,46.3919554075705 14.9650070095707,46.3915386042044 14.964959878636,46.3912281024249 14.9646886431071,46.3908276513386 14.9638507082958,46.3905169921197 14.9623754433955,46.3903449429673 14.9617262810612,46.3902794091325 14.960935361723,46.3904425277063 14.9590580858397,46.3912998274596 14.9565790587993,46.3917320298746 14.9563931781073,46.391822649158 14.9560484329043,46.3922003922124 14.9551643844228,46.392344091389 14.9544103413595,46.3925102382177 14.9539943491153,46.392546059721 14.9537701110156,46.3926269425056 14.9535458722537,46.3927078248492 14.9533982293477,46.3927779415624 14.9531102270712,46.392914668562 14.9527210556322,46.3930563913853 14.9525056577269,46.3931348461418 14.9520636219215,46.3932066378899 14.9514264775487,46.3934942737613 14.9510820533216,46.3934626373741 14.9507506204476,46.3934445010783 14.9504188210647,46.3938313196225 14.9501261949346,46.3940336253636 14.9498009058136,46.3944023609025 14.9494886600071,46.3945821638272 14.9491244615743,46.3948340089249 14.9488381252482,46.3952522426031 14.9486365022597,46.3954635821776 14.948402326249,46.3957198917997 14.9481714160049,46.3959582083743 14.9479403737124,46.3961965244127 14.9473324882829,46.3969657609676 14.9469124894542,46.3973387630135 14.9465092002301,46.3976400650953 14.9463399265389,46.3978649111822 14.9460276465939,46.3981796597569 14.9458293331661,46.3983100227054 14.9456310187938,46.3984403853065 14.9450652367163,46.398665130253 14.944791985331,46.3989529031102 14.9447039170373,46.3992385157363 14.9446159778686,46.3995241283427 14.9440308174694,46.3997352732545 14.9432112842456,46.4002207978531 14.9429965789892,46.4004681088495 14.942189650398,46.4013135127545 14.9415790764325,46.4017920233249 14.9410575372669,46.4024285639841 14.9408106256817,46.4029763542287 14.9405034149792,46.403237647842 14.9401255448855,46.4032946715961 14.9393013090946,46.4034848836686 14.9387423636761,46.4034576845894 14.9383718241904,46.4033540199359 14.9379299908773,46.4032728079247 14.9372666687293,46.4034253950989 14.9371718715902,46.4034142767407 14.9368052971502,46.4033711590442 14.9365549291553,46.4033822666797 14.9363046911139,46.4033933738395 14.9361064905671,46.4033910140265 14.9359081599831,46.4033886537971 14.9356579270713,46.4033952610412 14.9354076940997,46.4034018677377 14.935082578854,46.4033837796065 14.9347641503311,46.4033206193615 14.9341597873704,46.4032123089355 14.9337959073148,46.4030951377739 14.9335100882919,46.4029555183446 14.9332110859491,46.402856377033 14.9324961805706,46.4027524916986 14.9322302881609,46.4026989821875 14.931846337918,46.4026216496618 14.9304880827185,46.4023014383613 14.9301035679221,46.4019574282959 14.9294355449478,46.4019184208912 14.9289998929852,46.4020037128085 14.9285577783141,46.4020574195271 14.9278818423753,46.4020030132187 14.9274787479912,46.4020522418614 14.9262887683292,46.4023483823465 14.9247668024135,46.4021338922365 14.9234446367829,46.40208407108 14.921095892794,46.4014615910713 14.9203527436097,46.4010443344098 14.9198304483872,46.400701543235 14.9193686970482,46.4003144370892 14.9186185195212,46.4000953682954 14.9176269924089,46.3999558345155 14.917014637282,46.3999335290668 14.9163994692145,46.3997097751728 14.9152204014666,46.3990842445507 14.9148766627692,46.3988534857159 14.9139958326988,46.3983841722105 14.9130608377543,46.3980487762769 14.9129317317972,46.3975420561002 14.912401091935,46.3971004371816 14.9117758550515,46.3967813721759 14.9103721867533,46.3960041079587 14.9095469359424,46.3953171655899 14.908379655416,46.3944338086189 14.907707257007,46.394122780742 14.9071170535547,46.3941141156161 14.9061493681406,46.3938764339901 14.905429548011,46.3937042677882 14.9048252614525,46.3934968349606 14.9019960843144,46.3913674589037 14.9018569669525,46.3911439434384 14.901564023601,46.3908522779693 14.9012098579838,46.3912003374395 14.9004737909691,46.3919825304224 14.8997898053299,46.3927151906093 14.8993077543889,46.3932276874987 14.8985861557805,46.393610682921 14.8981222312901,46.3941548603234 14.8977509910459,46.3945709111503 14.8972405773665,46.3952111314851 14.8968222548196,46.3961076676888 14.8966349652629,46.3972285269676 14.8968090620603,46.3978636036336 14.8965475340123,46.3986282036156 14.8964453656644,46.3995664097246 14.896161574198,46.4002002618499 14.89581791657,46.4008536721637 14.8966231377523,46.403491336245 14.896791470798,46.403882858072 14.896993667861,46.404318585428 14.8972383550811,46.4048459400902 14.8974133379438,46.4052330583509 14.8976398470646,46.4058180665521 14.8977563465553,46.4061150718643 14.8981570992235,46.4074244931972 14.8985645042778,46.4087340086938 14.8989523381831,46.410016424186 14.8990880546992,46.4105518652913 14.8992938858826,46.4113685240311 14.8993204864828,46.4114742621355 14.8996370525877,46.4126981314737 14.8998695436869,46.4135981243976 14.8999726855035,46.4141020461246 14.8983320448702,46.4150497817784 14.8972837346793,46.4156607302154 14.8967009794273,46.4159944434164 14.8968295382759,46.4168034785228 14.8972462638228,46.4175342289646 14.8975700937421,46.4177906636063 14.8978315085699,46.4181034526668 14.898338854986,46.4184551470165 14.8980780998105,46.4186236983344 14.8967774345299,46.4195977147016 14.8953177478074,46.4200270734145 14.8958118345439,46.4202377840355 14.8961672451511,46.4205162039241 14.8968649561355,46.421063131847 14.8969111724614,46.4211151760547 14.8976979355411,46.4219831912466 14.8976058942934,46.4225024144069 14.8981512284305,46.4225268333109 14.8993312323595,46.4228120025926 14.8997376115927,46.4229133956207 14.9011009467142,46.4234137349131 14.9011500818764,46.4234377993166 14.9018652699234,46.4239366677071 14.9022131686869,46.4243721493418 14.9026287280488,46.4250267638026 14.9031192938575,46.4257975011751 14.9031798611189,46.4259065957604 14.9032001084394,46.4259345934805 14.9032548671368,46.4260176818602 14.9034742762886,46.4263600220577 14.9035478451817,46.4264751553801 14.9036329624325,46.4266082923249 14.9046440380746,46.4267621782596 14.9062750898742,46.426464377286 14.9065896620834,46.4271690074248 14.9072532945647,46.4282044688187 14.9082082800734,46.4286210791116 14.9082715247835,46.4286932855299 14.9095333668374,46.4297226438548 14.9097384101904,46.4298932983531 14.9098513068634,46.4300787248746 14.9105595864558,46.4312433981195 14.9106656301072,46.4315649424759 14.9116845653473,46.4328832488562 14.912622733917,46.4327399281245 14.9128185015416,46.4327020203795 14.9133079793045,46.4327336119062 14.9139460519821,46.4329355357303 14.9146091967572,46.4331674345855 14.9153067867084,46.4330076274708 14.9163946624809,46.4334134710252 14.9167291650869,46.4334472737207 14.9188214082547,46.4336595766765 14.9228807138728,46.4336559980732 14.9238188370102,46.4335337283437 14.9264620133617,46.4323355338565 14.9291784450486,46.4326571801593 14.929653456321,46.4327134344119 14.9301311584157,46.4328031570271 14.9313975088511,46.4328208379251 14.9320466178384,46.4327828084215 14.9333552376263,46.432604448983 14.9341513462518,46.4324887593577 14.9341928597387,46.4324854543764 14.9344872592889,46.4324358702004 14.9346310673145,46.4324180485341 14.9351181794871,46.4324777958225 14.9357788637192,46.4325497845295 14.9361089404587,46.4325907256314 14.9378412191208,46.4331043270199 14.9378948127314,46.4331201907842 14.9383499690981,46.4332552114939 14.9384308255576,46.4333277705433 14.9397495596852,46.4343552957401 14.940600465718,46.4345974890856 14.9439262186943,46.4340418064839 14.9440828614611,46.4341991500031 14.9440679521435,46.4347809759512 14.9442810716048,46.4351957497109 14.9443631538393,46.4352252097177 14.944429822883,46.4354396395948 14.9445155314227,46.4354866453169 14.9445514414478,46.4356209872821 14.9445108261629,46.4357632994206 14.9445645544838,46.4359074566998 14.9446081601191,46.436024618183 14.9449761624922,46.436036221956 14.9450565099741,46.4361101255834 14.9456203524139,46.4363934392587 14.9456885934461,46.4364728248226 14.946140902784,46.4369037229054 14.9462037049369,46.4372217947647 14.9463961499033,46.437379871618 14.946518980429,46.4383287476917 14.9465203371093,46.4392033419015 14.9463316274145,46.4394755012051 14.9459943968005,46.4401711664986 14.9456546269995,46.4407941341715 14.9457015971166,46.4408059424818 14.9458392849178,46.4409415017945 14.9459489836911,46.4409542393859 14.946381713221,46.4408208384054 14.9464823167106,46.44081836638 14.9465926571386,46.4408402805408 14.9466437439683,46.4409013936578 14.9466892821073,46.44091392065 14.9470272448809,46.4408012559627 14.9476092215253,46.4406923010916 14.9484390998035,46.4406031586013 14.9490270931834,46.4405961346432 14.9492369456491,46.4406698230104 14.9492874908299,46.4407566659778 14.9493382408661,46.4407630763021 14.9495008359748,46.4407134850595 14.9500355806387,46.4407295545482 14.9505718958019,46.4407362653899 14.9507652463162,46.4407836727315 14.9508726879569,46.4408470574428 14.9509925398424,46.4410039256521 14.9510688773883,46.4410676567222 14.9511309374402,46.4410886461429 14.9512781698303,46.4410447138877 14.9513131689949,46.4410555251285 14.9513548382253,46.4411758320397 14.9514220707074,46.4412346106784 14.95192869668,46.4411175945239 14.952204612209,46.4411068238558 14.9522459829316,46.4411242052447 14.9523243022433,46.4413050765491 14.952385796775,46.4413785172508 14.9527969742959,46.4413212871719 14.9528691968413,46.4413304038728 14.9530564529717,46.4415079906388 14.9540449858879,46.4415685816811 14.954289414415,46.4415502358934 14.9544875653534,46.4414666433163 14.9546295202868,46.4415070060369 14.9548163024095,46.441478469691 14.9548829061588,46.4415155634031 14.9549824997675,46.4414761960227 14.9553822586855,46.4416935389537 14.9558690804816,46.4419209906852 14.9559775999286,46.4421105981481 14.956390316054,46.442247689768 14.956687518,46.4423158196097 14.9570954924125,46.4423632073438 14.9571682879774,46.4424741669586 14.9573678008925,46.4426453633884 14.9576461618902,46.4430143415213 14.958053375738,46.443212694266 14.9588605138768,46.443449786993 14.9589805060837,46.4434578373709 14.9595720082308,46.4434976345349 14.9601861594596,46.4435345575043 14.9607155217206,46.4436577287661 14.9609133174607,46.4437037709122 14.9616108104232,46.4438660420928 14.9621760212019,46.4441042895057 14.9622627802372,46.4441796225703 14.962422016761,46.4442801708417 14.9624741748051,46.4443280516974 14.9625504441277,46.4443277168187 14.9625685383375,46.4443232242711 14.9624912376592,46.443740287057 14.9620365637112,46.4434487260578 14.9618201892699,46.4433558055771 14.9612394595346,46.4429911440552 14.9609608854418,46.4427044966359 14.9610676328847,46.4424853674541 14.9619489440491,46.4418075642978 14.963123732808,46.4409015967261 14.9634359968686,46.4406339478275 14.9638469363509,46.4403203548934 14.9637477143222,46.4392235954045 14.963845829599,46.4390422479504 14.9640179620404,46.4389084276149 14.9651155437952,46.4387228006922 14.9657827416497,46.4385519702164 14.9660624226751,46.4385296511416 14.9663636331065,46.4386264573463 14.9666109837433,46.4389092140115 14.9668475669307,46.4391398746668 14.967153627621,46.4391862072976 14.9673316953896,46.4391250790392 14.9674608780352,46.4389837737794 14.9675794238905,46.4387829955128 14.9680420242239,46.4386343161471 14.9687953165653,46.4385452744035 14.9693871384589,46.4383967147444 14.9696991738447,46.4382256758265 14.9701404130517,46.4380919172374 14.9706460239249,46.4380399557741 14.970947362336,46.4379061580752 14.9712487423336,46.437690487325 14.971507041144,46.4374822725184 14.9715932837469,46.4373037944297 14.9715717509084,46.4371699144195 14.9718624419122,46.4367236474465 14.9728847903946,46.4361659932679 14.9731752901219,46.4360768119811 14.973326019716,46.4360024424179 14.9733367522089,46.4358760377027 14.9723902793083,46.4354072516918 14.9722396596374,46.4352658730537 14.9721751982321,46.4351022027558 14.9728747127546,46.4347081241609 14.9737006505402,46.4344205943781 14.9741551585952,46.4342100792131 14.9749513256006,46.4341135390611 14.975176527738,46.4339347286368 14.9750589638077,46.4337787857724 14.9745534727028,46.4336671121349 14.9739619073193,46.4334140744732 14.9731581075295,46.4329067300486 14.9726038498389,46.432239384046 14.9719161050438,46.4320705242157 14.9714949810379,46.4314108527729 14.9714240193704,46.4312490696825 14.9714886563005,46.431063118598 14.9716823179169,46.4309812943514 14.9719081645987,46.4310632224094 14.9719202592014,46.4313294454999 14.9749046014056,46.4312967605478 14.9757489682911,46.4300970177142 14.9765761462529,46.4288427432605 14.9773309756535,46.4284534166867 14.9790845828586,46.427962876297 14.9796224538329,46.4276579761878 14.9803863013628,46.427412582472 14.98076929425,46.4272022983865 14.9808062725025,46.4260142547461 14.9805375554248,46.4254043046588 14.9807205838783,46.4247571834532 14.981036921307,46.4238594283707 14.9811836384874,46.4232175184676 14.9821840257555,46.4227118687209 14.9830776054861,46.4221333189134 14.9836878304958,46.4214968714345 14.9836435870844,46.4206608658772 14.9839209337466,46.4202774539435 14.9839916485502,46.4200268979728 14.9841960996009,46.4197740212913 14.9846263964661,46.4194988623025 14.9851211231296,46.4190823675026 14.985136287138,46.4188124600197 14.9855007335792,46.4180927481964 14.9857218755675,46.4176339298587 14.9860357274036,46.4173269915124 14.9864014374405,46.4171930704826 14.9869068254222,46.4172005969559 14.9879500598077,46.4175056194319 14.9882404166714,46.4175056496563 14.9887996445153,46.4176098908662 14.9903376119339,46.4172603183692 14.9907248903397,46.4172157253902 14.9926176877389,46.4170373630576 14.9939836226363,46.4168513854225 14.9952956938274,46.4166506342081 14.9966077503238,46.4165315605635 14.9971884617499,46.4163753886413 14.998537203183,46.415821649338 14.9992210612777,46.4154381144823 15.0003395153477,46.4151108062217 15.0010277743542,46.4147090865848 15.002533325855,46.4144413127606 15.0040819408246,46.4144634905346 15.0054261673083,46.4141584367245 15.0064656374387,46.4141491157828 15.0078405930718,46.4142027418107 15.009728065093,46.4149688703629 15.0103411690563,46.4151100692795 15.0117107891406,46.4150230263304 15.0127607903357,46.414923857153 15.0134982372139,46.4144438731218 15.0136746594231,46.4140533828297 15.0147499123821,46.413614376039 15.015663811019,46.4130340385888 15.0163305087024,46.4127661948686 15.0168573334431,46.4123867152799 15.0171543228286,46.4120541422767 15.0182552094033,46.4118435321848 15.0188141512528,46.4114963375961 15.0191259531901,46.4111664560811 15.0194485588529,46.4108688710708 15.0200935787051,46.410489356286 15.0206847664412,46.4098347194487 15.0211578027242,46.4094254495097 15.0214265679422,46.409202273944 15.0219533558737,46.4089046433282 15.0221468244331,46.4087261055888 15.0225636968331,46.4081112591944 15.0230066580811,46.4076993782836 15.0236721930925,46.4073824580951 15.0242214937175,46.4071784710493 15.0245479486097,46.4071676050417 15.0253074494186,46.407014580454 15.025945051925,46.4070829047567 15.0270601757177,46.4067389609041 15.0280493250326,46.4065304419976 15.0288938671893,46.4063766529252 15.0289953297056,46.4061582700095 15.0293071049457,46.405949909936 15.0296080103838,46.4056076764173 15.0298660004705,46.4055182690941 15.0305453804541,46.4054252405829 15.0312315975045,46.4054659016362 15.0320533662439,46.4055551944466 15.033156560703,46.4058148933076 15.0345596159504,46.4063749911595 15.034888289712,46.4063871272872 15.035458013097,46.4062679217309 15.0364580656229,46.4062825423181 15.0371894670744,46.4063789346143 15.0388946367359,46.4060974810008 15.0400165342078,46.4051952343694 15.0404250089584,46.4049644975032 15.0407564401381,46.404846789025 15.0411665149151,46.4045030465473 15.0415318739298,46.4040258932359 15.0426498595698,46.4037214729405 15.0439593003252,46.4032887609233 15.0442729416804,46.4030663238946 15.0444876243502,46.4027016818467 15.0441756552918,46.4025753948205 15.0442397285022,46.4020397781523 15.0446117872109,46.4013788932664 15.0448944002152,46.4006039601435 15.0456080767136,46.3997910676676 15.0460974682846,46.3993611741289 15.0467265948619,46.3984102043742 15.0472574716171,46.3980069199731 15.0478377767562,46.3977760852016 15.0482351010483,46.3972403259563 15.048535576469,46.3966005109351 15.0486319748562,46.3962062206716 15.0487280011603,46.3953954584552 15.0488992637345,46.3946738243694 15.0487377899131,46.3944135195254 15.0485547718638,46.3941979387857 15.0485114146064,46.3938408654082 15.0485954970671,46.3934935446639 15.048843989614,46.3930596923451 15.0489295273284,46.3925984683681 15.0490600531821,46.3924273790263 15.0492839813208,46.3921594413358 15.0500896236156,46.3915788731765 15.0502893831373,46.391337845167 15.0511414590397,46.389822997773 15.0515839718057,46.389044196169 15.0516984621641,46.3878812783206 15.051633082622,46.3869366195164 15.0517030784183,46.3861605937797 15.051589003371,46.3858282948593 15.0517927789037,46.3854637328795 15.051942965968,46.3850768822182 15.0514906191847,46.3842068034728 15.0512353389503,46.3839904494176 15.0503717957522,46.3832551452639 15.0494569662372,46.3819910106782 15.0493061674635,46.3817084787502 15.0492629720478,46.3813811850116 15.0493427733639,46.3806372751808 15.0495472630909,46.3803484716639 15.0500676333877,46.3799005521458 15.050432786115,46.3796028594508 15.0511974677535,46.379220325214 15.051775771713,46.3791633834651 15.0526890976872,46.3788579664777 15.0537236644811,46.3787819999207 15.0542258406887,46.3787828425478 15.0546766050263,46.3787201884209 15.0552788767454,46.378462493397 15.0556654936164,46.3782168664381 15.0574679078889,46.3775070975476 15.0589027853401,46.3773979530537 15.0643246257425,46.3769255658896 15.0694457557189,46.3762887285395 15.0709522660161,46.3758276046524 15.072757741364,46.3752819686904 15.0722363442679,46.374875812447 15.0725127677138,46.3744385607098 15.0728668488006,46.374047233756 15.0729195787194,46.3720609203832 15.0747879469072,46.3719889968864 15.075417639567,46.3716614503594 15.0755238273843,46.3698659273203 15.0744813187166,46.3696903586685</coordinates></LinearRing></outerBoundaryIs></Polygon></MultiGeometry>
  </Placemark>
</Folder>
</Document></kml>
