{"type":"FeatureCollection","features":[{"type":"Feature","geometry":{"type":"Polygon","coordinates":[[[14.5689197050596,46.3757336594262],[14.5689298695561,46.3757634780175],[14.5689745017013,46.3757741728159],[14.5690021185153,46.375783183997],[14.5690309023763,46.3757925594521],[14.569057911274,46.3757797054683],[14.5690812706609,46.3757680973145],[14.5691202405069,46.3757609166708],[14.5691343832388,46.3757583107055],[14.5692182008228,46.375728486325],[14.5692589422771,46.3757049775204],[14.5692812451014,46.3757285438582],[14.56934770168,46.3757079209647],[14.5693940676506,46.3756964893564],[14.5694157532599,46.3756993601013],[14.5694471792784,46.3757033471631],[14.5694764718029,46.3757141639512],[14.5695507434009,46.3757411648191],[14.5696151814869,46.3757458159163],[14.5696774486532,46.3757620650177],[14.5697186899819,46.3757907408893],[14.5697532102629,46.3758145330456],[14.5697611401327,46.3757813637225],[14.5697686644925,46.3757501722267],[14.5698257711669,46.3756952350724],[14.5698715337241,46.3756778629398],[14.5699132130551,46.375683867793],[14.5699361136977,46.3756478757011],[14.57000356462,46.3756330142855],[14.5700386139259,46.3756225295392],[14.5700560820543,46.375616207302],[14.5700847557197,46.3756065083062],[14.570115498545,46.375598166641],[14.5701639482595,46.3755862027299],[14.5701974701549,46.375571573545],[14.5702170770674,46.3755245926008],[14.5702539813383,46.3755096162287],[14.57031918995,46.3755154394432],[14.5703777848724,46.3755192584198],[14.5704395624058,46.3755316365306],[14.5705272203573,46.375542402366],[14.5705537196385,46.3755447511496],[14.5705874158182,46.3755244543557],[14.5706215129779,46.3755359186869],[14.5706939392174,46.3755330416377],[14.5707430615056,46.3755347555407],[14.5708106367128,46.3755371684747],[14.5708661931041,46.3755306291755],[14.5709044629094,46.3755238450445],[14.570962178992,46.3755237017166],[14.571017768472,46.375546133008],[14.5711094293303,46.3755603322968],[14.5712066733744,46.3756085613419],[14.5712598182431,46.3756111898123],[14.5712996478772,46.3756044113972],[14.5713627429239,46.3756311892473],[14.571410761391,46.3756410860523],[14.5714416422477,46.3756483094651],[14.5714679314063,46.3756609139],[14.571567882418,46.3757121218113],[14.5716332337407,46.3757496144683],[14.5717334348839,46.3757522390377],[14.5717983607701,46.3757610293797],[14.5719146766194,46.3757641639838],[14.5719378449553,46.3757602920045],[14.5719852243124,46.3757521920521],[14.5720293990034,46.3757383219672],[14.5720777451496,46.3757229379746],[14.5721233952944,46.3757198698486],[14.5721627892763,46.3757189375932],[14.572211646119,46.3756381468149],[14.5722852921555,46.375628885407],[14.572379702006,46.3756073756232],[14.5724543716162,46.3755835426936],[14.5725276289884,46.3755740997352],[14.5725817869707,46.3755635056972],[14.5726309753252,46.3755567617978],[14.5726673821831,46.3755388137577],[14.5726974234304,46.3755370366319],[14.5727488432416,46.3755275119306],[14.5727900947502,46.3755217279857],[14.5728181312921,46.3755103164825],[14.5728888587315,46.3754752222148],[14.5729131511501,46.3754772023266],[14.5729566521003,46.3754996774977],[14.5730252139579,46.3755089305747],[14.57307340355,46.3755302535894],[14.5731021630287,46.3755595114359],[14.5731540409449,46.375591284777],[14.5731905256942,46.3756133737869],[14.5732365841919,46.3756246120691],[14.5733080742468,46.3756417933185],[14.5733747980011,46.3756701130981],[14.5734423643953,46.375673694062],[14.5734549790449,46.3756936011836],[14.5734855105893,46.3757417828106],[14.5736171755738,46.3758604952009],[14.5737235713087,46.3758856337769],[14.5738242292616,46.3758797110085],[14.5738584520416,46.3759252737044],[14.5738968165822,46.3759397219903],[14.5739871056865,46.37594662624],[14.5740523551031,46.3759473191518],[14.5741257712515,46.3759509215005],[14.5741871370119,46.375982999616],[14.5742813194564,46.3760074623999],[14.5743115404864,46.3760160321398],[14.5743175667299,46.3759932920076],[14.5743264093591,46.3759594060027],[14.5743493359212,46.3759029897968],[14.5744448264795,46.3758361288104],[14.5744593856725,46.375825934671],[14.5745843646835,46.3758015677884],[14.5746576647179,46.3758201044859],[14.5747033323404,46.3758315206641],[14.5747513431285,46.3758257611501],[14.5748338357005,46.3758155413216],[14.574903903919,46.3758652856485],[14.57498688017,46.3758597459795],[14.5750606619801,46.3758832325927],[14.5751883586628,46.3759106982225],[14.5753458381226,46.3759697640254],[14.5753966576235,46.3760041415636],[14.5754680806192,46.3759965792939],[14.5755565582512,46.3759856613981],[14.5756783802245,46.3759828745496],[14.5757529103661,46.3760105021404],[14.5758300653838,46.3760349004767],[14.5759220128742,46.3760795070355],[14.5760376045826,46.3761427351271],[14.5761289879845,46.3761258895014],[14.5761735543329,46.3761453083938],[14.5762383041042,46.3761602135627],[14.5762843685658,46.3761708208437],[14.5762940840238,46.3761946408855],[14.5762976359562,46.3762033493917],[14.576307459132,46.37622740794],[14.5763563948397,46.3762869698402],[14.5765391080118,46.3763443280619],[14.576549674455,46.3763516379737],[14.576597292669,46.3763845804265],[14.5766004795826,46.376388530425],[14.5766495681706,46.3764493728601],[14.5766675265316,46.3764636546973],[14.5767401080207,46.3764912744281],[14.5767485998593,46.3764960884492],[14.5768164682711,46.3765345629814],[14.5768619430589,46.3765710793802],[14.5768669778885,46.3765820486016],[14.5768859769611,46.3766234412278],[14.5769378491133,46.3766732069441],[14.5769696092451,46.3766845707629],[14.5770126470602,46.3767000249653],[14.5770539735257,46.3767182619106],[14.5770554690962,46.3767189205969],[14.5771157470249,46.376745468462],[14.577159039438,46.3767645354576],[14.577236774573,46.3767982019578],[14.5772977090748,46.3768022959481],[14.5773134969358,46.3768014889365],[14.5773715734768,46.3767985202797],[14.5774700141415,46.3768105802277],[14.5776667971091,46.3768474753308],[14.577787241603,46.3768718522685],[14.5778205011988,46.3769079633006],[14.5778466704132,46.3769364006476],[14.577894856557,46.3769417068453],[14.5779574582446,46.3769487756674],[14.578002620795,46.376992218193],[14.5780625649795,46.3770236591817],[14.5781476028358,46.3770375584749],[14.5781754946949,46.3770617734828],[14.5781980360131,46.3771055823375],[14.5781983933968,46.3771086267824],[14.578203403604,46.3771513071969],[14.5782767766368,46.3771607548086],[14.5783183744725,46.377166155239],[14.5783245661288,46.3771669590681],[14.5783249702527,46.3771693177727],[14.5783302886861,46.3772003592589],[14.5783569434369,46.3772502112784],[14.578383114979,46.3772952930685],[14.5784237915346,46.3773305315618],[14.5784827372617,46.3773566603826],[14.5784922538377,46.3773584872995],[14.5785262206875,46.3773650079793],[14.5785360277432,46.3773913155361],[14.5785298864786,46.3774156119214],[14.5785238269862,46.3774395847743],[14.5785343364642,46.3774759716256],[14.5785643970114,46.3775055927646],[14.5786015653665,46.3775244168199],[14.5786060924255,46.3775267095645],[14.578664677545,46.3775490581971],[14.5787003402205,46.3775770804701],[14.5787235072966,46.3776072159936],[14.5787352296618,46.377654943587],[14.5787470405256,46.3777080697398],[14.5787793200019,46.3777703583164],[14.5787720558334,46.3777832107455],[14.5787704902748,46.3777859806736],[14.5787526994314,46.3778174048429],[14.5787582916328,46.3778508944987],[14.5787748467044,46.3778618419204],[14.5788174509624,46.3779000563997],[14.5788011349077,46.3779425523891],[14.5788165904809,46.3779950621622],[14.5788284389039,46.3780264155619],[14.5788605147023,46.3780814157451],[14.5788595790348,46.3781354846159],[14.5788734596052,46.3781899679319],[14.5788694905698,46.3782496937772],[14.578871488773,46.3782772321316],[14.5788537158583,46.3782894026772],[14.5788199414056,46.3783369626922],[14.5788331292492,46.3783631927],[14.5788607475744,46.3783892959094],[14.578866897216,46.3784179291986],[14.5788722731376,46.3784457499029],[14.5788973787944,46.3784774220252],[14.5789242137973,46.378503972187],[14.5789271095325,46.3785331333143],[14.5789378027036,46.378579507531],[14.5789431413322,46.3786121865045],[14.5789251352847,46.3786377618168],[14.5789193595728,46.3786619426325],[14.5788745266315,46.378693717091],[14.5788803035865,46.3787370142079],[14.5788996419801,46.3787748730588],[14.5789310925501,46.3788098074764],[14.5789399610812,46.3788229758335],[14.578960135518,46.3788535501361],[14.5790029073164,46.3788700822502],[14.5790206572048,46.3788677950345],[14.5790436365801,46.3788648339529],[14.5790739028382,46.3789016533528],[14.5791137789152,46.3789228532359],[14.5791292357143,46.3789583585257],[14.579184394424,46.3790039066805],[14.5792444782468,46.3790006189145],[14.5792780386101,46.3789978633323],[14.5793086581852,46.3789887090118],[14.579346296793,46.3789965849389],[14.5794331656741,46.379026414795],[14.5795367232004,46.3790159991354],[14.5796269963983,46.379059606857],[14.57966206512,46.3790805189644],[14.5797263149378,46.3791781032562],[14.5797867311642,46.3791992884191],[14.5798787981315,46.3792633258484],[14.5800129388415,46.3793502802832],[14.5801196649886,46.3794014155937],[14.5802627224841,46.3794444968419],[14.5803324670977,46.3794698545998],[14.5803644237945,46.3795067698281],[14.5803806667799,46.3795585624999],[14.5803920108196,46.3796389478288],[14.5803965575126,46.3797072521604],[14.5804105534552,46.3797638949908],[14.5804289651278,46.3798210938436],[14.5804423600839,46.3798713465549],[14.5804777022408,46.3799245588388],[14.5805030841868,46.379988261128],[14.5805006817883,46.3800303585307],[14.5805322324001,46.3800694315117],[14.5805859126664,46.3801046269453],[14.5806233317982,46.3801412922194],[14.5806401075956,46.3801914673326],[14.5806361307384,46.3802004267501],[14.5806259534796,46.3802233549692],[14.5806216356625,46.3802609468212],[14.5806189754156,46.380302773367],[14.5806542818846,46.3803267450355],[14.5807030281244,46.3803612025548],[14.5807296696639,46.3803792943435],[14.5807615035087,46.3803983948375],[14.580812270885,46.3804065883218],[14.5808594018141,46.3804143186026],[14.5809057230689,46.3804429190616],[14.5809519481025,46.3804671105928],[14.580955425664,46.3804713519513],[14.5809797720509,46.3805005916177],[14.5810194024238,46.3805201704597],[14.5810206975749,46.3805208049987],[14.5810530457785,46.3805486468283],[14.5810582803085,46.3805531521412],[14.5811013091997,46.3805873186319],[14.5811340312582,46.3806093013322],[14.5811589425082,46.3806326949439],[14.5811537432492,46.3806665947928],[14.5811394820139,46.3806955130703],[14.5811404028492,46.3807025572581],[14.5811414470741,46.3807105453471],[14.5811542902784,46.3807270247992],[14.5811581829865,46.3807320196328],[14.5811780402257,46.3807533254065],[14.5811779229547,46.3807686619314],[14.5811777994458,46.3807848142114],[14.5811428513809,46.3808159059858],[14.5811299774169,46.3808504075155],[14.5811108862517,46.3808819172424],[14.5811060989497,46.3809129395397],[14.5811235509092,46.380942783712],[14.5811524716011,46.3809688911258],[14.5811833643268,46.3809751222673],[14.5812258268587,46.3810154046304],[14.5812726461023,46.3810299713586],[14.5812989352988,46.3810432033137],[14.5813375846712,46.3810721353866],[14.5813615291551,46.3811029929667],[14.5813737800423,46.3811500024301],[14.5813745835211,46.3811979596624],[14.5813744982913,46.3812261201252],[14.5813945325905,46.3812583129412],[14.5814384103006,46.3812835753258],[14.5814749193714,46.3813034124941],[14.5814842884267,46.3813532904536],[14.5815125561538,46.3813968496663],[14.5815408892252,46.381431861911],[14.5815574330589,46.3814785271788],[14.5815819756046,46.3815162246585],[14.5816177022487,46.3815534232281],[14.581645904617,46.3815931594607],[14.5816606609304,46.3816139506076],[14.5816640776825,46.3816251765182],[14.5816752453066,46.3816618682759],[14.5816725875944,46.3816694160774],[14.5816614161242,46.3817023044203],[14.581662719119,46.3817359581608],[14.5816640785632,46.3817676228179],[14.5816683479125,46.3818670657954],[14.5816446600821,46.381921681213],[14.5816355609875,46.381955566809],[14.5816040625405,46.3819774943458],[14.5815987443153,46.3819929498164],[14.5815999378953,46.3820239040402],[14.5816313778405,46.3820947358899],[14.5816264724047,46.3821242282714],[14.5815947180816,46.3821626194725],[14.5815708110958,46.3821778269864],[14.5815393103471,46.382183019981],[14.5814808657359,46.3821925229165],[14.5814091162787,46.3821908207784],[14.5813604457693,46.3821972104612],[14.5813394000751,46.3821952440337],[14.5812856168704,46.382190188712],[14.5812323784133,46.3822329097012],[14.5812081803203,46.3822691691725],[14.5811569915045,46.3822988519082],[14.5811375257054,46.3823112865117],[14.5811146626658,46.3823259579305],[14.5810703273987,46.3823434297423],[14.5810155184407,46.3823534855815],[14.5810196254847,46.3823604283582],[14.5810075202293,46.3823623633573],[14.5809733332575,46.3823787926674],[14.5809188289956,46.3823830014937],[14.5808578926969,46.382395284065],[14.5807201617491,46.3824365254821],[14.5806322303195,46.3824597753265],[14.5805121875206,46.3825000017114],[14.5803971252751,46.3825349379852],[14.5802875298498,46.3825689945025],[14.580214654095,46.3825954482497],[14.5801179934533,46.3826210948577],[14.580064876905,46.3826340427505],[14.5800045466102,46.3826487490563],[14.5799145018053,46.3826593047452],[14.5799122862522,46.3826600163704],[14.579867720696,46.382673528167],[14.5798236668432,46.3826881214723],[14.5798194964266,46.3826894557065],[14.5797751790927,46.3827044978776],[14.579723205421,46.3827177124834],[14.5796730142734,46.3827188775699],[14.5796373645253,46.3827056108369],[14.5796138146473,46.3826911289868],[14.5796010164442,46.3826986394608],[14.5795548995758,46.3826940613611],[14.5795110799258,46.3826950698609],[14.5795035605325,46.3826923430967],[14.5794783151441,46.3826785747481],[14.5794631250795,46.382692824199],[14.5794213116549,46.3827203813409],[14.5793862900811,46.3827438248055],[14.5793403101978,46.3827552618727],[14.5793136113872,46.3827614615933],[14.5792601155381,46.3827697220112],[14.5792141432105,46.3827801693799],[14.579182935125,46.3827979586724],[14.5791494333305,46.3828266259459],[14.5791361959689,46.3828574371117],[14.5791172101383,46.3828919159095],[14.5790813294858,46.3829256127554],[14.5790489201359,46.3829643607159],[14.5790141949043,46.38298303672],[14.578982517806,46.3829941664137],[14.5789328214676,46.383015486389],[14.5788798798633,46.3830361645984],[14.5788470617385,46.3830435112916],[14.5788113766239,46.3830517471209],[14.5787913049867,46.3830583310098],[14.5787580919845,46.3830663060165],[14.578723513201,46.3830828231795],[14.578684992783,46.3831047240401],[14.5786176883711,46.383133446556],[14.5785988218747,46.3831523608099],[14.5785711759289,46.3831802397564],[14.5785435313396,46.3832079387602],[14.5785045719509,46.3832699647831],[14.5785276073073,46.3832837251999],[14.5785404144828,46.3833088741695],[14.5785076347574,46.3833280970119],[14.5784818840269,46.3833630905904],[14.5784909970897,46.3833952436472],[14.5785277267115,46.3834540397855],[14.5786126016277,46.3835749130281],[14.57866070633,46.3837098660707],[14.5786791764231,46.3838439001773],[14.578686743933,46.383907987044],[14.5786888086731,46.3839268884529],[14.5786924506662,46.3839604608615],[14.5786828349159,46.383993624544],[14.578653056792,46.3840958112701],[14.5786729999726,46.3841228758938],[14.5786979718588,46.3841553572691],[14.5787155016246,46.3841919498648],[14.578757602385,46.3842455474198],[14.5787771963957,46.3842842169303],[14.5788019844404,46.3843237153021],[14.5788150852055,46.3843445467347],[14.5788362781755,46.3843612693267],[14.5788914524274,46.3844054680782],[14.5789269937648,46.3844498644254],[14.5789629528452,46.3844906634802],[14.5790089763983,46.3845413963274],[14.5790345993972,46.3845737900532],[14.5790482417719,46.3846087488164],[14.579068429442,46.3846378835894],[14.579097792277,46.3846573353181],[14.5791118434191,46.3847067808238],[14.5791232328918,46.3847473094546],[14.5791518800904,46.3847753057301],[14.5791733929073,46.3848350353205],[14.5792073095904,46.3848540539258],[14.5792458028724,46.3848865849304],[14.579299455982,46.3849427439563],[14.5793175125676,46.3849616142102],[14.5793347891212,46.3849804815918],[14.5794001584003,46.3850516187648],[14.5793817197359,46.385099415235],[14.5793917623202,46.3851291424263],[14.5794191368348,46.3851705395512],[14.5794420383741,46.38518492908],[14.5794807441144,46.3851898398521],[14.5795271279277,46.3851937891673],[14.5795695222527,46.3851924155391],[14.5795914536981,46.3852146289018],[14.5796369283542,46.385235399307],[14.5796543511786,46.3852691123035],[14.5796845528043,46.3852979238906],[14.5797007057781,46.385310759065],[14.5797106111715,46.385358389845],[14.579702400529,46.3854118021229],[14.579712756728,46.3854515171581],[14.5797362228921,46.3854770650395],[14.5797984088784,46.3855057242226],[14.5798550549411,46.3855277951748],[14.5798924965867,46.3855619415621],[14.5799823244753,46.3857328555108],[14.5800236045224,46.3857751132928],[14.5800949393052,46.3857636790885],[14.5801246931356,46.3857831319851],[14.5801476317026,46.3857940376728],[14.5801658871227,46.3858027168447],[14.5801855578558,46.3858315796049],[14.5801901059551,46.3858491314706],[14.5802033629731,46.3859002924241],[14.5802120791544,46.3859335235175],[14.5802430835644,46.3859594588459],[14.5802995392813,46.3860064506925],[14.5803394124208,46.3860457341699],[14.5803856230202,46.3860893594692],[14.5804716042186,46.3861008312666],[14.5805404601743,46.3861414805817],[14.5806479435556,46.3861973865452],[14.5807328626815,46.3862287377203],[14.5808038762935,46.3862593180963],[14.5808513649619,46.3862889125008],[14.5809701668995,46.3863111208664],[14.5809927481945,46.3863153421086],[14.5810683488464,46.3863581751073],[14.5811074902719,46.3863742432588],[14.5811546256854,46.3863820633949],[14.5812033164256,46.3863905190007],[14.581224528782,46.3864219063971],[14.5812343988905,46.386443663562],[14.5812375704246,46.3864506547266],[14.5812451094086,46.3864489700867],[14.5812660923509,46.386444281295],[14.5813060001972,46.3864281427655],[14.5813589558939,46.3864229384125],[14.5813993342581,46.3864302838589],[14.5814156468992,46.3864563450281],[14.5814327307253,46.3865005830471],[14.5814473099374,46.3865323060046],[14.5814827466537,46.3865568176892],[14.5815542762641,46.3865710248651],[14.5816361552631,46.3865920176419],[14.5816907065183,46.386616239307],[14.5817149644797,46.3866404401163],[14.5817281852328,46.3866628011425],[14.5817730168044,46.3866999429603],[14.5818142692579,46.3867290643029],[14.5818155618165,46.3867300587044],[14.5818357185571,46.3867453817796],[14.5818482658328,46.3867549201635],[14.5818638882044,46.3867595179476],[14.5818931502681,46.3867681299901],[14.5819109227188,46.3867733232825],[14.5819932485069,46.3867869398603],[14.5820730968008,46.3868185414122],[14.5821244864844,46.3868141407157],[14.582170412088,46.3868442686802],[14.5822056060624,46.3868836243745],[14.5822430539245,46.3869002257709],[14.5823032055706,46.3869062036022],[14.5823575355061,46.3869083813823],[14.5824191190272,46.3869311888536],[14.5824389014693,46.3869626607705],[14.5824458748191,46.3870029929876],[14.5824322564791,46.3870327234759],[14.5824053137394,46.3870706825868],[14.5823945353927,46.3871201269658],[14.5824042160105,46.3871464336831],[14.5824280350885,46.3871771106072],[14.5824605787674,46.3872060199731],[14.5825285531835,46.3872262415757],[14.5825905539169,46.3872455416295],[14.5826641982592,46.3872724416586],[14.582688911605,46.3873222854927],[14.5826778677837,46.3874078444224],[14.5826774431142,46.3874111344255],[14.5826873403203,46.3874261056339],[14.5827076493175,46.3874567696891],[14.5827370887552,46.3874835983274],[14.582778149234,46.3875209958968],[14.5827799995902,46.3875682371214],[14.5828288522848,46.3875897383354],[14.5828625772696,46.3876216393589],[14.5828820361997,46.3876400458627],[14.5828905505008,46.3876643425261],[14.5828943795895,46.3876752693204],[14.5828979531256,46.3877181982466],[14.5828976327927,46.3877261144755],[14.5828958170125,46.3877596668205],[14.5829364995901,46.3877784390753],[14.5829546385288,46.3877867825057],[14.582975856368,46.3877895973494],[14.5830264657841,46.3877963113805],[14.5830818989478,46.3878073999103],[14.583118426649,46.3878254371891],[14.5831357769789,46.387886140501],[14.5831519132791,46.3879047643461],[14.5831566564494,46.3879102387128],[14.5831973274901,46.3879476347091],[14.5832576862533,46.3879778148346],[14.5832707132962,46.3879824765242],[14.5833257604468,46.3880021749631],[14.5833820123001,46.3880082279864],[14.5834346449715,46.3880114787156],[14.5834578190336,46.3880416132482],[14.5834801986523,46.3880907286405],[14.583495954305,46.3881298153684],[14.5834990850139,46.3881375820448],[14.5835271025713,46.3881805100021],[14.5835668222232,46.3882233905956],[14.5836364522543,46.3882483859964],[14.5836598845057,46.3882787913381],[14.5836784049268,46.3883054000358],[14.5836803422143,46.388324210905],[14.583691421682,46.3883547512095],[14.5837485210544,46.3883519900368],[14.5837970373476,46.3883494675092],[14.5838427118607,46.3883615997969],[14.5838554067902,46.3883649445621],[14.5839690974828,46.3883948988561],[14.5839130262146,46.3885361283424],[14.5839128956226,46.3885376477313],[14.5839101736327,46.3885693170446],[14.583899914232,46.3886019389739],[14.5838920422834,46.388628361631],[14.5838778975291,46.3886760844491],[14.5839070199278,46.3886934647336],[14.5839497421094,46.3887177322405],[14.5839601519392,46.388721244069],[14.5840147155908,46.3887396514735],[14.5840455834528,46.3888011235708],[14.5840593187346,46.3888757589954],[14.5840596486391,46.389020612545],[14.5840457713212,46.3890538822617],[14.5840209783094,46.3891133213418],[14.5839618298793,46.3891803140617],[14.5839632993137,46.3892093798467],[14.5839767224532,46.3892737575149],[14.5839569532062,46.3893943358975],[14.5839409333394,46.3895348113725],[14.5839827130018,46.3896147671078],[14.5839933459579,46.3896356789196],[14.5840056671134,46.3896568667827],[14.5840930487356,46.3898100443081],[14.584111466197,46.389867422427],[14.5841801642454,46.389929841781],[14.5842098664502,46.389956581013],[14.5842517328958,46.3899738275998],[14.584270657659,46.3899815438821],[14.5842884462377,46.3899874292381],[14.5843119013665,46.3899951893675],[14.58436549857,46.3900257941701],[14.5844388669988,46.3900553911505],[14.5844865315219,46.3900967707836],[14.5845432961338,46.3901383633977],[14.5845899424911,46.3901768602358],[14.5846105460276,46.3901861120564],[14.5846376300906,46.3901980865229],[14.5846477371871,46.3902198060951],[14.5846509344535,46.3902268353976],[14.5846637682419,46.3902661990665],[14.584658424479,46.3903021678113],[14.5846481170872,46.390358271893],[14.5846363094884,46.3904064531309],[14.5846207444433,46.3904637999542],[14.5846205254939,46.3904646066359],[14.5846143159026,46.3904947241578],[14.5846084690646,46.3905284418121],[14.5846379117606,46.3905551799872],[14.5846435930891,46.3905604189043],[14.5847001811426,46.390573940038],[14.5847172562331,46.3906027025966],[14.5847377797624,46.3906156230199],[14.5847665601549,46.3906337414688],[14.5847998111159,46.3906555450588],[14.5848200951962,46.3906898074454],[14.5848449836613,46.3907341632256],[14.584884984646,46.3907746151623],[14.5849126691272,46.3908103439207],[14.5849466728631,46.3908529333558],[14.5849609789144,46.39087046953],[14.5849848059726,46.3908996764035],[14.5850021186319,46.3909485931433],[14.5850488253184,46.3909792625851],[14.585067365402,46.3909919395463],[14.5850838805441,46.3910032319267],[14.5851232638318,46.3910394529296],[14.5851674382175,46.3910783004391],[14.5852100571719,46.391116512497],[14.5852448032968,46.3911641428744],[14.5852771616506,46.3911836938269],[14.5853106216577,46.3911779670917],[14.5853078800355,46.3912137653561],[14.5853520615058,46.3912517131151],[14.5853839419967,46.3912828684816],[14.5854210751989,46.3913072051338],[14.5854434784999,46.3913192524082],[14.5854472107589,46.3913758572975],[14.5854337534708,46.3914102694171],[14.5854319625044,46.3914148491591],[14.5854464315678,46.3914615962297],[14.5854987236637,46.3915274641437],[14.5855163910117,46.3915639661758],[14.5855638091881,46.3916038149592],[14.5855932828887,46.3916265942995],[14.585639735884,46.3916565428138],[14.5856831526196,46.3916950951582],[14.5857058653528,46.3917152631388],[14.5857766614626,46.3917243366904],[14.5858508988183,46.3917425996373],[14.5858838412149,46.3917881539645],[14.5859170580658,46.3918490042364],[14.585926062634,46.3919134556161],[14.5859094215192,46.391953404999],[14.5859056680995,46.3919624156126],[14.5858921586324,46.3919950259325],[14.5858761854932,46.3920267276254],[14.5858698470171,46.3920395704325],[14.5858661907792,46.3920759951852],[14.5858639429828,46.3920981197519],[14.585891810453,46.392109826843],[14.5859590869943,46.3921373314582],[14.5860403744902,46.3922034840328],[14.5860897880645,46.3922203074066],[14.5861041432739,46.3922306159832],[14.5861377654081,46.3922551196314],[14.5861285447863,46.3922880154098],[14.5861156861749,46.3923205381394],[14.5860609212899,46.3923407631913],[14.5860401174914,46.3923750565599],[14.5860232552373,46.392403965972],[14.5860028033702,46.3924432989469],[14.585993929171,46.3924819540697],[14.5859487587424,46.3925058126151],[14.5859268362932,46.3925332641656],[14.5859242086311,46.3925540378012],[14.5859221303277,46.3925709447009],[14.5859100227451,46.392593623403],[14.5858966740666,46.3926186267774],[14.5858713579453,46.3926338190199],[14.5858533075097,46.3926446511048],[14.5858238897416,46.3926659575072],[14.585786461399,46.3926804871116],[14.5857688915791,46.3926825827595],[14.5857206057125,46.3926885258308],[14.5857109946878,46.3927214201589],[14.5856973807515,46.3927677955355],[14.5856883462899,46.3928275930823],[14.5856485534753,46.392862447372],[14.5857063776804,46.3929535269137],[14.5857844147862,46.3930713108592],[14.5858785101497,46.393163421385],[14.5859561338096,46.3932327996715],[14.5860184949967,46.3933430591567],[14.5861196623589,46.3934286272458],[14.5861526153717,46.3934557376023],[14.586175360151,46.3934743537984],[14.586185630195,46.3935434881756],[14.58618715453,46.3936342737539],[14.586187250557,46.3936387726178],[14.5861696906582,46.3937255304416],[14.5861679350053,46.3937341612398],[14.586169481214,46.3938392521762],[14.5862083929953,46.3939038117326],[14.5862163554988,46.3939169762109],[14.5862947125831,46.3940615721013],[14.5863996200828,46.3942202993319],[14.5864838710827,46.3943249695801],[14.5866244636225,46.3945625496518],[14.5866363981614,46.3945835558743],[14.5866553760871,46.3946017085036],[14.5868192985748,46.3947634377047],[14.5868471754213,46.3947913392467],[14.5868605862769,46.394823507097],[14.5869539181421,46.3950519189651],[14.5869624653061,46.39507381262],[14.5869915149882,46.3950841741518],[14.5870783945373,46.3951165173137],[14.5871427712719,46.39513895424],[14.5872638574818,46.3951811557099],[14.5873953805598,46.3953288217328],[14.5874120096011,46.3953481353732],[14.5874204289958,46.3953697586209],[14.5874685866126,46.3955019187814],[14.5875074422588,46.395677153093],[14.5875295815292,46.3957769980499],[14.5875371320371,46.3958104042619],[14.587548979755,46.3958430162391],[14.5875663111527,46.3958899532683],[14.5875906378615,46.395957698659],[14.5875782062121,46.396054371889],[14.5875858184433,46.3962004211199],[14.5875920994061,46.3962696054667],[14.5875996269602,46.3963525207008],[14.5876019761071,46.3964031824426],[14.5875848655048,46.3964205053601],[14.5875306915524,46.3964753514352],[14.5875038249308,46.3965030553474],[14.5874680170558,46.3965265883664],[14.5873518320636,46.3966036336023],[14.5872567162691,46.3966457563245],[14.5871226896571,46.3967089714783],[14.5870961927182,46.3967221014431],[14.5871183107058,46.3967378361284],[14.5872189315071,46.3968107154091],[14.5873274793349,46.396884342968],[14.5873507657427,46.396900351735],[14.5873603519222,46.3969169305835],[14.5873627037769,46.3969209980044],[14.5873764379103,46.3969448896829],[14.5873522534087,46.3969962654172],[14.587271532558,46.3970780270107],[14.587268251796,46.3970812546241],[14.5871724876259,46.397175467197],[14.5871227819715,46.3972139749701],[14.5870911244599,46.3972388724067],[14.5870645084899,46.3972677467307],[14.5869896310021,46.397350518894],[14.5868946542087,46.3974084765794],[14.5868656322195,46.3974804379234],[14.5868484360869,46.3975534316565],[14.5868113658747,46.3976579331446],[14.5867690913305,46.3977283170834],[14.5867004634174,46.3978099420199],[14.5866927867142,46.3978277283878],[14.5866792789611,46.3978599788927],[14.5866906050912,46.3978927690026],[14.5867039799213,46.3979297951174],[14.5867982810454,46.3980131784334],[14.5868902628082,46.3980937642139],[14.5869972530354,46.3982017550805],[14.5870799787254,46.3982509976286],[14.5871168742776,46.3982730835843],[14.5871189611856,46.3983067399942],[14.587124286112,46.398393850425],[14.5871252958186,46.3984496356271],[14.5871684573593,46.3985200953286],[14.5871702573393,46.3985230337287],[14.587167846467,46.3986012991437],[14.5871561487839,46.39862998136],[14.5871284958128,46.3986977851311],[14.5870891769159,46.3987900426164],[14.587048849314,46.3989298007338],[14.5870393666483,46.3989628755417],[14.5870314431035,46.3989961359194],[14.5869750324257,46.3992336335786],[14.5870014244253,46.3993724630024],[14.5869899445696,46.3994289228527],[14.586959254526,46.3995150034982],[14.5869304485332,46.3996443666221],[14.5869336030258,46.3997778038714],[14.5869501200515,46.3999155179823],[14.5869601777619,46.4000475406339],[14.5869626547638,46.4000811984451],[14.5869977200272,46.4001047173449],[14.5870658145249,46.4001505647451],[14.5870713428166,46.4001542868881],[14.5870950220219,46.4001701171755],[14.5871100891774,46.4001897850846],[14.5871768105656,46.4002750478207],[14.5872390928273,46.4004316408804],[14.5872324230719,46.4004649376353],[14.5872208495519,46.4005227148667],[14.5872140949288,46.4005561594076],[14.5872130602247,46.400589894505],[14.5872091918904,46.4007062120338],[14.5872079825823,46.4007286102526],[14.587195082794,46.4007491668687],[14.5871183714127,46.4008675606526],[14.5870327654051,46.4010099443104],[14.5869741066713,46.4011659207587],[14.5869163022122,46.401294819226],[14.5868853787203,46.4013427516131],[14.5868322922566,46.4013978915085],[14.5868064608271,46.4014431431641],[14.5867884067121,46.4014745675035],[14.5867769268185,46.4019788090007],[14.5868837021138,46.4026848309789],[14.586781815702,46.4036050377489],[14.5865650291882,46.4042055248578],[14.5867640260799,46.4043059844808],[14.5867946146647,46.4043214264561],[14.5868529969015,46.404371717604],[14.5872357632545,46.4047014340309],[14.5877061126524,46.4052286463451],[14.5881003490822,46.4054324098175],[14.5883178416101,46.4056528100758],[14.588321864385,46.4063628688469],[14.5884628356871,46.4070740502205],[14.5883922549464,46.4074140631788],[14.5884549597219,46.4081039996754],[14.5886990969109,46.4089168580667],[14.5889433549103,46.409368306454],[14.5893881806251,46.4095950095816],[14.5892101722503,46.4099859200698],[14.5893837302204,46.4102747174866],[14.589088623634,46.4104099621761],[14.5891077829073,46.4105433666475],[14.5888911238799,46.4105552737863],[14.5884204168758,46.4113649306788],[14.5884922242742,46.4117272285489],[14.5884360376106,46.4118994089598],[14.588474710093,46.4120497081218],[14.5883876438541,46.4124361759673],[14.5884905966571,46.4132406985554],[14.5884965160904,46.4139064079883],[14.5886517256349,46.4143875861277],[14.5879969169995,46.4147996308071],[14.5873073225845,46.4147518894959],[14.5862298448532,46.414959605643],[14.585838298913,46.4150452792977],[14.5848250066871,46.415278586166],[14.5841730224351,46.415604787788],[14.583904221915,46.4157991349412],[14.5832691906906,46.4158621409067],[14.5827433850149,46.4166642853684],[14.5824901860994,46.4176936073066],[14.5825427392288,46.4181371710597],[14.5825492455863,46.4181377868522],[14.5827760821015,46.4181592554905],[14.582948380367,46.4181856153465],[14.5831659085993,46.4182686409307],[14.5832931724864,46.418332263612],[14.5833604048385,46.4184280172417],[14.5833775959689,46.4184525011256],[14.5834481635926,46.4184877468651],[14.5836029666894,46.4185650645834],[14.5837374338966,46.4188618250957],[14.5838044685125,46.4190449779407],[14.583860459152,46.4192776639848],[14.5838615945354,46.419299800965],[14.5838764328823,46.4195891080159],[14.5838822132687,46.4196031064117],[14.5839949761462,46.4198761834481],[14.5840311134861,46.4200510364704],[14.5840373760078,46.4200872728521],[14.5840860672813,46.4203690100661],[14.5841390558778,46.4205862101776],[14.5841956598373,46.4207378119841],[14.5842077782774,46.4207702685661],[14.5843081514552,46.4212233619813],[14.5843083902207,46.4212447214844],[14.5843086511799,46.4212680663852],[14.5843106296593,46.4214450568084],[14.584271269846,46.4215964109744],[14.5842704252221,46.4215996588802],[14.5841831958514,46.4219845028437],[14.5841885136557,46.4222775540834],[14.5841896302537,46.4223093181133],[14.5842153624334,46.4230413159839],[14.584274870383,46.4233768500014],[14.5843448082854,46.4235897929597],[14.584353617124,46.423817358743],[14.5843776078,46.4239106298039],[14.5844176867439,46.4240664481926],[14.5844995898811,46.4241885051837],[14.584551737536,46.4242662184477],[14.5848799039965,46.4246376360024],[14.5851991678347,46.4251198631373],[14.585225897842,46.4251465011845],[14.5853178434801,46.4253576339278],[14.5854584892328,46.4256837446216],[14.5856961427175,46.4261201497065],[14.585918650949,46.4267873619589],[14.5861770576727,46.4271646409673],[14.5862975389044,46.4272852765088],[14.5864548575784,46.4276963776597],[14.5866758767783,46.427960158347],[14.5867062406712,46.4281088081989],[14.5866892465868,46.4283086596466],[14.5865953121951,46.4286001821052],[14.5863627784663,46.4292906690563],[14.586330637055,46.4295834043909],[14.5864269728482,46.4297489372857],[14.5866435318813,46.4299497229792],[14.587278447094,46.4302852639744],[14.5877340809499,46.430359872811],[14.5881617506238,46.4302776518292],[14.5886542109106,46.4303183408844],[14.5887109157174,46.4303230259244],[14.5887196133528,46.430323744534],[14.5888700754117,46.4303697202451],[14.5889940855832,46.4304553673279],[14.5897588032608,46.4306451600883],[14.5897623002188,46.430648743071],[14.58989309563,46.4307827556157],[14.5902580376182,46.4307854502084],[14.5902719839598,46.4307855531597],[14.590401490402,46.4308327113506],[14.5904343996396,46.4308506846209],[14.5905331538866,46.4309046187958],[14.5906648185139,46.4309359134372],[14.5907103226711,46.4309467290266],[14.5911481786073,46.4310684047675],[14.5915599377076,46.4312496839582],[14.5915633294135,46.4312511771641],[14.5916120942429,46.431242813194],[14.5916275613819,46.4312401603204],[14.5918439616515,46.4313086800324],[14.5922298700194,46.4315571135075],[14.5927974362218,46.4318400212214],[14.5929437102988,46.4319252034463],[14.5929682712651,46.4319534310492],[14.593007316611,46.4319983052925],[14.5931592260795,46.4320781990799],[14.5932492452547,46.4321156731624],[14.5933495273496,46.4321574194518],[14.5934962463412,46.432235494939],[14.5938440627282,46.4325355853144],[14.5939064988583,46.4325894537409],[14.5939727667034,46.4326289505688],[14.5941455205709,46.4327319145329],[14.5947942183322,46.4329214416912],[14.5954069847114,46.4332193415153],[14.5958569190572,46.4335944865361],[14.5962816364742,46.4340195638937],[14.5963352107598,46.4341128716258],[14.596399548731,46.4345284887203],[14.5963802807911,46.4347411990122],[14.5963199387583,46.4353352357253],[14.5961860433262,46.4358448910325],[14.5961430024306,46.4359513720845],[14.5961379259874,46.4359639309255],[14.5961387649625,46.4359786683653],[14.596149098927,46.4361601941998],[14.5960984691175,46.4364078817999],[14.5959739952118,46.4368218423367],[14.5963174412008,46.4368365505553],[14.5967755642808,46.4367415392699],[14.5976652536819,46.4367466519016],[14.5982191155107,46.4369045163827],[14.5992605063805,46.436737317755],[14.5996008410405,46.4369103517818],[14.600107823447,46.4369311091848],[14.6007518468251,46.4368437494638],[14.6011212271815,46.4368534954874],[14.6018926648539,46.4368917126148],[14.6020276557572,46.4368983995423],[14.6022874616679,46.4369112688698],[14.602946513694,46.4367967782201],[14.6036592524862,46.4369592164481],[14.6040303052263,46.4368999521582],[14.6040565573957,46.4368868175097],[14.6047022659189,46.4369433928003],[14.6047054520532,46.4369583432562],[14.6047962869574,46.437384568941],[14.604891721831,46.4376123419025],[14.6049060613079,46.4376265536732],[14.6051949807347,46.4379128980514],[14.6055131961907,46.438140103515],[14.6057414743518,46.438303092146],[14.6057782486701,46.4383256821311],[14.6058179170555,46.4383500498697],[14.6064574763711,46.4386849600143],[14.6074475838149,46.4390819797224],[14.6075317231621,46.4391101048615],[14.6075596254814,46.4391194317098],[14.6077229192735,46.4391530378359],[14.6083523092881,46.4392825647508],[14.6087540822554,46.4393493988682],[14.6093131630024,46.4394423981965],[14.6094843660585,46.4394584335453],[14.6095717625923,46.4394666192424],[14.6095903071073,46.439468356142],[14.6107893441534,46.4395247397893],[14.6108052834587,46.4395254892355],[14.6113733931476,46.4395740253435],[14.6117549490186,46.4396497260937],[14.6118703466563,46.4396733299283],[14.6125549061686,46.4396708826622],[14.6125699838274,46.439728604247],[14.6130913139429,46.4397859702992],[14.6136531939143,46.439777523254],[14.6139931940901,46.4398227563956],[14.6143975270006,46.4398435537797],[14.6153998739028,46.4399364486121],[14.615900764809,46.4397177064286],[14.6160745640792,46.4396857111045],[14.6160841105459,46.4396839536528],[14.6160948086789,46.4396785678925],[14.6162523264761,46.4395992684802],[14.6162891567489,46.439580726898],[14.6165181851602,46.4393086374848],[14.6165634369744,46.4392548772283],[14.6171656639865,46.4393007998548],[14.6177531583271,46.4391702657563],[14.6178178988298,46.4391558809806],[14.6178226236616,46.4389950003349],[14.6178242185289,46.4389406948206],[14.6182275550099,46.4389543677406],[14.6189808353486,46.4389682159471],[14.619788716626,46.4388781458967],[14.6203716920694,46.4388476034524],[14.6210683109978,46.4388311100015],[14.6221838968435,46.4386944482011],[14.6230052192869,46.4388241055943],[14.623592572104,46.4389323842507],[14.6246699433591,46.4392811383281],[14.625728147572,46.43933309981],[14.6260356408818,46.4393562381885],[14.6267999983802,46.4394451957155],[14.6277388531101,46.4392510421302],[14.6283432483342,46.4393048302761],[14.6284227780145,46.4393219130041],[14.6289699863954,46.4394032226584],[14.6292943957062,46.4394592334001],[14.6293735999595,46.4394729082172],[14.6294718349824,46.4394798892621],[14.6298498155514,46.4395067495439],[14.6303605950141,46.4395101109442],[14.6309618079198,46.4394770543138],[14.6314608614571,46.439482352294],[14.6322462903277,46.4396712975189],[14.6331131492444,46.4400219040122],[14.6334125529888,46.4401387176799],[14.6335286466255,46.4401840117699],[14.633651106652,46.4402160492785],[14.6339833480879,46.4403029681218],[14.6348873271415,46.4405354599039],[14.6354607149834,46.4406559588111],[14.6360014584707,46.440851745441],[14.6365240045397,46.4410055458609],[14.6370870307551,46.4411394091351],[14.6371488141172,46.4413211637275],[14.6375868051062,46.4416075760069],[14.6382108753212,46.4418009170816],[14.6388589176206,46.4420896081848],[14.6388487473077,46.4421121584242],[14.6395427194318,46.4424629796699],[14.640526137625,46.4428949596199],[14.6408556880418,46.4430116957611],[14.6416089630614,46.4429365049909],[14.641690789517,46.4429368861432],[14.642080998528,46.4429387029538],[14.642485980598,46.4428841023524],[14.6425688361104,46.4428729313939],[14.6430029663557,46.4428002424069],[14.643539250084,46.4427892294207],[14.643963010324,46.442829686132],[14.6439605134931,46.4428399210734],[14.6439258362339,46.4429820687452],[14.6439306262011,46.4429864355062],[14.6443487840724,46.4433676445728],[14.6451995780259,46.4435273738644],[14.6460988464698,46.4435984469206],[14.6465449001075,46.4436745909652],[14.6467845181696,46.443813884289],[14.6471222399761,46.4439983746228],[14.6477240304617,46.4441846672921],[14.648285180901,46.4442553109789],[14.6491068083363,46.4443195538055],[14.6496497379283,46.4444718271942],[14.650412209389,46.4446286379598],[14.6510295234957,46.4447510823204],[14.651664463561,46.4448244536884],[14.6523817203812,46.4449910102359],[14.653015619047,46.444860140196],[14.6534819029156,46.4448484183465],[14.6537860537158,46.444748483659],[14.6544237727593,46.4445476211097],[14.6553188440659,46.4442156355975],[14.6555730942578,46.4442675042333],[14.6556124581332,46.4442789589281],[14.65593902714,46.4443795380493],[14.6561489067051,46.4443884464341],[14.6567264146222,46.4444885178989],[14.6573980448929,46.4444816247979],[14.6581340206735,46.4445915205692],[14.6585302489839,46.4446183686722],[14.6585465604734,46.4446194738953],[14.6587352548991,46.4444384563193],[14.6587623448921,46.4444124683316],[14.6591838140904,46.4444484532868],[14.6596579066819,46.4444987185072],[14.6605711517758,46.4447977919903],[14.6610084141586,46.4450160952637],[14.6612510882119,46.4452151969952],[14.6615124114816,46.4454085953532],[14.6620542261412,46.4457905885456],[14.6626914286746,46.4460711050425],[14.6629527141976,46.4460610790082],[14.6631756147682,46.4461970497492],[14.6633986739479,46.4464342361621],[14.6636915984797,46.4469091469494],[14.6640128020721,46.4475274613479],[14.6643091876489,46.4480764254712],[14.6646816540504,46.4486792336316],[14.6649949119397,46.4489198301665],[14.6657416365203,46.4494764964706],[14.6666174350244,46.449958589641],[14.6670287068912,46.4500009409319],[14.6670562081192,46.4500037728539],[14.6673013921874,46.4498832674381],[14.6673288097444,46.4498697919283],[14.6685025220293,46.4500395533014],[14.6699585374659,46.4506460193261],[14.6703726813227,46.4506414729675],[14.6706196316873,46.4506387612994],[14.6706530253787,46.450638394575],[14.6710107651641,46.4510555610357],[14.6710210275198,46.4510675280331],[14.6710649266757,46.4510402810289],[14.6711814733686,46.4509679434728],[14.6716857899717,46.4508651210727],[14.6719699546424,46.4508071831141],[14.6747769809892,46.4506810979429],[14.67479482548,46.4506802961871],[14.6748327422925,46.4507286512231],[14.674890827137,46.4507781859038],[14.6758246634267,46.4504905053722],[14.6770310042767,46.4501237841901],[14.6771118351988,46.4499258998046],[14.6775988042484,46.4498122026956],[14.6781219742351,46.4494525390793],[14.6782095405338,46.4493257486838],[14.6792115947511,46.4492504701888],[14.6796773705636,46.4491976140643],[14.6800225453944,46.4491786970447],[14.680929112122,46.4495839328213],[14.6818336149411,46.4499882559441],[14.6825788735081,46.4497986019439],[14.6830139489968,46.4495632790527],[14.6837103097596,46.4494542746596],[14.6856202496825,46.4494475746507],[14.6858146439078,46.4493920578913],[14.6861284292739,46.4491951666979],[14.686424462249,46.4487117633602],[14.6865748927715,46.4486275144831],[14.6871489913538,46.4486358340202],[14.6878127337238,46.4481724158354],[14.6879655944534,46.4481406239289],[14.6886435140341,46.4479965410591],[14.6893499710866,46.4478461438549],[14.6905076928025,46.4478560302605],[14.6907845790349,46.4480108968137],[14.6917626062525,46.4485880815456],[14.6924153606832,46.4486359932052],[14.6928087170471,46.4484266119441],[14.6931566684618,46.4482824253141],[14.6933980829807,46.4480567096848],[14.6938492503252,46.4480050162486],[14.694229129929,46.4480622633752],[14.6943747943699,46.4480829858051],[14.6958630900582,46.4480534845572],[14.6959774277875,46.4480433520955],[14.6976483215968,46.4478990620268],[14.6982440874689,46.4477303233257],[14.6986384438829,46.4478772035483],[14.698770997443,46.4479153398999],[14.6995981106843,46.4479732064199],[14.7003619452112,46.4480351297551],[14.7009491490397,46.4481691016308],[14.7035413124899,46.4483367154013],[14.7042499942661,46.4482494804427],[14.7056837080888,46.4486871912984],[14.7058689266963,46.4488085866597],[14.7060963271116,46.448880067134],[14.7078184648525,46.4486943742501],[14.7083451773359,46.4486803338482],[14.7089590531984,46.4489924720048],[14.7097487486974,46.4492139141792],[14.7108840623541,46.4494551186622],[14.7122659491702,46.4493196907976],[14.7135796200843,46.4490855589331],[14.7152070265847,46.4486412153802],[14.7167739375915,46.4486380887553],[14.7182336166086,46.4494889359462],[14.7192273807627,46.44942093384],[14.7209011196333,46.449505822993],[14.7212231320326,46.4496107029209],[14.7215982019249,46.4491124663529],[14.722521518309,46.4475357470852],[14.7227667343263,46.447023606011],[14.7227161818016,46.4470080087202],[14.7228909195881,46.4467641652278],[14.7230874321781,46.4463326079698],[14.7230805668726,46.4457096429335],[14.7231104215204,46.4456228946984],[14.7231180839305,46.4456005108562],[14.7232491198391,46.445220976985],[14.7233363749262,46.4451079165451],[14.7235705322391,46.4449257547663],[14.7243314466599,46.4447120245103],[14.7247769541337,46.4446099024804],[14.7249868214942,46.4445719003855],[14.7251330884377,46.4445509292397],[14.7252123707933,46.4445470711257],[14.725472473621,46.4445355498776],[14.7256692483495,46.4445128099117],[14.726015403206,46.4444450829475],[14.7262001298193,46.4443850658461],[14.7266649849811,46.4444208159963],[14.7273133054134,46.4444927197063],[14.7277292023597,46.4446374817495],[14.7281850565378,46.4448611504919],[14.7283302380155,46.44490135191],[14.7285460798675,46.4448656067139],[14.7292896003017,46.4446909389029],[14.7295493879306,46.4446904738808],[14.729985875351,46.4447260534764],[14.7305927734776,46.4448063878889],[14.7312820471883,46.4448894317983],[14.7315033131999,46.4449148729961],[14.7316981065782,46.444924327073],[14.7317627775627,46.4449274477582],[14.7318603042248,46.4447597934423],[14.732006913639,46.4446950891526],[14.7321764252016,46.4445781660502],[14.732251122569,46.4444474353786],[14.7325351611628,46.4443050485307],[14.7327471677995,46.4440943857904],[14.7328616084229,46.4440601048739],[14.7329272892472,46.4439096493745],[14.733669242736,46.4436236571685],[14.73408133817,46.4433748607906],[14.7347295284327,46.4425613324698],[14.7354946877188,46.44220763515],[14.7367081327202,46.4423793078068],[14.7372991970638,46.4417972147727],[14.7374083581226,46.4414787034985],[14.737380842145,46.4411922673674],[14.7374724687158,46.4407577450247],[14.7375048544941,46.4407077063367],[14.7379793402096,46.4403041114501],[14.7380654622654,46.4402565349043],[14.7391629160358,46.4401279574741],[14.7389848033471,46.4397355538722],[14.7389956068363,46.4387540108159],[14.7390299933293,46.4383388797941],[14.7390565359942,46.4382582376633],[14.7391399368665,46.4381800644335],[14.7391973468786,46.4374940874612],[14.7395972274867,46.436762106468],[14.7396606423747,46.4367537936969],[14.7396396862668,46.4366727733681],[14.7397796363565,46.4357314701442],[14.7404299373086,46.4354230026367],[14.7405559975078,46.4350194151123],[14.7411225132177,46.4345945127923],[14.7411836124398,46.4345250145937],[14.7415062018855,46.4343323094817],[14.7422045995536,46.4341945229152],[14.742585007373,46.4341575925106],[14.7431037944424,46.433970722483],[14.7441937690962,46.4336867922878],[14.7442907145502,46.4335474661877],[14.7446177897453,46.4332544461563],[14.7447015272721,46.4331565662067],[14.744729340002,46.4327458269118],[14.7448245297004,46.432508069625],[14.745070948109,46.431260020266],[14.7452720328938,46.4309425155024],[14.7452090686191,46.4309116056188],[14.7452803914109,46.430796243431],[14.7452689068981,46.4307197436288],[14.7453468345501,46.4306389444624],[14.7456743661475,46.4302987781678],[14.7456169099234,46.4300909103862],[14.7458137282312,46.4298498693526],[14.7459445504095,46.4295582083883],[14.7461154922926,46.4293408613288],[14.7463696257661,46.4290849215876],[14.7468196535848,46.4286445273537],[14.7469007688856,46.4285204587267],[14.7468928870168,46.4279463445401],[14.746876491946,46.4275248900789],[14.7469652551358,46.4270692098858],[14.7472945443868,46.425497176857],[14.7474511578859,46.424941419711],[14.7479193567403,46.4241060036794],[14.7489384204037,46.4228678318435],[14.7493371986462,46.4226934453961],[14.7502706923216,46.4226031785644],[14.7503057086923,46.4225989364702],[14.7509393692177,46.4219260844497],[14.7513201602008,46.4214414359596],[14.7513306075837,46.4209176543635],[14.7515893760965,46.4205437622859],[14.7518545254317,46.4201677241678],[14.7519027567559,46.420117805577],[14.752841146593,46.4194227510494],[14.7528738588961,46.4193808957898],[14.7521425937474,46.4186375118236],[14.7511869953844,46.41771135627],[14.7499481695026,46.4165994156218],[14.7484766206877,46.4161499379931],[14.7479827904944,46.4157887912736],[14.7471823565164,46.4152032998061],[14.7460586024494,46.4143838831501],[14.7451591598622,46.4141741418569],[14.7436636504413,46.4138080407983],[14.7428973096478,46.4133188633801],[14.742237224264,46.4128915497396],[14.7419571123484,46.41271025838],[14.7408223913356,46.4119816348141],[14.7394500855811,46.4111103062803],[14.7375814533496,46.4099175301298],[14.7372119757762,46.4096629663053],[14.7367570636845,46.4093507138132],[14.7361157030002,46.4088364066102],[14.7359191401994,46.4086271324588],[14.7356927509868,46.4083459029784],[14.7353392926408,46.4079834060074],[14.7351916112789,46.4078338938215],[14.7348628585961,46.4075009627225],[14.7334302861196,46.4068688318096],[14.7316742367477,46.4058218821077],[14.7311293586492,46.40527709314],[14.7308802146241,46.4043678092266],[14.7321589094053,46.4030443818693],[14.7328764716086,46.4022070887938],[14.7338231253941,46.4011896644913],[14.7346846507687,46.400261465053],[14.7349328252269,46.3994198298223],[14.7352026622461,46.3985072576145],[14.7356296663715,46.3970651235536],[14.7367154916813,46.3957144764299],[14.7371823332725,46.3950892674523],[14.737416993356,46.39477500062],[14.7387369675615,46.3938765218864],[14.739658136115,46.3931884607576],[14.7399776687429,46.392986754624],[14.7401452768543,46.392767698098],[14.7404069025803,46.3919161837388],[14.7404384848925,46.3915077903],[14.7410057240891,46.390917071784],[14.7404464650398,46.3895500544533],[14.7393773336019,46.3882854290654],[14.7381340151847,46.387513342277],[14.7368252541178,46.3868390690075],[14.7353769710775,46.3860404787208],[14.7342302067976,46.3848978045347],[14.7337281262015,46.3844121459557],[14.7332260545008,46.3839264851499],[14.7311840042715,46.3838749186047],[14.7291484890888,46.3838171231126],[14.7274726442627,46.3837726549765],[14.7250118428246,46.3836964972332],[14.7246506734311,46.3839565424067],[14.7246141746624,46.3839757081893],[14.7243140973204,46.384134142847],[14.724167186111,46.3842117929403],[14.7239044724852,46.3842822355974],[14.7237712925874,46.3843179921182],[14.7230283953736,46.3844511508744],[14.7227564114596,46.3845032144749],[14.7221225185632,46.38462439558],[14.7220947815452,46.3846332352492],[14.7216365387633,46.384778232683],[14.7212928875911,46.3848869796266],[14.7204723916767,46.3856252534709],[14.7195966378488,46.3863087738369],[14.7193665645244,46.3865777607373],[14.7189813258074,46.3874147987801],[14.7188358550362,46.3876898405025],[14.7182327922559,46.3880517464951],[14.7178414863187,46.3882188463154],[14.717085226599,46.3888868971108],[14.7166669629297,46.3895128648923],[14.7165362638463,46.3896688194702],[14.7164381414122,46.3897858075521],[14.7163090115313,46.3899397864068],[14.715660074693,46.3901638203235],[14.7150110030036,46.3903877602437],[14.7146372599871,46.3905978086458],[14.7142635141051,46.3908078558122],[14.7134300184802,46.3914855858767],[14.7131981125714,46.3920944633288],[14.7131934161609,46.392991005475],[14.7134025021282,46.3935130873552],[14.7132900655123,46.3939523102891],[14.7125410243265,46.3952505900974],[14.7119505112901,46.3963422426279],[14.7109024829263,46.3970169838793],[14.7102228083214,46.3974020456336],[14.7098960485345,46.3975923139218],[14.7093488225115,46.3976928606845],[14.7088155200603,46.3976446295555],[14.7082401018959,46.3975200837308],[14.7076217664143,46.3975185045429],[14.707146197308,46.3977634461919],[14.7068480751834,46.398067411462],[14.7068120047118,46.3984892792333],[14.706834821033,46.3989639304954],[14.7067306834075,46.3994441942527],[14.7064316382867,46.3999181096459],[14.7063366399479,46.4002694691748],[14.7062164342696,46.4005680413345],[14.7058676361837,46.40086017759],[14.7054171020003,46.4011344166004],[14.704983887272,46.4013794582044],[14.7046098413214,46.4016245610331],[14.7043969472629,46.4018174467553],[14.7042682743298,46.402115994903],[14.7043172243761,46.4024677247742],[14.70446825526,46.4027493618023],[14.7045939553086,46.4030016928966],[14.7045750244221,46.4033766394712],[14.7044214277191,46.4035696783459],[14.7038694851212,46.4038319528768],[14.7034952267984,46.4041122297228],[14.703188564376,46.4044220110417],[14.7028210969705,46.4050071219721],[14.7026590250473,46.40522604779],[14.7023866902305,46.4054396481526],[14.7022619337144,46.4054928556239],[14.7021108440218,46.4055572406303],[14.7020627404402,46.4055777184705],[14.7020613058828,46.4055784344938],[14.7020416215562,46.4055867504282],[14.7020348423695,46.4055897017784],[14.7017583428881,46.4057075616113],[14.701485015183,46.4059113504818],[14.7010333454828,46.4066198545801],[14.700893280183,46.4071649768506],[14.7014118181926,46.4086952829097],[14.7015926735331,46.4097095372602],[14.7014549043728,46.4101194409831],[14.7011397101264,46.4104350422707],[14.7011877191002,46.4109567238502],[14.7012016542385,46.4115251907086],[14.7009269468265,46.4120232662722],[14.7003471768482,46.4128590092712],[14.7001130744748,46.4138253028623],[14.7005606139306,46.4149778209662],[14.7004690497627,46.4153792069836],[14.7000516452981,46.4157765898203],[14.6996690874082,46.4160099574843],[14.699184897503,46.4162255124456],[14.6988373812705,46.4162597760766],[14.698421444201,46.416387606902],[14.6980980316703,46.4166504554312],[14.6977310748785,46.4171183193457],[14.6974828161608,46.4175981921744],[14.6973037231049,46.4178027596949],[14.6969121637015,46.4181299328323],[14.6964666566808,46.4184021697818],[14.6963648360695,46.4184652382967],[14.6962673193474,46.4185497309834],[14.69588260863,46.4188831266662],[14.6957509408602,46.4189326197746],[14.6956194029425,46.4189821130768],[14.6953990632605,46.4189756783913],[14.695078103445,46.4187931739042],[14.6948169241249,46.4185287755147],[14.6945036392744,46.418486912815],[14.6941052750297,46.4184916960352],[14.6937996595484,46.4185904748524],[14.6935953458328,46.4187657287937],[14.6933317754522,46.4189291273998],[14.6931099240088,46.4191922340054],[14.6930064486187,46.4195260144303],[14.6929281113005,46.4198774063651],[14.6927657720618,46.4201289759544],[14.6925358195569,46.4203275512414],[14.6922042618456,46.4205259426202],[14.6918564191933,46.4205894243443],[14.691517855558,46.4205299412475],[14.6908753851381,46.4202411126619],[14.690123129642,46.4199050187663],[14.689362130821,46.4195982263303],[14.6888800651569,46.4194504449759],[14.6876170679219,46.4195056624847],[14.6868366608589,46.419638303043],[14.686343999577,46.4198420842413],[14.685766341674,46.4200983521438],[14.6854016159768,46.4201559198102],[14.6850123312392,46.4200727957763],[14.684301954213,46.4198129833864],[14.6835066229193,46.4195998957739],[14.682533062274,46.4194330923466],[14.6814655434871,46.4194067318572],[14.6808039373047,46.4195103319026],[14.6800665061828,46.4195434495529],[14.6794735583278,46.4195183970881],[14.6785155110298,46.419591912475],[14.6781136253279,46.4195744975038],[14.6777441159816,46.4196483118389],[14.6768947629968,46.4199741254866],[14.6761196353673,46.4201763445032],[14.6756049843609,46.4202635061787],[14.6751141905585,46.420144882257],[14.6744541325312,46.4199848382405],[14.6739377313075,46.4199071626293],[14.673387307276,46.4198411735784],[14.6729638091393,46.4198047851125],[14.6723704860813,46.4198207210109],[14.6717423896919,46.4199947210657],[14.6709524593651,46.4202971789796],[14.6705614661937,46.4205011846531],[14.6702808720327,46.4206702391355],[14.6697462249069,46.4207917752471],[14.6690158075313,46.4210593033447],[14.6687018886693,46.4211874111746],[14.668616594643,46.4212221623327],[14.668416921989,46.4213036360956],[14.668213726892,46.4213866287774],[14.667818030561,46.421548055654],[14.6668213204726,46.4221296004118],[14.665837375268,46.4225561557046],[14.6653628856751,46.4225371342285],[14.6649569170793,46.4224188049031],[14.6645338004366,46.4223178779836],[14.6642456341158,46.4223171223164],[14.6639482922959,46.4224333897219],[14.6637343315808,46.4227843629331],[14.6636659195348,46.4228867273701],[14.663597507232,46.4229890917638],[14.6631808239116,46.4232163887051],[14.663044981943,46.423261153407],[14.663008219007,46.4232731910129],[14.6629110962394,46.4233051139849],[14.6628801993802,46.4233152794732],[14.6627392730401,46.4233616482807],[14.6624408373071,46.4236537095509],[14.6623366958314,46.4240636644814],[14.6621319714946,46.424285735134],[14.6618617530292,46.4244106243369],[14.6618109974496,46.4244340463492],[14.6618061697515,46.4244362813184],[14.6617939050726,46.4244419131474],[14.6617665045505,46.424454607827],[14.6599186003171,46.4245005005345],[14.6599038964916,46.4245008166891],[14.6598772204339,46.4245015470861],[14.6598809939673,46.4245014683387],[14.6598544485712,46.4245021091492],[14.6598413059755,46.4245024299391],[14.6593163403588,46.4246055921809],[14.6589080472221,46.4248387465285],[14.6586272112306,46.4250371917085],[14.6582709543342,46.4250830020211],[14.6576946875446,46.4250871267021],[14.6565426858604,46.424989924345],[14.6559159547332,46.4249294701224],[14.6552315602757,46.4246051371475],[14.6544628289388,46.4242043408455],[14.6533551592345,46.4238083605552],[14.6524091836078,46.4232957203392],[14.6518108395275,46.4222542087846],[14.6514683603738,46.4219977411833],[14.6509696905125,46.4217735449998],[14.6504116438783,46.4215784953195],[14.6495908645204,46.4213943342912],[14.6490157036956,46.4212928839726],[14.6487874923305,46.421134016348],[14.6487099786924,46.4207251351383],[14.6479009594526,46.4198689230691],[14.6477459491943,46.4196775296284],[14.6475898689972,46.41957160407],[14.6474337894047,46.4194656782983],[14.6469431400487,46.4193352378027],[14.6462911009998,46.4192570185221],[14.6457573800942,46.4192495185313],[14.6452754585831,46.4190780716345],[14.6448703809084,46.4188131127072],[14.6444248946818,46.4182609327209],[14.6440143463968,46.4175388165481],[14.6433176846062,46.4170259765898],[14.6424783301969,46.4165730561746],[14.6421148555826,46.4157599405484],[14.6421190633868,46.41549454235],[14.641693804425,46.4147422315076],[14.6411739618347,46.4142518847435],[14.6407009675483,46.4136609163824],[14.6403732309468,46.4132555611189],[14.6399726934542,46.4123107854929],[14.6395455700656,46.411553512007],[14.6391246711637,46.4111361632347],[14.6384239747254,46.4107413208073],[14.6377572363075,46.4103465816232],[14.6371752590984,46.4099404113593],[14.6369732079786,46.4097521826065],[14.6365361343261,46.4092293279136],[14.63602408609,46.4085010111809],[14.6358733277942,46.4082485250984],[14.6357240009973,46.4077616713081],[14.6356086228176,46.407274925456],[14.6354021796653,46.4064597682039],[14.6351096301386,46.4058610737595],[14.6343126630997,46.4046865773233],[14.633481080362,46.4036174091604],[14.6330783364491,46.4031268600019],[14.632359973619,46.4027699805191],[14.6316494811609,46.4025977406299],[14.6304741837342,46.4022716758788],[14.629791611063,46.40174206313],[14.629188384365,46.4007321727667],[14.6286194892133,46.3996873021494],[14.6276313284577,46.3979964273734],[14.6272889816049,46.3972627744072],[14.6272743506417,46.3969287571419],[14.6274289076019,46.3966127454065],[14.6275672351695,46.3961971734776],[14.6276039145623,46.3957753323554],[14.6273447608364,46.3940164687363],[14.6270581529652,46.3925680920243],[14.6270369389005,46.3919410196126],[14.6272630652313,46.3910802908473],[14.6275302843718,46.3903897393363],[14.628019371825,46.3894419639657],[14.6281931236767,46.3888037393216],[14.628181582225,46.3879950479334],[14.6278817138617,46.3872556854705],[14.6274969765593,46.3865512241407],[14.6270350948932,46.385969589402],[14.6266686623609,46.3856724809855],[14.6263023638109,46.385375371816],[14.6252642098525,46.3848445678801],[14.621885231708,46.3836204637023],[14.6211846054171,46.3832841745858],[14.6210204534047,46.3831458859055],[14.6208563015977,46.3830076869571],[14.6206047837293,46.3826259177688],[14.6205899538293,46.3823269866107],[14.6202721809166,46.3817516502076],[14.619710373368,46.3813487847852],[14.6190331251266,46.3809096338166],[14.6182216343243,46.3807076428468],[14.6174535850223,46.3803359270961],[14.6171936192115,46.3799776042632],[14.6171298570548,46.3793914127252],[14.6170582493902,46.3792210386686],[14.6169966149912,46.3790745401587],[14.6166448067561,46.3785224716777],[14.6155503620887,46.37761639283],[14.6148588777104,46.3771980421411],[14.614039627404,46.3769080939548],[14.6137609773766,46.3767900114522],[14.6136614816553,46.3765024892619],[14.6134006427263,46.3762555381924],[14.6131393340681,46.3761674729909],[14.6129614113722,46.3761074903557],[14.6125647588914,46.3759128003837],[14.6123399626594,46.3756986283008],[14.6122977412401,46.3756583582773],[14.612292447478,46.3756533019761],[14.6122872824293,46.3756484260522],[14.6122865076084,46.3756477036605],[14.6122719172742,46.3756337987198],[14.6122242728564,46.3755883819575],[14.6117726309916,46.3753768581758],[14.6114853422044,46.3753056154491],[14.6111306599966,46.3751696339208],[14.6109381023241,46.3748466142664],[14.6106871532597,46.3744180399014],[14.610485198389,46.374247397682],[14.6103846327316,46.3742047688996],[14.6103645456154,46.3741962432211],[14.6103603983386,46.3741945196484],[14.6103479571496,46.374189258961],[14.6102810859596,46.3741609602508],[14.6100949949377,46.3740994157934],[14.6095895488425,46.3739806395213],[14.6093835347103,46.3738331039347],[14.6091643947994,46.3735760288544],[14.60870800687,46.3729228107961],[14.6078449514868,46.3716658434221],[14.6073837393533,46.3710372552715],[14.6069547796014,46.3706431496724],[14.6061634532768,46.3699957871171],[14.6057925119759,46.3697777695918],[14.6053875711784,46.3695887840394],[14.6046856192474,46.3694750658353],[14.6039746720552,46.3694374273801],[14.6033181541757,46.3694938127672],[14.6026616356219,46.3695501044119],[14.6020188311542,46.3694717538796],[14.6008510772264,46.3693914786443],[14.599929908718,46.3691480378381],[14.5991348727482,46.3690398079469],[14.5982020913925,46.3692475156015],[14.5974132666942,46.3694440263459],[14.5970826240876,46.3695131289473],[14.5961246549725,46.3696973385116],[14.5954890952497,46.3697654491599],[14.5946574495135,46.3700379046086],[14.59415679419,46.3701943873245],[14.5936131569547,46.3704326784043],[14.5928570026392,46.3707933803166],[14.5923906955297,46.3708737724022],[14.5920072980814,46.3712005282317],[14.5914213116365,46.3714504439125],[14.5908269167976,46.37167684415],[14.5900419758002,46.371363454074],[14.5892295495787,46.371301967739],[14.5882803245078,46.3714391782642],[14.587536099179,46.3713310507045],[14.5866076154268,46.3709409140224],[14.5861682774924,46.3708221831276],[14.5854232669814,46.3708194846069],[14.5851446185772,46.3707305726977],[14.5846959784599,46.3705707757578],[14.5844613622764,46.3706746493361],[14.5841445730647,46.3707306291388],[14.5837176229437,46.370795743991],[14.5831507645316,46.370833446097],[14.5828001050854,46.3707796244336],[14.5823838307281,46.3706204763219],[14.5817250071846,46.3705314266466],[14.5808588662039,46.3702733682764],[14.5800519336282,46.3703295185272],[14.5791875669588,46.3704511303546],[14.5786277230556,46.3704556366665],[14.5772461474798,46.3706311086622],[14.5764327363979,46.3707339042127],[14.5757968240129,46.3708428407693],[14.5754336690977,46.3707418954878],[14.5750608013605,46.3707873852497],[14.5747372129517,46.3710147078948],[14.5737537532103,46.3712044833275],[14.5729428105172,46.3709552979105],[14.5719365719277,46.3707992152761],[14.5710525525794,46.3712529538046],[14.5705755952068,46.371626251508],[14.5705046342967,46.3718573896045],[14.5705930765926,46.3719995155345],[14.5708675487686,46.3720386034623],[14.570891685876,46.3723423450632],[14.5709293580308,46.372826528613],[14.5703806807037,46.3731443142969],[14.5699205868452,46.373088782383],[14.5697519357552,46.3728982199045],[14.569647945618,46.3729649467178],[14.5695777434765,46.3728505997015],[14.5689607595796,46.37348958661],[14.5679144801656,46.3738736814741],[14.5669577058562,46.3741148724543],[14.5666925523186,46.3742607001447],[14.5667593939403,46.3743885317703],[14.5670433409546,46.3744634730687],[14.5670263215681,46.3745774914014],[14.5665791705786,46.374692219512],[14.5663934428348,46.3748042486326],[14.5663931785963,46.3748047874545],[14.5663930486132,46.3748047869616],[14.5663930479011,46.3748048769296],[14.5663929164939,46.3748050563726],[14.5663926536795,46.3748054152586],[14.5663926522554,46.3748055951945],[14.5663925222723,46.3748055947016],[14.5663925208482,46.3748057746375],[14.566392390153,46.3748058641125],[14.5663922580337,46.3748061335235],[14.5663921266265,46.3748063129665],[14.566350287815,46.3748698535246],[14.566297975214,46.3750257541841],[14.5663014782415,46.3750257674697],[14.5663429398082,46.3750427492164],[14.5663789598902,46.3750574610489],[14.566477952306,46.3750812287393],[14.566594937105,46.3751146014234],[14.5666654734669,46.3751205368847],[14.5667285454945,46.3751169971055],[14.5668268091717,46.375101444567],[14.566913446461,46.3751096001594],[14.567022230657,46.3751280062237],[14.5671123889567,46.3751347354667],[14.567184034931,46.3751318576869],[14.5673284746853,46.3751288954248],[14.5674016470322,46.3751467165286],[14.5674231589989,46.3751550752033],[14.5675844932778,46.3752184848781],[14.5676372654724,46.3752517936073],[14.5676952853762,46.3752790041479],[14.5677389800179,46.3752931147693],[14.5677825581843,46.3753055154918],[14.5678126499438,46.3753138165503],[14.5678423439529,46.3753231057747],[14.5678435109727,46.3753234700675],[14.5678819062547,46.3753502464656],[14.5679016754815,46.3753818108859],[14.5679788936303,46.3754141321773],[14.5680627616562,46.3754438693861],[14.5681221435274,46.3754632574091],[14.5681820082947,46.3754708610729],[14.5682250703104,46.3754828098242],[14.5682705970915,46.3754953976589],[14.5683091730233,46.3755157866804],[14.5683218590696,46.3755224923958],[14.5683661628785,46.3755418233726],[14.5683934996581,46.3755533528215],[14.5684247442193,46.3755473527405],[14.5684760439973,46.3755366598892],[14.5685356167245,46.3755318463198],[14.5686171288738,46.3755471789328],[14.5686870224711,46.3755523009862],[14.56875296696,46.3755637060478],[14.5687987787655,46.3756061649934],[14.5688221357947,46.3756444006075],[14.5688413885611,46.3756756030337],[14.5688669018814,46.3757041299412],[14.568911679021,46.3757291709729],[14.5689197050596,46.3757336594262]]]},"properties":{"fill-opacity":0,"stroke-opacity":1,"stroke":"#ff0000","lov":"1401","lov_naziv":"SOLČAVA","luo":"14","luo_naziv":"Kamniško Savinjsko","povrsina":6045.7},"id":"pregledovalniklovisca.1"}]}