{"type":"FeatureCollection","features":[{"type":"Feature","geometry":{"type":"GeometryCollection","geometries":[{"type":"Polygon","coordinates":[[[14.7410022041874,46.2475876198331],[14.7406764990143,46.2474359975445],[14.7402954375819,46.2474730110437],[14.7400764006454,46.247774551189],[14.7395610431946,46.2474148377246],[14.7389357638296,46.2473192103867],[14.7382007839959,46.2474120909361],[14.7374656218529,46.2475426648467],[14.7371110701006,46.2477307025672],[14.7367605823803,46.2478548680208],[14.736008581075,46.2477900633494],[14.7351195353437,46.2477724418243],[14.7347329738009,46.2475502130782],[14.7341177199796,46.2475014583599],[14.7341423246549,46.247106176096],[14.7344407882564,46.2466640247038],[14.7346933172917,46.2462533462947],[14.734740184625,46.246000452118],[14.7346273618452,46.245731352189],[14.7342641745733,46.2453985097277],[14.7338559565662,46.2449390597894],[14.7334698029959,46.2446377416797],[14.7332483146729,46.2443694666195],[14.7332444354132,46.2440996296796],[14.7333381504498,46.2435462467233],[14.7333396297427,46.2432141611815],[14.7332271789624,46.2428976450227],[14.7328867115242,46.2425648510264],[14.7325236325661,46.2422161679114],[14.7321616356712,46.2416460634401],[14.7320954257527,46.2411557372301],[14.731893009032,46.2405701704357],[14.7316207728063,46.2403165285298],[14.7306663253179,46.2396977912016],[14.7300978641478,46.2393802865738],[14.7295986493255,46.2389047708823],[14.7292030457351,46.2381918804864],[14.72889652274,46.2379544358298],[14.7284196055162,46.2375896341929],[14.7282384730556,46.2373520356694],[14.7282860395116,46.236909392901],[14.7282416488139,46.236656194077],[14.7280379345745,46.2363711258804],[14.7276059200424,46.2361330192094],[14.7272420279291,46.2359899047194],[14.7265135189861,46.2357985018045],[14.7256265616547,46.2354013062826],[14.7243742648553,46.2351297253769],[14.723964908125,46.2349548203971],[14.7238519724085,46.2347490498592],[14.7239447346498,46.2344012591819],[14.7239689015056,46.2341324788636],[14.723400536434,46.2338149408392],[14.7231508228091,46.2336088385721],[14.7231745955374,46.233419143516],[14.7234261646796,46.2332299097699],[14.7234501749028,46.23299270958],[14.7230219754224,46.2319796588455],[14.7230005891189,46.2316950230044],[14.723072522091,46.2309518417651],[14.7228915434278,46.2306668191724],[14.7230760508616,46.2302244199097],[14.7228728940643,46.2298128417014],[14.7228286130942,46.229543895471],[14.7225578071363,46.228973980333],[14.7223808542572,46.227866524545],[14.7220869755812,46.2273756382629],[14.7220662346872,46.2269644117211],[14.7221860184346,46.2257311743149],[14.7211203856788,46.2246376581502],[14.7208483080607,46.2243524097455],[14.7202377256469,46.2233864072744],[14.7195809419555,46.2225625353235],[14.7191736600909,46.2219765313585],[14.7188347788622,46.2213748588753],[14.7180642650759,46.2205191176328],[14.7176570470936,46.2199014377073],[14.7172518345298,46.2189200902678],[14.7166170174481,46.2182544275494],[14.7157785195811,46.2173511760589],[14.715189361608,46.2166856187261],[14.7146664063538,46.2164788162515],[14.7132527504335,46.2166970628965],[14.7128424117565,46.2167435387357],[14.7120438823395,46.2169631338752],[14.7113373294615,46.2169931125536],[14.7105862787808,46.2168332210478],[14.7095383192795,46.2168149979991],[14.7082628375132,46.2167330238851],[14.7078975309839,46.2168902637461],[14.7072371884653,46.2168096682795],[14.7068954859719,46.2167930474541],[14.7063939393268,46.2168551915066],[14.7060975227423,46.2169019356508],[14.7058248856027,46.2167431517718],[14.7056441727451,46.2164580118504],[14.7046886501824,46.2161711427727],[14.7039588267106,46.2163117725907],[14.7033665059261,46.2163103272324],[14.7031148603053,46.2165153524584],[14.7028189956056,46.2164355874051],[14.7025921641163,46.21624524434],[14.7029116472039,46.2161511534135],[14.703254748227,46.2158831149699],[14.7035067308322,46.2156148392121],[14.7035535849585,46.2153619564048],[14.7034182101682,46.2151086009735],[14.7034203792611,46.2146815943023],[14.7036504803542,46.2142393434],[14.7036999153336,46.2138918154529],[14.7038823625898,46.2134650058561],[14.7037122464873,46.2130689533018],[14.7035221671407,46.2126259726976],[14.7031826620205,46.2121824239431],[14.7031202603247,46.2118813917405],[14.7026417611744,46.2110424981611],[14.7019867556972,46.2099655233423],[14.7019902593216,46.2092697699018],[14.7025633667937,46.2085910651009],[14.7028840405063,46.2082438826321],[14.7035231672684,46.2080081925751],[14.703638649,46.2076922361861],[14.7043245654682,46.2071877329813],[14.7045081243797,46.2069352028908],[14.7050334059587,46.2066833747411],[14.7052854218357,46.2063993494118],[14.7059024242023,46.2060054160068],[14.7064744383392,46.2055165319537],[14.706770877572,46.205453951519],[14.7073650974343,46.2050757870126],[14.708634779782,46.204585706666],[14.7066003151515,46.2017345587746],[14.7058452880301,46.2009772926621],[14.7045847941182,46.2000781780853],[14.7041440429461,46.1999221042378],[14.7029787486677,46.1999770254369],[14.7020211038463,46.2000901490847],[14.7016265596343,46.1999448028115],[14.7012545218392,46.1994963038531],[14.7007979225154,46.1992786339066],[14.7004444302877,46.1992344310271],[14.6997413312984,46.1992180108659],[14.6986643191186,46.1991010009211],[14.6977776320974,46.198940397191],[14.6965865760576,46.1988054313432],[14.6954207752783,46.1986969725356],[14.6943432463532,46.198676641844],[14.6931035806305,46.198710839573],[14.6921659654526,46.1988339214997],[14.691354355095,46.1991304447107],[14.6905694448031,46.1992162268756],[14.690089202604,46.1991094772525],[14.6894840850485,46.1987213997238],[14.6880900187899,46.1984944707984],[14.6866251951983,46.198590785148],[14.6855389810478,46.1982540913058],[14.6843499497818,46.1981806352665],[14.6839470650919,46.19782817617],[14.6831335825962,46.1975661712024],[14.6826097457841,46.1975648080495],[14.6813788054515,46.1977513177551],[14.6804677835413,46.1977331196825],[14.6799887269632,46.1978741175716],[14.6791221528363,46.1980772776987],[14.678322009668,46.1985967845838],[14.6779082124468,46.1992753681755],[14.6778381181918,46.1996071723131],[14.6774034081852,46.199937948087],[14.677102836194,46.2007275152457],[14.6769427197839,46.2008534754126],[14.6762128445403,46.2010254189668],[14.6752775479975,46.201291696409],[14.67459177971,46.2017165798844],[14.6742724260908,46.2017947569649],[14.6739062808466,46.2020941340272],[14.6732660095155,46.2025349745618],[14.6727851098979,46.2029762677455],[14.6722134835658,46.2033541375312],[14.672667244726,46.2036872591266],[14.6733041973225,46.2038312388811],[14.674121511494,46.2043076407507],[14.6748451312316,46.2052264387204],[14.6749112207227,46.2056217891945],[14.6751600685702,46.2059227372712],[14.6752256950584,46.2063971726744],[14.6752666889422,46.2072034492664],[14.6754681047437,46.2078362630157],[14.6760349967077,46.208311939701],[14.6769220493291,46.2085356040898],[14.6774673549303,46.208805803798],[14.6778168751345,46.2092485577234],[14.6778953349309,46.2096604961148],[14.6777796094748,46.2099921710418],[14.6773439839181,46.2104651910117],[14.6770452987511,46.2109227609336],[14.6767907759221,46.2112301997263],[14.6766563352623,46.2117458156134],[14.6761131854188,46.2117880950516],[14.6754326758689,46.2119371400471],[14.6747098348039,46.2123407745229],[14.6741770335578,46.2128015392749],[14.6735202008675,46.2135450028314],[14.6731782537096,46.2139024787269],[14.6729310578381,46.2143451593084],[14.6728476873924,46.2146562277242],[14.6724775755776,46.2151928472728],[14.6719989777775,46.2156632041004],[14.6714109710322,46.2162653249661],[14.6703458890936,46.2170547416343],[14.6694999094654,46.2175712637827],[14.6686406045702,46.2180593994944],[14.6681232797624,46.2181711749868],[14.667852395476,46.218319203739],[14.6678522983326,46.2186362684809],[14.6645752404017,46.2217111558989],[14.6658147358178,46.2257455746996],[14.6666227331355,46.2265190016832],[14.6673507033145,46.227281393275],[14.6676421925505,46.2275502703244],[14.6677145895908,46.2275190802216],[14.6677353511962,46.2275803221384],[14.6675847328196,46.2278773347193],[14.6677414638905,46.2276415214787],[14.6671336536132,46.2290887668816],[14.6670204700193,46.229454177042],[14.6668243004054,46.2298001810356],[14.6666805866698,46.2306466767014],[14.6668724771298,46.2310514840279],[14.666926451552,46.2313018557793],[14.6669509490063,46.231860118662],[14.6671337751296,46.2321354281502],[14.6669465507532,46.2326300933478],[14.666636928749,46.2333607599582],[14.6664114818584,46.2339568020435],[14.6661874169456,46.2343027232793],[14.6662675165976,46.2348418941716],[14.6663204416106,46.2352655505657],[14.6668188502482,46.2354786201258],[14.6672327435799,46.2359032374579],[14.6671751560211,46.2362495549716],[14.6670618407281,46.2366343084788],[14.6671991917884,46.2368849226274],[14.6689979666947,46.2378138048226],[14.6692629278131,46.2383218379313],[14.6691215476557,46.2391276744787],[14.6691626642297,46.2399022786133],[14.669363082695,46.2407090138251],[14.6697215180333,46.2417848635951],[14.6702165827104,46.2428926866286],[14.6710101013817,46.243645704626],[14.671370806015,46.2443500581721],[14.6712059562432,46.2452664953101],[14.6731086940809,46.2452338030353],[14.6752589403516,46.2456929429184],[14.6775472770539,46.2463832116012],[14.6778694388629,46.2465333843097],[14.6781370199053,46.2468141326504],[14.6783762312734,46.2473562608992],[14.6790717984352,46.2481236122544],[14.6795000030082,46.2485728768474],[14.6792265710132,46.249337686567],[14.6788207809719,46.2496913990988],[14.6786023343929,46.2502323299996],[14.6784362873395,46.2510160637462],[14.6782176335424,46.2516130460878],[14.6780012292682,46.2517805054896],[14.677945875982,46.2520418097192],[14.6779441477223,46.2523592278793],[14.6782922305927,46.2526961651965],[14.678258434453,46.252886361942],[14.6787833516751,46.2527928269477],[14.6794241673411,46.2523516908817],[14.6800648811788,46.2519262960978],[14.6806593281047,46.2516273598138],[14.681572759704,46.2513608896391],[14.6826675044282,46.2512727012592],[14.6841034895516,46.2513395686872],[14.6851726606282,46.251753422303],[14.6861734477238,46.2521987485249],[14.6870801064147,46.2531657388302],[14.6878520777927,46.2537369250703],[14.68803020993,46.2545280894167],[14.6883016379546,46.2549241687549],[14.688232030595,46.2551454012033],[14.6884821581811,46.255272494303],[14.6888919104839,46.2553841861643],[14.6893927963403,46.2555277944791],[14.6898454439531,46.25612985933],[14.6897521621224,46.2565249451623],[14.6896820230994,46.2568410979089],[14.6899546335504,46.257031499388],[14.6905937600289,46.2569066395624],[14.6915040808939,46.2572250826282],[14.6923914947485,46.2575593819164],[14.6934856627716,46.2575937208838],[14.693962784663,46.2579111620897],[14.6942132016647,46.2579908278955],[14.6946872754655,46.2579473785487],[14.6954321198175,46.2580794652598],[14.6960037722214,46.2582172048743],[14.6965996225771,46.2586011703506],[14.6971450374035,46.2586997865925],[14.6974131457827,46.2587481818415],[14.6991674263854,46.259355536257],[14.6993463341701,46.2594207869814],[14.6997991323807,46.2594030825751],[14.7005120216457,46.2595732005362],[14.7006856503165,46.259560159355],[14.7007833508015,46.2597223653838],[14.700797274163,46.2597619896713],[14.700891888799,46.2598000256351],[14.7012552024004,46.2597793821543],[14.701549071926,46.2598629242327],[14.702262222098,46.2599390108063],[14.7022742541158,46.2605199937858],[14.7023249279453,46.2604324926374],[14.7025569611447,46.2600301102356],[14.7027561047039,46.259736418449],[14.7029935666062,46.2594806142519],[14.7033382257318,46.2590460426808],[14.7034571408462,46.25888350113],[14.703667825982,46.2587090510665],[14.7036683472471,46.2587086025556],[14.7038024478714,46.2585440306283],[14.703802447767,46.2585440500173],[14.7040246845541,46.2582713599535],[14.7046243413803,46.2577878694486],[14.7040248142635,46.2582713602893],[14.7046253833944,46.2577870623889],[14.7046255131026,46.257787062724],[14.7057714999919,46.2578601061083],[14.7057716292192,46.2578601964132],[14.7070901803289,46.2579732583931],[14.7070903100377,46.2579732587254],[14.708779478856,46.2578849021526],[14.7105191718128,46.2578074452468],[14.7108243216122,46.2577938218668],[14.7113102031267,46.2577714769759],[14.7113255124842,46.2577707958516],[14.7115667143797,46.2576583092733],[14.7118673359489,46.2575184403848],[14.7119115986577,46.2574876014119],[14.7119220134332,46.257480339888],[14.7121253559482,46.2573395953599],[14.7126445446603,46.2574210668559],[14.7127277492172,46.2574342319743],[14.713379991078,46.2574717679311],[14.7140766773698,46.2573935268472],[14.7148975558397,46.2575784906784],[14.7152792347821,46.2576645557084],[14.7152793644902,46.2576645560314],[14.7152794941983,46.2576645563544],[14.7167498098346,46.2574774668761],[14.7172669058061,46.2574377193484],[14.7173051852649,46.257434754941],[14.7173053149725,46.2574347552617],[14.7173845986614,46.2574286531988],[14.7173849877841,46.2574286541606],[14.7176705531543,46.2573886921501],[14.7183526625495,46.2572933842266],[14.7198618310534,46.2570885358832],[14.7215105011932,46.2571759680051],[14.722130337163,46.257209866181],[14.7227501784467,46.2572428612848],[14.7242193236016,46.2572043073402],[14.7245715288799,46.2571950794371],[14.7247679529548,46.2572897535772],[14.7253085726977,46.2575508940619],[14.7258964336123,46.2578337386219],[14.7261865475382,46.2579736210917],[14.7266153564776,46.2580286306764],[14.7267224286914,46.2580424724828],[14.7270883750904,46.2579836049023],[14.7276345009271,46.2578960144583],[14.7287466287824,46.2577924909363],[14.7292777592691,46.2577199724285],[14.730047712649,46.257615175659],[14.7300591583122,46.2576088146418],[14.7306337790021,46.2572895082027],[14.7316237038211,46.2569997856974],[14.7318077627276,46.2569459642264],[14.7325355820282,46.2567535986542],[14.7326762072397,46.256722347219],[14.7332950581258,46.2565852349592],[14.7338832475828,46.2564579449515],[14.7356884404538,46.2560671534374],[14.7358374981107,46.2560348379352],[14.7371154832499,46.2557106437681],[14.7383696021524,46.2553834115983],[14.7389436052775,46.255233839877],[14.739576295989,46.2552350128379],[14.7396142988612,46.2552350993936],[14.7396744813102,46.2552351464674],[14.7410436249962,46.2552377158614],[14.7414819941071,46.2552718177609],[14.7416981312761,46.2552887712232],[14.7424567489938,46.255293451679],[14.7430941937574,46.2553044228773],[14.7436593972283,46.2553145987677],[14.7451016515206,46.2553268205393],[14.7451024314055,46.2553264623883],[14.7462241398626,46.2548709079498],[14.7428941760231,46.250422516278],[14.7422983959974,46.2497795808736],[14.7417563017613,46.2493066317181],[14.7414326716587,46.2486832002971],[14.7411902665917,46.2481353487903],[14.741191823151,46.2477768116646],[14.7410022041874,46.2475876198331]]]},{"type":"Polygon","coordinates":[[[14.7038023171925,46.2585442102346],[14.7038024469025,46.2585442105706],[14.703802447767,46.2585440500173],[14.7038023171925,46.2585442102346]]]}]},"properties":{"fill-opacity":0,"stroke-opacity":1,"stroke":"#ff0000","lov":"1414","lov_naziv":"SELA PRI KAMNIKU","luo":"14","luo_naziv":"Kamniško Savinjsko","povrsina":2460.95},"id":"pregledovalniklovisca.1"}]}