<?xml version="1.0" encoding="utf-8" ?>
<kml xmlns="http://www.opengis.net/kml/2.2">
<Document id="root_doc">
<Schema name="pregledovalniklovisca" id="pregledovalniklovisca">
	<SimpleField name="lov" type="string"></SimpleField>
	<SimpleField name="lov_naziv" type="string"></SimpleField>
	<SimpleField name="luo" type="string"></SimpleField>
	<SimpleField name="luo_naziv" type="string"></SimpleField>
	<SimpleField name="povrsina" type="float"></SimpleField>
</Schema>
<Folder><name>pregledovalniklovisca</name>
  <Placemark id="pregledovalniklovisca.1">
	<Style><LineStyle><color>ff0000ff</color></LineStyle><PolyStyle><fill>0</fill></PolyStyle></Style>
	<ExtendedData><SchemaData schemaUrl="#pregledovalniklovisca">
		<SimpleData name="lov">1419</SimpleData>
		<SimpleData name="lov_naziv">TROJANE OŽBOLT</SimpleData>
		<SimpleData name="luo">14</SimpleData>
		<SimpleData name="luo_naziv">Kamniško Savinjsko</SimpleData>
		<SimpleData name="povrsina">2689.59</SimpleData>
	</SchemaData></ExtendedData>
      <MultiGeometry><Polygon><outerBoundaryIs><LinearRing><coordinates>14.8147876492697,46.165819095829 14.813404917089,46.1660484398588 14.8126015417041,46.1660845548287 14.8120781069315,46.1660520247774 14.8113266984943,46.1661141286676 14.8104374569274,46.1664921671838 14.8090018270991,46.1669167933479 14.8082964804128,46.1668366156762 14.8073409130072,46.1666927606264 14.806271043781,46.1667226233449 14.8050194204412,46.1666257529665 14.8039494780896,46.1666397584398 14.8031757692142,46.1665594319071 14.8024028148204,46.1663051820247 14.8018807458876,46.165893277949 14.801723303087,46.1654186628795 14.8012916538977,46.1651807423231 14.8010651633353,46.1648957611087 14.8006796725299,46.1644998344623 14.7999752285453,46.1641824358738 14.7991801077845,46.1637699512333 14.7988633531591,46.1632793066396 14.7980656366005,46.1635467422423 14.7980189575699,46.1638470825443 14.797745808848,46.163862435003 14.7975858884375,46.1637568825199 14.7972684929984,46.1636560891857 14.7966083190447,46.1637023327401 14.7959947629203,46.1634324874805 14.7956319910543,46.1630682550536 14.7948608245469,46.1623554502457 14.7947029110285,46.1619914922596 14.7942714484288,46.1617535453796 14.7937258080317,46.1615787325247 14.7936739123261,46.1610864815664 14.7933415290688,46.160913941013 14.7929109595655,46.1604072384494 14.7925263417586,46.1598373659486 14.7916397791475,46.1595670013113 14.7907300176504,46.1594072552702 14.7904185928496,46.1607447770813 14.7898720118817,46.1608228607737 14.7892890320501,46.1611756551135 14.7889098074095,46.1623865441158 14.7883158708944,46.1629230398511 14.7875623411756,46.1635067421941 14.7869008716532,46.1638533500579 14.7861716429044,46.1640734140627 14.785543049117,46.1643865152746 14.7852137138899,46.1645302150483 14.7850532653391,46.1647986653994 14.7850741402463,46.1652573013957 14.7846404665332,46.165556907912 14.7844341218248,46.1659043578825 14.784131657834,46.1661274620972 14.7839543005615,46.166346213344 14.783664914667,46.1672291190992 14.7821497040993,46.1678765723965 14.7812592945771,46.1684916425522 14.7806979933336,46.1690577619731 14.7804131285642,46.1694387040172 14.7800018700998,46.1697858419366 14.7798403713912,46.170307288968 14.7798605745564,46.1709239181184 14.7791379131998,46.1719641503964 14.779947009842,46.1720466870859 14.7811120916407,46.1721056972817 14.7825417097065,46.1721779753891 14.783815462739,46.1724333074535 14.7847482121683,46.1725931514175 14.7856812742289,46.1726739014384 14.786546210303,46.1727228459031 14.7876627137426,46.1724876644418 14.7885736512923,46.1723944305232 14.7894388870976,46.1723643567154 14.7916692683451,46.1725421823753 14.7929891933132,46.1726552478608 14.7943082399041,46.1730053773027 14.794922481956,46.1731170585687 14.796788131925,46.1730692851048 14.797814082531,46.1730430324336 14.7987015267078,46.1731393408839 14.8000663809866,46.1734420683507 14.801134844884,46.1738391865627 14.802475577342,46.1745212623779 14.8034747950754,46.1751711550264 14.8039970194336,46.17556730601 14.8039275673911,46.1758676090406 14.8035611373847,46.1764204080604 14.8035373848577,46.1766892085705 14.8040360986107,46.1772908187019 14.8040320201273,46.1783659968324 14.8036183669562,46.1794088011935 14.8032508951429,46.1802461836321 14.802403492484,46.181557167002 14.8020826610175,46.1820942041931 14.8020818668037,46.182315537829 14.8023083770905,46.182616351531 14.8023532924993,46.1828061834607 14.8022833123405,46.1832487324085 14.801848381236,46.1838488228012 14.8014375069145,46.1841327862133 14.800889780924,46.1844322552339 14.8002973406937,46.1845577246541 14.7990661491787,46.1849667463709 14.7972160520672,46.1864182615541 14.7966453774099,46.186780920794 14.795961294742,46.1870169620328 14.7953684637105,46.1872372372345 14.7945024672272,46.1874096925879 14.7941152025139,46.1874248311368 14.7933865790128,46.1874077712398 14.7924990339254,46.1872797509447 14.7919072601708,46.1872154239201 14.7913831488189,46.1872777200726 14.7909272048444,46.1874350605539 14.7905614777845,46.1877822286616 14.7901731864925,46.1880661927752 14.7895116796733,46.1883495628613 14.7887823100942,46.1884906456387 14.7882359458125,46.1884737995409 14.7873938662051,46.1883458238453 14.7851849825808,46.1883418745058 14.7846149502191,46.1885147207102 14.7843178803488,46.1887513307351 14.7841338750641,46.1891937429239 14.7840411931133,46.1896046566736 14.7839268242014,46.1897309432623 14.7837447348681,46.1896831829398 14.7835642702214,46.1892875879628 14.7833369599341,46.1891764900109 14.7797389052759,46.1891697942172 14.7795109074389,46.1892326960343 14.7796471380154,46.1893436260741 14.7800795762599,46.1894076201592 14.7806023920618,46.1896141241214 14.781535422482,46.1897739943159 14.7816942087269,46.1899482163517 14.7816705271672,46.1901379251597 14.7810303715251,46.1907691242233 14.7808441297614,46.1917332826611 14.7805006713812,46.1921912183135 14.7801350362191,46.1924909369718 14.7800204000083,46.1926804703921 14.7800185042971,46.1931231359599 14.7798119002406,46.1935022460667 14.7797196208879,46.1938024894979 14.7799457406822,46.194182342804 14.7804450468088,46.1946101365962 14.7803307219837,46.1947206742207 14.7795578587514,46.1943713494152 14.7792170326071,46.1941651924664 14.7789451232513,46.19383266517 14.7781767361847,46.1924082472585 14.7781560362544,46.1919180318453 14.7779747746133,46.1916963453055 14.7776563898218,46.1915850591911 14.7772462919709,46.1916316768558 14.7766079256595,46.1918044398484 14.7763337976237,46.1919936578258 14.7756266346155,46.1922926933778 14.7754207119208,46.1924978783167 14.7753968795489,46.1927508367628 14.7756239955277,46.1929093660437 14.7760561357717,46.1930524613534 14.7761921106757,46.1931950655767 14.7761458647928,46.1933530583177 14.7766448776483,46.1938441195042 14.777006894078,46.1944139979429 14.7768691204164,46.1946825696185 14.7769180582247,46.1959723435568 14.7787678109603,46.1981131651305 14.7792452885877,46.1983038418931 14.779563462785,46.1984782843168 14.7799262968755,46.1988584908515 14.7805624650324,46.1992232959127 14.7811780818332,46.1988267038574 14.7817827926817,46.1986298284334 14.7829563161247,46.1986624734046 14.7839594689788,46.1984271138489 14.7848039840893,46.1980017831887 14.7856700543591,46.1978609823759 14.7868088276715,46.1978631116645 14.7880153368101,46.198007513102 14.7892439911416,46.198325951052 14.7906096563537,46.1985655402529 14.7918845441626,46.19872586136 14.7929537947433,46.1990281337959 14.7940694931193,46.1991091455356 14.7948437036973,46.1991737887512 14.7962332714133,46.199128678059 14.7968944072502,46.1989717714293 14.7981703649396,46.1988474387206 14.7991050437516,46.1986118253734 14.7998335875368,46.1986920998756 14.8002643315386,46.1992146085202 14.8007647552145,46.1993894001399 14.8013114754211,46.1993745163254 14.8019939849644,46.1996127801344 14.8024937785085,46.1999298108725 14.8031998949037,46.1999468638951 14.8037459276177,46.2000900503439 14.8044041194521,46.2007235106548 14.8048114452981,46.2014357155489 14.8057430748156,46.2020697244957 14.8064253408321,46.2023553772253 14.8073336819136,46.2031000007676 14.8079483405462,46.2031958667909 14.8087236130365,46.2029757423737 14.8095677345073,46.2026292249977 14.810206123266,46.2024563682941 14.8110260452817,46.2024734718708 14.8115725772314,46.2025217898793 14.8120515766043,46.2023486600512 14.8125772064097,46.2018750939576 14.8128520110675,46.2014644562664 14.8129441767456,46.2011483510344 14.8132863506979,46.2010065726587 14.8139011565375,46.2010549910346 14.8139244955269,46.2008969459665 14.8144261722795,46.2007554236742 14.8149276637188,46.2006297341759 14.8157931704623,46.2006468773575 14.8187541889408,46.2006592577919 14.8202117514031,46.2007089752218 14.8216703161816,46.2004897454771 14.8233560998136,46.2004053584956 14.8265484616456,46.1993269680432 14.8279850483791,46.1988230387545 14.8293520041984,46.1987459108508 14.830421680267,46.1989767545421 14.8356847497751,46.1984544074811 14.8373257413121,46.1981088274632 14.8390801875233,46.1979056314573 14.8404932701499,46.1975912655512 14.8414730368301,46.1974661258547 14.8434534804341,46.1978323471683 14.8444095079739,46.1979917354328 14.8451380215613,46.198103301818 14.8458447033394,46.1979145031705 14.8465746268941,46.1975201422846 14.8476450713643,46.1975373191875 14.8491921940252,46.1981242871272 14.8510576231326,46.1988855676154 14.8526956136267,46.1995832735026 14.8534914834153,46.2000585454385 14.8543328474426,46.2005339597426 14.8547869699912,46.2010404572148 14.8548773543238,46.2013093221489 14.8551028174664,46.2021476191058 14.8555576233925,46.2024011094566 14.8561951233873,46.2025125802317 14.857082365857,46.2029088553356 14.8574463777503,46.2030516474844 14.8580388135879,46.2030048788055 14.8595880936806,46.202848619166 14.8612744801735,46.2025817479131 14.8624364380814,46.2024723949149 14.8633473932042,46.2025209033274 14.8639620264514,46.2026638840624 14.864394667737,46.2027275592803 14.8652377653502,46.2026020538318 14.8676982541332,46.2024308294968 14.8682907501795,46.2023524271458 14.8690431525368,46.2020528708015 14.8700397455548,46.2018319540516 14.8718893490094,46.2019977930098 14.8734778950103,46.2023185172829 14.8738253779389,46.202396548231 14.874334011443,46.2025523123144 14.8747682102327,46.2027338149387 14.876465383108,46.2035170790259 14.8769419041511,46.2043084575998 14.8773502641266,46.2049890039531 14.8777816166697,46.20559057688 14.8783274355819,46.2060023365906 14.8791012621211,46.206272087404 14.8798075880081,46.2062411616061 14.8811744245106,46.2062109198709 14.8819263017881,46.2061483577561 14.8835889094846,46.2062765651085 14.8845683691782,46.2063249741225 14.8854563043398,46.2065156206586 14.8860937490493,46.2067061009641 14.8866397392309,46.2070071540685 14.8870034009128,46.2073712756218 14.8871850231164,46.2076561300919 14.8880561463906,46.2077806994961 14.889234498626,46.2080535661851 14.8899404279058,46.2081649149433 14.8916484158689,46.2083879703907 14.8926277661925,46.2085153966317 14.8933744376365,46.2085407481019 14.8936992917535,46.2084261549039 14.8939951392087,46.2082319076468 14.8943147435069,46.2079474385033 14.8945200917719,46.2077736200565 14.8949075841285,46.2076316393703 14.8972499051689,46.2071732858765 14.8971238529504,46.2068743716059 14.8973777915578,46.2064879850828 14.8977072747709,46.2062422037075 14.8981633623641,46.2059965342179 14.8997594771266,46.2052245352586 14.9000891333292,46.2048732985189 14.9006490398374,46.2033096020401 14.9012345600884,46.2015350272048 14.9018191661123,46.2002525119263 14.9018962853317,46.1995847064314 14.901922682282,46.1990223060112 14.9022537570855,46.1979153780262 14.9025329775038,46.1974761867216 14.9028123793691,46.1969315461107 14.9029401474447,46.1963341417234 14.902839700441,46.1959122613559 14.9024360566571,46.1952088658025 14.9009716938833,46.1935028812074 14.9005429228938,46.1927468224624 14.9000132702116,46.1919027697972 14.8994072015239,46.1912695450444 14.8987501369796,46.190829624757 14.8982004310917,46.1898553540698 14.8980462942439,46.188509033867 14.8979219706063,46.1874368889721 14.8974433225939,46.1863819712577 14.8969393341791,46.1853797529814 14.8959547185199,46.1843419162352 14.8957791360061,46.1835508888933 14.8958819586993,46.1827424802538 14.895121891521,46.1832691204857 14.8942862389111,46.1836198774439 14.8935019646637,46.1836543291768 14.8924894941634,46.1838642794803 14.8913499740654,46.1843202677246 14.8904135667357,46.1844423677452 14.8897050927886,46.1844593212241 14.888693538321,46.1842650776623 14.8880612601107,46.1841414664801 14.8866946060945,46.1843510180912 14.8853527796479,46.1847012068849 14.8841380309042,46.1848582456409 14.8834300698792,46.1846290831531 14.8826717074702,46.1843471400642 14.881811603552,46.1842759847614 14.8801923945724,46.184274299295 14.8777640874799,46.1840433757966 14.8770810312993,46.1839899189084 14.8761192990432,46.1841295094329 14.8753861213055,46.1839002697693 14.8737163555927,46.1838633477742 14.8727556385899,46.1836162948089 14.8721245927598,46.1830356211653 14.8715187370807,46.1824901519553 14.8713168519332,46.1822438471778 14.8711909622897,46.182015262506 14.8716976955728,46.1817345749481 14.8726596811185,46.1814720279635 14.8735208174584,46.1810687326261 14.8739011818185,46.1806999911763 14.8737750035159,46.1805944028753 14.8731928402801,46.1807343873279 14.8725857736328,46.18066344296 14.8719024785477,46.180733038704 14.8709670410678,46.1805035437412 14.8698710991449,46.1801209933771 14.8686329496816,46.1795220625679 14.867722930186,46.1792398456743 14.8667625753174,46.1788872934689 14.866004974964,46.1783591625323 14.8654997446462,46.1780774016239 14.8646422193103,46.1770569881167 14.8640118102631,46.1762830063341 14.8635521430332,46.1751861294086 14.8621536528934,46.1750225889928 14.8612084884261,46.1749044796049 14.8607945865126,46.1746880394949 14.860562393451,46.1743188643778 14.8602673158472,46.1732118275182 14.8599588043454,46.1722487311917 14.8587297879276,46.1717343687448 14.8579271447333,46.1716164081875 14.8565285170742,46.1715967566584 14.8559463350577,46.1713171059251 14.8549112084592,46.1709648992462 14.8544324185201,46.1708203325755 14.8534484673918,46.1707111069125 14.8531376560492,46.1707107080396 14.8520884746295,46.1707814243313 14.8513762704851,46.1707535084907 14.8510137461449,46.1706720602212 14.8500425348712,46.1706437982219 14.8493173339824,46.1706338472548 14.8489288943223,46.1706063424634 14.8481525606431,46.1703534773501 14.8476741911862,46.170064924893 14.8464574372013,46.1698563574529 14.8452276379614,46.1696387620153 14.8446322066941,46.16953898317 14.8435704947523,46.1694656462297 14.8430871216283,46.1695360630516 14.842287733221,46.1697068129155 14.84188609562,46.1697692397503 14.8408629225332,46.1698038095149 14.8404482809046,46.1698392210632 14.8400080764122,46.1698026163183 14.8395935373385,46.1698471122607 14.8382336016833,46.1698991802153 14.8374048372658,46.1698800097026 14.8368353181416,46.1697802271017 14.8357601265661,46.1698866559535 14.8353196831893,46.1699310092043 14.8339081356261,46.1698750727914 14.8322117058099,46.1698546007045 14.831201613207,46.1698441163101 14.8304890175066,46.169951030411 14.8297513509645,46.1697880713972 14.8292850962914,46.1697603839384 14.8287935457055,46.1695797012797 14.8286252491002,46.1695614543524 14.8280820420319,46.1693357042871 14.827564177262,46.1692899374241 14.8272015456513,46.1692983872344 14.8267872828821,46.1692527734062 14.8264245948008,46.1692792154226 14.8261911809143,46.1693778319347 14.825271720825,46.1693764302828 14.8249089738355,46.1694209521297 14.8245337341482,46.16932140563 14.8241449574406,46.1693657951231 14.8238989048145,46.1693654163537 14.8234967598428,46.1695807332263 14.8231468163996,46.1696701661621 14.8229782039077,46.1697508815851 14.8227191704461,46.1697594775524 14.8226413823112,46.1697863490259 14.8224601079571,46.169777070265 14.8222138795878,46.1698306718602 14.8221750578445,46.1698216141007 14.8220062403137,46.1699653094092 14.82186358394,46.1700280688414 14.821500713818,46.1701084792111 14.8209177451523,46.1701706390677 14.8204380268444,46.1703408367217 14.8203728649701,46.1704666976213 14.8202946644671,46.1706195301136 14.8200997039986,46.1708351604945 14.8198012259085,46.1710236352806 14.8189849591875,46.1711393115645 14.8185708075248,46.171057768625 14.8177937459492,46.171065530113 14.8172763503443,46.1708757593977 14.8167729843049,46.1703621032741 14.8158018776679,46.1702705689005 14.8154001460862,46.1703508972796 14.8148822821866,46.1703051629496 14.814259999003,46.1705020958572 14.8138714870706,46.1705014639526 14.813703131904,46.1705011897172 14.8132105904116,46.1706263492564 14.8128345092325,46.1707786895321 14.8124456589774,46.1708770233632 14.8121614221531,46.1706786144061 14.811811913458,46.1706331426757 14.8119307982259,46.169949447712 14.8124003114075,46.1689785023363 14.8129321475517,46.168718449875 14.8132567800049,46.1684580566372 14.8139316929156,46.1680091981797 14.8143855113679,46.167838985709 14.8156035417094,46.167616022397 14.8159149052869,46.1674455739715 14.8163438919701,46.1669513180061 14.8168652186728,46.1659444474894 14.8147876492697,46.165819095829</coordinates></LinearRing></outerBoundaryIs></Polygon></MultiGeometry>
  </Placemark>
</Folder>
</Document></kml>
