<?xml version="1.0" encoding="utf-8" ?>
<kml xmlns="http://www.opengis.net/kml/2.2">
<Document id="root_doc">
<Schema name="pregledovalniklovisca" id="pregledovalniklovisca">
	<SimpleField name="lov" type="string"></SimpleField>
	<SimpleField name="lov_naziv" type="string"></SimpleField>
	<SimpleField name="luo" type="string"></SimpleField>
	<SimpleField name="luo_naziv" type="string"></SimpleField>
	<SimpleField name="povrsina" type="float"></SimpleField>
</Schema>
<Folder><name>pregledovalniklovisca</name>
  <Placemark id="pregledovalniklovisca.1">
	<Style><LineStyle><color>ff0000ff</color></LineStyle><PolyStyle><fill>0</fill></PolyStyle></Style>
	<ExtendedData><SchemaData schemaUrl="#pregledovalniklovisca">
		<SimpleData name="lov">1407</SimpleData>
		<SimpleData name="lov_naziv">VELUNJA ŠOŠTANJ</SimpleData>
		<SimpleData name="luo">14</SimpleData>
		<SimpleData name="luo_naziv">Kamniško Savinjsko</SimpleData>
		<SimpleData name="povrsina">3761.13</SimpleData>
	</SchemaData></ExtendedData>
      <MultiGeometry><Polygon><outerBoundaryIs><LinearRing><coordinates>15.0781680474956,46.372422193889 15.0775300231582,46.3697957572648 15.0755238273843,46.3698659273203 15.075417639567,46.3716614503594 15.0747879469072,46.3719889968864 15.0729195787194,46.3720609203832 15.0728668488006,46.374047233756 15.0725127677138,46.3744385607098 15.0722363442679,46.374875812447 15.072757741364,46.3752819686904 15.0709522660161,46.3758276046524 15.0694457557189,46.3762887285395 15.0643246257425,46.3769255658896 15.0589027853401,46.3773979530537 15.0574679078889,46.3775070975476 15.0556654936164,46.3782168664381 15.0552788767454,46.378462493397 15.0546766050263,46.3787201884209 15.0542258406887,46.3787828425478 15.0537236644811,46.3787819999207 15.0526890976872,46.3788579664777 15.051775771713,46.3791633834651 15.0511974677535,46.379220325214 15.050432786115,46.3796028594508 15.0500676333877,46.3799005521458 15.0495472630909,46.3803484716639 15.0493427733639,46.3806372751808 15.0492629720478,46.3813811850116 15.0493061674635,46.3817084787502 15.0494569662372,46.3819910106782 15.0503717957522,46.3832551452639 15.0512353389503,46.3839904494176 15.0514906191847,46.3842068034728 15.051942965968,46.3850768822182 15.0517927789037,46.3854637328795 15.051589003371,46.3858282948593 15.0517030784183,46.3861605937797 15.051633082622,46.3869366195164 15.0516984621641,46.3878812783206 15.0515839718057,46.389044196169 15.0511414590397,46.389822997773 15.0502893831373,46.391337845167 15.0500896236156,46.3915788731765 15.0492839813208,46.3921594413358 15.0490600531821,46.3924273790263 15.0489295273284,46.3925984683681 15.048843989614,46.3930596923451 15.0485954970671,46.3934935446639 15.0485114146064,46.3938408654082 15.0485547718638,46.3941979387857 15.0487377899131,46.3944135195254 15.0488992637345,46.3946738243694 15.0487280011603,46.3953954584552 15.0486319748562,46.3962062206716 15.048535576469,46.3966005109351 15.0482351010483,46.3972403259563 15.0478377767562,46.3977760852016 15.0472574716171,46.3980069199731 15.0467265948619,46.3984102043742 15.0460974682846,46.3993611741289 15.0456080767136,46.3997910676676 15.0448944002152,46.4006039601435 15.0446117872109,46.4013788932664 15.0442397285022,46.4020397781523 15.0441756552918,46.4025753948205 15.0444876243502,46.4027016818467 15.0442729416804,46.4030663238946 15.0439593003252,46.4032887609233 15.0426498595698,46.4037214729405 15.0415318739298,46.4040258932359 15.0411665149151,46.4045030465473 15.0407564401381,46.404846789025 15.0404250089584,46.4049644975032 15.0400165342078,46.4051952343694 15.0388946367359,46.4060974810008 15.0371894670744,46.4063789346143 15.0364580656229,46.4062825423181 15.035458013097,46.4062679217309 15.034888289712,46.4063871272872 15.0345596159504,46.4063749911595 15.033156560703,46.4058148933076 15.0320533662439,46.4055551944466 15.0312315975045,46.4054659016362 15.0305453804541,46.4054252405829 15.0298660004705,46.4055182690941 15.0296080103838,46.4056076764173 15.0293071049457,46.405949909936 15.0289953297056,46.4061582700095 15.0288938671893,46.4063766529252 15.0280493250326,46.4065304419976 15.0270601757177,46.4067389609041 15.025945051925,46.4070829047567 15.0253074494186,46.407014580454 15.0245479486097,46.4071676050417 15.0242214937175,46.4071784710493 15.0236721930925,46.4073824580951 15.0230066580811,46.4076993782836 15.0225636968331,46.4081112591944 15.0221468244331,46.4087261055888 15.0219533558737,46.4089046433282 15.0214265679422,46.409202273944 15.0211578027242,46.4094254495097 15.0206847664412,46.4098347194487 15.0200935787051,46.410489356286 15.0194485588529,46.4108688710708 15.0191259531901,46.4111664560811 15.0188141512528,46.4114963375961 15.0182552094033,46.4118435321848 15.0171543228286,46.4120541422767 15.0168573334431,46.4123867152799 15.0163305087024,46.4127661948686 15.015663811019,46.4130340385888 15.0147499123821,46.413614376039 15.0136746594231,46.4140533828297 15.0134982372139,46.4144438731218 15.0127607903357,46.414923857153 15.0117107891406,46.4150230263304 15.0103411690563,46.4151100692795 15.009728065093,46.4149688703629 15.0078405930718,46.4142027418107 15.0064656374387,46.4141491157828 15.0054261673083,46.4141584367245 15.0040819408246,46.4144634905346 15.002533325855,46.4144413127606 15.0010277743542,46.4147090865848 15.0003395153477,46.4151108062217 14.9992210612777,46.4154381144823 14.998537203183,46.415821649338 14.9971884617499,46.4163753886413 14.9966077503238,46.4165315605635 14.9952956938274,46.4166506342081 14.9939836226363,46.4168513854225 14.9926176877389,46.4170373630576 14.9907248903397,46.4172157253902 14.9903376119339,46.4172603183692 14.9887996445153,46.4176098908662 14.9882404166714,46.4175056496563 14.9879500598077,46.4175056194319 14.9869068254222,46.4172005969559 14.9864014374405,46.4171930704826 14.9860357274036,46.4173269915124 14.9857218755675,46.4176339298587 14.9855007335792,46.4180927481964 14.985136287138,46.4188124600197 14.9851211231296,46.4190823675026 14.9846263964661,46.4194988623025 14.9841960996009,46.4197740212913 14.9839916485502,46.4200268979728 14.9839209337466,46.4202774539435 14.9836435870844,46.4206608658772 14.9836878304958,46.4214968714345 14.9830776054861,46.4221333189134 14.9821840257555,46.4227118687209 14.9811836384874,46.4232175184676 14.981036921307,46.4238594283707 14.9807205838783,46.4247571834532 14.9805375554248,46.4254043046588 14.9808062725025,46.4260142547461 14.98076929425,46.4272022983865 14.9803863013628,46.427412582472 14.9796224538329,46.4276579761878 14.9790845828586,46.427962876297 14.9773309756535,46.4284534166867 14.9765761462529,46.4288427432605 14.9757489682911,46.4300970177142 14.9749046014056,46.4312967605478 14.9719202592014,46.4313294454999 14.9719081645987,46.4310632224094 14.9716823179169,46.4309812943514 14.9714886563005,46.431063118598 14.9714240193704,46.4312490696825 14.9714949810379,46.4314108527729 14.9719161050438,46.4320705242157 14.9726038498389,46.432239384046 14.9731581075295,46.4329067300486 14.9739619073193,46.4334140744732 14.9745534727028,46.4336671121349 14.9750589638077,46.4337787857724 14.975176527738,46.4339347286368 14.9749513256006,46.4341135390611 14.9741551585952,46.4342100792131 14.9737006505402,46.4344205943781 14.9728747127546,46.4347081241609 14.9721751982321,46.4351022027558 14.9722396596374,46.4352658730537 14.9723902793083,46.4354072516918 14.9733367522089,46.4358760377027 14.973326019716,46.4360024424179 14.9731752901219,46.4360768119811 14.9728847903946,46.4361659932679 14.9718624419122,46.4367236474465 14.9715717509084,46.4371699144195 14.9715932837469,46.4373037944297 14.971507041144,46.4374822725184 14.9712487423336,46.437690487325 14.970947362336,46.4379061580752 14.9706460239249,46.4380399557741 14.9701404130517,46.4380919172374 14.9696991738447,46.4382256758265 14.9693871384589,46.4383967147444 14.9687953165653,46.4385452744035 14.9680420242239,46.4386343161471 14.9675794238905,46.4387829955128 14.9674608780352,46.4389837737794 14.9673316953896,46.4391250790392 14.967153627621,46.4391862072976 14.9668475669307,46.4391398746668 14.9666109837433,46.4389092140115 14.9663636331065,46.4386264573463 14.9660624226751,46.4385296511416 14.9657827416497,46.4385519702164 14.9651155437952,46.4387228006922 14.9640179620404,46.4389084276149 14.963845829599,46.4390422479504 14.9637477143222,46.4392235954045 14.9638469363509,46.4403203548934 14.9634359968686,46.4406339478275 14.963123732808,46.4409015967261 14.9619489440491,46.4418075642978 14.9610676328847,46.4424853674541 14.9609608854418,46.4427044966359 14.9612394595346,46.4429911440552 14.9618201892699,46.4433558055771 14.9620365637112,46.4434487260578 14.9624912376592,46.443740287057 14.9625685383375,46.4443232242711 14.9625504441277,46.4443277168187 14.9624741748051,46.4443280516974 14.962487897493,46.444435029836 14.9624787566915,46.4444789319125 14.9624338051458,46.4445501729333 14.9623797580906,46.444599188499 14.9622885001598,46.4446294781374 14.962280386665,46.4446932637754 14.9622230693129,46.4451422821762 14.9621838425873,46.4454031804816 14.9616497794797,46.4460148845136 14.9613634362305,46.4460147881408 14.9610767789885,46.4464555409447 14.960855447522,46.4465454347903 14.9604907274252,46.4469321777145 14.9600220459948,46.4470849627889 14.9594492581379,46.4473816600686 14.9590453914884,46.4477054058863 14.9585766453379,46.4481011922366 14.9581988624928,46.4483439720499 14.9583028061029,46.4487578690088 14.9583286121957,46.4490547772552 14.958406285548,46.449612615431 14.9584450817641,46.4499455160618 14.9583537191358,46.450269372407 14.9583535819883,46.4504493110028 14.9584445206908,46.4506832643109 14.9584053541542,46.4510071396082 14.9583530744036,46.4512860254455 14.9583529989688,46.4513849916562 14.9584440213369,46.4515109817921 14.9585089009286,46.4517809132544 14.9583393989868,46.452149725758 14.9581048572235,46.4524556256478 14.9577140855075,46.4527883682019 14.9576489506137,46.4528513226006 14.9571540065932,46.4532200123081 14.9568414203939,46.4534358210438 14.956294388603,46.4538134842537 14.955499905894,46.4543260027047 14.9549790361895,46.4546857658595 14.9546924460645,46.4549285696722 14.9545751743325,46.4550634770311 14.954431858939,46.4552073708181 14.9542753065885,46.4556121699329 14.9546787715334,46.4557202936067 14.9553686180361,46.4558465218139 14.9562797444809,46.4560088183508 14.9572560580338,46.4560540820343 14.9579460186054,46.4560453408828 14.9582324144139,46.4560454458287 14.9590655860903,46.4560187562856 14.9592348400378,46.4559918259663 14.9593781180839,46.4558839138622 14.9596255722287,46.4557310537799 14.9597167308162,46.4556861013038 14.9603156329193,46.4555783475861 14.9613570061457,46.4556595865178 14.961643437845,46.455605701391 14.9618258580079,46.4553628454698 14.9625552141135,46.4548412649426 14.9627115125454,46.4547153590525 14.9627636813603,46.454571425241 14.9632194199317,46.4543916341919 14.9637016568641,46.4535100894497 14.9637537563204,46.4534650313667 14.9637967196274,46.4534560480468 14.9638839479361,46.4534380817697 14.9639620818344,46.4533931217785 14.96406627989,46.4533031852876 14.9644829283131,46.4531593645876 14.9646782402314,46.4530784527213 14.9648605574513,46.4529615488162 14.9653424128524,46.4526198125646 14.9658633078889,46.4522870828506 14.9664491380275,46.4521882899797 14.9670609730294,46.4521344862462 14.9673734147776,46.4520805042554 14.9675295159168,46.4520355640312 14.9681284413346,46.4517928153939 14.9689225896714,46.4515951014742 14.9692481583453,46.4515681986835 14.969898969959,46.4516313503297 14.9707970763984,46.4517485432616 14.9709142243326,46.4517575700431 14.9710053526817,46.4517395993212 14.9711225291619,46.4516946443162 14.9713829578713,46.4515236781301 14.9717474222096,46.4515417626021 14.972203028147,46.451514883448 14.9734265699189,46.451614140504 14.9740773485025,46.4517582407364 14.9747671815392,46.451902345885 14.9750665603689,46.451929402331 14.9752618196351,46.4519204478013 14.9755221719418,46.4518935130283 14.9757955330586,46.4518844843066 14.9759517370852,46.451884517257 14.9761340222755,46.4517765922808 14.9763292886169,46.45174964207 14.976420419056,46.4517226701041 14.976537602637,46.4516507187622 14.9767550518629,46.451495116269 14.9768891667501,46.4513988762915 14.977357826866,46.4512730130022 14.9775270497033,46.4512640494469 14.9776311919064,46.4512460760007 14.9777353487055,46.451192114739 14.9778525367109,46.4511021681821 14.977943676214,46.4510482042079 14.9783602531117,46.4509493175413 14.9785294853886,46.4509133617103 14.9786596671552,46.4508773983491 14.9788419053148,46.4508684352756 14.978959070017,46.4508324691644 14.97928454339,46.4506885776731 14.9796100352268,46.4504906136942 14.979909468269,46.4503557127027 14.9801177508517,46.4503107644385 14.9803390561835,46.4502478241693 14.9805864005941,46.4501668940291 14.9807816811398,46.4500769576836 14.9811201524256,46.4499600539315 14.9813023994378,46.4499150992061 14.9815106913731,46.4498341606714 14.9817840561684,46.4497802229381 14.9820313904056,46.4497172835312 14.9822266698931,46.4496183477779 14.9823698974304,46.4494744190101 14.9825912512428,46.4492405326388 14.9828516351992,46.4490605433244 14.9832161449467,46.4488896556431 14.9835676361657,46.4487187649252 14.9839842115004,46.4485298883844 14.9843617277549,46.4483679957921 14.9847132523064,46.4480531505711 14.9849736285387,46.4478552524845 14.9852859512442,46.447603378874 14.9857415787552,46.4473424354484 14.985858731357,46.4473064622456 14.9861060428431,46.4472705048083 14.9862622517838,46.447198548181 14.9865356230904,46.4470456327562 14.986795981401,46.446874721297 14.9872125315209,46.4466858329339 14.9875119290603,46.4465329180687 14.9877722738224,46.4463979921241 14.9879935505403,46.4463530308748 14.9883580088997,46.4462630991682 14.9892040768305,46.446011267873 14.9894383768484,46.4459122334496 14.9899980896238,46.4456783633426 14.9901412782507,46.4455794094388 14.9905317666707,46.4454444883344 14.9911174832563,46.4453185781626 14.9917031998751,46.4451746711077 14.9919114596703,46.4450847166214 14.9921717892494,46.4449317867454 14.9926403575087,46.4448147676566 14.9929136932124,46.4447068216266 14.9932781568429,46.444418941505 14.9935775397941,46.4441400535135 14.9940200876728,46.4438431784147 14.9943064374152,46.4436722511186 14.9951394436455,46.4431864546249 14.9953476879112,46.4431234846804 14.9955168899518,46.443024435088 14.9956470467637,46.4429254737336 14.9957511699156,46.4428714959854 14.9961025832326,46.4427005665618 14.9964538607015,46.4425836177161 14.9967533363183,46.4424936571642 14.9969745908367,46.4424306846184 14.9973128473274,46.4423677144527 14.9977943962131,46.4422777553043 14.9982630578232,46.4422237817122 14.998497324197,46.4421608064146 14.9987576185578,46.4421338187028 14.9993302650701,46.4420888387638 14.9995124694911,46.4421967130579 14.9998898956726,46.442196714044 15.0001371745111,46.4420437659466 15.0005406280654,46.4419537952973 15.0012564317114,46.4418908110553 15.0017119407008,46.4418008356879 15.0020893665558,46.4418638080352 15.0026750141766,46.4416568660846 15.0030654370685,46.4414049417953 15.0031304977483,46.4411979202945 15.0032215931216,46.4410989513508 15.0035209187399,46.4409999761121 15.0044708244029,46.4408020100878 15.0045750634322,46.4407300303869 15.0045879280007,46.4404961092348 15.005407790944,46.4401182015895 15.0054858499639,46.4398572863638 15.005498826089,46.43947941388 15.0055768745832,46.4391285290649 15.0057069832291,46.4388315333221 15.0059672365673,46.4386065962754 15.0062665487227,46.4385525985625 15.006526824212,46.4385435870546 15.0069432769299,46.4386245350874 15.0072295541582,46.4384175874794 15.0073466698581,46.4383546013587 15.0074768002846,46.4383006112185 15.0081144682459,46.4382555829978 15.0086089867765,46.438228555989 15.0089603536281,46.4382015381467 15.0095720059217,46.4382374763965 15.0099625715902,46.4383633103896 15.0103660312793,46.4385342166023 15.0105612508021,46.4385971773974 15.010873591878,46.4386421328822 15.0115112856518,46.4387140460816 15.0116935548432,46.4390649086528 15.0117976742101,46.4391008857599 15.0120969833093,46.4390468727934 15.0130471851651,46.43927169209 15.0141144771025,46.4398292862397 15.0142576466331,46.4398832501742 15.0144658800907,46.439910214872 15.0146482107581,46.4399191886136 15.014908488914,46.4399011610844 15.0151818335193,46.4400720671495 15.0156763830431,46.4401079882261 15.0159887316919,46.4401349358321 15.0160512038364,46.440148422504 15.0161969722935,46.4401798912725 15.0165093188921,46.4401978405084 15.0166394747805,46.4402428063875 15.0169518274641,46.4402787483101 15.0174724084844,46.4403145677885 15.0176807607607,46.4402965418725 15.0177588432946,46.4402875328268 15.0179408948035,46.4402335227251 15.0184485980495,46.4402874236455 15.0186438055212,46.4402693980946 15.0188910044937,46.4400624277201 15.0190471120355,46.4398824628565 15.0192422766894,46.4397474759547 15.0193854095859,46.4396844731407 15.0197758162199,46.4396394215562 15.0200621228146,46.4396303747433 15.0202182751507,46.43958527253 15.0205565700024,46.4393962762895 15.0210510753569,46.439324210743 15.0215195762129,46.4393151266012 15.0217408143637,46.4393150847596 15.0220791640569,46.4392790321431 15.022287340372,46.4391620314178 15.022443485876,46.4391080191835 15.0226256291726,46.4389820259943 15.0227557422494,46.4389190215287 15.0230680420249,46.4388379864123 15.0233674423805,46.4390268615879 15.0235366855849,46.4391707780839 15.0239143114713,46.4393775396216 15.0241356054872,46.4395034504284 15.024421934762,46.4395483743924 15.0245781035317,46.4395483409385 15.0249554826377,46.439485280572 15.0254760110535,46.4394131902131 15.0260226946202,46.4396110000184 15.026243985797,46.4397189128433 15.0264652647792,46.4397998343942 15.026582387518,46.4397908102831 15.0269078175527,46.4396827707945 15.0272589692477,46.4394846647874 15.0277667112692,46.4396104999356 15.0279749503401,46.4396374400375 15.0280660396959,46.4396194238224 15.0281440963856,46.4395654229456 15.0283653868952,46.4396643347178 15.0285215794638,46.4397092806188 15.0286256875683,46.4397002576599 15.0289509447603,46.4395202368048 15.0292370374616,46.4391153012921 15.0293671528987,46.4390702832059 15.0297575518001,46.4390341944955 15.0300958449199,46.4389081486728 15.0304731831379,46.4387910884006 15.0307985403554,46.4388089951495 15.0313971274456,46.4387187729155 15.0317093297496,46.4384937630128 15.032177816397,46.4384756382625 15.0323209523245,46.4384486070488 15.0325551418095,46.4383495741646 15.0326201731163,46.4382865769763 15.032711156395,46.4380976150094 15.0333746747306,46.4378005238996 15.0337910725028,46.4377374229662 15.0339343006449,46.4378633378885 15.0342466623484,46.4379172264939 15.0344548754719,46.4379081670056 15.034493905135,46.4378901613371 15.0347151647855,46.4377281492539 15.0349492339646,46.4376561023483 15.0350013955076,46.4376200985874 15.0353394387649,46.4373410891035 15.0358731003134,46.4373049351496 15.0360032118981,46.4372689064533 15.0361332578956,46.4371339111457 15.0362373180274,46.437061812627 15.0365235542725,46.4369717520433 15.0370050762547,46.437007585071 15.0371221912646,46.4369985501644 15.0374995197577,46.436908457534 15.0377076850549,46.4368364134628 15.0378637525832,46.4367014075948 15.0382410148657,46.4365213429947 15.0388654633769,46.4362512238669 15.0390606753945,46.4362691512718 15.0394770029506,46.4361340540059 15.0408043207972,46.436088603379 15.0411816301567,46.4359895016377 15.0416369487016,46.435800310755 15.0420534794968,46.4357731674899 15.0421965011033,46.435782111767 15.0423786505437,46.4357370596413 15.0428992856699,46.4357098746731 15.0433547601137,46.4357276968314 15.0437580814086,46.4356195797647 15.0440054321958,46.4357454422369 15.0441355928114,46.435781379903 15.0443828940696,46.4358442628882 15.0447082603479,46.435889120938 15.0450218434072,46.4358467122357 15.045306799988,46.4358079127992 15.0457364776595,46.4359426961057 15.0460748132725,46.4359334733799 15.046764474415,46.4358882086886 15.0473630577505,46.4358609715023 15.0475192003059,46.4358429128229 15.048156655851,46.4356267192608 15.0482867394422,46.4355726826796 15.0488070069765,46.4352845592501 15.0493926590517,46.4353562834731 15.0497440444842,46.4353921190047 15.0500695261083,46.4354189678439 15.0502905951173,46.4353936793722 15.0507071001322,46.4353467112966 15.0511236358384,46.4354724832454 15.0514749214073,46.4354002600627 15.0518262402488,46.435364113579 15.0522167095043,46.435444908576 15.0525160449839,46.4354807593427 15.0529454857152,46.4354895583022 15.053492018033,46.4354713100763 15.0535439470238,46.4353453283929 15.0536219459566,46.4352643192444 15.0540773133506,46.4351741352766 15.0541944751082,46.4352190646006 15.0544287275419,46.4352369472716 15.0545719920549,46.4352278820456 15.0547020593473,46.435164841215 15.0548061273962,46.435128803567 15.0550533029585,46.4350576088964 15.0553395058676,46.4349755984652 15.0556647293656,46.4348764741136 15.0560421140497,46.4348852867708 15.0564848144987,46.4351368938025 15.0568621356056,46.4350827250896 15.0570052222715,46.4350286721209 15.0572524689465,46.4350285486182 15.0575776419083,46.4348844340691 15.0577988810554,46.434902316389 15.0579680017413,46.434857246011 15.0580849652754,46.4347132353563 15.0580979016948,46.4346412531281 15.0580455922189,46.4343983618382 15.0586181664983,46.434407066765 15.0587482658403,46.4343800091377 15.058904332535,46.4342989562447 15.0599195702032,46.4343973953887 15.0600496589946,46.4343613393288 15.0606479294883,46.4340731209881 15.0610382517568,46.4340188416222 15.0618709653941,46.4339284245923 15.0628728516932,46.4338469055812 15.0630420064217,46.433837815507 15.0631615328313,46.4337855672 15.0635633883103,46.4335819233268 15.0638875163803,46.4335674375607 15.0642262920501,46.4338371565788 15.0648767647675,46.4338097985671 15.0651110268967,46.4337286928121 15.0654879956281,46.4333955900973 15.0656050333857,46.4333325443061 15.0659693094437,46.4332692660822 15.0663856568024,46.4332240403729 15.0665418074153,46.4332239496284 15.0667500961059,46.4332958039287 15.0668932783861,46.4333317081101 15.0670103584937,46.4333046486929 15.0672574755789,46.4332055370822 15.0675951343858,46.4326655204148 15.0677511719113,46.4325754584808 15.0678420242473,46.4323864684493 15.0680110840913,46.4323053953918 15.0681280941829,46.4322243531006 15.068323278873,46.4322242366648 15.0683492697569,46.4321972302515 15.0684011726588,46.4320802387249 15.0690124316495,46.4318278666185 15.0691425538304,46.4318277880261 15.069259606809,46.4317827323918 15.0693245994011,46.4317287112436 15.0694024213238,46.4315307308795 15.0696104782277,46.4314226408869 15.0698836867811,46.4313864864222 15.0700787992849,46.4313323852593 15.0702479219056,46.4313052906173 15.0703259944659,46.4313052426366 15.0710675449381,46.4310978541042 15.0717961603135,46.4310524142133 15.0722775817367,46.431034117056 15.0729670390117,46.4308986348435 15.0732272066324,46.4308444867808 15.0734613135342,46.4307633639776 15.0739033189983,46.4304661794106 15.0747228837981,46.4303306924209 15.0756334956586,46.4300781788415 15.0766867068343,46.4295465665809 15.0770769555651,46.4294743285195 15.0773889424329,46.4292671876225 15.0777657288182,46.4288800624966 15.0780258307196,46.4287899156759 15.0782597800578,46.4286098164922 15.0785847042646,46.4283576786112 15.0790399857232,46.4282763021946 15.0800680683658,46.4284015446061 15.0804190585957,46.4281853711228 15.0804709186293,46.4280593770968 15.0803921761542,46.4276005870959 15.0804570468758,46.4274745839169 15.0806260728141,46.4273934921637 15.081042536582,46.4274651735606 15.0813026397209,46.4273840162325 15.0817187681797,46.427230771181 15.0819399120822,46.4271136523536 15.082121864576,46.4269784773355 15.0827328671656,46.4266361521179 15.0829798573268,46.4264920216561 15.0832658789153,46.4263478622469 15.0834868446182,46.4262037496271 15.0836817186387,46.4260146708153 15.0842148301649,46.4257983521885 15.0846699009675,46.4256000828146 15.0850079980367,46.4254827814064 15.0852418962037,46.4252936708988 15.0854367328027,46.4250865951485 15.0857352010651,46.4245915382776 15.0860992540246,46.4244383162366 15.0863072793143,46.4243481897022 15.0866321268411,46.4240870318488 15.0868790094585,46.4238889111351 15.0874901059175,46.4236454369955 15.0879321511713,46.4234561615028 15.0881922104972,46.4233659915051 15.0883351919011,46.4232849083792 15.0885693168503,46.4232487394029 15.0886863646194,46.4232216577708 15.0890634982179,46.4231223979664 15.0890649286008,46.4231219470037 15.0893885752744,46.4230141806397 15.0897787577453,46.4228609264164 15.0899733495992,46.4225998611802 15.0899856935069,46.4221949875084 15.0902717745478,46.4220328164647 15.0904406239813,46.4219426233186 15.090544434764,46.4217805955789 15.0906613549861,46.4216005633926 15.0906740705996,46.4215015865513 15.0906478423397,46.4213756496453 15.0904782099062,46.4210698866942 15.090490921863,46.420889937054 15.0905167326363,46.4207639589173 15.0902952578918,46.42057519742 15.0900869423455,46.4204763949228 15.089618496767,46.4204137841011 15.089344785161,46.4201800767715 15.0890188902493,46.4197754667703 15.0889657553851,46.4191007344999 15.0888612872898,46.4188578971969 15.0886658733101,46.4186871061956 15.088763050472,46.4185262547307 15.0890773989489,46.4179974375469 15.0889503776896,46.4177242080357 15.0889182915516,46.4171921513128 15.0887964570055,46.4169069515687 15.0888309046208,46.4158498688869 15.0893148035377,46.4152035082847 15.089544322655,46.4149975676836 15.0895437041716,46.4146196946351 15.0897383094272,46.4143046474706 15.0897119419633,46.4141697133106 15.089594604655,46.4140078594738 15.0896462532493,46.4137738972516 15.0899709744919,46.4134046756608 15.0900740035047,46.4128557780777 15.0900865371563,46.4125678644553 15.0900857520318,46.4120910244554 15.0900071297111,46.4117402036152 15.090214358582,46.4112002206845 15.0900187605416,46.4109034739826 15.0900835004645,46.410723483102 15.0903951714005,46.4104983122893 15.0904472854077,46.4104712800985 15.0905377993991,46.4101473166219 15.0903936999453,46.4096076108088 15.0902501932701,46.4093467212552 15.0903019831659,46.4092027284114 15.0904447906186,46.4090406695994 15.0904186432359,46.4089597172926 15.0900282032254,46.4088160733452 15.0899102999564,46.4083033371701 15.0896495216677,46.4079886469121 15.0896491237001,46.4077457282283 15.089583929264,46.4076468123141 15.0892582981449,46.4073591629127 15.089439534762,46.4068371952563 15.0893350880588,46.4065943578479 15.0891918437791,46.4064865056306 15.0889055469276,46.4063877615319 15.0888012494464,46.4062348935259 15.0888526312095,46.4058389854972 15.0888134379033,46.4057310519036 15.0886569879969,46.4055782242377 15.0883707113907,46.4054884757728 15.0881105634586,46.4054706824914 15.0874732722011,46.4054711717144 15.0870829363918,46.4053725025653 15.0869265938187,46.4052016784333 15.0869391409105,46.4049947377993 15.0870945391337,46.4044907872933 15.0871072727672,46.4043198344947 15.0870028255945,46.4041489708963 15.0868987106132,46.4040230919746 15.0865069176512,46.4039827225413 15.0862351635798,46.4038576894561 15.0859108322475,46.4037096628951 15.0856187819027,46.4035779857996 15.085562734779,46.4034990340279 15.0854097742155,46.4032387749863 15.085428438142,46.4030312000882 15.0855426624916,46.4029717344565 15.0857858048417,46.4030177069771 15.0859282569362,46.4027967234945 15.0860803060181,46.4025593580476 15.0862991846365,46.4023943678963 15.0862270174185,46.4019891070865 15.0865075162778,46.4017284318324 15.0867499493337,46.4014119133276 15.0869638995936,46.4011777385993 15.0870922770723,46.4010260412787 15.0874636317726,46.4009037584058 15.0880117088663,46.4006932577187 15.0885487502575,46.4003359317127 15.0890436605057,46.4000652772012 15.0894293524839,46.3999693380059 15.0898441314101,46.3999269968548 15.0893336198571,46.399719025969 15.0891024429979,46.3996666637644 15.0888550363659,46.3995498950906 15.0887898823363,46.3994689725771 15.0886039718933,46.3992615556698 15.088570401047,46.399169272316 15.0884771196463,46.3990644393429 15.088320950309,46.3989924939778 15.0883075830439,46.3987675789498 15.0882940272344,46.3984257028664 15.0882024899555,46.3981108779773 15.0876426613502,46.3977064426806 15.0873616098032,46.3972785796922 15.0873550628393,46.3968429491353 15.0871728077442,46.3967171299634 15.0870162179326,46.3963753625454 15.087197769323,46.3960603286229 15.0872104290483,46.395844390522 15.0871970814634,46.3956284722444 15.0872747875521,46.3954304785444 15.0873133238112,46.3952145206575 15.0872871590033,46.3951155734123 15.0872220269112,46.3950436469463 15.0869746322926,46.394836903899 15.0868702337711,46.3946030607141 15.0869603569893,46.3940361798827 15.0870249869967,46.3937932111293 15.0870506929263,46.3936042540987 15.0868496683479,46.3934428204173 15.08682077935,46.3932648812431 15.0867252060888,46.3931002182696 15.0862194531468,46.392645801151 15.0857328124192,46.3921847996058 15.0852796151798,46.3919860343003 15.0842907506014,46.3916449704463 15.0842382139624,46.391303122181 15.084186810835,46.3906832649112 15.0843290293795,46.3903272377309 15.0843184331152,46.3896943945947 15.0842026370685,46.3888837576178 15.0841163884844,46.3886004146448 15.0840018284533,46.3884225375907 15.0829718164621,46.3879930515246 15.0824385668265,46.3878764757665 15.081742620726,46.3875543417844 15.0810558710255,46.3870275145416 15.0809981085521,46.3866519293414 15.0810187816788,46.3862130393973 15.0811587624908,46.3859200866777 15.0810828859077,46.3856911659701 15.0810436425056,46.3855292471593 15.0808900607146,46.3847997862777 15.0808868739202,46.3836103802223 15.0786596814558,46.374445564163 15.0781680474956,46.372422193889</coordinates></LinearRing></outerBoundaryIs></Polygon></MultiGeometry>
  </Placemark>
</Folder>
</Document></kml>
