<?xml version="1.0" encoding="utf-8" ?>
<kml xmlns="http://www.opengis.net/kml/2.2">
<Document id="root_doc">
<Schema name="pregledovalniklovisca" id="pregledovalniklovisca">
	<SimpleField name="lov" type="string"></SimpleField>
	<SimpleField name="lov_naziv" type="string"></SimpleField>
	<SimpleField name="luo" type="string"></SimpleField>
	<SimpleField name="luo_naziv" type="string"></SimpleField>
	<SimpleField name="povrsina" type="float"></SimpleField>
</Schema>
<Folder><name>pregledovalniklovisca</name>
  <Placemark id="pregledovalniklovisca.1">
	<Style><LineStyle><color>ff0000ff</color></LineStyle><PolyStyle><fill>0</fill></PolyStyle></Style>
	<ExtendedData><SchemaData schemaUrl="#pregledovalniklovisca">
		<SimpleData name="lov">0325</SimpleData>
		<SimpleData name="lov_naziv">ADLEŠIČI</SimpleData>
		<SimpleData name="luo">03</SimpleData>
		<SimpleData name="luo_naziv">Kočevsko Belokranjsko</SimpleData>
		<SimpleData name="povrsina">5261.91</SimpleData>
	</SchemaData></ExtendedData>
      <MultiGeometry><Polygon><outerBoundaryIs><LinearRing><coordinates>15.3398783121562,45.4729452384926 15.3394146149412,45.4740842950041 15.3388234976036,45.4752002414072 15.3375119062222,45.4759369602333 15.3357706587017,45.4768698346281 15.3350854165707,45.4775523113952 15.3342901925321,45.4778299946705 15.3318947095119,45.478503226851 15.3298235457374,45.4790436451342 15.3280847838103,45.4802447290005 15.3271310435035,45.48176748545 15.3263011484753,45.4842771911752 15.3254582765532,45.4879228020016 15.324735922882,45.4889821763658 15.3240226929347,45.4893392807632 15.3241295387205,45.4902350436284 15.3224836399629,45.4901911104409 15.3210342563515,45.4902376657527 15.3195673153552,45.4909806419982 15.3187853122246,45.4909727487919 15.3175455231959,45.4908013621015 15.3163114634931,45.4912179049101 15.3145735039954,45.4917394852961 15.3128629252765,45.4917356346981 15.3100761843777,45.4916509992227 15.3082637725694,45.4920700133286 15.3062020815229,45.4928155009608 15.3044981965692,45.4935136560408 15.3021811656471,45.4939746804903 15.3005232731339,45.4943872237553 15.2995579771472,45.4948080969854 15.2985723267367,45.4948180562533 15.2963072003583,45.4947536765187 15.2945508785325,45.4950980001395 15.292594066379,45.495768554125 15.2914675420758,45.4955336052468 15.2905999255289,45.4950863434669 15.289808915477,45.4950040376328 15.2889808412455,45.4953044339562 15.2889534195207,45.495846839537 15.2894093396087,45.4966783112488 15.2890412997676,45.4973933594354 15.2879095313829,45.4983172079626 15.2870476494366,45.4984978160887 15.2866444740265,45.4980714026368 15.2858275696905,45.4978350809529 15.2849342761397,45.4981299419447 15.2836767895458,45.4987004232934 15.2836160689423,45.499833477411 15.2810680963817,45.5006429756713 15.2787387772135,45.5011492662783 15.2772187887602,45.5022312475256 15.2767529665299,45.5039741135203 15.2761546963617,45.5052260731639 15.2732306471756,45.5048980931996 15.272258820374,45.504919580258 15.2706186622491,45.5054335085939 15.2693705275291,45.5049166194679 15.2671913825325,45.5043056149416 15.2662109906347,45.5054676214437 15.2649650625265,45.5054126583591 15.2636994176439,45.5054100080692 15.2625116851317,45.5046867505396 15.2617314196576,45.5046788226913 15.2610025393863,45.5039104947842 15.2605478390355,45.5032378202931 15.2595612332131,45.5029898199983 15.2583125890712,45.502299591163 15.2566015104516,45.5022552160662 15.254516939849,45.5021609869503 15.2523965227503,45.5018896198494 15.2511109731295,45.5018532199221 15.2502637385854,45.5022015189253 15.2492507456999,45.5021651304927 15.2484271984628,45.5016182900207 15.2470185009928,45.501890758064 15.2463472656309,45.5017574110784 15.2456087851141,45.5019321311474 15.2453117820656,45.5029337549887 15.2446984307165,45.50355092316 15.2433871273341,45.5042273471251 15.2424026311014,45.5041293779778 15.2401749220886,45.5051728622035 15.2387458107188,45.5062773555163 15.2381983700171,45.5079223306684 15.2377892342526,45.5095041159362 15.2375669543633,45.5109999358823 15.2365195243387,45.5118525499333 15.2368582790517,45.5130675341116 15.2373586742185,45.5137889781942 15.2404062620231,45.5170100654607 15.2411200260309,45.5176514973976 15.2409223248507,45.5190445080558 15.2416754282042,45.519837926366 15.2418102329,45.5208877548536 15.2426937722213,45.5216120522334 15.2429859891686,45.5227066264532 15.2430132131087,45.5252538351828 15.2430857523008,45.5264321107224 15.2436814551523,45.5271808576591 15.2440618692934,45.529120278786 15.2435268303095,45.5308354338014 15.2431597849566,45.532205050262 15.2431211752935,45.5348626250085 15.2417294536467,45.5353221563657 15.2404779129104,45.5362322845073 15.2397816677959,45.5373867102811 15.2398474692039,45.5383775633442 15.2401869893598,45.5388754499506 15.2413424996189,45.5404654567239 15.241823969964,45.5412422577618 15.2418476935351,45.5424448397228 15.2425652228562,45.5444189100073 15.2429920703901,45.5452274058209 15.24375603347,45.5456306146316 15.2430798679408,45.5468197494309 15.2421553514104,45.5478001948195 15.2411738457232,45.5480997570138 15.2392613601726,45.5499897447156 15.2408983386196,45.5496209710526 15.242789524563,45.5496112982861 15.2439762637707,45.5497962056651 15.2452952314578,45.5491388404844 15.2476483052928,45.5486816859329 15.2497622935015,45.5481503194686 15.2497506074795,45.54901067819 15.2502131573669,45.5510513932795 15.2504925161538,45.552211028926 15.2516147616231,45.5531371026381 15.2518377237286,45.5537913314143 15.2515518814565,45.5543156652474 15.2520107689446,45.5546241970827 15.251997649107,45.5555288300982 15.2526284679475,45.5564440085272 15.2518081883906,45.5588501775095 15.2513743892765,45.5604698446913 15.2513359504874,45.5617029717965 15.2495456247419,45.5630876017304 15.2479021948486,45.5645121071345 15.2471071186611,45.5658725781067 15.246845199123,45.5674661189284 15.2471074524995,45.5681693112754 15.2478270201506,45.5685669183403 15.2479285971771,45.5690288520448 15.2477008684885,45.5694214931553 15.2486909413993,45.5707258089841 15.2495147112944,45.5706307900325 15.2503951146491,45.5702780189657 15.2520510536733,45.5692208532565 15.2531857515968,45.569016061621 15.2542519713078,45.5686567298798 15.2562658658572,45.567938122498 15.2579746957677,45.5672797377877 15.2596530466246,45.5673831953981 15.2604685822762,45.5678218070557 15.2621202363113,45.567331759445 15.2643397674163,45.5672771542361 15.2654494334831,45.5674058667382 15.2671808464802,45.5679970698527 15.2686706758782,45.5676484897095 15.2719712387359,45.5675972175216 15.2731449436149,45.5676381490345 15.2752647188041,45.5679068800286 15.2765040973819,45.5683800784571 15.2774181127925,45.5684685656113 15.279861467434,45.5686934130022 15.282047656885,45.5686763384082 15.2849967489432,45.5686810768132 15.2865556482121,45.5686058202748 15.2877616787219,45.569150336903 15.2897826663597,45.5699904409978 15.2900910135457,45.5706562543807 15.2907528307542,45.5708212208289 15.2915677949693,45.5710929627082 15.2942989454812,45.5715621505976 15.295302157724,45.572202401916 15.2968089614127,45.5723153850833 15.2992426616047,45.5726063404874 15.299176515019,45.5721654159563 15.2991688925511,45.5719664847874 15.2991290707462,45.570927190834 15.2991290707462,45.570927190834 15.2991290707462,45.570927190834 15.2991722998142,45.5709272283059 15.2991807031983,45.5709272355883 15.2991749159785,45.5708723798695 15.2991236372371,45.5703863157142 15.2991128564729,45.5701555883693 15.2991065817945,45.5700212982766 15.2989627016949,45.5697238709028 15.2988136974798,45.569415847477 15.2988136685356,45.5686855432477 15.2987281924637,45.5681060555646 15.2986898154039,45.5678458731115 15.298493177426,45.5666634665095 15.2983073374842,45.5658019661517 15.2982268370661,45.5654287810277 15.2981740495387,45.5647493646182 15.2983509574658,45.5636592042684 15.2984787015673,45.5629793477042 15.29860300374,45.5623177934104 15.2986904581394,45.5619369133423 15.2988665681803,45.5611699058532 15.2990929334202,45.5604247006782 15.2990929334202,45.5604247006782 15.2991085722758,45.5603250561628 15.2993014639265,45.5590959991225 15.299369714848,45.5587450245693 15.2995629294967,45.5577514109687 15.299736458711,45.5566852815792 15.2997257520642,45.5563859159742 15.2997113334793,45.5559827564794 15.2996367765171,45.5553853652344 15.2995542745816,45.5547242993186 15.2994922666804,45.5542474654028 15.2994178007227,45.5536748194399 15.2993904100538,45.5534254319798 15.2992935788718,45.5525437820183 15.2990941871382,45.5503754305479 15.2990245649612,45.5482351731093 15.2990710956418,45.5470114540518 15.2994637199743,45.5458691446074 15.2994850110932,45.5458071984236 15.3005860091926,45.5442776438758 15.3011768563713,45.5431232167152 15.3012452583855,45.5429552566421 15.301434202345,45.5424913023113 15.3014514938486,45.5421449593102 15.3014604600231,45.5419653682536 15.3014641655245,45.5417262629644 15.3014717907994,45.5412342206745 15.3014337081171,45.5410329376032 15.3012822026815,45.5401900097745 15.3012256266791,45.5399913181379 15.3011839386598,45.5398449113066 15.3010234290979,45.5387770473074 15.3009873703059,45.5385224882804 15.3008619790175,45.5381079034552 15.3008662986073,45.5379339431348 15.3008724142008,45.5376876517539 15.3011768516015,45.5368087039716 15.3012068323797,45.5367221442995 15.3015140075497,45.5363153270539 15.3015912614353,45.5362018658618 15.3016613778554,45.5360988868778 15.3019545408202,45.5357643270148 15.302078036643,45.535623391204 15.3023552972861,45.5353435360852 15.3025028770759,45.5351945739047 15.3030554297202,45.5347302325734 15.3031453452106,45.5346621904291 15.3035700932648,45.5343407657884 15.3038184875976,45.5341987408204 15.3038400166225,45.5341904033117 15.3040830983125,45.5340962650288 15.3042943713206,45.5340091132876 15.3046846796814,45.5338481063496 15.3048071669575,45.5337377482481 15.3049034513487,45.5336509979226 15.3050555544466,45.5334769778863 15.3051487847841,45.5333703131114 15.3053447792751,45.5331308149918 15.3056308441692,45.5327812498691 15.3057057259323,45.5327076419783 15.3057971691989,45.5326177539974 15.3060791475008,45.5322647259621 15.3061161087681,45.5322184512296 15.3075551953828,45.5319384252688 15.3080349495654,45.5319269974233 15.3085220882209,45.5319153916119 15.3092899521412,45.5319500285808 15.3096053333455,45.5319807585725 15.3096328470208,45.5319843558774 15.3103834262818,45.5320824884305 15.31128374628,45.532222303093 15.3115746459097,45.5322606957671 15.311927703565,45.5323072909358 15.3123776357891,45.5323586120218 15.3124085304405,45.5323600163866 15.3125867647691,45.532368118143 15.3128826531446,45.5323461618803 15.3131062077391,45.5322788713035 15.313248769416,45.5322208907865 15.3134562990498,45.5321001903751 15.3134775909537,45.5320878068326 15.3134912174883,45.5320782708889 15.3137211832071,45.5319173385472 15.3138315797636,45.5318402174685 15.3139525322976,45.531755721806 15.3140833563969,45.5315445299642 15.3140832874392,45.5313210625789 15.3140832361681,45.5311549001048 15.3140561986114,45.5305986040804 15.3140660976259,45.5302148855474 15.314047896686,45.530126893089 15.3140425471462,45.530101030681 15.3140189111392,45.5299717887958 15.3140177841395,45.5299466771699 15.3140143805735,45.5298708393141 15.3138853803929,45.5287520639664 15.3135508753337,45.5279724620627 15.3132812595552,45.5271650560627 15.3133110511881,45.5264338508351 15.3133413110927,45.5256911341384 15.3135772486375,45.5249542378473 15.3139786750591,45.5242125669966 15.3149583708237,45.5229063617584 15.3154984185791,45.5223751850834 15.3155675517285,45.5223071866411 15.3155675517285,45.5223071866411 15.3155675517285,45.5223071866411 15.316056078098,45.5221015554908 15.3164113178954,45.5219520252432 15.3167905042026,45.5218738249785 15.3173604239927,45.5217562866349 15.3216509740238,45.5216850764619 15.3227360165884,45.5214248416963 15.3245047882941,45.5207734753562 15.3252098446652,45.5203514247357 15.3252489069762,45.5203198853237 15.3258349230568,45.5198467225702 15.3261580895322,45.5193637394044 15.3262287172737,45.5192581826474 15.3262615077123,45.5191460864381 15.3265914696425,45.5180180653194 15.3266691122498,45.5175380089552 15.326741863256,45.5170881895001 15.3269030962821,45.5155995708887 15.326939179864,45.5155093035231 15.3275623654959,45.5144528936915 15.3278852124691,45.513905594117 15.3279742673154,45.5138129247336 15.3280291455643,45.5137582629345 15.3280695801933,45.5137179877024 15.3304829856944,45.5118863318759 15.3305362617594,45.5118435579021 15.3305848951666,45.5118045113198 15.3306931903231,45.5117204225807 15.3317270637346,45.5107850986089 15.3320926859956,45.5105849012023 15.3323601789062,45.5104559857156 15.332586400247,45.5103224784854 15.3326598954805,45.5102791041618 15.333069682866,45.510060593971 15.3341819174814,45.5094675031662 15.3355033078816,45.5089399035045 15.3360519991141,45.5087208167968 15.3391933888423,45.5075327383541 15.3415526364428,45.5064771218226 15.3427767318678,45.5059476251095 15.3435305075678,45.5056215591967 15.345948615537,45.5047375444918 15.3480098108607,45.5037600828403 15.348450454328,45.5035698199393 15.3496983030662,45.5030310023512 15.3501531647858,45.5028734300069 15.3501784224119,45.5028646802287 15.3510699259364,45.50255104791 15.3516351438674,45.5023705547503 15.3520361820135,45.5022424873412 15.3526122807919,45.5019564499046 15.3527865882854,45.5018593298946 15.3528675743627,45.5018142061648 15.353042565827,45.5016944977116 15.3531993702464,45.5015872300233 15.3554223580522,45.5004729873205 15.3558605645549,45.5002519398019 15.3565054163923,45.4999266465521 15.3569736901358,45.4995737951145 15.3580064826243,45.4987329881842 15.35837530358,45.4983629082435 15.3585216788227,45.4982160316685 15.3591861589068,45.4975537285554 15.3593315722373,45.4973512173566 15.3595770456943,45.4970093527989 15.3599767323802,45.4966624637512 15.3603307393997,45.4963402656661 15.360389155507,45.4962870980189 15.3613655934199,45.4954546265902 15.3622315064303,45.4950090704738 15.3622315064303,45.4950090704738 15.3622315064303,45.4950090704738 15.3622543102487,45.4950044128198 15.3637588529808,45.494697099925 15.3646522018974,45.4947604801487 15.364884208682,45.494833050866 15.3655199018255,45.4950318895481 15.3661781882307,45.4954854624839 15.3672627235229,45.4966338715341 15.3682643208943,45.4972222044948 15.3687197872351,45.4975291118157 15.3696565898501,45.4977726413731 15.3706214000342,45.4977006769975 15.3709340917419,45.4974822596714 15.3712371100048,45.4971811683015 15.3713821990243,45.497037000482 15.3716394464718,45.4966382526753 15.3716423746503,45.4964804104497 15.3717194095494,45.4961497474906 15.3717274891337,45.4961150666299 15.3717592440359,45.4955935934073 15.3717743003954,45.495295605883 15.3719657943441,45.4948066239561 15.3720925293638,45.4944829998607 15.3723486168896,45.4942990469907 15.3729664150442,45.493916596555 15.3733392153456,45.4936858089048 15.3739234493506,45.4934872423906 15.374117413088,45.4934213180024 15.3758662722874,45.4929205721408 15.3765692758534,45.4926731588887 15.3780218923258,45.4921619082486 15.3793885142097,45.4911537273177 15.3795091295564,45.4910647447477 15.3795434725676,45.4910186950114 15.3799502503308,45.4904732497822 15.379986329863,45.4904442030325 15.3802461014012,45.4902350660972 15.3811762603962,45.4899405060532 15.3811762603962,45.4899405060532 15.3811762603962,45.4899405060532 15.3827026069818,45.4897998857633 15.3838447685343,45.4897929039732 15.3851260477568,45.4892116103405 15.3855075884375,45.4886646502785 15.3856643738002,45.4884398861919 15.3857009528322,45.4878573825506 15.3855296382742,45.4865799998145 15.3853014006717,45.4864183162151 15.3848799543827,45.4861197598599 15.3831755041779,45.4856746672531 15.382105296173,45.4855925846876 15.3817208687613,45.4855630974555 15.3813626860388,45.4855275246029 15.3802254380099,45.4854145712725 15.3794147908056,45.4852838195808 15.378603342024,45.4851145825156 15.37847578642,45.4850879786957 15.3768917170173,45.4845545683314 15.3760633055413,45.4842311043741 15.3751310502224,45.4838142114778 15.3740353574562,45.4832668285902 15.3735662838963,45.4829745896765 15.3722674010975,45.4821653428697 15.3715226681738,45.4817564787575 15.3705355503544,45.4812145267841 15.3692383803416,45.4806704505636 15.3677339869634,45.4800237244379 15.3669900580792,45.4797503138568 15.3669306943232,45.4797287282679 15.3663438873233,45.4794994636765 15.3657990028029,45.4792865737521 15.3642271121684,45.4787135349337 15.3639323776843,45.4786594037012 15.3636376437603,45.478605271706 15.3632109545736,45.478568475733 15.3628825277176,45.4784645869692 15.3628642536362,45.4784588064293 15.3618330449937,45.4780992591975 15.3611611759285,45.4778448390153 15.3609683263971,45.4777679374463 15.3607391551239,45.477676551354 15.3605520201959,45.4775732310366 15.3602724389743,45.4774188682958 15.3601720302069,45.4773545119898 15.3598491286655,45.4771475488761 15.3588716325484,45.4760746764633 15.3587499504894,45.4759398857114 15.3572703141411,45.4743007872434 15.3562622399497,45.4730685345417 15.3560249992103,45.4725825464053 15.35594489744,45.4724138945483 15.3511204017938,45.4743097785683 15.3457399428517,45.4734411903125 15.3398783121562,45.4729452384926</coordinates></LinearRing></outerBoundaryIs></Polygon><Polygon><outerBoundaryIs><LinearRing><coordinates>15.2992426616047,45.5726063404874 15.2992827714276,45.5728730356668 15.299176515019,45.5721654159563 15.2992426616047,45.5726063404874</coordinates></LinearRing></outerBoundaryIs></Polygon></MultiGeometry>
  </Placemark>
</Folder>
</Document></kml>
