{"type":"FeatureCollection","features":[{"type":"Feature","geometry":{"type":"Polygon","coordinates":[[[14.7030608023556,45.5907048894408],[14.7034558913202,45.5903235781961],[14.7036086872933,45.5900266710726],[14.7028397866522,45.5895261680022],[14.7025556308003,45.5888992370562],[14.7012481724258,45.5884335827803],[14.7004736795678,45.587908213712],[14.6997051047923,45.5873091588294],[14.6988621148203,45.5869447582031],[14.6981912874595,45.5863338929355],[14.697502022763,45.5854362889388],[14.6970617908476,45.5845598574373],[14.6962255766716,45.5837577776067],[14.693657173599,45.5820223443012],[14.6926872337799,45.5812962751641],[14.6922531214269,45.5810080604578],[14.6909376417065,45.5802081586316],[14.6905523251851,45.5799977248338],[14.6905523251851,45.5799977248338],[14.6903232896081,45.5806825954736],[14.6901564123807,45.5807889443722],[14.6900266260656,45.580871655219],[14.6898285360142,45.5809161995515],[14.6895233001644,45.5809848368519],[14.6890081285341,45.5812007447081],[14.6889403457262,45.5812689304131],[14.6888956347034,45.5813139070823],[14.6888287198724,45.5814536305793],[14.688768329291,45.5815797302882],[14.6886826924958,45.5817479700949],[14.6886129978679,45.5818848895393],[14.6884556742383,45.5820402213077],[14.6881819805624,45.5820616123387],[14.6881519675181,45.5820639580223],[14.6881068651575,45.582056256701],[14.6878595610872,45.5820140286663],[14.6874151240011,45.5819829292987],[14.6870365503616,45.5819564373179],[14.6864690537539,45.5820145093352],[14.6862623712579,45.5820356584569],[14.6855465959853,45.5822806039872],[14.6851284836043,45.5824182255277],[14.6847145523132,45.5825544686876],[14.6839630460503,45.5828388082203],[14.6838200729734,45.5829342115152],[14.6837343442819,45.5829914164463],[14.6835564864041,45.583354545455],[14.6835598922086,45.5834850121759],[14.6835698790321,45.5838675759412],[14.6838755685413,45.5841861893361],[14.6840013966425,45.584317335889],[14.6842829009643,45.5848276881752],[14.6842829009643,45.5848276881752],[14.6842829009643,45.5848276881752],[14.6842413614945,45.5849011353341],[14.6839778218162,45.5853671027338],[14.6838166372814,45.5854908322105],[14.68373791146,45.5855512639339],[14.6834805843449,45.5856224690116],[14.68328071939,45.585677773189],[14.6825325999735,45.5856253960921],[14.6824431132123,45.585631819969],[14.6817228566774,45.5856835215383],[14.6813346187665,45.5859890006032],[14.681258025548,45.5860492662556],[14.6812366157583,45.5860944439945],[14.6811869481194,45.586199249566],[14.6811496439437,45.5864728737711],[14.6811588426773,45.5871343645053],[14.6810056909988,45.5877008298123],[14.6804004129674,45.5882182498862],[14.6800310723152,45.588454591459],[14.679981089928,45.5884865750094],[14.6797994891379,45.5885377287639],[14.6796552988759,45.5885783443569],[14.6791017780189,45.5887951018961],[14.6785654269963,45.589005131601],[14.6782862740101,45.5890618987253],[14.6773730398531,45.5892476037798],[14.676904744711,45.589280612296],[14.6762548919072,45.5893264149422],[14.6757849662185,45.5893525508086],[14.6748386370488,45.5894051768749],[14.6735111152906,45.5894975823421],[14.6735244129693,45.589591382592],[14.6735244129693,45.589591382592],[14.6735244129693,45.589591382592],[14.6733647225618,45.5896356476381],[14.6733466530597,45.5896352938741],[14.6733431937566,45.5896352261477],[14.6732836317885,45.5896355742122],[14.6731881122328,45.5896361323386],[14.6731167234143,45.5896365579673],[14.6731073877383,45.589647308046],[14.6730265350304,45.5897404101477],[14.6728620077555,45.5898991398484],[14.6728338521788,45.5899263031712],[14.6727549735539,45.5899657316538],[14.6726806368808,45.5900028896833],[14.672640978401,45.59000751409],[14.6725149378705,45.5900222110439],[14.6723792472655,45.5900383788424],[14.6721071611874,45.5900156423648],[14.67202531669,45.5900101400068],[14.671929596722,45.5900037047334],[14.6718208978986,45.5899978181779],[14.6717857150414,45.5899959128374],[14.6717487620434,45.5899811394406],[14.6715992037479,45.5899138522646],[14.6713466939947,45.5898090158099],[14.6711820393988,45.5897345275775],[14.6711238952291,45.5897082235834],[14.6710405544867,45.5896703707478],[14.6705875693259,45.5894614747366],[14.670470265436,45.5894150650073],[14.6704313173866,45.5893996556841],[14.6703314677051,45.5893723503357],[14.6699760478094,45.5892751546704],[14.6697191489991,45.5891985565779],[14.6696067935218,45.5892132588386],[14.6695013633306,45.5892271711777],[14.6694249148835,45.5891893538111],[14.6694208555146,45.5891873457277],[14.669175535718,45.5891470503257],[14.6691336671365,45.5891401730754],[14.6689516421064,45.5892062109484],[14.6686336686823,45.5893215692242],[14.6685490373558,45.5893765667765],[14.6683541038379,45.5895032434065],[14.667969667761,45.5898860839848],[14.6676760638468,45.5901655271557],[14.6673058583452,45.5902206889511],[14.6672744009826,45.5902157751308],[14.6669020037145,45.5901576038197],[14.666698573312,45.5900458763236],[14.6665598947139,45.5899697111767],[14.6659393766174,45.5897025385594],[14.6656967056426,45.5896019081124],[14.6655536607289,45.5895425900454],[14.6652942128692,45.5894428489203],[14.6651386988946,45.5894303354549],[14.6649225222899,45.5894356854447],[14.6647063456464,45.5894410350254],[14.6645487382625,45.5894508407676],[14.6645060827441,45.5894534945964],[14.6643001603096,45.5894908624664],[14.6641888687937,45.5895281835477],[14.6640987997097,45.5895583876714],[14.6639096082612,45.5896483540808],[14.6634104257176,45.5899469775487],[14.6633945333244,45.5899601164062],[14.6632339701029,45.5900928597727],[14.6630992418293,45.5901484105896],[14.662950542519,45.5902097215957],[14.6629187315664,45.5902355428259],[14.6626281026382,45.5903989937652],[14.6622753784837,45.5904873046073],[14.6619752515236,45.5905197157743],[14.6615843816248,45.5905619251703],[14.661302001105,45.5905684631745],[14.6610434528342,45.5905744487731],[14.6601845004753,45.5905523706292],[14.6597039114111,45.5905925170688],[14.6592972833228,45.5906264834871],[14.6591003184062,45.5906393637161],[14.6589182790537,45.5906512676026],[14.6583917078876,45.5905785176816],[14.6583430388262,45.5905802894192],[14.6582912048333,45.5905821763495],[14.6581549855114,45.5906777707268],[14.6581322446021,45.5906937295241],[14.657972445721,45.5908940620878],[14.6579172128757,45.5909633045982],[14.6579172128757,45.5909633045982],[14.6579172128757,45.5909633045982],[14.6578016046282,45.591090374197],[14.6577276589145,45.591160360673],[14.6576734708471,45.5912116472344],[14.6575404968276,45.5913068105641],[14.6574075223586,45.5914019737361],[14.6569885618683,45.5916099268484],[14.6568318696875,45.5915953267238],[14.6567839958272,45.5915908659314],[14.6567486326607,45.5915768934021],[14.6565535947612,45.5914998306162],[14.6558386753764,45.5912493261268],[14.6553764575637,45.5912787068418],[14.6551762337998,45.5913576298797],[14.6550921398689,45.5913907773647],[14.655040100364,45.5914128212188],[14.6547886230949,45.5915193460223],[14.6546118895432,45.5915807200776],[14.6545697067708,45.5915871599563],[14.6542812942551,45.5916311903086],[14.6541269472477,45.5916348805832],[14.6538971220514,45.5916403750746],[14.6532600446103,45.5915823768114],[14.6532110454909,45.5915779158769],[14.6525964973951,45.591596924692],[14.6521752831778,45.5915782913933],[14.6519106087673,45.5915665821623],[14.6515579124601,45.5916464915688],[14.6514892099628,45.5916829501367],[14.6513227225682,45.591771300151],[14.6512976750952,45.5918118045141],[14.6512484103883,45.5918914704701],[14.6511968332292,45.5920342623545],[14.651122439943,45.5922402195827],[14.6510620091465,45.5924773824641],[14.6510597798213,45.5924861314934],[14.6510597798213,45.5924861314934],[14.6510597798213,45.5924861314934],[14.6510596509972,45.5924864633632],[14.6510382888721,45.592541495325],[14.650992022684,45.5927001595099],[14.6509834197966,45.5927296619484],[14.6509487141008,45.5927667451211],[14.6508083339342,45.5929167412713],[14.6507582084881,45.5930247075252],[14.6507524746969,45.5930370576307],[14.6507450918553,45.5930541916181],[14.6507074801147,45.5931414802056],[14.6506912342206,45.593187260619],[14.6506376887891,45.5933381493923],[14.6505503222229,45.5934959821377],[14.6504748696405,45.5935927528748],[14.6504499714262,45.5936422155559],[14.6504281517937,45.593685562263],[14.6503815552566,45.5937794517966],[14.6503031996272,45.5938525075629],[14.6502496718553,45.5939024146518],[14.6501759294089,45.5939506896395],[14.6500474326476,45.5940029360728],[14.6497400872151,45.5941041247323],[14.6495091156351,45.5941872803829],[14.6491867218466,45.5942965198402],[14.6489231492668,45.5944071989313],[14.6487290616956,45.5945573340457],[14.6487142443199,45.5945687958788],[14.6486651218154,45.5946392337293],[14.6486212554743,45.5947021344821],[14.6485646336682,45.5948293070311],[14.6485012686883,45.5949716240227],[14.6483906700918,45.5956678867537],[14.6483815910386,45.5957250422646],[14.6483815910386,45.5957250422646],[14.6482874364058,45.5959419710638],[14.6482233774195,45.5960193390522],[14.6481190427475,45.5961216881705],[14.6481025238263,45.5961363432254],[14.6480857886813,45.5961511900967],[14.6480598622165,45.5961703264755],[14.6480327349327,45.596190349161],[14.6480004144558,45.5962113634592],[14.6479484361798,45.5962451589164],[14.6479028327091,45.5962817313764],[14.6478736468067,45.5963099035301],[14.6478396442935,45.596342724948],[14.647791015042,45.5963984431914],[14.6477856792848,45.5964045567675],[14.6477118826241,45.5965016006854],[14.6476473584995,45.5965711384005],[14.647531605067,45.5966339492794],[14.6473777995062,45.5966940330872],[14.6472555513955,45.5967499849407],[14.6472065472103,45.5967768284707],[14.6470897413701,45.5968159070974],[14.6469605693967,45.5968591227418],[14.6468791883472,45.5968826632875],[14.6467829760179,45.5969104938768],[14.6467334148297,45.596932121355],[14.6466949324512,45.5969489142431],[14.6465888474711,45.5970026657963],[14.6465618700592,45.5970182173603],[14.6465393193091,45.5970312170921],[14.646510506676,45.5970507470143],[14.6464746983763,45.5970750187448],[14.6464182372475,45.5971053481895],[14.6462542978229,45.5972070611716],[14.6461953811605,45.597259140736],[14.6461809562751,45.5972718916382],[14.6461663834706,45.5972811266578],[14.6460828927544,45.597334035967],[14.646061851829,45.5973533765932],[14.6460070849207,45.5974037177534],[14.6459255607108,45.5974673176258],[14.6459178182559,45.5974733577736],[14.6458700702422,45.5975040738828],[14.6457005558159,45.5975974398947],[14.6454302968687,45.5977462933163],[14.6452657389835,45.5978438637387],[14.6451385009341,45.5978976382329],[14.645136322974,45.5978990234491],[14.6450800724697,45.5979347995962],[14.6450500082921,45.5979662001796],[14.6449797247073,45.5980538950076],[14.6449305711521,45.5981447148846],[14.644893065196,45.5982585165674],[14.6448912863713,45.5982664119423],[14.6448790865364,45.5983205612662],[14.6448722329204,45.5984005681016],[14.6448664946944,45.5984675540623],[14.6448561350762,45.5985248409167],[14.6448380698731,45.598584443367],[14.6448333817721,45.5985974238377],[14.6448242409439,45.5986227330556],[14.6447656028311,45.5987313095723],[14.6447468111365,45.5987661048787],[14.6447163188731,45.598844924985],[14.6447114703388,45.5988528565043],[14.6446928756722,45.5988832747377],[14.6446092837873,45.598987394787],[14.6445726718905,45.5990203045771],[14.6445039141662,45.5990690060448],[14.644486789283,45.5990811356726],[14.6444599890605,45.5990964146551],[14.6444169339725,45.5991209606124],[14.6443445570036,45.5991541189303],[14.6443320779071,45.5991615658862],[14.6442857552413,45.5991892091124],[14.6442530877315,45.5992124590459],[14.6442182833535,45.5992372297876],[14.6441831273109,45.5992664514405],[14.6441144212241,45.5993235597233],[14.6440603554471,45.5993817620941],[14.6440146556305,45.5994309583066],[14.643990530908,45.5994647742125],[14.6439605952397,45.5995067353248],[14.6439019865496,45.5996041404754],[14.643896340105,45.5996135246067],[14.6438954757005,45.5996152135493],[14.6438677864711,45.5996693149194],[14.6438297431491,45.5997530874646],[14.6437438996652,45.5999421164381],[14.6437224714838,45.6000003253958],[14.6437056842094,45.6000459273921],[14.6436540657452,45.6001610343568],[14.6436069198328,45.6002783148363],[14.6435931865359,45.6003082608893],[14.6435858629143,45.6003242303519],[14.643521246077,45.6004271490191],[14.6434052991461,45.600599464132],[14.6433707022449,45.600637778785],[14.6432884077823,45.6007184163782],[14.6432046461547,45.60078780148],[14.6431624394596,45.6008132247623],[14.6431187739119,45.6008341744068],[14.6431147367373,45.6008361113412],[14.6431147367373,45.6008361113412],[14.6431147367373,45.6008361113412],[14.643057604058,45.600836085748],[14.6428793847715,45.6008360057294],[14.6427475717181,45.6007836682182],[14.6426269784984,45.6007357854204],[14.6423678377779,45.6006465213699],[14.6421934914848,45.600623423018],[14.6421452357715,45.6006170297864],[14.6419518353944,45.6006299036609],[14.6417024177131,45.6006465058865],[14.6413216092609,45.6006207455805],[14.6412031365762,45.6006443744917],[14.6411750331053,45.6006499795975],[14.641072099813,45.6006975303871],[14.6405744989372,45.6009273983106],[14.640471728638,45.6010185919664],[14.6404609216592,45.6010281815617],[14.6404612902119,45.6012134428584],[14.6404613783132,45.601257729083],[14.6405948351545,45.6014766272221],[14.6415977093907,45.602253899757],[14.6416036286507,45.6022676125017],[14.6416129950309,45.6022893109392],[14.6415359103088,45.6026393442282],[14.6414994674053,45.6028048259034],[14.6414712432252,45.6028315967535],[14.6414321442921,45.6028686823356],[14.6406896837689,45.6026833245831],[14.6401057785497,45.6026136494421],[14.6399569852514,45.6025958940114],[14.6399410108153,45.6025956494792],[14.6398681570904,45.6025945342261],[14.6397037966534,45.6026477544339],[14.6394836819156,45.6027190274557],[14.6394478304321,45.6027392341888],[14.6394117629104,45.6027595626599],[14.6393533749225,45.6031091413219],[14.6394303080656,45.6031958696783],[14.6397752903692,45.6035847715892],[14.6394817205805,45.6039659122376],[14.6394495251819,45.6039866176472],[14.6394066737823,45.6040141760747],[14.6392537163163,45.6040135552927],[14.6390073569127,45.6040125550058],[14.6386833425357,45.6041873571887],[14.6386568115779,45.6042016702586],[14.6385188262329,45.6043686915912],[14.6385188262329,45.6043686915912],[14.6378997904777,45.6043852675659],[14.6376183900411,45.6043536010772],[14.6370555928009,45.6042902663231],[14.6366150691743,45.6040388938528],[14.6366150691743,45.6040388938528],[14.6366150691743,45.6040388938528],[14.6366029302345,45.6039334854496],[14.6367976455428,45.6037859427971],[14.6369229301728,45.6036910096286],[14.6369051800025,45.60356110811],[14.6365999031322,45.6034492786673],[14.6365706330751,45.6034424333331],[14.6365257909286,45.6034319461653],[14.636346566863,45.6034720980249],[14.6362129300569,45.6035020366757],[14.6361289087973,45.6034906112225],[14.6359521347414,45.6033033848778],[14.635912716934,45.6032616361687],[14.6357332432742,45.603301736235],[14.6346882688484,45.6031039163099],[14.6336682855355,45.6029108167977],[14.6331672968156,45.6030884237099],[14.6326691495808,45.6032650199779],[14.6321332775809,45.6036217869164],[14.631892971476,45.6039069780032],[14.6318546372947,45.6039377137009],[14.63144037547,45.6042698588373],[14.6311508979377,45.6043768145171],[14.6311178236088,45.6043890346927],[14.6308110219694,45.6046670800593],[14.6308316885432,45.6048065620095],[14.6308695796799,45.6050622934633],[14.6308757182517,45.60508092522],[14.6308824005989,45.6051012074268],[14.6309521519895,45.6051580319131],[14.6311304941809,45.6052724360517],[14.6311480718316,45.6053289465021],[14.6311873695967,45.6054552846065],[14.6310740322311,45.6056132882304],[14.6310740322311,45.6056132882304],[14.6310740322311,45.6056132882304],[14.6310307770877,45.6056531672336],[14.630984650305,45.6056956936584],[14.6309236788459,45.6057269906416],[14.6307708844901,45.6057200643591],[14.6307249015469,45.6057179798775],[14.6306909704696,45.6057151912351],[14.6303670353738,45.6056885679474],[14.6303660435884,45.6056894265508],[14.6303081134744,45.6057395774481],[14.6301134218436,45.6061037371467],[14.6301046217457,45.6061243728384],[14.630089203433,45.6061605278005],[14.6300656245013,45.6062527213839],[14.630014333245,45.6064532690317],[14.6298381608325,45.60663761506],[14.6297251734084,45.6067558438129],[14.6296457569849,45.6069967066064],[14.6295772244617,45.6072045577933],[14.6296222108319,45.6074597145957],[14.6296558212857,45.6075639092197],[14.6296625411883,45.6075847413137],[14.6301261719863,45.6079674999866],[14.630130357433,45.6080189109822],[14.6301349504082,45.6080753276572],[14.6298467815593,45.6083166201091],[14.6297827564979,45.6083702298381],[14.6294809875033,45.6086974182885],[14.6294731381319,45.6087411373456],[14.6294541040413,45.6088471522326],[14.629358189437,45.6089992925031],[14.6293490312669,45.6090138191951],[14.6293490312669,45.6090138191951],[14.6293490312669,45.6090138191951],[14.6292799197739,45.609019604545],[14.6291637991314,45.6090293249522],[14.6289884398302,45.6090641187629],[14.6289108623843,45.609141921779],[14.6287207685126,45.6093325672414],[14.6285390222982,45.6094135163879],[14.6281772376926,45.6095746524615],[14.6278308982965,45.6099118594501],[14.6279082434513,45.6104106152538],[14.6278965473782,45.6105313338608],[14.6278694295001,45.6105668147649],[14.6278188206637,45.6106330309901],[14.6276981625526,45.6106890609515],[14.6275632819457,45.6107516951237],[14.627535929615,45.6107826978993],[14.627450637258,45.6108793731195],[14.6274373144494,45.6109494365494],[14.6274305790491,45.6109848573339],[14.627423811855,45.6109920568434],[14.6273460050818,45.6110748340603],[14.627420725706,45.6112791097139],[14.6274807521695,45.6114432124982],[14.6276693535399,45.6115979675812],[14.6276822953297,45.6117373144838],[14.6276889819793,45.6118093107468],[14.6276889819793,45.6118093107468],[14.6276889819793,45.6118093107468],[14.627622064152,45.6119090192878],[14.6276185396533,45.6119142708314],[14.6275644500644,45.6120086662352],[14.6275487807178,45.6120515368577],[14.6275152507211,45.612332713185],[14.6275161245368,45.6123425975078],[14.6275278946365,45.6124757367778],[14.6274785469593,45.61258442325],[14.6274420209631,45.6126648701469],[14.6272568169025,45.6129223584381],[14.6271588788643,45.6130585201253],[14.6271606538107,45.6130998076609],[14.6271814307706,45.6135831022748],[14.6272169701751,45.6137424234075],[14.62723148722,45.6138075022355],[14.6271911506667,45.6140125309052],[14.6272485367593,45.6140707698809],[14.6273144366761,45.6141376490306],[14.6273366050417,45.614197739731],[14.6273312384187,45.6142100979458],[14.6273242356485,45.6142262238582],[14.6272691652353,45.6142296159013],[14.6271355496303,45.6142378457962],[14.6269325968272,45.6141935116199],[14.6268762832697,45.6141812100867],[14.6268364489841,45.6140918260467],[14.6266927153035,45.6137692999808],[14.6265626705143,45.6137503745639],[14.6264074512997,45.6137277853028],[14.6260392332975,45.6135509345248],[14.6254806254722,45.6134112512341],[14.6252940467258,45.6132800746612],[14.6252026190718,45.6132640745071],[14.6251567591651,45.6132560488346],[14.6251139505637,45.6132349596521],[14.6249598249619,45.6131590311208],[14.6247832195531,45.6132248400048],[14.624766893625,45.6132309235517],[14.6244999551804,45.6135372470284],[14.6243825500829,45.6136847024607],[14.6242848628666,45.6137785929964],[14.6241274856295,45.6138635587588],[14.6240396784874,45.6138603003953],[14.6238918971232,45.6137564239594],[14.6235922229529,45.6135693529579],[14.6234867037484,45.613453917497],[14.6234579569989,45.6134434613016],[14.6231499302519,45.6133314205331],[14.6229903478387,45.6133435815414],[14.6229670204744,45.6133506197192],[14.6225979815015,45.6134619628434],[14.6222970925639,45.6136065271437],[14.6220792103294,45.6137112093008],[14.622048453559,45.6137520684638],[14.6219563071221,45.6138744809827],[14.6219505806873,45.6140016074278],[14.6218722278242,45.6141299657631],[14.6218021368045,45.6142447889279],[14.6216714120408,45.6142743202795],[14.621586482316,45.6143388264435],[14.6215500421285,45.6143791627937],[14.6214812002403,45.6144553650237],[14.6212911774384,45.6145513090145],[14.6211809168861,45.6146069801286],[14.6211016160786,45.6147684158269],[14.6211100875696,45.6148444729148],[14.6211179388525,45.614914961592],[14.6210580877691,45.6149870190814],[14.6210580877691,45.6149870190814],[14.6210580877691,45.6149870190814],[14.6207818627155,45.6150879627558],[14.6206935352223,45.6151033136281],[14.6204699219613,45.6151421761403],[14.6203244597853,45.6151886178964],[14.6200827594943,45.6152657850455],[14.6200967146815,45.6154351251881],[14.6201036173227,45.6155188853798],[14.6200277218777,45.6155884328771],[14.6199598892862,45.6156505917139],[14.6198166356756,45.6158068646815],[14.6197420359997,45.6158575876666],[14.6196164587388,45.6159429718146],[14.6194055541143,45.6159744999791],[14.6193438391911,45.615983725672],[14.6191779200786,45.6160783742378],[14.6191587980922,45.6162151651887],[14.6191407296829,45.616344418644],[14.6189253193783,45.6164573482521],[14.6186003274808,45.6164095425151],[14.618490306958,45.6163933584617],[14.6182743443096,45.6163040042272],[14.6182579498667,45.6162895038233],[14.618190604471,45.6162299386927],[14.6179919779951,45.6161935516018],[14.6176695053219,45.6163582783965],[14.6174039575569,45.6164939251648],[14.6172445190678,45.6168136078006],[14.6172323618548,45.616837983498],[14.6172036675582,45.616849809869],[14.6171665264354,45.616865117586],[14.6171169180758,45.6168575030466],[14.6170190943914,45.61684248772],[14.6166234858965,45.6166973686802],[14.6166234858965,45.6166973686802],[14.6166234858965,45.6166973686802],[14.6165677859589,45.6166330920144],[14.6165191629266,45.6165769818199],[14.6164293514178,45.6165662423292],[14.616334085135,45.6165653965319],[14.6161848439095,45.6165640713722],[14.6161414867538,45.6165706023062],[14.615973314005,45.6165959341737],[14.6157930920564,45.6166058561578],[14.6155681161921,45.6166913925666],[14.6154868502809,45.6167060561695],[14.6153813914928,45.6167056603642],[14.6152542581447,45.6167051830811],[14.6151460182689,45.6167161642043],[14.6150602489785,45.6167248655717],[14.6150040812389,45.6167572077353],[14.6148972751368,45.6168187079906],[14.6148574914621,45.6168237028776],[14.6147625367416,45.6167775815976],[14.614684203376,45.6167010122186],[14.6146651298,45.6166402096662],[14.614579012263,45.6166484516976],[14.6145488828814,45.6166513352676],[14.6145135779275,45.6166743790891],[14.6143585164625,45.6167755885742],[14.6143202542957,45.6167808934797],[14.6142786852286,45.6167866568588],[14.6142040994283,45.6167807361012],[14.6141275625307,45.6167040824246],[14.614117978058,45.6167023762825],[14.6140394521108,45.616688397761],[14.6138978589197,45.6167332576699],[14.613765740006,45.6167751156911],[14.6135103733858,45.6166550251618],[14.6129598453496,45.6167760774748],[14.6128584042691,45.616908817932],[14.6128584042691,45.616908817932],[14.6128584042691,45.616908817932],[14.6127244538653,45.6169955569978],[14.6127244538653,45.6169955569978],[14.6127244538653,45.6169955569978],[14.6124927633046,45.6171056298151],[14.6121149932418,45.6172386917035],[14.6120133901752,45.6172693050642],[14.6119041376027,45.6173022231092],[14.6115902822746,45.6173707129471],[14.6114171627054,45.6174843120534],[14.61134279439,45.6175238305475],[14.6110843485773,45.6176611649602],[14.6109857952332,45.6178019220108],[14.6108426494373,45.6179938171173],[14.6108426494373,45.6179938171173],[14.6108426494373,45.6179938171173],[14.6107987741571,45.6180039827769],[14.6107465817732,45.6180160754367],[14.610353535624,45.6182611976511],[14.6103216677438,45.6184375446739],[14.6103195444455,45.6184532724859],[14.6103113953485,45.6185136348439],[14.6102648124216,45.6185255592396],[14.6102430568556,45.6185311282668],[14.6100726012922,45.6185554717464],[14.6096317698873,45.6188671953671],[14.609562605801,45.6189481232312],[14.6094230682937,45.6190420996371],[14.6093705180629,45.6190774912983],[14.6093155423383,45.6191426479207],[14.6092753579659,45.6191902738825],[14.6092643270127,45.6192206695564],[14.6092438516092,45.6192770892207],[14.6092771015415,45.6193003011759],[14.6093127615673,45.6193251955982],[14.6093127615673,45.6193251955982],[14.6093127615673,45.6193251955982],[14.6092751951276,45.6193852780373],[14.6092633571613,45.6194042112338],[14.6091966749567,45.6194299094966],[14.6090527523196,45.6194853747822],[14.6090666322707,45.6195547088071],[14.6090788268851,45.6195691550725],[14.6091397627903,45.6196413422395],[14.6091533762294,45.6196567758231],[14.6091533762294,45.6196567758231],[14.6091533762294,45.6196567758231],[14.6091054060951,45.619695394151],[14.6090946375,45.6196978122815],[14.6089976523638,45.6197195906216],[14.6089453948863,45.6197293098259],[14.6089276769097,45.6198062741923],[14.6088853111038,45.619840965431],[14.6088604860302,45.6198612934142],[14.6088367674106,45.619952904366],[14.6087049679565,45.620005002779],[14.6087029675591,45.6200382400354],[14.6087023581593,45.6200483654019],[14.6087381391718,45.6201399101669],[14.6087381391718,45.6201399101669],[14.6087381391718,45.6201399101669],[14.608600444465,45.6202835904422],[14.6085512454674,45.6203328222568],[14.6085705609689,45.6203595485364],[14.6086076376348,45.6204108503257],[14.608584777094,45.6204556235521],[14.6084866034865,45.6206478993726],[14.6084302876015,45.6206325893005],[14.6084174802011,45.6207039914932],[14.6084174802011,45.6207039914932],[14.6084174802011,45.6207039914932],[14.6083376451749,45.6207330521029],[14.6083062434357,45.6207676776786],[14.6084105935339,45.6208256539661],[14.6084533989128,45.6208494363152],[14.6085046021204,45.6209360849611],[14.6085046021204,45.6209360849611],[14.6085046021204,45.6209360849611],[14.6083981037024,45.6210190437218],[14.608415857829,45.6210901072556],[14.6084315387412,45.6211528722895],[14.6083242499367,45.621266945219],[14.6083226311864,45.6212686663224],[14.6082994515781,45.6213563197595],[14.6082994515781,45.6213563197595],[14.6082994515781,45.6213563197595],[14.6082294569265,45.6213712607639],[14.6081770621423,45.6213824448809],[14.6081770621423,45.6213824448809],[14.6081770621423,45.6213824448809],[14.6081206683549,45.6213045965721],[14.6077702288772,45.6215216913949],[14.6075421867985,45.6215826361866],[14.6075421867985,45.6215826361866],[14.6075421867985,45.6215826361866],[14.6070893703302,45.6215302395987],[14.6069834990057,45.6217615802789],[14.606783182537,45.6218918154491],[14.6066117109091,45.6219864265588],[14.6066117109091,45.6219864265588],[14.6066117109091,45.6219864265588],[14.606530340102,45.6218679993522],[14.6062906108443,45.6218028359542],[14.6061055386033,45.621775566615],[14.6060955094963,45.6217740888741],[14.605991056811,45.6218022531112],[14.605991056811,45.6218022531112],[14.6059898526455,45.6218022428026],[14.6054805819697,45.6217978818751],[14.6053102703695,45.6217817266235],[14.6051664942447,45.6218390325505],[14.6051455398631,45.6218473844704],[14.6050992567113,45.621851242853],[14.604957949592,45.6218630227641],[14.6048623626076,45.6219147471294],[14.6047563661152,45.6219721041183],[14.6047544400929,45.6219920809181],[14.6047509717652,45.6220280545473],[14.6046809811847,45.6222730844019],[14.6046601253413,45.6223460981457],[14.604584440016,45.6225139234332],[14.604584440016,45.6225139234332],[14.604584440016,45.6225139234332],[14.6045437944365,45.6225334091056],[14.6044979732043,45.6225553759752],[14.6041984754,45.622582683188],[14.6041928674893,45.6225946217864],[14.6041740001204,45.6226347882106],[14.6041767804049,45.6226450213027],[14.6041878751075,45.6226858563356],[14.604103398693,45.6227359537894],[14.6040134144732,45.622722236043],[14.6039783729665,45.6227168940798],[14.6039771905458,45.6226847667119],[14.6039753589115,45.622634999599],[14.6039165590024,45.6226570229099],[14.6038696689879,45.6226745853752],[14.603878129575,45.6227478604285],[14.6038584743512,45.6227687346932],[14.6038327789319,45.622796023745],[14.6035883923223,45.6228820990363],[14.6035272043014,45.6228301467896],[14.6034598571685,45.6228696852834],[14.6034368241918,45.6229535589565],[14.6033637975656,45.6229774971834],[14.6032953068424,45.622999948474],[14.6032703705946,45.6229474071044],[14.603265106734,45.62293631599],[14.6032125977888,45.6229584005545],[14.6031730150084,45.6229750485184],[14.6031703962559,45.6229858873119],[14.6031534648611,45.6230559648101],[14.6031157497349,45.6230709626865],[14.6030051898735,45.6231149280351],[14.6030148734236,45.6231601328738],[14.6030293193959,45.6232391876594],[14.6029940269504,45.6233519929838],[14.6029080189782,45.6233393939866],[14.6028304349281,45.6233280289191],[14.6027610808982,45.623357757541],[14.6026184551375,45.6234188938763],[14.6023480614936,45.623573262692],[14.6022636843428,45.6235960067534],[14.602201075253,45.62361288313],[14.602201075253,45.62361288313],[14.602201075253,45.62361288313],[14.6020759252361,45.6235205752027],[14.6019617036689,45.6235149583051],[14.6019287938843,45.6235477359732],[14.601856188175,45.6236200500363],[14.6019318367137,45.6237052257362],[14.6019621673522,45.6237393761225],[14.6019621673522,45.6237393761225],[14.6019621673522,45.6237393761225],[14.6018530956212,45.6238214199525],[14.6018514231627,45.6238329724929],[14.6018330054581,45.6239601928295],[14.6017142249881,45.6240730666592],[14.6017350234117,45.6240855756172],[14.6018036128463,45.6241268278288],[14.6018036128463,45.6241268278288],[14.6018036128463,45.6241268278288],[14.6016974150466,45.6242194094664],[14.6016351272758,45.6242254977999],[14.6015765283167,45.6242312255373],[14.6015365338462,45.6241625115255],[14.6015159662867,45.6241271745816],[14.601447139742,45.6241398019731],[14.6013733265482,45.6241618303433],[14.6013565383209,45.6241668405128],[14.6012971465683,45.6241998839701],[14.601160453848,45.6242759346684],[14.6011553295286,45.6242857898098],[14.6011153388349,45.6243627001778],[14.601008672012,45.6243946313786],[14.6009186817045,45.624436902974],[14.6009059931301,45.6244428632305],[14.6008773459393,45.6244678816426],[14.6007235283942,45.6246022144028],[14.6007113715075,45.6246527702407],[14.6007105783653,45.6246560686124],[14.6007105783653,45.6246560686124],[14.6007105783653,45.6246560686124],[14.6005327854809,45.6247458255118],[14.6004045211385,45.6248105780875],[14.6003239907053,45.6247715332332],[14.6003192771912,45.6247692479015],[14.6000068975624,45.624892870219],[14.5998576132875,45.6248989610777],[14.599811912293,45.6249008256574],[14.599657901092,45.6251158839189],[14.5995741704799,45.6251610574292],[14.599480758074,45.6252114542062],[14.5994503596757,45.6254282052415],[14.5994264350186,45.6255136563019],[14.5993910118874,45.6256401756616],[14.5993513128177,45.6256679236354],[14.5992030957689,45.6257715207286],[14.599141205351,45.6258171741921],[14.5991364429028,45.6258206872072],[14.5991364429028,45.6258206872072],[14.5991364429028,45.6258206872072],[14.5990812115751,45.6258222545276],[14.5990320306273,45.6258236501315],[14.5989915626257,45.6258717293486],[14.5988964816915,45.6259846927075],[14.5987599296931,45.6259897767739],[14.5986822555742,45.6259926686421],[14.5985525200167,45.626129615944],[14.5985372317457,45.6263310328091],[14.5985372317457,45.6263310328091],[14.5985372317457,45.6263310328091],[14.5984985503712,45.6263504657158],[14.598460393381,45.626369635154],[14.598460393381,45.626369635154],[14.598460393381,45.626369635154],[14.5983599033459,45.6263080938715],[14.5982016081342,45.6263530928607],[14.5980234723533,45.6264037316304],[14.597759311151,45.6265121054297],[14.5975383041142,45.6266027741671],[14.5975263192532,45.6266334494944],[14.5975191001257,45.6266519268797],[14.5975103694046,45.6266729173046],[14.5975034411043,45.6266895743324],[14.5974876482085,45.6267312044697],[14.5974584758809,45.6268081026734],[14.5974584758809,45.6268081026734],[14.5974584758809,45.6268081026734],[14.597261883533,45.6268604094126],[14.5971830004554,45.626861363772],[14.5970833481934,45.6268625693273],[14.5969992195509,45.6268182581157],[14.5969134211279,45.626773067282],[14.5967125832744,45.6267019922392],[14.5965792188549,45.6266857740943],[14.596524353138,45.6266791019509],[14.5962160968441,45.6268152359788],[14.5962041850562,45.626920293306],[14.5961700262462,45.6269307253388],[14.5959700049252,45.6269918111701],[14.5957325074907,45.6270787038023],[14.5957697340015,45.6271452425313],[14.5959228661305,45.6274302185836],[14.5959228661305,45.6274302185836],[14.5959228661305,45.6274302185836],[14.5958989788406,45.6276311547235],[14.595752473953,45.6277797288481],[14.5956997668245,45.6278331801729],[14.5962302565865,45.6279511336172],[14.5963046427129,45.6279866695913],[14.5968765252067,45.6282347008337],[14.597149120354,45.6283317030414],[14.5973137701401,45.6283902927224],[14.5975910230873,45.6282503572881],[14.5977412382989,45.6283890092485],[14.5978437927191,45.6284851115471],[14.5978577811794,45.6285030544124],[14.5980705135499,45.628775922585],[14.598444769026,45.6291146725361],[14.598672332508,45.6294499365886],[14.5988749983873,45.6296620169039],[14.5991334584765,45.6299817315587],[14.5992371703783,45.6301071295708],[14.5993269939677,45.6302157347032],[14.5995194260545,45.6304248085361],[14.5995214192882,45.6304279263413],[14.5995219628974,45.6304287766518],[14.5995328747319,45.6304458389914],[14.5995557030698,45.6304815345889],[14.59956229785,45.6304919956555],[14.5995851504965,45.6305340428622],[14.5995933140469,45.6305490631846],[14.5996113907964,45.6305861092785],[14.5996633112274,45.6306794229463],[14.5996080870199,45.6307428443659],[14.5993060167296,45.6310897494681],[14.5992277716956,45.6314148510671],[14.5992285472469,45.6314243496394],[14.5992393318452,45.6315564338032],[14.5994054193159,45.6317779647317],[14.5994774247996,45.631874006529],[14.5995742671979,45.631999061491],[14.5996028330873,45.6320591688798],[14.5997588880795,45.6323875321863],[14.5997612369662,45.6325202913258],[14.5997640100102,45.6326770231861],[14.5997703578962,45.6327230052964],[14.5997830375778,45.6328148527407],[14.599825981412,45.632835062649],[14.5999217359001,45.6328801258048],[14.600038375206,45.633017307306],[14.6002999280821,45.6331419502605],[14.6003334024006,45.6331579023551],[14.6003334024006,45.6331579023551],[14.6003334024006,45.6331579023551],[14.6003529260062,45.6332983430246],[14.6004773797609,45.6332773689197],[14.6006170765584,45.6332538257351],[14.6006806978503,45.6332533282766],[14.6008234871695,45.6332485183388],[14.6009994615517,45.6332485931912],[14.6010877772613,45.633237875437],[14.601160183429,45.6332290883675],[14.6012714019571,45.633281126433],[14.6012960088066,45.63330347154],[14.6014676617186,45.6334593463056],[14.6016659032343,45.6339595295299],[14.6017225799251,45.6341025288128],[14.6017333961624,45.6341328005646],[14.601901089853,45.6352758056272],[14.6019983053042,45.6359384079651],[14.601999947551,45.6359576503668],[14.6020033983659,45.6359980839365],[14.6020386637702,45.6367784427717],[14.6020397101725,45.6368040454654],[14.6020430371185,45.6368854468784],[14.6021200022424,45.638405524999],[14.6021819134177,45.6396282283414],[14.6011043859423,45.6408404901912],[14.6011533605997,45.6416280354608],[14.6012077843704,45.6425031815024],[14.6012589364666,45.642960711596],[14.6013386679886,45.6436738559413],[14.6014435535151,45.6437489390789],[14.6015335706506,45.6438133783239],[14.6015608145496,45.643839698106],[14.6015707752891,45.6438493209681],[14.6017385400681,45.6439697506272],[14.6021850935779,45.6442903045831],[14.6022896650416,45.6443965776202],[14.6022870713657,45.6445122068508],[14.6022870413445,45.6445135452301],[14.6023596892985,45.6445790239442],[14.6024904909759,45.6446969169992],[14.6035021983035,45.6454381960243],[14.6035480099803,45.6454728181544],[14.6048497353763,45.6464986247465],[14.6048497353763,45.6464986247465],[14.6048497353763,45.6464986247465],[14.604867955135,45.6465530369395],[14.6057565824997,45.649519302958],[14.6061625429001,45.650874305718],[14.606175147424,45.6509170832705],[14.6061837221547,45.650946184371],[14.6068755901107,45.6532294307329],[14.6069882228102,45.6535992862181],[14.6070210849342,45.6537071956605],[14.6070388933363,45.6537660151392],[14.607086875333,45.6539232068787],[14.6071379870977,45.6540906509323],[14.6074589917591,45.6551122937036],[14.6075410278596,45.6553733791367],[14.607876445527,45.6568794786028],[14.6079545679195,45.6570572810317],[14.6080326908031,45.6572350834032],[14.6080326908031,45.6572350834032],[14.6080326908031,45.6572350834032],[14.6079349833546,45.6573291448803],[14.6078057135608,45.6574535903308],[14.6078550080723,45.6575792843018],[14.6080461264291,45.6577478122085],[14.6080809958366,45.657778559861],[14.608739832221,45.657936378751],[14.6088549998243,45.6579639657314],[14.6089113376578,45.6579881418186],[14.6091904482581,45.6581079150056],[14.6092470954096,45.6581363630868],[14.6096494012428,45.6584093937308],[14.6096801786532,45.6585343980191],[14.6097155439716,45.6586780356783],[14.6096152311633,45.6586917301159],[14.6091719165531,45.6587981026775],[14.6089259570856,45.6588859831226],[14.608580572506,45.6590625145119],[14.6082582631983,45.6594443726355],[14.6082582631983,45.6594443726355],[14.6136475049839,45.661795234782],[14.6216529579015,45.6661703976161],[14.6213240425079,45.6669680759326],[14.6205362311527,45.6679090105116],[14.6207786948982,45.6703945707408],[14.6201236522541,45.6712048392341],[14.6213261288942,45.671626256272],[14.6229139731302,45.6719458142422],[14.6240127645159,45.6722352174854],[14.6267819909119,45.6728438453919],[14.6266395682517,45.6730296420652],[14.6283191804295,45.6733022743013],[14.6303634319913,45.6735989175214],[14.6311745729439,45.6738221740389],[14.6321649393315,45.6740399732074],[14.633227953409,45.6743181047619],[14.634535118349,45.6747134439196],[14.6357355378929,45.6750449007669],[14.6380589618464,45.6756370757246],[14.6391583078056,45.6743457177253],[14.6393402657761,45.673414352455],[14.6389766495328,45.6725945509084],[14.6389212557394,45.6716680145907],[14.6393662015808,45.6708750617268],[14.639172012413,45.6706752291165],[14.6381411820331,45.6707466535375],[14.6378944578343,45.670434535151],[14.6377915591814,45.6699913190508],[14.6385942783895,45.6693658788851],[14.6392023821249,45.6687451274858],[14.6395439125013,45.6681236220087],[14.639953093419,45.6675986091268],[14.640155742092,45.6669176358969],[14.640160019119,45.6662701406704],[14.6406767142006,45.66570686144],[14.6408470284356,45.6651630072673],[14.6409626421627,45.6651453743097],[14.6412595928015,45.6648664638199],[14.6415957860953,45.6644706993407],[14.6419574799139,45.6641002086686],[14.6420092819766,45.664026585934],[14.6419483967887,45.663491813271],[14.6422868462121,45.662739725764],[14.6424552742277,45.6624883039233],[14.6425725710461,45.6622052282274],[14.642576733567,45.6615510733659],[14.6426691015811,45.6611518429595],[14.6429949471656,45.6603600316308],[14.6434729955409,45.6598477281028],[14.6440820446273,45.6589111162976],[14.6443034575821,45.6583746140645],[14.6447337989418,45.657285282615],[14.6448009369519,45.6568139862039],[14.644753452343,45.6562064606563],[14.6445325854801,45.6546103940497],[14.6443930528805,45.6543562107311],[14.6441249926156,45.654136719893],[14.6448985010545,45.6541474951126],[14.6451744875306,45.6542907940449],[14.6453583041619,45.6544208488253],[14.6458375676425,45.6545388621915],[14.6471116160369,45.6545298473107],[14.6476844840732,45.654453871011],[14.6479473171234,45.6543428337006],[14.6480251808195,45.6542027017824],[14.6480139961184,45.6539399200311],[14.6480541788985,45.6536700979674],[14.6481840071144,45.6534068507142],[14.6483266126476,45.6531724368626],[14.6484946244904,45.6529785928816],[14.648649270281,45.6528701904114],[14.6489237892125,45.652448029104],[14.6490362507515,45.6523142115227],[14.6491010651405,45.6521465942294],[14.6490858541523,45.6520346999065],[14.6491347581037,45.6518671236958],[14.6491995711138,45.6516995963113],[14.6494248390692,45.6513759027354],[14.6494899295936,45.6511636549724],[14.6494906272554,45.6510518094923],[14.6494593087329,45.650951023545],[14.6491427298167,45.650569877772],[14.6491924007513,45.6502792084627],[14.6489072848531,45.6499763529711],[14.6488302094283,45.6495399732406],[14.6488260277044,45.6492236735758],[14.648392052206,45.6488660099164],[14.6482271559132,45.6485640624815],[14.6480388863628,45.647876919639],[14.6480018132298,45.6476509504758],[14.6479911319253,45.6473079959605],[14.6481470643411,45.6469917394722],[14.6483922405056,45.6467648396999],[14.6485338377723,45.6466887906534],[14.6489911777058,45.6467333881253],[14.649198285244,45.6467674975981],[14.6493579585263,45.6467345144611],[14.6494071364958,45.6465221277503],[14.6493449817385,45.6462646782529],[14.6492990839639,45.645951399747],[14.6492046373934,45.645749819868],[14.6491421350073,45.6455483380138],[14.6491434612235,45.6453358943842],[14.6491129143756,45.6451121050945],[14.6491847973954,45.6449616058514],[14.649258002404,45.6448664496059],[14.649546511317,45.6446213239553],[14.6496910495176,45.6444427928567],[14.6496604895814,45.6442414091825],[14.6497740480253,45.6439286196372],[14.6499508742048,45.6436943082755],[14.6501595017803,45.6434824995659],[14.6503222966189,45.6429461646426],[14.6504669673487,45.6427452273668],[14.6507715644188,45.6424889899707],[14.6510276273925,45.6423219557661],[14.6512675626777,45.6422109306238],[14.6515548711058,45.6421558384003],[14.6517143916388,45.642145167049],[14.6520496856281,45.6420679042916],[14.6522739987481,45.6418896127908],[14.6523065037449,45.6417778639218],[14.6523867729449,45.6416382759398],[14.6524035828772,45.6415544637282],[14.6525796303534,45.6414431514298],[14.6528351201491,45.6413880491946],[14.6531708911094,45.641232500116],[14.6534298439541,45.6409899742381],[14.6536522696359,45.6407418481183],[14.6540378772463,45.6402621518373],[14.6541027312808,45.6400833736872],[14.654007588793,45.6399936433039],[14.6538646002667,45.6399037678844],[14.6538336836482,45.6397582630173],[14.653866252991,45.6396353560685],[14.6542353957525,45.6392449614494],[14.6543320500432,45.6390886849432],[14.6543648242564,45.6389322151025],[14.6541110667157,45.6387078413499],[14.6539846662768,45.638528484001],[14.6539598064342,45.6382326372272],[14.6538456756505,45.6377899389666],[14.6537203112053,45.6374428575978],[14.653378716187,45.6367785627673],[14.6533286798944,45.6365723516523],[14.6534238898028,45.6363795386746],[14.6537123373918,45.6361343119783],[14.6540493130563,45.6357774735714],[14.6540983256378,45.6355874895137],[14.6540200499095,45.6353635566323],[14.6540530292725,45.6351735240228],[14.6540379501283,45.635039314829],[14.6538634401823,45.6349046226888],[14.653210364356,45.6348131097558],[14.6530354428617,45.6347455418568],[14.6528295517527,45.6345212204733],[14.6526006112197,45.6339588552424],[14.6530682250197,45.6337148946163],[14.6543301068625,45.63314607257],[14.6545670146468,45.6324765111286],[14.6549995679976,45.6320275468358],[14.6554632428729,45.631710408822],[14.6557599887897,45.6314241698545],[14.6563530470289,45.6309211546064],[14.6568184714366,45.630293577292],[14.6586907053757,45.62822770274],[14.6587174498646,45.6280262221617],[14.6588976674459,45.6279160820981],[14.6591426949154,45.6276927573614],[14.6595966612812,45.6268509761419],[14.6600877984955,45.6262224718759],[14.66017840061,45.6260850683651],[14.6602305838522,45.6259385522834],[14.6603467031974,45.6258228202957],[14.660539389245,45.6257487076279],[14.6608609713446,45.6255876944283],[14.6609388006374,45.6254412541412],[14.6609272458744,45.6252306610316],[14.6608896307699,45.6250883771862],[14.660698816828,45.6248313607629],[14.6603666858027,45.6246162157001],[14.6602268561737,45.6244115398301],[14.6600252306471,45.6238224549609],[14.6601290551107,45.6236185037847],[14.6600932598129,45.623175593747],[14.6602908802461,45.6223042517171],[14.6602825478336,45.6215393760842],[14.6604824675847,45.6202856147873],[14.6606250788233,45.6200276988287],[14.6608727337741,45.6193616640306],[14.6614169238812,45.6184058643724],[14.6615222653106,45.6179472657197],[14.6619745920218,45.6173592194952],[14.662220339584,45.6170062250566],[14.6621471779338,45.6163779306135],[14.6626751289805,45.6159835675605],[14.6631766197117,45.6157456936689],[14.6635106897869,45.6156297008305],[14.6645748605253,45.6156409287752],[14.6647538526693,45.6157278374307],[14.6650838592407,45.6162938957716],[14.6655434745153,45.616628177688],[14.6658503990097,45.6167649494747],[14.6660425340347,45.6167988048407],[14.6663029325156,45.6161327951552],[14.6674485930935,45.6153531977386],[14.6676852326929,45.6143640781497],[14.6679568022155,45.6139725437766],[14.6684328696179,45.6136904813696],[14.6686402919235,45.6133041580842],[14.6689880152134,45.6130424169856],[14.6693500674938,45.6125017702365],[14.6700080442033,45.6118054077364],[14.6706524779929,45.611229579033],[14.6712353882232,45.6106485305712],[14.6721193466151,45.6106570998888],[14.6725850530989,45.6109133563523],[14.6726522979303,45.6113874875242],[14.6728125631133,45.6118945487564],[14.6731698148721,45.6119741261995],[14.6739757844658,45.6121915775785],[14.6747674830716,45.6125499853686],[14.6750691425397,45.6124883958494],[14.6752795852235,45.6123254058468],[14.6755847777512,45.6119175719392],[14.6760996499069,45.6114774882238],[14.6763582580118,45.6110531432643],[14.6767092246527,45.6107760907075],[14.6772243931104,45.6103033389795],[14.6776923241214,45.6099285327052],[14.6783225794352,45.6096848364803],[14.6787433061928,45.6094243508621],[14.6792338082529,45.6091802564992],[14.6795626756329,45.6091547245333],[14.6799095415044,45.6091655050609],[14.6806332613936,45.6088730173526],[14.6810526176211,45.6088740089656],[14.6817016856629,45.6094475690311],[14.6819078625628,45.6101018671909],[14.6820939986995,45.610151335876],[14.6831437860219,45.6098758461212],[14.6837967076114,45.6097466404817],[14.6851029449759,45.6094390885616],[14.6855234561086,45.6092112410724],[14.6859443289105,45.6089179756317],[14.6863175655632,45.6088208300099],[14.686526983256,45.6084882890434],[14.6867960696949,45.6085142222443],[14.6874373607533,45.6084664881724],[14.6877841432114,45.6083531584728],[14.6880925333103,45.6082271253293],[14.6885039171858,45.6080230873093],[14.6887742065761,45.607831261074],[14.6888131944932,45.6077359856516],[14.6891218582981,45.6075361646686],[14.6892379398136,45.6074096049272],[14.6892643599777,45.607268403989],[14.6893419011056,45.6071561365272],[14.6896251721661,45.6069337494385],[14.6897537488192,45.606865711853],[14.6898693366377,45.6068282329747],[14.6899461670645,45.6068446384074],[14.6899969016419,45.6069437570473],[14.690086175654,45.6070285829916],[14.6902012137818,45.6070909830654],[14.690405947738,45.6071617245791],[14.6905204421976,45.6073231038038],[14.6907883928082,45.6075550848582],[14.6908879783941,45.608097050039],[14.6907193818221,45.6084484259357],[14.6910774812501,45.6086077643374],[14.6917683262773,45.6088750792421],[14.6920745538523,45.6091431535446],[14.6925470825815,45.6094791616839],[14.6931608793582,45.6097723557042],[14.6934426927578,45.6098172037792],[14.6940291147659,45.6104306578216],[14.6942461491673,45.6106003162606],[14.6945021549758,45.6106765865589],[14.6948223828139,45.6107314320321],[14.6951429622688,45.6107214900564],[14.6954253469795,45.610661954913],[14.6957207222006,45.6105709597529],[14.6961699604317,45.610477673664],[14.6963877243848,45.6105133458423],[14.6966306208568,45.6106435661058],[14.6968487638561,45.6106090519633],[14.6972211532592,45.610501160566],[14.6975167956165,45.6103597711956],[14.6978637097266,45.6102203163222],[14.6980562330454,45.6101812329793],[14.6988410049638,45.6096533067652],[14.6994848555002,45.6091268041493],[14.6999098218236,45.6087733896159],[14.7002839711734,45.6083316571625],[14.7010204942114,45.6072241007962],[14.7012283091364,45.606717142158],[14.7012685122418,45.6063888104803],[14.7013595213044,45.6061496944651],[14.7011696417831,45.605693885475],[14.7010931393552,45.6056154003806],[14.7009652294094,45.6055610760104],[14.7006835742972,45.6054893420436],[14.700453294702,45.6053996555804],[14.7001720250154,45.6052558452109],[14.6999049340902,45.6048574203122],[14.6995092684709,45.604530642812],[14.6991643029261,45.604312876544],[14.6991645241606,45.6042714850731],[14.6990629650773,45.6040849533399],[14.6987310255525,45.6038294273119],[14.6986674012972,45.6037410764274],[14.6986550059864,45.6036618589251],[14.6986684514628,45.6035449168348],[14.6987991955426,45.6030683531029],[14.6989423346118,45.6026467113256],[14.69902142339,45.6022401976753],[14.6989598649556,45.6017658263239],[14.6988457377897,45.6015333699835],[14.6986926545637,45.6013943928609],[14.6985518655351,45.6013535291933],[14.6981292487553,45.6012777275297],[14.6975925171025,45.6009685668901],[14.6973755487532,45.6007916260892],[14.697235551062,45.6006040909561],[14.6971213171615,45.6003932284306],[14.6970966679242,45.6002095981882],[14.6971487743482,45.600054965936],[14.6972391904209,45.5999274300306],[14.6974971972097,45.5996230718412],[14.6978192924134,45.5993188825959],[14.6979994187903,45.5991942828206],[14.6986293803486,45.5988468131506],[14.6987585843118,45.5986320950061],[14.6988883004961,45.598345391803],[14.6993779223874,45.5978715720041],[14.6995709065846,45.5977380052723],[14.6997378894218,45.5976727568235],[14.7005981606415,45.5973978675829],[14.7008807930574,45.5972780309722],[14.7011123013468,45.5971301652331],[14.701369634768,45.5969463733974],[14.7016012697724,45.5967499162551],[14.7017303950555,45.5965711876051],[14.7018211525569,45.5963761617517],[14.7018857311973,45.5962836479575],[14.7020016321547,45.5961813699008],[14.70224703549,45.5958283771675],[14.7023378756242,45.5956171541788],[14.7023137204434,45.5953372445317],[14.7023920038308,45.5950764981823],[14.7024588240205,45.594559360698],[14.7029486534525,45.5940099402029],[14.7030134885503,45.5938679358116],[14.7030285551273,45.593441456071],[14.7030802877824,45.5933534073044],[14.7034670122733,45.5929332918247],[14.7038653409326,45.5927426615027],[14.7039553988257,45.5926781072277],[14.7041111146928,45.5923140798684],[14.704137523388,45.5921665762875],[14.7039714418704,45.5920644653407],[14.7037409561549,45.5920233755304],[14.7032802892021,45.5918836062363],[14.7030502175754,45.591764230965],[14.7026025325451,45.5915938984811],[14.7026038133025,45.5913513978282],[14.7029987020624,45.5910337956033],[14.7030608023556,45.5907048894408]]]},"properties":{"fill-opacity":0,"stroke-opacity":1,"stroke":"#ff0000","lov":"0317","lov_naziv":"DRAGA","luo":"03","luo_naziv":"Kočevsko Belokranjsko","povrsina":3506.62},"id":"pregledovalniklovisca.1"}]}