{"type":"FeatureCollection","features":[{"type":"Feature","geometry":{"type":"Polygon","coordinates":[[[14.7491713826835,45.8869958253899],[14.7501252928513,45.8863754456495],[14.7503912319947,45.8859710346789],[14.751137297492,45.8853204093817],[14.7512264485684,45.884484795196],[14.7512511808443,45.8843415136133],[14.7524944545395,45.8835324289814],[14.7535247679535,45.8829767004098],[14.7549507646123,45.8828186160995],[14.755809484307,45.8826631722399],[14.7568690630895,45.8824754873264],[14.7574995766249,45.8823864888614],[14.7583634770394,45.8819540834945],[14.7591625064148,45.8816239302108],[14.7596206764839,45.8814345007596],[14.7605501584788,45.8809932188949],[14.7607770133419,45.8806666227317],[14.7612264846957,45.8800386140843],[14.7615576309681,45.8797239313771],[14.7618329060685,45.8792784826627],[14.7623087079064,45.8788145550738],[14.7626352872318,45.8784195989576],[14.7628950779868,45.8781886239058],[14.7633269513867,45.8778417527062],[14.7637225896116,45.8775629185859],[14.7643932751728,45.8770058074291],[14.764633623892,45.8767997123016],[14.765223498968,45.8762173257448],[14.7654218717845,45.8759439287987],[14.7655586369555,45.8755859153703],[14.7657758110594,45.8753436888901],[14.7662043822699,45.8747917390096],[14.7667255812279,45.8740506619323],[14.7668185711722,45.8734380084359],[14.7669593743463,45.8732813732281],[14.7672468018508,45.8734862101542],[14.767764082925,45.8727826412172],[14.7677926516413,45.8722324808748],[14.7679562934823,45.8719102404188],[14.7685542787494,45.8714943128652],[14.7689076955728,45.8711916206423],[14.769398507599,45.870244058748],[14.7692847602647,45.8696243270389],[14.7692181421929,45.8691015972219],[14.7690607773976,45.8686894475385],[14.7689714261171,45.8682140902399],[14.769085636102,45.8678185054491],[14.7688770257011,45.8673724199133],[14.7684776882814,45.8665183447651],[14.7679811059122,45.8659469633536],[14.7676650794267,45.8655977442014],[14.767371525918,45.8652961685815],[14.7673725303322,45.8649318472912],[14.7670788461515,45.8646936155543],[14.7665131432151,45.8645813374803],[14.7660149087117,45.8646275571205],[14.7651991661078,45.8649264123777],[14.7644291711324,45.8650036488543],[14.763819710367,45.864336909053],[14.7637071903332,45.8640832966652],[14.7638006147301,45.8636455638892],[14.7637474381493,45.8632470286164],[14.7639192030163,45.8629522537106],[14.7638716035947,45.8624835466321],[14.7637367221393,45.8621891276551],[14.7635478971648,45.8617996694197],[14.7633180653479,45.861514411177],[14.7629525941401,45.8612668421525],[14.762613782597,45.8611710313559],[14.7623970656595,45.8611040867068],[14.7620887619851,45.8610724025891],[14.76179122836,45.8610218445725],[14.7618018517768,45.8609165916829],[14.7618377477493,45.8605627804101],[14.7613643716043,45.859833055522],[14.7618286093325,45.8586613318159],[14.761432336668,45.8583649251412],[14.7612616106587,45.8582065659702],[14.7605465012969,45.857998028669],[14.7601214299304,45.857753204842],[14.7599427550254,45.8577076603048],[14.759698896714,45.8575179225044],[14.7596531000304,45.8573275211969],[14.7596872255993,45.8571780483346],[14.759654326922,45.8570427411205],[14.7597111100891,45.8569545914109],[14.7596273109667,45.8567675293464],[14.7595695311799,45.8566387382034],[14.7591080186023,45.8564565490434],[14.7585711548619,45.8564579354129],[14.7583003784845,45.856271556901],[14.7580113725828,45.8560726320928],[14.7575891632064,45.8560048829872],[14.757284357105,45.8560347387539],[14.756816617668,45.8562499631909],[14.7555489962082,45.8560684706842],[14.7552156677663,45.8561124765531],[14.7549325236902,45.856076867925],[14.7546790010264,45.8559819362228],[14.7545335775748,45.8556396147125],[14.754431961469,45.8553212315183],[14.7539720623411,45.8551298472036],[14.7538861532168,45.8549882155964],[14.7537217566564,45.8549492605095],[14.7535546108737,45.8548914037169],[14.7532929374147,45.8546321501186],[14.7528919315559,45.8544907368055],[14.752471667054,45.8545111521674],[14.7533136682027,45.8537586809661],[14.7533258887356,45.8532663434537],[14.7530668871833,45.8512996572599],[14.7522831004576,45.8512736665259],[14.7520910057374,45.8506900072057],[14.7529420343166,45.8504167851022],[14.7526627233726,45.8483321807827],[14.7523909682864,45.8462903313646],[14.7533603435228,45.8448886668959],[14.7543994156519,45.8433483061837],[14.7543381738605,45.8432806903296],[14.7546312895128,45.8430246101918],[14.7545905188526,45.8417855124],[14.7545300713112,45.8399274965543],[14.7544758600358,45.8382622285396],[14.7543252004838,45.8344107112804],[14.7544131068305,45.8337109529173],[14.753868363561,45.8337097808215],[14.7536572721283,45.8335613103167],[14.7534767693457,45.8333070899943],[14.7533268911173,45.8329682651526],[14.7529350253057,45.832629007103],[14.7527183370245,45.8323506828702],[14.7519397712748,45.8330347261267],[14.7514125323691,45.8336714421638],[14.7511581615203,45.8344841194972],[14.7503368443961,45.8344984341789],[14.7490675646624,45.8325664119926],[14.7476630789284,45.8302674115161],[14.7474148461131,45.8296291807914],[14.7473936513294,45.8292783051825],[14.7474861477823,45.8289755497694],[14.7484714605991,45.8284534143148],[14.7486071179778,45.8281965523564],[14.7483804285019,45.8278612408467],[14.7484767826361,45.8272432059532],[14.7486592404659,45.8266818672829],[14.7485016878149,45.8261713384931],[14.7487304666148,45.8260123086612],[14.7492336517524,45.8256785114111],[14.7492967129309,45.825220475572],[14.7492142658432,45.8248652365987],[14.749339010521,45.8243702645885],[14.749403440504,45.8243524100615],[14.7493916001754,45.8241229370196],[14.7494184902594,45.8238665551344],[14.7492157055993,45.823168771013],[14.7492298274937,45.8228898662887],[14.7494880449227,45.8227059751966],[14.7497086603712,45.8222970529718],[14.7500821449579,45.8220067875034],[14.7506130295435,45.8210221343457],[14.7503581630739,45.8199116830866],[14.7500641969768,45.8195753276293],[14.7495858526848,45.819290125623],[14.7494027568176,45.8188250709713],[14.7488509054004,45.8184622324059],[14.7483261184227,45.817092221925],[14.746719879113,45.8152512939821],[14.7448104831397,45.8135460749924],[14.7436707972934,45.8128477131313],[14.7425667616459,45.8124330353167],[14.7413890149549,45.8120180900164],[14.7399902231498,45.8115769856178],[14.7384986157275,45.8111502283496],[14.7371938470696,45.8107256810498],[14.736339535195,45.8106887109107],[14.7352097641786,45.8104578204833],[14.7348072648292,45.8105447969647],[14.7342803101177,45.81036793282],[14.7338794833291,45.8101035401017],[14.7334030957461,45.8098739717067],[14.7326502114423,45.8096439346654],[14.7318716748808,45.8095324254165],[14.7308431940325,45.80914354547],[14.7302922785023,45.8087381485135],[14.7298166816803,45.8083504729961],[14.7292893381192,45.8082614048352],[14.7285628196925,45.8078029452882],[14.7281403262991,45.8068179248592],[14.727996425749,45.8066450916411],[14.7277396399585,45.8065358747776],[14.7266371646091,45.8065093979339],[14.7261071548524,45.8063388772005],[14.7247125167405,45.8055257098091],[14.7242524046512,45.8053506698853],[14.7242546589375,45.8048937591642],[14.7241312198602,45.8044365450064],[14.724892477477,45.8028918115002],[14.7254777486608,45.8013641958462],[14.7181909493471,45.7963348596887],[14.7170790765207,45.7968333888264],[14.7163312884812,45.7971678788283],[14.7158315484079,45.7973926660062],[14.715160392764,45.7978575394552],[14.7149526081795,45.797939712596],[14.71480774884,45.7980429177175],[14.7139224336776,45.7986251224567],[14.7131016381205,45.7991650119064],[14.712204810548,45.799752573098],[14.7116289815583,45.8001310152975],[14.7105199941204,45.8008662239635],[14.7100669593449,45.8011780244183],[14.7093916848826,45.8016253072102],[14.7084804028348,45.8022312479795],[14.707324988182,45.8029967200152],[14.7077600476286,45.804160189773],[14.7078995088254,45.8045538470658],[14.7074574579412,45.8047495914251],[14.7069890645489,45.8047423626124],[14.7062952386666,45.8045694401397],[14.7061868365455,45.8051711246946],[14.7060618363875,45.8059927663691],[14.7059553224586,45.8066747171541],[14.7057985252826,45.8073029105063],[14.7057935146446,45.8074970734072],[14.7057430915414,45.8076169762398],[14.7054653431165,45.8080505017479],[14.7051427022518,45.8084811213462],[14.7048082974161,45.8094571652863],[14.7043466324111,45.8098488220874],[14.7037757030957,45.8103169462736],[14.7035617673426,45.8101642361539],[14.7031079172958,45.8100509433702],[14.7026438843102,45.8102315852346],[14.7020181316768,45.8105535212461],[14.7014493474701,45.8110486331868],[14.7007372199092,45.8111343202996],[14.7001653864205,45.8115230620991],[14.6997653403268,45.8117884408037],[14.6995961318534,45.8121007646322],[14.6993135537202,45.8122232032261],[14.6989611987394,45.8121850239557],[14.6984511761276,45.8122744683582],[14.6972584688794,45.8127344386526],[14.6970046483752,45.812843630758],[14.6968860189657,45.8130557575638],[14.6969397752964,45.813156047262],[14.6973434196214,45.8134659265368],[14.6976505210558,45.813807131724],[14.6977339179589,45.8140659532163],[14.6973444319334,45.8142529791972],[14.6966018191714,45.814612277106],[14.6960555100785,45.814886072204],[14.6955199976133,45.8151611531599],[14.6951570071838,45.8154420007812],[14.6948867609477,45.8158933359301],[14.6941652930417,45.8170609590977],[14.6942790371074,45.8176039290372],[14.6939761949415,45.8179181360886],[14.6936451762389,45.8180664348326],[14.693190965067,45.81817490096],[14.6926125359708,45.8183597835654],[14.6916012422364,45.8187705136331],[14.6916425693571,45.818953643149],[14.6913722542375,45.8192461560032],[14.6889100580969,45.8227833140811],[14.6885993142514,45.8231423847496],[14.6880657945438,45.8237542282181],[14.6873690064292,45.8245157079353],[14.6866954858834,45.8252786867729],[14.6861387666945,45.825889017739],[14.6855300202215,45.8265711861325],[14.6849086422414,45.8272083267663],[14.684519581236,45.8277291326452],[14.6844163387686,45.8278008309114],[14.6842093407153,45.8279893053222],[14.6837559140757,45.828509930627],[14.683393238084,45.8289138326371],[14.682888210344,45.8294523072626],[14.6824530412098,45.8299494933718],[14.6819038941794,45.8305473171583],[14.6809661216878,45.8302027818714],[14.6801184321263,45.8298854848377],[14.6799373092465,45.8300469401484],[14.6794717033529,45.8304595391645],[14.6789289929373,45.8308269300477],[14.6782947758136,45.8314370944153],[14.6777640888145,45.831948480179],[14.6771686697652,45.8325226659561],[14.6766379866073,45.8330520422307],[14.6764309954775,45.8332314145123],[14.6760684445838,45.8335993016606],[14.6754469325779,45.8342273917929],[14.6750073454898,45.8345590650373],[14.6745154770741,45.8350256462773],[14.6740360530119,45.8355641541509],[14.673414338303,45.8362192261613],[14.67290930625,45.8367306622847],[14.6723263420064,45.8373588454477],[14.6718853890537,45.8379155401871],[14.6714192114,45.8383820916221],[14.6707458357983,45.8390549960377],[14.6704091153384,45.8393959455855],[14.6703318228708,45.8394047205173],[14.6694046311097,45.8394560291271],[14.6681940653221,45.8395335913854],[14.6672797964438,45.8395759223754],[14.6662131269309,45.8396574817148],[14.6660042133639,45.8397611569398],[14.6654098843106,45.8401193342477],[14.664712397248,45.8405042894765],[14.6644542788102,45.8406115066011],[14.6638994183372,45.840825825495],[14.6631895818884,45.8411206660829],[14.6624925028243,45.8414335357278],[14.6617959611382,45.8416564237061],[14.6609557249175,45.8422208912734],[14.6605677034464,45.8425166699261],[14.6601790204942,45.842920420044],[14.6596349836402,45.8434856682968],[14.6590780426462,45.8440328796148],[14.6587665289773,45.844445942912],[14.6583005727328,45.8448494557207],[14.6578346649078,45.8452439688535],[14.6573555443995,45.8456924277973],[14.6567087122312,45.8461943683163],[14.6564639808019,45.8462116285905],[14.6557927716407,45.8464886332869],[14.6551344312887,45.846765582889],[14.654489015087,45.8470335698749],[14.6539208986386,45.8472927894571],[14.6530560347621,45.8476500823727],[14.6523330665767,45.8479629010731],[14.6518556912688,45.8481414054001],[14.6511844366887,45.8484182928229],[14.650306549803,45.8487935208838],[14.6495836085223,45.8490972343463],[14.6488476700823,45.8494189890323],[14.6480859725839,45.8497405696541],[14.6473370282467,45.8500801803146],[14.6463356385998,45.8504303423262],[14.6463243215118,45.8504484830272],[14.6467229058811,45.8510471755825],[14.6466700195501,45.8514687428953],[14.6463869836444,45.8524872375319],[14.6464538646242,45.8538405458589],[14.6463515167504,45.8541214128939],[14.6459712385201,45.8546124193301],[14.6457911976749,45.8552445022112],[14.6455627014746,45.8555777049272],[14.6454595642373,45.8559815696077],[14.644854563174,45.8562083269039],[14.6443995648341,45.8565584588807],[14.644592900854,45.8569959072359],[14.6451795398854,45.8574305281333],[14.6452717360312,45.8577152371866],[14.6452362686147,45.8583717019106],[14.6451243513589,45.8589601751717],[14.6456939314031,45.8591242642731],[14.6452498169808,45.8594205359574],[14.6449314104409,45.8598751991968],[14.6446336739541,45.8608646691848],[14.6441893863519,45.8613061617205],[14.6438585473298,45.8618089217025],[14.64392110212,45.862278445408],[14.6440162230833,45.8627710150579],[14.6438342958495,45.8631664442259],[14.6440105707384,45.8633741243842],[14.6444358252096,45.8637796325078],[14.6447118416712,45.864181165934],[14.6447849202671,45.8646985003434],[14.6447052787446,45.8652114008512],[14.6441281737254,45.8657934762639],[14.6441255441372,45.8662055701104],[14.6441028025989,45.8666409057466],[14.6440488095292,45.8670285453241],[14.6438765811484,45.8674358816523],[14.6448266083431,45.8680822753344],[14.6448560853979,45.8686109910695],[14.6445555629937,45.8693225969099],[14.6443205758359,45.870057350408],[14.6442144337573,45.8712292603608],[14.6441131283551,45.8716426661526],[14.6442396361028,45.8724474680095],[14.6444673070817,45.8728618977668],[14.6450239456703,45.8733002039782],[14.645415825295,45.87376112078],[14.6453464943529,45.8743124737263],[14.6451123736139,45.8749093838876],[14.6453051662384,45.8756454664428],[14.6453667800795,45.8765101706356],[14.6453500332252,45.8765102086397],[14.6453915789126,45.8765201452238],[14.6461124013775,45.8763664471881],[14.64725856116,45.8764195691402],[14.647404864537,45.8764659996558],[14.647651950742,45.8765460328116],[14.6487540049502,45.8762397198242],[14.6493774087391,45.8757612393983],[14.6496391416109,45.8755604004676],[14.6502011682833,45.8755407974035],[14.6506156568859,45.8754250034884],[14.6508103594416,45.8751893151892],[14.6514782688248,45.875499530478],[14.65176775164,45.8760929211459],[14.6524225563633,45.875656269791],[14.6534476802549,45.8754922033494],[14.6541458980525,45.8761110310472],[14.6551971878702,45.8771113491469],[14.6565602264379,45.8783694831485],[14.6569690861093,45.8786672800788],[14.6574912821668,45.87905458389],[14.6582600222788,45.8797422509171],[14.6592275596782,45.880578250197],[14.6605218236671,45.8817134905325],[14.6609318891013,45.8820747114225],[14.6614509053259,45.8825286614163],[14.662212292939,45.8831699407942],[14.6626683468643,45.8884741586796],[14.6628128207092,45.8885321711555],[14.6627285005022,45.8887752235012],[14.6627596159216,45.8889564415404],[14.6628448322004,45.8891190137479],[14.663895075825,45.8902095845291],[14.664228373483,45.8901096087901],[14.6647934999122,45.8901980069356],[14.6651511749487,45.8903081091841],[14.6653803104614,45.8904092860549],[14.6658981768887,45.8905151760632],[14.6661336800178,45.8905002081576],[14.6662464752971,45.8908146516035],[14.6667173572449,45.8906981544679],[14.6671764394435,45.8906584624197],[14.6672065653966,45.8907274734715],[14.6681683348127,45.8906607172034],[14.6685567548539,45.8911492564313],[14.6685482163184,45.8918481823377],[14.6697088851328,45.8921629575285],[14.6713453117286,45.8923895619098],[14.671827486847,45.8925657752681],[14.672544020864,45.8929454692128],[14.6727147072882,45.8930856943064],[14.6731417164857,45.8929805622866],[14.6739297214361,45.8924457337595],[14.6746012668915,45.8919700437703],[14.6750609808686,45.891646080733],[14.6750742472191,45.8915144803507],[14.6753424920871,45.891232261324],[14.6756263854808,45.8909618732202],[14.6757703062288,45.8907861943054],[14.6759097322922,45.8905634438506],[14.6760861026474,45.8903467365068],[14.6761246350231,45.8901684189139],[14.6760455231943,45.8899905776542],[14.6760735625556,45.8897997233465],[14.6761608908612,45.8896722917562],[14.676303964043,45.8896416546356],[14.676568540212,45.8895670920075],[14.6767328074591,45.8894367284755],[14.6769760013248,45.8895163271007],[14.6775177056998,45.8896244813022],[14.6778607596832,45.8896151014051],[14.6782419921334,45.8896436188401],[14.6783974010946,45.8897079408625],[14.678892426407,45.8896888179277],[14.6790598527107,45.8897026050533],[14.6796380325406,45.8886444637786],[14.6797144991274,45.8882978119856],[14.6797350743002,45.8874528838496],[14.6793151578807,45.886737998574],[14.6801168782824,45.8863019614616],[14.6810160371478,45.8858127436256],[14.6817518582371,45.885337730357],[14.6822497714557,45.8850084457186],[14.6831404716871,45.8847536710066],[14.6836125935286,45.8848120254021],[14.6837006135629,45.8847626010478],[14.6840437923766,45.8846575559927],[14.6841169103533,45.8846913200449],[14.6853851320811,45.8842014677009],[14.6863829187744,45.8838233322572],[14.6866119233493,45.8843394462889],[14.6868851212769,45.8841451222223],[14.6873777671154,45.8835991329496],[14.6882578174385,45.8840424309411],[14.6893757073149,45.88314677169],[14.6895898104987,45.8831505927051],[14.6896820418865,45.8830606849218],[14.689117036131,45.8824483762524],[14.6904349301542,45.8822068530643],[14.6911443070698,45.8820635475385],[14.6912022890079,45.8822715542114],[14.6911940377254,45.8831097700818],[14.6927624628783,45.8827854869193],[14.6926152241088,45.88238486731],[14.6938471612049,45.8820979943657],[14.6946042298031,45.8819250122914],[14.6946874904159,45.8818010646596],[14.6946584349525,45.8809903720293],[14.6951750196129,45.8807594270809],[14.6959054820612,45.8805710690494],[14.6963926628207,45.8804387466003],[14.6965296213101,45.8810989217457],[14.6967232205324,45.8818153934776],[14.6968173428173,45.8824411726759],[14.6968260874215,45.8827757353256],[14.6969601270263,45.8830031961729],[14.6969149643769,45.8832293718881],[14.6969413466031,45.8833294977556],[14.6984486702964,45.8831254554803],[14.7001852453071,45.883412286927],[14.7016479013984,45.8836325129919],[14.7029224401101,45.8832293115222],[14.7040646866371,45.8828429391447],[14.7114337330049,45.88394584431],[14.7115888126451,45.8840781440222],[14.7118524707971,45.8841668979281],[14.7120932724949,45.8843157891258],[14.7123763230816,45.8843919937138],[14.7127861570112,45.8845671325479],[14.7132304725364,45.8846017203637],[14.7135955888576,45.8847044914859],[14.7139769742219,45.8847504358786],[14.7144002543003,45.8848173586775],[14.7145843135992,45.8848778340708],[14.7148141278681,45.8850609738005],[14.715104448473,45.885203503763],[14.7154117409969,45.8853531835378],[14.7159652845129,45.8855213805068],[14.7165434236337,45.8855408117222],[14.7170411304799,45.885694198495],[14.7180016507274,45.8863545840132],[14.7188090432013,45.8869038214386],[14.7195565380808,45.8874275322538],[14.7198519283109,45.8876173011154],[14.7202778420572,45.8874732995413],[14.7208347273714,45.8873930510815],[14.7213380133891,45.887492805677],[14.7217843269648,45.8874426055702],[14.7221062892348,45.8874729018548],[14.7226526495357,45.8877205896642],[14.7232947264413,45.8878428070543],[14.7236043125537,45.8877712137718],[14.7240119280878,45.8877560028765],[14.7241097230829,45.8878078865402],[14.7242437649701,45.8877733884998],[14.7244767575969,45.8877915862435],[14.7250993654814,45.8882570135407],[14.7254857164443,45.8883741941986],[14.7258332675843,45.8883641412165],[14.7263476102338,45.8886036364538],[14.7263217711877,45.8886702484439],[14.7265002190952,45.8887503963929],[14.7267574499882,45.8888453989221],[14.7267025465532,45.8889533314796],[14.7269574162678,45.8890571457742],[14.7269583281292,45.8891077157158],[14.72724675781,45.8891733687997],[14.7275633148654,45.8892313500891],[14.7280426861822,45.8886928025404],[14.728310124174,45.8885182510827],[14.7283378352398,45.888437156596],[14.7287252203334,45.8882641489438],[14.7290726359927,45.8880431767931],[14.7291538975439,45.888051557446],[14.7297056718423,45.887695380351],[14.7303803737644,45.8873091680061],[14.7308437727982,45.8871608065504],[14.7313256819039,45.8868338798899],[14.7316143781251,45.886628778015],[14.7318393989647,45.8864288347135],[14.7320489668513,45.8862000616821],[14.7323946229999,45.8861790969278],[14.7325544647397,45.8860824745603],[14.7325994290542,45.8861096632466],[14.7328412535792,45.8860584913606],[14.7328870888502,45.8860921604056],[14.7332208041064,45.886089250872],[14.733427089636,45.8860603993613],[14.7335193505118,45.8861391655798],[14.7339241681804,45.8861132053853],[14.7343090543841,45.8861870732967],[14.7348229219081,45.8862590798152],[14.734886062632,45.8862032598368],[14.7355989966668,45.8861386876251],[14.7357715240445,45.8861914540379],[14.7363203495285,45.8861733764236],[14.7365237961661,45.8862269328673],[14.7368526609337,45.8861599370158],[14.7368329652465,45.8862654361681],[14.7370058366088,45.8862729424396],[14.7380357247887,45.8863173279021],[14.7395500296193,45.8865895544174],[14.7397052645044,45.8867872304493],[14.7400026582763,45.8865615221737],[14.7408246674172,45.8867855458108],[14.7409747941147,45.8868913407249],[14.7416947041096,45.8869899668601],[14.7425736619284,45.8871611993993],[14.7433396047952,45.887309496873],[14.7435676885192,45.8873594069887],[14.7442749275373,45.8874138091044],[14.7452347302172,45.8874344884872],[14.7459026235759,45.8875564564431],[14.746690216006,45.8875370601362],[14.747440101004,45.8875077674392],[14.747680875763,45.8875160374633],[14.748417154498,45.8874751910949],[14.7486074967429,45.8873526097298],[14.7491713826835,45.8869958253899]]]},"properties":{"fill-opacity":0,"stroke-opacity":1,"stroke":"#ff0000","lov":"0304","lov_naziv":"DOBREPOLJE","luo":"03","luo_naziv":"Kočevsko Belokranjsko","povrsina":6171.85},"id":"pregledovalniklovisca.1"}]}