<?xml version="1.0" encoding="utf-8" ?>
<kml xmlns="http://www.opengis.net/kml/2.2">
<Document id="root_doc">
<Schema name="pregledovalniklovisca" id="pregledovalniklovisca">
	<SimpleField name="lov" type="string"></SimpleField>
	<SimpleField name="lov_naziv" type="string"></SimpleField>
	<SimpleField name="luo" type="string"></SimpleField>
	<SimpleField name="luo_naziv" type="string"></SimpleField>
	<SimpleField name="povrsina" type="float"></SimpleField>
</Schema>
<Folder><name>pregledovalniklovisca</name>
  <Placemark id="pregledovalniklovisca.1">
	<Style><LineStyle><color>ff0000ff</color></LineStyle><PolyStyle><fill>0</fill></PolyStyle></Style>
	<ExtendedData><SchemaData schemaUrl="#pregledovalniklovisca">
		<SimpleData name="lov">0303</SimpleData>
		<SimpleData name="lov_naziv">KRKA</SimpleData>
		<SimpleData name="luo">03</SimpleData>
		<SimpleData name="luo_naziv">Kočevsko Belokranjsko</SimpleData>
		<SimpleData name="povrsina">3853.28</SimpleData>
	</SchemaData></ExtendedData>
      <MultiGeometry><Polygon><outerBoundaryIs><LinearRing><coordinates>14.7515359540738,45.89300190766 14.7524680622096,45.8928105674693 14.7528467811768,45.8925477511799 14.7534772285895,45.8922679312134 14.7540816900311,45.8921813249512 14.7548112162982,45.8922530755489 14.7558670611388,45.8925188821798 14.7577781173315,45.8929094951507 14.7587833010014,45.8932455303227 14.7596372248455,45.8936690572437 14.7597369542861,45.8938800857642 14.7594842302637,45.8941256443429 14.7594581389807,45.894318952443 14.7599342943515,45.8947944084328 14.7600086184876,45.8950405647469 14.7600811797358,45.8957261704264 14.7610099341469,45.8962903897837 14.7614624955614,45.8964143354325 14.7621167218212,45.8964507906629 14.7628458652424,45.8966280334192 14.7637773996956,45.8965771457017 14.7643303906342,45.89675401471 14.7665449121761,45.8968287432179 14.765511400376,45.8971957172775 14.7650070087584,45.8974407712315 14.7646783494097,45.8977564578466 14.7643490718636,45.8982478694044 14.7642209350385,45.8987748765804 14.7642696326546,45.8991440670573 14.7644696665305,45.8994432066697 14.7642170869029,45.8996535943561 14.7636622035317,45.8999160838001 14.7628302156883,45.9002131771756 14.7623000007224,45.900581165436 14.7613154479521,45.9012293844854 14.7607597801007,45.9016676751823 14.760455954076,45.9020712199543 14.7598716774833,45.9032826272573 14.7596659140186,45.9042840096025 14.7594108123253,45.9050391078261 14.7590552709616,45.9057413565482 14.7584731116358,45.906478306711 14.7579180569148,45.9067583132963 14.7564028670283,45.9078097248046 14.7551645356603,45.9088791652542 14.7546586249813,45.9094053507346 14.7542275401132,45.9100897860319 14.7536705620825,45.9107915839844 14.7530637934695,45.9113527261281 14.7525081942542,45.9117381590861 14.7519785058182,45.9119479187997 14.7503146390524,45.9124364743513 14.7454968600934,45.9143592900694 14.7449170075344,45.9145338138812 14.7424946757313,45.9156532837851 14.742107215301,45.9159218935574 14.742365619983,45.9160189326174 14.7433948650424,45.9164629493835 14.7436281006736,45.916539774035 14.7445536928762,45.9170456324046 14.7453470728377,45.9174586915359 14.7466021628304,45.9181154398897 14.7470640039946,45.9186406734677 14.7480161891948,45.9190393089789 14.7484425171442,45.9191831329099 14.7490536457691,45.9194858120125 14.7498651222503,45.919989486906 14.7503521113855,45.9202932368964 14.7511770058462,45.9206268738183 14.7516357461998,45.9209367652541 14.7533264418398,45.9211691505666 14.7546277638817,45.9213515476396 14.755078807379,45.9216876821745 14.7554499399584,45.9220198648666 14.7556934513611,45.9223788568577 14.7557720262806,45.922365438179 14.7557819359607,45.9223988410815 14.7558786537934,45.922393559093 14.7558812608668,45.9224458417021 14.7558091281699,45.9224601739987 14.7558241199018,45.9225106835178 14.7560450039375,45.9243269047985 14.7568817783816,45.9244416999851 14.7577195876652,45.9243491827051 14.7585845855159,45.9242002107482 14.7592344728697,45.9238244854021 14.7599390221012,45.9232981585667 14.7607264351518,45.9223572936965 14.7612409457543,45.9216137143783 14.7614719912414,45.921279749727 14.7622745106457,45.920381194924 14.7631581354937,45.9198365949242 14.7640542546629,45.9194729590739 14.7649075593103,45.918896070825 14.7663711390544,45.9184725778118 14.7674173698412,45.9187030754772 14.7688994856849,45.9190257732781 14.7706006305439,45.919166056955 14.7724755871486,45.9194590837809 14.7731512728472,45.9196125794146 14.773632728431,45.9197540793437 14.7741888335501,45.9196725799981 14.7750800271797,45.9195203856123 14.7758917982849,45.919144883752 14.7767568182832,45.9189580734915 14.7777835803038,45.9188468826793 14.7780547135686,45.9185835048531 14.7784069322874,45.9183202836321 14.7787582699672,45.9182454730298 14.7795955972009,45.9182093903571 14.7807576655818,45.9180419276621 14.7814068875814,45.9177791766132 14.7821365448554,45.9176485726194 14.7828934176789,45.9174803149883 14.783542476148,45.9172553421354 14.7841950195505,45.9161632563042 14.7847370513056,45.9156740796104 14.784631795571,45.9149576580037 14.78468652893,45.9141713550663 14.7848004462575,45.9132803392883 14.7849057624651,45.9125460484748 14.7851485214114,45.9122366214427 14.7854260732244,45.9120965075533 14.7858292957985,45.9119918099215 14.7863831842069,45.9119928466482 14.7872640172779,45.9120823081787 14.7876417705968,45.9120302837566 14.7878941126024,45.9119076627001 14.7881466587204,45.9116972230749 14.7885266066421,45.9111003838411 14.7892088823645,45.9104513743142 14.7897922656217,45.9093276353827 14.790095919132,45.9089240128298 14.7904501366227,45.9087490260507 14.790777687732,45.9083979925637 14.7912816044403,45.9082759142488 14.7917804260388,45.9080336139343 14.7927684679288,45.9078742595086 14.7937001636971,45.9078232182204 14.7943052516885,45.9075957650594 14.7958415046643,45.9074227031095 14.7966716280037,45.9075822743535 14.7974014752157,45.9076362976854 14.7986106587339,45.9074449825108 14.7995682980156,45.907165485144 14.8006514755828,45.9069915629595 14.8009282052939,45.9070271367585 14.8027910502878,45.9070302767315 14.8036216886066,45.9070843442575 14.8043265262258,45.9071030990154 14.8069196512911,45.9070370570675 14.8080529492716,45.9068983307681 14.8087964224729,45.9066256843276 14.8095166261754,45.9058813298851 14.8098191578654,45.9057588339161 14.8113049276506,45.9056206613889 14.8122601621704,45.9060263256602 14.813844526857,45.9064681898764 14.8145987613133,45.9067856884703 14.8151513617266,45.9071204917622 14.8153781253909,45.9070681312786 14.8159809103344,45.9075083757511 14.8163812480595,45.9082120171472 14.8172355520674,45.908722931515 14.8180140950934,45.9092689901568 14.8186426888864,45.9095159890164 14.819195226778,45.9098858638622 14.8199748435168,45.9101506398968 14.8201248890977,45.9104672383753 14.8205019780693,45.9106083767378 14.8212578295949,45.9104513803878 14.8220634417412,45.9104525476474 14.8225170390949,45.9103301633034 14.8229960485866,45.9101199981143 14.8239786360191,45.9098754263376 14.825086152534,45.9099473996192 14.8267973944539,45.9101959156095 14.8280560228656,45.9102153620022 14.8289618360019,45.9104099038211 14.8294394761814,45.9106390715189 14.8302231708395,45.9095857878012 14.8308290368805,45.9090594158932 14.8321913197232,45.9081650646335 14.8324691859689,45.9078314743341 14.8334015817276,45.9075340207927 14.834209111915,45.9069201061458 14.8348656468462,45.9062356048863 14.8353699924778,45.905972697222 14.8362256253656,45.9060792908433 14.8368303921729,45.905851701977 14.8372400771952,45.9055599478765 14.8379431102597,45.9052216401828 14.8396193808713,45.9044698997908 14.8414835284787,45.9040765977865 14.8435370913307,45.9035514371787 14.8441857432027,45.9033261188174 14.8451578204427,45.903308544733 14.8454812534644,45.9035162917877 14.8459934741309,45.9037808886455 14.8462347528014,45.9043843358771 14.8462332956093,45.9049121446248 14.8463132473504,45.9052703644277 14.8467992767119,45.9052710170444 14.8474199658392,45.9053755020665 14.847853939866,45.9057956478352 14.8481730066122,45.9064320362435 14.8486030944776,45.9071489211106 14.8493035017505,45.9077152681061 14.8498439647676,45.9075651765608 14.850972736073,45.9073480978128 14.8525987156085,45.907342378607 14.8540422707877,45.9075005231277 14.8552981969633,45.9076472547162 14.8564317969329,45.9077993975112 14.8566471405576,45.908063573049 14.857349122171,45.908102062253 14.8589216598938,45.907729346433 14.8596672601616,45.9076434357917 14.8607007034151,45.9068241915826 14.8612423483069,45.9061839377686 14.8619465875725,45.9053553740638 14.8633527107532,45.9045275573691 14.8643237355857,45.904048681935 14.8647221967718,45.9038558816475 14.8653627499788,45.9037478547647 14.8661757255764,45.903809184924 14.866695270349,45.9036406335788 14.8671451413268,45.9036652715739 14.8675259611056,45.9035690773316 14.8679588764939,45.9034608849764 14.8685129815847,45.9032802182582 14.8689803477188,45.9032083227883 14.86908499278,45.9028822725344 14.8692622104153,45.9026050732867 14.8693627918269,45.9024718409327 14.8708111236363,45.9022036434578 14.872334867006,45.9019217452536 14.8740613860202,45.9017817657242 14.8757164591212,45.9017746699134 14.8755032383624,45.9014536662362 14.8755350933835,45.901097657954 14.8756876290656,45.9007756127195 14.8761282205818,45.9003861264218 14.876265732721,45.9000950165312 14.8761716178576,45.8998795071846 14.8760215374996,45.8997955749113 14.8757722111574,45.8998333648493 14.8755778596019,45.8997799763882 14.8752580254556,45.8992483073978 14.8751812984434,45.898982068565 14.8752683764773,45.898769455541 14.8752182251223,45.8981456729211 14.8753431801385,45.8976492203696 14.8753067955597,45.897035350271 14.8746466258343,45.8965689914415 14.8739676186929,45.8961746804357 14.8736587324172,45.8960023012394 14.8734524464782,45.8958769134561 14.8729899445863,45.8957665370904 14.8722543262069,45.8957362942832 14.8720699668552,45.8957163828386 14.8713530167148,45.8955266239568 14.8708380730317,45.8951944737767 14.8707750937376,45.8950683432476 14.8705023331682,45.8949392758022 14.8693840885535,45.8943787891347 14.8690855453161,45.8939279270496 14.8690107350191,45.8935745871876 14.8686855275955,45.8931227936442 14.8685659879744,45.8929415302202 14.868465344717,45.892561616671 14.8683058806594,45.8924267357205 14.868201288713,45.8918651514541 14.8681492514046,45.8915298327954 14.8680721586164,45.8914368863527 14.8680579409616,45.8909655642875 14.8679448015854,45.8908050025146 14.8674828733455,45.8904756875117 14.8672677102537,45.8901426084956 14.8668244698251,45.889491910389 14.8665532832774,45.8892050134609 14.8662132956152,45.8885955534483 14.8659569959398,45.888497176845 14.8654138989181,45.8881252883842 14.864656292144,45.8876955573926 14.8642662983064,45.8874746481681 14.8636397474333,45.8871488108842 14.8629771473124,45.8867625515269 14.8622177441314,45.8864491439807 14.8619615017307,45.8863344723842 14.8612988358452,45.886138507161 14.8609249831761,45.8860677797646 14.8604356826971,45.8859481419903 14.8599414624731,45.8861976768568 14.8594229362065,45.8864785820844 14.8588758827206,45.886778255171 14.8585411155892,45.8866381950221 14.8581587937255,45.8866046091122 14.8574305237278,45.886723823781 14.8567670405316,45.8866998696714 14.8559375538046,45.8866468195358 14.8551048917017,45.886675909488 14.854479907725,45.8867114665262 14.8540636785412,45.8866868215557 14.8529905183796,45.8865975372573 14.8522356057991,45.8865562533338 14.8510878786426,45.886504825539 14.8502658548327,45.8864106238972 14.8489043386638,45.886327761364 14.8476906193487,45.8858167832093 14.8472760253242,45.8848698384805 14.8468303575012,45.884686856023 14.8461381321624,45.8840239558718 14.8460548889366,45.8838425375115 14.8457010032383,45.8836457275901 14.8454875427254,45.8834055570318 14.8454467689544,45.8828702209905 14.8453946537087,45.8823830979154 14.8259192789895,45.8823367334591 14.8252161832168,45.8829693774454 14.824586206362,45.8834523154387 14.824243109648,45.8835768580852 14.8228021058966,45.884093897382 14.8214892592746,45.8845740476838 14.8212790370178,45.884600982511 14.8208654877059,45.884633896875 14.820743811569,45.8844899207785 14.8200095756476,45.8843258159752 14.8199718523759,45.8841581270058 14.8199708948646,45.8839759194641 14.8194181497042,45.8835885005679 14.8186541125642,45.8827683980974 14.8181779897342,45.8825952430747 14.8183880773963,45.8824891328146 14.8187410786522,45.8822525104525 14.8188918956832,45.88206865394 14.8187891244533,45.8812249442037 14.8186092402351,45.8807214099656 14.8183490441505,45.8799579802616 14.8181568627403,45.8796328527373 14.8177678224392,45.8790756268358 14.8175933285979,45.8786225772713 14.8173073448758,45.8780699231008 14.8171336245546,45.8773438795476 14.816932202449,45.8769346951988 14.8164258250653,45.8771248170036 14.8160004324186,45.8771321409078 14.8157075582342,45.8771901549065 14.815556088978,45.8767153644359 14.815450039895,45.8764130457232 14.8152777773562,45.8759168063719 14.8153689856797,45.875215212055 14.815251927684,45.8752041354717 14.8152335075515,45.8749318309577 14.8150157703516,45.8749043052019 14.8150589581728,45.8746221127541 14.8150378943875,45.874409279652 14.8150053760079,45.8742323293941 14.8148742101067,45.8740093303413 14.8146463785448,45.8737257988323 14.8144591861789,45.8733852865056 14.8142202907774,45.8730989468184 14.8137694103402,45.8727246223088 14.8137552169246,45.8724233512574 14.8136697899445,45.8720840831178 14.8133691003862,45.8714440253581 14.8133396506886,45.8711220342156 14.8133889250761,45.8709471965003 14.8139175457478,45.8707940153596 14.8140994346615,45.8706740101552 14.8139612970734,45.8705752588846 14.8136588879417,45.8703741140835 14.8134731593069,45.870409802467 14.8132145477173,45.8704390729429 14.8129556023293,45.8704141752274 14.8127992648962,45.8704427123404 14.8121259325545,45.870423251674 14.8117657197422,45.8702917401494 14.8115055112223,45.870221757834 14.811380122969,45.8700492420864 14.8112774610119,45.8699363295071 14.8110142208665,45.8697733932562 14.8107888360359,45.8696906899405 14.8107113919719,45.8693588108811 14.8108016946654,45.8693174803328 14.8108534293839,45.8692545810125 14.8109321060243,45.8692231287533 14.8109834640789,45.8688912829329 14.81095424895,45.8687325124765 14.8107069019255,45.8682910282259 14.8108116227017,45.8682894020809 14.8118289492938,45.8678911272414 14.8116839008791,45.867782464148 14.8115107648305,45.8676767238333 14.8114130046569,45.8675628296497 14.8113378425799,45.8672795430767 14.8113667146402,45.8670828976178 14.8113103813145,45.866944957459 14.8109473649625,45.866583813348 14.8108321687873,45.8663711833081 14.8108517667892,45.8662890653158 14.8107629307673,45.866241229591 14.8107519543947,45.8660599045896 14.8104487592465,45.8658353553984 14.8103036996797,45.865656597181 14.8102463312734,45.8654833831399 14.8100236185288,45.865150992111 14.8100780280293,45.8650203436647 14.8093960653329,45.8641161829704 14.8091754875326,45.8641039376543 14.8079241748954,45.8640220301544 14.8071753847017,45.8638352331718 14.8065973416275,45.8637324904823 14.8058510095399,45.8638778900056 14.8050579460548,45.8639059628117 14.8045051910871,45.8635340366692 14.8044990928679,45.8634366693742 14.8044292408325,45.8632299589383 14.8044221002302,45.8629891639261 14.8041472330443,45.8624113902707 14.8040331452287,45.8622596706534 14.8039629913739,45.8620664561675 14.80384639898,45.8618948467781 14.8036999974601,45.861740371981 14.8035532955033,45.8613423242768 14.8034498306708,45.8611373549481 14.8033860445542,45.8609653859851 14.8032275776234,45.8609465776111 14.8026762232201,45.861391830983 14.8024426865437,45.8614057340716 14.8021810102166,45.8615467278009 14.8018255685778,45.8615812035929 14.8016227083555,45.8616962941995 14.8007800532782,45.8617710401141 14.8007856779641,45.8616745928139 14.8007088326139,45.8615553270912 14.8004622950678,45.8613870866741 14.800500139133,45.8612843071543 14.8004846911977,45.8608504930909 14.8005469518861,45.8607982342026 14.8005165310777,45.8606259619451 14.8005675451727,45.8604414147747 14.8005627555803,45.8603762618622 14.8006571686692,45.8601197174674 14.8005976161104,45.8598829696574 14.8003976597237,45.859727407341 14.8003020273655,45.8597128436649 14.8001844861461,45.8594870616437 14.8000928435305,45.8594733145766 14.7999917853374,45.8593558955159 14.7998593760801,45.8592546176197 14.7997566458427,45.8589216064849 14.7996368853146,45.8587769807591 14.7993769133592,45.8587677966871 14.7990217947157,45.8587170545198 14.7988256224176,45.8587643980269 14.7985335812127,45.8587205137766 14.7981935226211,45.8587432181984 14.7975221836298,45.8588535141964 14.7972378791799,45.858807030962 14.7969632465719,45.8588631399126 14.7968914264621,45.8587817615205 14.7967339367997,45.8588151335109 14.7964137930499,45.8583207605039 14.796649701443,45.8582183349111 14.795122263598,45.8577987351782 14.7945640121535,45.8574850568863 14.793518101275,45.8579002230449 14.7926989269346,45.8575599700388 14.791806855161,45.8567766131077 14.7905749318208,45.8571374260904 14.7894834422521,45.8571347906094 14.7887131778045,45.8571504649175 14.7883548506103,45.8570681910988 14.7884035683303,45.8566839821985 14.7883894331222,45.8564044820947 14.7883011972021,45.8562077151311 14.7875363506735,45.854803976857 14.7876248165009,45.8543639652228 14.7874465303352,45.8540781311076 14.7872712014504,45.8537939218232 14.784783529714,45.8527284137278 14.768616256339,45.8499118857627 14.7660630810365,45.8510531074858 14.7646811871468,45.8517009068231 14.7637808962662,45.852304876539 14.763265561965,45.8529773013295 14.7625839983064,45.8547643053903 14.7620894163357,45.857174706992 14.7618435953111,45.8578357184496 14.761432336668,45.8583649251412 14.7618286093325,45.8586613318159 14.7613643716043,45.859833055522 14.7618377477493,45.8605627804101 14.7618018517768,45.8609165916829 14.76179122836,45.8610218445725 14.7620887619851,45.8610724025891 14.7623970656595,45.8611040867068 14.762613782597,45.8611710313559 14.7629525941401,45.8612668421525 14.7633180653479,45.861514411177 14.7635478971648,45.8617996694197 14.7637367221393,45.8621891276551 14.7638716035947,45.8624835466321 14.7639192030163,45.8629522537106 14.7637474381493,45.8632470286164 14.7638006147301,45.8636455638892 14.7637071903332,45.8640832966652 14.763819710367,45.864336909053 14.7644291711324,45.8650036488543 14.7651991661078,45.8649264123777 14.7660149087117,45.8646275571205 14.7665131432151,45.8645813374803 14.7670788461515,45.8646936155543 14.7673725303322,45.8649318472912 14.767371525918,45.8652961685815 14.7676650794267,45.8655977442014 14.7679811059122,45.8659469633536 14.7684776882814,45.8665183447651 14.7688770257011,45.8673724199133 14.769085636102,45.8678185054491 14.7689714261171,45.8682140902399 14.7690607773976,45.8686894475385 14.7692181421929,45.8691015972219 14.7692847602647,45.8696243270389 14.769398507599,45.870244058748 14.7689076955728,45.8711916206423 14.7685542787494,45.8714943128652 14.7679562934823,45.8719102404188 14.7677926516413,45.8722324808748 14.767764082925,45.8727826412172 14.7672468018508,45.8734862101542 14.7669593743463,45.8732813732281 14.7668185711722,45.8734380084359 14.7667255812279,45.8740506619323 14.7662043822699,45.8747917390096 14.7657758110594,45.8753436888901 14.7655586369555,45.8755859153703 14.7654218717845,45.8759439287987 14.765223498968,45.8762173257448 14.764633623892,45.8767997123016 14.7643932751728,45.8770058074291 14.7637225896116,45.8775629185859 14.7633269513867,45.8778417527062 14.7628950779868,45.8781886239058 14.7626352872318,45.8784195989576 14.7623087079064,45.8788145550738 14.7618329060685,45.8792784826627 14.7615576309681,45.8797239313771 14.7612264846957,45.8800386140843 14.7607770133419,45.8806666227317 14.7605501584788,45.8809932188949 14.7596206764839,45.8814345007596 14.7591625064148,45.8816239302108 14.7583634770394,45.8819540834945 14.7574995766249,45.8823864888614 14.7568690630895,45.8824754873264 14.755809484307,45.8826631722399 14.7549507646123,45.8828186160995 14.7535247679535,45.8829767004098 14.7524944545395,45.8835324289814 14.7512511808443,45.8843415136133 14.7512264485684,45.884484795196 14.751137297492,45.8853204093817 14.7503912319947,45.8859710346789 14.7501252928513,45.8863754456495 14.7491713826835,45.8869958253899 14.7486074967429,45.8873526097298 14.7487496443966,45.8874885195758 14.7491507794013,45.8878233101056 14.7489233988378,45.8880161739747 14.7481926160814,45.8882079292149 14.7474608423625,45.8886456780672 14.7475086241178,45.8891906017994 14.7484118576582,45.8897900493125 14.7493154267722,45.890319217382 14.749690620042,45.8908121306019 14.7495116645781,45.891409283622 14.7497363732462,45.8918139579543 14.7503133750386,45.8922194021171 14.7506633058741,45.8927473482589 14.7511822464616,45.8933175012459 14.7515359540738,45.89300190766</coordinates></LinearRing></outerBoundaryIs></Polygon></MultiGeometry>
  </Placemark>
</Folder>
</Document></kml>
