{"type":"FeatureCollection","features":[{"type":"Feature","geometry":{"type":"Polygon","coordinates":[[[14.8708587691429,45.6260214179648],[14.8703964453358,45.6262998397249],[14.8699342210012,45.6265332685373],[14.8683676413336,45.627377398275],[14.868008061755,45.627583942773],[14.8677510362113,45.6278086013629],[14.8675581968348,45.6280063390961],[14.8673006792166,45.6284379554338],[14.8672484443151,45.6288339069402],[14.8672480194897,45.6290138710783],[14.8673369473614,45.6294278930111],[14.8672846482839,45.6298507490988],[14.8667181364807,45.6307769072062],[14.8663707557464,45.63123550103],[14.866177835499,45.6314602309031],[14.8656767300186,45.6318375683631],[14.865060487186,45.6320887924912],[14.8643288707927,45.6323128816499],[14.8640079402844,45.6324294770123],[14.8636740950079,45.632582138946],[14.8634299427166,45.6327708100777],[14.8632755930232,45.632950589966],[14.8631211953641,45.633202355382],[14.8629523505037,45.6340659824784],[14.8628617543374,45.6343988080214],[14.8626939344513,45.6348396093362],[14.8625650977814,45.635073408192],[14.8623593445785,45.6352891178063],[14.8621151981734,45.635468787825],[14.8618197656682,45.6356393970749],[14.8614987001367,45.635800976262],[14.8612160907536,45.6359715994862],[14.860856274035,45.6362411084185],[14.8606120515429,45.636447859744],[14.8603544181111,45.6369406475361],[14.8602898830623,45.6371016367505],[14.8602118404515,45.6375361552313],[14.8602629296413,45.6376244002686],[14.8607618387757,45.6381694015773],[14.8608256475076,45.6383017531172],[14.8621382863512,45.6383980059079],[14.8637373285895,45.6390382577923],[14.8635799896915,45.6392802119969],[14.8631718075588,45.6393897720222],[14.8626042221449,45.6406879830196],[14.863168676774,45.640886801117],[14.8625393280577,45.6416786081236],[14.8619417153927,45.6423382662003],[14.8614700724605,45.6427339764417],[14.8610931815237,45.6428876581409],[14.8604022883075,45.6431290478049],[14.8607778580086,45.6436137897038],[14.8614044699314,45.6440548339195],[14.861623322148,45.6444733358901],[14.8614650364674,45.6450895212082],[14.8614012376017,45.6455737272567],[14.8619859377246,45.6470022701455],[14.862467283264,45.6480546504824],[14.8623207686209,45.6486312586864],[14.8628513308308,45.6493444642999],[14.8638641265053,45.6507706303216],[14.8627941517494,45.6531105907284],[14.8626835837427,45.6590821957712],[14.862232025427,45.6659356546969],[14.8622755059308,45.6680393896229],[14.8608930255956,45.6685022001799],[14.8612897934439,45.6689444926803],[14.8615459751773,45.669149061849],[14.8621099560386,45.6694988728469],[14.8624686359,45.6697782483775],[14.8631474326177,45.6703656539816],[14.8634417573318,45.670724133164],[14.8637359329529,45.6711455985418],[14.8639914863328,45.6716174068776],[14.8641702408622,45.6720036407683],[14.8644770704133,45.6725052028348],[14.8651415606909,45.6737810286502],[14.8651922240345,45.6740635406991],[14.8651535016153,45.674153476603],[14.8652942253628,45.6743480028679],[14.8657019697836,45.6755992269724],[14.8656882966353,45.6759492392264],[14.8656360952321,45.6763612934323],[14.8656093937324,45.6767913738952],[14.8654546450538,45.6770899305263],[14.8653125841301,45.6774496893441],[14.8651706856204,45.6777410621811],[14.8650928162169,45.6780954075485],[14.8650138053812,45.6789240441327],[14.8650392405236,45.6790230538592],[14.8652950025073,45.6794273727324],[14.8653842787253,45.6796695282365],[14.8654221525226,45.6799350183153],[14.8654341815365,45.6803255522219],[14.8654078090005,45.6806169712378],[14.8654703030117,45.6813224997491],[14.8655717478039,45.6818454115762],[14.8656865894702,45.682135287001],[14.8657502335649,45.6823621151168],[14.8657498031426,45.6825420775503],[14.8658647890657,45.6827725651636],[14.8659024395416,45.6831333450417],[14.8658632016883,45.6834905253604],[14.8657853972338,45.6838161668364],[14.865719775186,45.6844153661398],[14.865783150859,45.6847555704377],[14.8658081683108,45.685030943004],[14.8660384783974,45.6853550564387],[14.8662302702074,45.6856819137212],[14.8663579955252,45.6859574063332],[14.8664855615489,45.6863003846598],[14.8665360393177,45.6866684675884],[14.8666124726426,45.6869735937992],[14.8666374972661,45.6872480662707],[14.8667264670565,45.6876269017642],[14.8667904055981,45.6877340541824],[14.8669184306441,45.6878862719234],[14.8675076551812,45.6884592383279],[14.867815197655,45.6887088429678],[14.8682382819163,45.6889630791484],[14.8684431634623,45.6891936675456],[14.8686598328618,45.6898740859145],[14.8686333352414,45.6902789715197],[14.8686453466225,45.6906326120075],[14.8687979993744,45.6912392616135],[14.8692070976043,45.6919954838278],[14.8696037077642,45.6926051106737],[14.8697443656551,45.6928545193444],[14.8698209468989,45.6930516656832],[14.8698334902682,45.6931794534219],[14.8699486669218,45.693344250363],[14.8702051262897,45.6935460101265],[14.8706666947247,45.6938362733257],[14.8706152705473,45.6938641093002],[14.8705251208271,45.6939809828464],[14.870255070996,45.6941579396215],[14.86972831402,45.694293211944],[14.8696253864846,45.6943821760042],[14.8694834296641,45.694689749895],[14.8694956942576,45.6949372124084],[14.8694308628826,45.6952079819568],[14.8692892068643,45.695385083073],[14.8692630901071,45.6955722142181],[14.8693398556589,45.6956910773004],[14.8697241793008,45.6960739365234],[14.8699034015802,45.696308901832],[14.8700182408661,45.6966221672845],[14.8699789829336,45.6969397564009],[14.8698372564265,45.6972014404252],[14.8694251906391,45.6977003660611],[14.8692190868214,45.6979790721222],[14.8688453288331,45.6985653212222],[14.8688191712174,45.6987686487326],[14.8688443337846,45.6989909312091],[14.8688051771575,45.6992616396998],[14.8687019610306,45.6994693777052],[14.8684960432742,45.6996644000767],[14.8681361845153,45.6997926584161],[14.8678021616192,45.6998552592452],[14.8675581379267,45.6998711732414],[14.8673270171593,45.6998610071544],[14.8668648568157,45.6998065707995],[14.8660174774731,45.6997434931833],[14.865657942256,45.6997340728659],[14.8650670818041,45.6997999626533],[14.8645273854138,45.699948692762],[14.8642704950903,45.6999744824099],[14.8638467453332,45.6999676795238],[14.8636153579628,45.7000672826653],[14.8629723215545,45.7004624304663],[14.862766437484,45.7006340474113],[14.8626625597964,45.7011018247189],[14.862507706259,45.7014092840972],[14.8621991433239,45.7016086705403],[14.8614407006292,45.7019235871281],[14.8611965503807,45.701986277582],[14.860977884782,45.7021290817587],[14.8605786667179,45.7025794008727],[14.8600253307538,45.7030322292759],[14.8597549477367,45.7033117390474],[14.8596003624692,45.7035032090114],[14.8595228587278,45.7036830760144],[14.8594838068563,45.7038926840308],[14.8594317254358,45.7041768703505],[14.8593660066908,45.7047778633691],[14.8593782422851,45.7050199276296],[14.8594794741448,45.7056733150285],[14.8596974125503,45.7058282603841],[14.8598380346515,45.7060875785487],[14.8599017696997,45.7062793164529],[14.8599140753451,45.706494386351],[14.8598363840504,45.7067480377334],[14.8596685841084,45.7070843610038],[14.8596165003961,45.7073686372267],[14.8595130030964,45.7076690467961],[14.8594350537196,45.7080242861603],[14.8592277080419,45.708762775374],[14.8591628290517,45.7090263398988],[14.8591366535746,45.7092719558906],[14.859161895369,45.7094492496674],[14.8592384958012,45.7096329053932],[14.8593923727674,45.7097311742049],[14.8595335037976,45.7097906453106],[14.8599700921824,45.7098289732779],[14.8604193680169,45.7099303018028],[14.8609197121702,45.7101558645626],[14.8610607453446,45.7102559151029],[14.8612013558547,45.7105269289061],[14.8613034428722,45.7107951963331],[14.8613535881482,45.7112927622448],[14.8613263737004,45.711909998939],[14.861338430104,45.7122285463181],[14.8615677034,45.7130592589276],[14.8617082035181,45.7133788615692],[14.8620415632361,45.7136213134205],[14.8623109262886,45.7137728063978],[14.8625291353845,45.7138333564147],[14.8627603679028,45.7138210370704],[14.8630174916307,45.7137259658065],[14.8630818108789,45.713686451275],[14.8632487148227,45.7137172447014],[14.8640315099814,45.7140151161835],[14.8645321009959,45.7141595904006],[14.8647244011406,45.714312785893],[14.8649165267368,45.7145388654312],[14.8653902187723,45.7151899868316],[14.8656339573078,45.7153747346898],[14.8658264261301,45.7154604427822],[14.8663657625456,45.7155239715708],[14.866571270676,45.7155287108054],[14.8668282290912,45.7155038159399],[14.8670979874046,45.7154978313853],[14.8673163106145,45.7155151815186],[14.8675345276626,45.7155775215847],[14.8677911527498,45.7156938942509],[14.8680605751935,45.7158309767342],[14.8682914237024,45.7159851104961],[14.8685221553123,45.7161896329771],[14.8692267691009,45.7169902821377],[14.8694446964709,45.7171803911154],[14.8695216531411,45.7172299685335],[14.8697655072811,45.7173193278699],[14.870060895888,45.7173430592369],[14.8702663381346,45.7173792850692],[14.8703946377447,45.7174460165602],[14.8705743960612,45.7174795132723],[14.8710111078465,45.7174935042858],[14.8712552486078,45.7174595869087],[14.8714350549454,45.71747238671],[14.8715762510236,45.7175175359649],[14.8717123172622,45.7174468738474],[14.8718942269401,45.7173262335884],[14.8721490020224,45.7170784415771],[14.8723036630646,45.7169641588089],[14.8724583668732,45.7168307999207],[14.8728403621799,45.7165576836909],[14.872985958016,45.7164179252954],[14.8734676534304,45.7161895482864],[14.8736405500465,45.7160179660276],[14.8736226965312,45.7159034905261],[14.8736139205867,45.715750873142],[14.8737414439747,45.7155920178105],[14.8739416977811,45.715363237424],[14.8743053078479,45.715204641692],[14.8746142543317,45.7150777480974],[14.8747961215442,45.7149698804175],[14.8752325544883,45.7146968157446],[14.8753963790141,45.7145570741372],[14.8754752866092,45.7144229985523],[14.8755789126397,45.714031694245],[14.8756176060997,45.7139597516],[14.8759008210458,45.7136154324489],[14.876415398128,45.7132542666849],[14.8765181534272,45.713254377788],[14.8766338323299,45.7132185103612],[14.8767882024554,45.7131106997625],[14.8769040191683,45.7130118455203],[14.8769941961525,45.7128904683108],[14.8770975030289,45.7126386327162],[14.8773289361479,45.7125309042483],[14.8774317294631,45.712513018372],[14.8775857916251,45.7125446768927],[14.877829851989,45.7125359400302],[14.8779197421379,45.7125450342145],[14.8781125232571,45.712491251447],[14.878279791351,45.71235645828],[14.8785112307855,45.7122442283688],[14.878729727835,45.7121769747493],[14.878973798078,45.7121628365932],[14.8790895100269,45.7121098703185],[14.8792440758488,45.7119075765358],[14.8793855390738,45.7118249434421],[14.8796557920978,45.7115795802805],[14.8805815394188,45.7111217384685],[14.880813026531,45.7109825096154],[14.8809805987575,45.7106992440923],[14.8815594358298,45.7102904319567],[14.8816493419814,45.7102905251242],[14.8818936837717,45.7101432090839],[14.8822918706574,45.7101283232376],[14.882561695753,45.7100773117207],[14.8829599496071,45.7100300304432],[14.8833452206095,45.7100493204859],[14.8836537788729,45.7099002666042],[14.8839243578286,45.7094839296208],[14.8843104418485,45.7090452137222],[14.884657786927,45.7087675234686],[14.8851847011532,45.7086042886833],[14.8853775684439,45.7084983046949],[14.8860457633835,45.7083307085307],[14.8866763009902,45.7077293623754],[14.8871645380955,45.7076317662417],[14.8869847959348,45.7076009950211],[14.8862147360344,45.7073402753763],[14.8858817520405,45.7068801399544],[14.8854588441429,45.7064343103818],[14.8848306010218,45.7059190769434],[14.8845996095095,45.7058324620071],[14.8843557351969,45.7057656294051],[14.8836880867695,45.7056200820899],[14.8832645184783,45.705504474283],[14.8828795568175,45.7053520122327],[14.8825332191909,45.7051545980445],[14.8823410149456,45.7049474437127],[14.881905559142,45.7043820030016],[14.8814719679551,45.7029383466062],[14.8814084977466,45.7025882540791],[14.8813963283581,45.7022094207924],[14.8813068749926,45.7020014714213],[14.8812559914701,45.7017728663985],[14.8811150159873,45.7016386478567],[14.8809999670582,45.7013901800616],[14.8808850756351,45.7010680177229],[14.880693232109,45.7007006943474],[14.8805399806086,45.700302817381],[14.8804120322617,45.7000840292396],[14.8803872070975,45.6996817873197],[14.8802982683739,45.6992362872337],[14.8801319789552,45.6988735786093],[14.8796841221843,45.698135261891],[14.879427765351,45.697919936514],[14.879262119481,45.6973222862227],[14.8792753494415,45.6971414379211],[14.8793398238038,45.6970156222803],[14.879352834782,45.6969364525303],[14.8793661398137,45.6967205116006],[14.8794637352657,45.6962991424503],[14.8791603544684,45.6954451697936],[14.8783623255281,45.6949714713878],[14.8773288392176,45.694665959747],[14.8770593714052,45.6945855867621],[14.8768796904269,45.6945485009474],[14.8770729133715,45.6942652679787],[14.8772400625887,45.6941610694133],[14.877445654586,45.6940920045463],[14.8777025296262,45.694058086917],[14.8783189578195,45.6940092553985],[14.8784602992517,45.6939626155776],[14.8787045626378,45.6938225043577],[14.8791547365918,45.6934630562417],[14.8793094287289,45.6931779790494],[14.8796827867575,45.6927104700733],[14.8798761645095,45.6923453494426],[14.8799791759997,45.6922077862953],[14.880403341124,45.6919328882729],[14.8805961141032,45.6918485074661],[14.8808403476651,45.6917155901031],[14.8811100721403,45.691670880441],[14.8811101064571,45.6916546838386],[14.8814569394173,45.6915758606688],[14.8816883549981,45.6914312306138],[14.8821128308769,45.6910627459449],[14.8823445650787,45.690764336774],[14.8824348301768,45.6905781683243],[14.8825255787875,45.6901607482386],[14.8825900643585,45.6900222432514],[14.8826929821608,45.6899242692994],[14.8831428500639,45.6896844801133],[14.8835026994029,45.6895129832226],[14.8839009349184,45.6894036113452],[14.8841064083845,45.6893795249947],[14.8843891452103,45.6892439395987],[14.8845691103355,45.6891370437472],[14.8849288152748,45.6890321284124],[14.8856226608495,45.6887646806741],[14.8860463251492,45.6887732023526],[14.8861747333499,45.6887634324065],[14.8863418711524,45.6886484226499],[14.8865218015398,45.6885559206964],[14.8867918021969,45.6883645282323],[14.8870485838281,45.6883611831317],[14.8878963455007,45.6881586602113],[14.887884677084,45.6875728699621],[14.8880517135548,45.687440761117],[14.8880774874748,45.6873921964188],[14.8881557432378,45.6867777001286],[14.8882457407427,45.6867130015887],[14.8884256492645,45.6866267952825],[14.8886310784949,45.6866188973924],[14.8894273983202,45.6864451069432],[14.8896584732326,45.6864525288619],[14.8898126280281,45.6864040876823],[14.8900568883495,45.6862342581402],[14.8902239631449,45.6861435375738],[14.8903138992178,45.686108531204],[14.8906991838012,45.6860378151386],[14.8910461590216,45.6858608831781],[14.8912133270346,45.6857206714694],[14.8915860652095,45.6854969720499],[14.8916632377637,45.6854223606765],[14.891689085771,45.6853333035769],[14.8917023509167,45.6851119618491],[14.891779613006,45.6849905601348],[14.8919210643701,45.6848692191068],[14.8920495560825,45.6848108526582],[14.8922295649747,45.6846661524975],[14.8923325527876,45.6845177802336],[14.8928857768931,45.6838911296153],[14.8930015117294,45.6837886592165],[14.8932456414873,45.6836764107846],[14.8934898163715,45.6835398668794],[14.8938109917599,45.6834159914472],[14.8939655441309,45.6831507796836],[14.8941584385203,45.6829071087948],[14.894261818037,45.6825463788532],[14.8946740142872,45.6818008132004],[14.8947384771221,45.6816533029854],[14.8947516298065,45.6814850497323],[14.895008990455,45.6811550544786],[14.8953048607486,45.6808241941073],[14.8953182984759,45.6805020726658],[14.8954345295762,45.6801270462266],[14.8953323751008,45.6798372122329],[14.8953325663621,45.6797346334871],[14.8953968557393,45.6796780040154],[14.8954996484561,45.6796250089923],[14.8959875556793,45.6795651666166],[14.8961159877265,45.6795301906801],[14.8962959010365,45.6794223763138],[14.8966815718799,45.6790430037336],[14.8967974022683,45.6788793420534],[14.8967979597283,45.6785761048133],[14.8969909808581,45.6783180320166],[14.8971195479434,45.6782074705777],[14.8971327025588,45.6780338180585],[14.8973131308598,45.6776407610403],[14.8973903672208,45.6775211549809],[14.897660377779,45.6772748477279],[14.8975196363386,45.6770245728568],[14.8974562214056,45.6766052918841],[14.8973031255411,45.6760931592706],[14.8969956413292,45.6757779469632],[14.8969959207266,45.6755556927256],[14.8972912822673,45.6754803741135],[14.8976507184766,45.6754618005509],[14.8979073079502,45.6755313159447],[14.8987283977032,45.6758253866612],[14.8989336790817,45.6758768579389],[14.8991646616873,45.6759121548514],[14.8992929203836,45.6759680565547],[14.8994338848448,45.6760967643871],[14.899446398447,45.6762767385342],[14.8994332530206,45.6764494915656],[14.8994843134836,45.6766079040475],[14.8995867539283,45.6767465657295],[14.899881619229,45.6769510826406],[14.900202368538,45.6770377455635],[14.9007283254698,45.6772217661519],[14.9010106975586,45.6772355083933],[14.9014345726987,45.6770757077111],[14.9018455589789,45.6769446884767],[14.9023462394157,45.6769037260183],[14.9026415556446,45.6768544882045],[14.902975449581,45.6767647906951],[14.9035020348099,45.6765870731977],[14.9038489451807,45.676390306066],[14.9040158468655,45.6763706504652],[14.9042083637399,45.6763842192975],[14.9045291685351,45.6764402763969],[14.904926795004,45.6766115729463],[14.9051191667885,45.6767116124],[14.9052217033766,45.676801679066],[14.905324194771,45.6769187400675],[14.9053625423167,45.6770141522862],[14.9054651874243,45.6770403319168],[14.9057219721175,45.6770036516696],[14.9062613269065,45.6768619246209],[14.9066595047098,45.6767065825343],[14.9068008641997,45.6766086180391],[14.9069553246559,45.6763504968574],[14.9071357665951,45.6759043350978],[14.9072900720131,45.6757379945108],[14.9074443082813,45.6756130451791],[14.9076369520326,45.6755484143496],[14.9079193764541,45.6755261469318],[14.9083813768566,45.6755805073042],[14.9086122441108,45.6756895699158],[14.9089073674503,45.6757518928924],[14.9096643087018,45.6759846463676],[14.9101772839207,45.6762729918396],[14.9102285487842,45.6763224320117],[14.9104077943707,45.6766096138961],[14.9106385867267,45.6767708616372],[14.9108697332573,45.6767098547414],[14.9122057195106,45.6760486248998],[14.9134002727399,45.6755222446064],[14.9137725010563,45.67552882486],[14.9147602930284,45.6759011900154],[14.9153118069576,45.6761859419211],[14.9154528560081,45.6762832264792],[14.915798726865,45.676750396228],[14.9160037634532,45.6769782004907],[14.9162987998406,45.6771088902743],[14.9164784471298,45.6771486136303],[14.916748037297,45.6771281146415],[14.9170177070689,45.6770536261436],[14.9171974582077,45.6770231628345],[14.9174157863708,45.6769459367269],[14.9176469064784,45.6768984133356],[14.9183147494092,45.6766478442436],[14.9185074064284,45.6765678982408],[14.9186487240538,45.6764843161043],[14.9195346141115,45.6763418727949],[14.9196630318734,45.6763014714649],[14.9206635919574,45.6767591870027],[14.9210355749719,45.6769466063451],[14.9214205754755,45.6770062596217],[14.9216773333167,45.6769812410964],[14.9219470171251,45.6768914441071],[14.922563489162,45.6766462139648],[14.9225560802289,45.676527073359],[14.9226502130205,45.6762151710532],[14.9228848638164,45.6759280185364],[14.9231078317352,45.6756407676793],[14.9233071171738,45.675493151885],[14.9235297737921,45.6753373630613],[14.9237876161277,45.6752635704962],[14.9242443891081,45.67520646604],[14.9245258115213,45.6749685610331],[14.9248893609128,45.6746486461372],[14.9253582447775,45.6742631123696],[14.925768243521,45.6742387245432],[14.9262602832953,45.6740994817279],[14.9264830331066,45.6739600638222],[14.9266119656833,45.673812396927],[14.9267644826256,45.6736893099811],[14.9268231082283,45.6736154726489],[14.927022227365,45.6735827567277],[14.9273266182466,45.6736321706965],[14.9279005717652,45.6735668477779],[14.9281819704709,45.673328933682],[14.9282523787984,45.673173039788],[14.9285104453547,45.6729104552487],[14.9287682352612,45.6727628664521],[14.9290144475866,45.6725332066379],[14.9294241741474,45.6727140535936],[14.9296464429032,45.6728454738648],[14.9298572839775,45.6728784467968],[14.9302087158662,45.6727719438211],[14.9306890822521,45.6726080198008],[14.9312967815095,45.6725396409015],[14.9314765884378,45.6724452681838],[14.9318104702777,45.6723059964337],[14.9318750167702,45.6720000974038],[14.9318623673984,45.6718471210858],[14.9319652542085,45.6716762172959],[14.9320299026022,45.671284835646],[14.9320043800373,45.6711633452405],[14.9322485615463,45.6708980444511],[14.9323000849334,45.67074510619],[14.9325442848433,45.6704618084291],[14.9327625124044,45.6703224655032],[14.9328911542222,45.6700750915769],[14.9331096737904,45.6697963665516],[14.9331869537271,45.6695669585199],[14.9329435883031,45.6691573993271],[14.9326743475679,45.6689232886188],[14.9324438445128,45.6684957395569],[14.9325210280653,45.6683473153865],[14.9323419677643,45.6678343138371],[14.9326504432637,45.6674521638607],[14.9328557926619,45.6673398076021],[14.9329586520641,45.6671824000225],[14.9331639300904,45.6672365093218],[14.9332536605886,45.6673264535041],[14.9332920608278,45.6674119585511],[14.9333175205093,45.6676954157727],[14.933407155851,45.6678664332805],[14.9335353312745,45.6680059795477],[14.9336507529538,45.6680780319924],[14.9337533779663,45.6681185833079],[14.9339073554749,45.6681456669965],[14.9341640377296,45.668145815201],[14.9342666790355,45.6681728688106],[14.9345359805091,45.6683574859035],[14.9347413480023,45.668339607058],[14.9348184051652,45.6682946602032],[14.9348698408915,45.6682092069318],[14.9348316308767,45.6679572364029],[14.9348573981727,45.6678717684875],[14.9349601904169,45.6677683481012],[14.9350500910435,45.6677144102268],[14.9352040279771,45.6676650077027],[14.9356275036716,45.6677057388604],[14.9358200241442,45.6676968490043],[14.9359741194689,45.6676204510216],[14.9361410995086,45.6674990691819],[14.9363081604651,45.6673057017772],[14.9367323083546,45.6667480508519],[14.9368737177679,45.6665366720431],[14.9371437551377,45.6660644168972],[14.9372722573404,45.665916017677],[14.937477980655,45.6655697007863],[14.9374782961813,45.6652862584949],[14.9376327088293,45.6648005314753],[14.9376840821602,45.6647645668106],[14.9377739554238,45.6647286230986],[14.9378894156172,45.6647646786257],[14.9379406793849,45.6648276937052],[14.9379532684081,45.6651650420916],[14.9381326688469,45.6654080900718],[14.938594817072,45.665277865885],[14.9390439832404,45.6652826055069],[14.9392749690624,45.6651792495173],[14.9394547875179,45.6650398732577],[14.9395447182033,45.66494993914],[14.9395704672622,45.6648734682813],[14.9395320495065,45.6647969634718],[14.9395323159093,45.6645495138099],[14.939673641592,45.6644011186358],[14.9397250760177,45.6643066649444],[14.939763763906,45.6641312209294],[14.9399436403294,45.663933355763],[14.9402519182424,45.6636681611899],[14.9403033462418,45.6635782063109],[14.9402393053472,45.6634611965357],[14.9396493527259,45.6631189556962],[14.9395981176267,45.6630289468479],[14.939495720615,45.662781442785],[14.9396242622821,45.6625835508763],[14.9396372981913,45.6623945960244],[14.9400095647149,45.6622868139674],[14.9404717071562,45.6620126112546],[14.9407286747436,45.6617158049495],[14.9414349346216,45.6612707592834],[14.9419101993511,45.6608255919977],[14.9430910028256,45.6606102299488],[14.9432067127014,45.6603943311788],[14.9433479773805,45.6602864231383],[14.9435405345202,45.6602145330079],[14.9439771783127,45.6598683179541],[14.9440286237597,45.6597513667997],[14.9443239347317,45.6594500719779],[14.9445040244562,45.6590048395113],[14.9447352310914,45.6587709988098],[14.9447739614244,45.6585325656584],[14.9451205814603,45.6583707653672],[14.9451464560879,45.658154821359],[14.9455058652387,45.6580335178613],[14.9457498433211,45.6578536702707],[14.946096758533,45.6573769306316],[14.9462510698331,45.6570305731563],[14.9463538513256,45.6568956486633],[14.9462515777373,45.6564996803543],[14.9465084253878,45.6562702571341],[14.9462134451817,45.656121738518],[14.9449569936848,45.6550773501514],[14.9447903569956,45.6549063041358],[14.9447519477805,45.6548208027615],[14.9444955441415,45.6546002228146],[14.9443930518216,45.654442704637],[14.9442909303278,45.6539117616025],[14.9444068443485,45.6534709066583],[14.9443686148768,45.6532054413684],[14.9443175060795,45.652989459839],[14.9441766326173,45.652723944388],[14.944074431197,45.6522784838063],[14.9439207706446,45.6519724698702],[14.9437928040583,45.6516348846896],[14.9436902694258,45.6515269458355],[14.9434465975146,45.6514233462248],[14.943254329369,45.6512387878739],[14.9431776026256,45.6509868002474],[14.9429856107465,45.6505322956637],[14.9429343771895,45.6504467872117],[14.9426396345628,45.6501047081049],[14.9426016408908,45.649618786327],[14.9425503949513,45.6495467749806],[14.9421784723337,45.6494071152691],[14.9418321226884,45.6493529502566],[14.9412934064701,45.649222200813],[14.9410754698365,45.6490601210288],[14.9410114769078,45.6489116177139],[14.9410758000584,45.6487451842135],[14.941063144957,45.6485787109862],[14.9410120058313,45.6484077187884],[14.9408839984662,45.6481332075045],[14.9406533470033,45.6478676409907],[14.9405379435439,45.6478090926755],[14.9403326290453,45.6478494775346],[14.940268438616,45.6478899358969],[14.9402300841324,45.6477639410191],[14.9400890703986,45.6476603878402],[14.9392938786984,45.647444011225],[14.9392170240348,45.6473314928359],[14.9389609841213,45.6468274569858],[14.9387814923128,45.6467193825095],[14.9384352364405,45.6465977206992],[14.9382815134084,45.6463906790781],[14.9380894776771,45.6460261479164],[14.9379485417891,45.6458596046752],[14.9374997811279,45.6456299058336],[14.9372434528908,45.6454048101913],[14.9369104817635,45.6448872299797],[14.936641710897,45.6443246933391],[14.9365776626223,45.6441266972467],[14.9364497019095,45.6438386835015],[14.9355277691121,45.6423354660691],[14.9353229472893,45.6419619245695],[14.9351698814375,45.6412059880717],[14.9352985597953,45.6408596298562],[14.9352986530083,45.6407786459974],[14.9351836016902,45.6404321495905],[14.9351067907982,45.6402971327891],[14.935017043333,45.6402565898155],[14.9348246167388,45.6402654784126],[14.9344397056504,45.6403327447739],[14.9343114438093,45.6403191737774],[14.9336702470181,45.6401568354591],[14.933516426001,45.6400623547874],[14.9334523620698,45.6399993299922],[14.933068404682,45.6392657512255],[14.9331457283785,45.6389642663126],[14.9332744567788,45.6385819174059],[14.9335314668079,45.6381906448201],[14.9335700762176,45.6380826886773],[14.9336476025763,45.6376058282239],[14.933519724887,45.6372728198245],[14.9333276764274,45.6369712675952],[14.9326483685668,45.6365344555186],[14.9323278586763,45.6363992928245],[14.9321355806361,45.6362956992426],[14.9320717127975,45.6360752049015],[14.9315846835209,45.6357554774631],[14.9309822365644,45.6354221809301],[14.9307387242784,45.6352646546709],[14.9304438626686,45.6351429995396],[14.9303159983916,45.6348189856394],[14.930226341292,45.6347154513639],[14.9300468601544,45.6346433558283],[14.9296622070039,45.6345306418723],[14.9295212008002,45.6344630683018],[14.9294315739656,45.6343370378581],[14.9293037230079,45.6340085236754],[14.9292400840205,45.633617061554],[14.9290223505162,45.6333694753263],[14.9288300832328,45.6332703752444],[14.928317238046,45.6331125856778],[14.9279453845666,45.6330313677279],[14.9276248712101,45.6329231864282],[14.927214343821,45.6329949114125],[14.9270603549265,45.6330533016614],[14.9269577169158,45.6330757316468],[14.9265345436744,45.633007973618],[14.9262395554545,45.6329987853163],[14.925995901274,45.6329671339554],[14.9255088141533,45.6327374526365],[14.9252781489651,45.6325843321695],[14.9249450155094,45.6323276643627],[14.9247656571272,45.6321745765457],[14.924599149716,45.6320035004727],[14.924599191947,45.6319720067081],[14.9241123864383,45.6315442686054],[14.9239204141877,45.6312381112111],[14.9238179671979,45.631121065981],[14.9236898327409,45.631030998185],[14.9233821891162,45.6309048170833],[14.9229718128228,45.6308730473257],[14.9225871253429,45.630814298819],[14.9221768186551,45.6307330359963],[14.9220100266563,45.6306834319979],[14.921420013341,45.630710022376],[14.9213045455018,45.6307369375803],[14.9210350189014,45.6308718150073],[14.920701489879,45.6309165751249],[14.9200732396679,45.6307721656629],[14.9197525745842,45.6307899373252],[14.9192520151728,45.6310415350088],[14.9188926896701,45.6311852521138],[14.9186873228109,45.6312930848593],[14.9181483947851,45.6314636663252],[14.9178404720103,45.6315354311103],[14.9175196038962,45.631688169762],[14.9167109662697,45.6321015914902],[14.9161717562145,45.632452127919],[14.9156838300953,45.6328116978679],[14.9153243893159,45.6330183911945],[14.9150035603175,45.6331351298707],[14.9140411891411,45.633404356549],[14.9137075428889,45.6335120837091],[14.913373839907,45.6336558027451],[14.9129631774945,45.6337995521789],[14.9126039441901,45.6338622654948],[14.9118342122834,45.6339606545137],[14.9113979620881,45.6340592974657],[14.9108076945044,45.6341398221628],[14.9099223309969,45.6343550848574],[14.909601512109,45.634453811899],[14.9093319688143,45.6345705751887],[14.9090368442581,45.6346423263633],[14.9086776888986,45.6346510380528],[14.9083571741376,45.6345607991705],[14.9080622396702,45.6345155710889],[14.9078442346749,45.6344884007727],[14.9076518088215,45.6345062418328],[14.9074848728357,45.6346230836598],[14.9072921940322,45.6347939836681],[14.9069707278253,45.6352796263177],[14.9068422083691,45.6354324913507],[14.9066623964737,45.6355763161194],[14.906392841701,45.6356930724425],[14.9060848056479,45.6358097964997],[14.9055586682729,45.6359533342954],[14.9051224371937,45.6360249586053],[14.9048017070197,45.6360606846732],[14.9044937420827,45.6361324133927],[14.9041856690167,45.636267128729],[14.9038902827354,45.6364829278625],[14.9037106448659,45.6365187694744],[14.9033386188968,45.6365454499666],[14.9024404713561,45.6366976562389],[14.9020299314639,45.6367422960107],[14.9019400958581,45.6367692135933],[14.9017990262613,45.6367537954479],[14.9017991928631,45.6366584144691],[14.9016460625245,45.6361318868956],[14.9013516146854,45.635807697093],[14.9007753859998,45.6352555171449],[14.9003785030292,45.6348367544387],[14.9001611971757,45.6344172475767],[14.8999186391618,45.6337745622078],[14.8997267204645,45.6334360606969],[14.8994835877245,45.6331200093561],[14.8992150895129,45.6326455663393],[14.899177595882,45.6320965514924],[14.89917832191,45.6316916319324],[14.8989861453726,45.6315744852186],[14.8985892611031,45.6311782115926],[14.8979997377168,45.6309257363803],[14.8978333507259,45.6306646390781],[14.8974107151805,45.6303313258662],[14.8971032991232,45.6301150918906],[14.8967189166922,45.6299077857538],[14.8965399905903,45.6295656911113],[14.8965275792154,45.6293407241067],[14.8965792276949,45.6291518080257],[14.8965796581118,45.6289177644213],[14.8965030218883,45.6287467286199],[14.8962338939083,45.6286385057076],[14.8959519918534,45.6285032758297],[14.8955168763529,45.6279989776952],[14.8952864856808,45.6276838285947],[14.8951326712213,45.6276386963392],[14.8949663346635,45.6274315841588],[14.8948387428129,45.6270805356528],[14.8948772287617,45.627074272309],[14.8942252359167,45.6259740861599],[14.8939576306107,45.6250676256482],[14.8949203936718,45.6245637141055],[14.8951387766714,45.6243641538712],[14.8952935973018,45.6238639937851],[14.8949727768559,45.6239131896091],[14.8947677106549,45.6238500132239],[14.8945627292537,45.6237418453503],[14.8943704373929,45.6237056747582],[14.8935112630649,45.6236886802929],[14.893331814779,45.6236426218597],[14.8928704648415,45.6234784221977],[14.8924477285631,45.6232413712801],[14.8922042651305,45.6231421611684],[14.8914481786412,45.6228723978434],[14.8907559900726,45.6226539805976],[14.8905382373395,45.6225250973109],[14.890294687367,45.6224735737148],[14.8897560684281,45.6224856527531],[14.8889739823243,45.6224048110083],[14.8883459536012,45.6222377314571],[14.8879102643814,45.6220798355687],[14.8877053619154,45.621941961234],[14.8874750420205,45.6216897838122],[14.8871299399717,45.6211251635353],[14.8868995391552,45.6209161764088],[14.8865790656935,45.6207979816881],[14.8862202065254,45.620702243453],[14.8858487426264,45.620499412383],[14.8851695601245,45.620279174542],[14.884913439131,45.6201115494518],[14.8846828090616,45.6200204346039],[14.8842598148746,45.619938122809],[14.8838885116791,45.6196632995318],[14.8836191331253,45.6197089164814],[14.8827342494418,45.619753092813],[14.882452010743,45.6198157904758],[14.8816693685529,45.6200219421532],[14.8809764636939,45.6202371802356],[14.8805787165461,45.6203447440889],[14.8795264254525,45.6207125672771],[14.8791541445904,45.6209012271953],[14.878935741652,45.6210899590829],[14.8786275346513,45.6212965916597],[14.8781524174663,45.6216560156303],[14.8775749299883,45.6218533595788],[14.8771769880959,45.6220418955323],[14.8769331434293,45.6221316155344],[14.8766635718469,45.622257300211],[14.8760858547354,45.6225537070048],[14.8752897489008,45.623020749267],[14.8749943217725,45.6232363841636],[14.8745057912293,45.6237847412055],[14.8743259539491,45.6239196070894],[14.8736067789982,45.6243777238775],[14.8732857710808,45.6245573330469],[14.8715521681821,45.6256379749938],[14.8708587691429,45.6260214179648]]]},"properties":{"fill-opacity":0,"stroke-opacity":1,"stroke":"#ff0000","lov":"0315","lov_naziv":"MALA GORA","luo":"03","luo_naziv":"Kočevsko Belokranjsko","povrsina":3721.51},"id":"pregledovalniklovisca.1"}]}