<?xml version="1.0" encoding="utf-8" ?>
<kml xmlns="http://www.opengis.net/kml/2.2">
<Document id="root_doc">
<Schema name="pregledovalniklovisca" id="pregledovalniklovisca">
	<SimpleField name="lov" type="string"></SimpleField>
	<SimpleField name="lov_naziv" type="string"></SimpleField>
	<SimpleField name="luo" type="string"></SimpleField>
	<SimpleField name="luo_naziv" type="string"></SimpleField>
	<SimpleField name="povrsina" type="float"></SimpleField>
</Schema>
<Folder><name>pregledovalniklovisca</name>
  <Placemark id="pregledovalniklovisca.1">
	<Style><LineStyle><color>ff0000ff</color></LineStyle><PolyStyle><fill>0</fill></PolyStyle></Style>
	<ExtendedData><SchemaData schemaUrl="#pregledovalniklovisca">
		<SimpleData name="lov">0320</SimpleData>
		<SimpleData name="lov_naziv">PREDGRAD</SimpleData>
		<SimpleData name="luo">03</SimpleData>
		<SimpleData name="luo_naziv">Kočevsko Belokranjsko</SimpleData>
		<SimpleData name="povrsina">4977.96</SimpleData>
	</SchemaData></ExtendedData>
      <MultiGeometry><Polygon><outerBoundaryIs><LinearRing><coordinates>15.1014584781523,45.5303793981994 15.1090191197204,45.5240712186907 15.1095821514351,45.5239546006424 15.1111053414047,45.5238712438905 15.1118857555501,45.5236373336896 15.112880544917,45.5230644168031 15.1134827601124,45.5227718220774 15.1146397243763,45.522649458408 15.115380186079,45.5222364962094 15.1161659873581,45.5207833578334 15.1181053183962,45.5181734516011 15.1192406108879,45.5164452977094 15.1199046322074,45.5151695278921 15.1232590452148,45.5111696717512 15.1242288574649,45.5106814468224 15.1250225154857,45.5104088287019 15.126346073443,45.5103362849343 15.1270702459867,45.5096759874933 15.1266848705776,45.5084093478544 15.1272933761828,45.507204412428 15.1273156684495,45.5060799444066 15.1263104192772,45.5043517426452 15.1247354620104,45.5028809702559 15.1232357107568,45.5022947305608 15.122655679235,45.5013650069074 15.1202352876168,45.500585706253 15.1184700368163,45.5003822063779 15.1179138111242,45.4997147380558 15.1173507995629,45.4994701104519 15.1166507174109,45.4996429675935 15.1147297495661,45.5002411494398 15.108371066737,45.5017051951816 15.1072223646543,45.5017817760318 15.1058354201363,45.5011900727304 15.1047240496965,45.5001406197996 15.1033930593235,45.4991830489281 15.1021807964244,45.497697327874 15.1007750540852,45.4967390730566 15.0994019362132,45.4957522473338 15.0987076632404,45.495300497675 15.0976040621886,45.4944571220357 15.0968031379671,45.4939450722132 15.0963040721978,45.4934474301067 15.0954708386027,45.493031231541 15.0938357784452,45.4932922815375 15.091635748942,45.4930298732166 15.0923113799052,45.4923034245175 15.0921300135675,45.4913950876139 15.091898238052,45.4898525800301 15.0922368946247,45.4879780193464 15.0927327379975,45.4871089070503 15.0925815193791,45.4864804875492 15.0924197659341,45.4855878815801 15.0902132038834,45.4845671506536 15.0883395353273,45.4837678420443 15.086220216401,45.4828212034746 15.0862036203374,45.482843172247 15.0862036203365,45.4828431722483 15.0857789141725,45.4829911868062 15.0854340763915,45.4831113646602 15.0849342883373,45.4831179663868 15.0847481807279,45.4831204241329 15.0843878494631,45.4830690025106 15.0832508131794,45.4829067319445 15.0817208378867,45.4826933134065 15.0808912014973,45.4826018193628 15.0805217882842,45.4825610776627 15.0797321051844,45.4823905326089 15.0791035035938,45.4822547711134 15.0787680637313,45.482225167265 15.0784115078566,45.4821936987337 15.077910292001,45.4822634198407 15.0779105448094,45.4822799267381 15.0779111354164,45.4823184898603 15.0774973464968,45.48252537605 15.0763797763144,45.4833262720432 15.0760426514702,45.4836099679082 15.075844264509,45.4837769118586 15.0757314632211,45.4839473082778 15.0756314488307,45.4840983879906 15.0751303196013,45.48452079459 15.0744729887192,45.4850748521058 15.0739468298785,45.4856285413752 15.0736933330648,45.4858952972555 15.0727791428717,45.4865705876753 15.0726505726324,45.4866625630849 15.0717604800499,45.4872992972169 15.0710445454949,45.4876754302273 15.0690269938236,45.488130459266 15.0681741149317,45.4881278043031 15.0668461328777,45.488123657694 15.0665585344251,45.4880875806169 15.0650339738182,45.4878963230115 15.0634083568092,45.4877737784375 15.0623360634017,45.4876929323339 15.0599165839633,45.4882467321261 15.0586469710888,45.489464701708 15.0582318917491,45.4902533434335 15.0578956652026,45.4908921492602 15.0577863490732,45.4911449737803 15.0575571709511,45.4916750054073 15.0571613512219,45.4926436467409 15.0570600738417,45.4928914849421 15.0570600738417,45.4928914849421 15.0570600738417,45.4928914849421 15.0562022504513,45.493694841534 15.0554217390045,45.4940343742719 15.0547583267974,45.4941700833349 15.053690210192,45.4943885701513 15.0529130605757,45.4943821839483 15.051659106652,45.4942838609525 15.051349961768,45.4942596186185 15.0488195367902,45.4937645538588 15.0480674866209,45.4934728732458 15.0480674866209,45.4934728732458 15.0480674866209,45.4934728732458 15.0474235220966,45.4922258677475 15.0470236944108,45.4914731884777 15.0466300785595,45.4907321819751 15.045474818102,45.4894809632227 15.0447901778941,45.4889198202928 15.0438698009507,45.4883703008156 15.0435971596977,45.4882075143736 15.0430582014636,45.4879813520084 15.0427851735499,45.4878667799837 15.0412212393551,45.4875494396554 15.0402033619753,45.4872854079296 15.0394676348042,45.4870945572049 15.0386161464803,45.4868564738005 15.0380973803188,45.4867114182527 15.0370764330203,45.4865934244928 15.0353007672328,45.4863548080599 15.033693373667,45.4861714550156 15.032074082382,45.4861942373405 15.0310000894364,45.4861166972007 15.0286554550054,45.4856426408048 15.0278053188505,45.4855065242677 15.0272319228915,45.4855460316831 15.0269822711293,45.4855632319617 15.0254402328348,45.4860899055792 15.0248628270139,45.4866588374096 15.0248380846245,45.486683216358 15.0247376503589,45.486821709562 15.024324628522,45.4873912353514 15.0240473064118,45.4886461353978 15.0240167810427,45.4887842611596 15.0236280624262,45.4898709053014 15.0232190317893,45.4904445504204 15.0230323111471,45.4906010682105 15.0227077118608,45.4908731593922 15.0218104174012,45.4913666292219 15.0208038742012,45.4918220239179 15.0203467767011,45.4920288251547 15.0193664661108,45.4923153261604 15.0183660350984,45.4925292045094 15.0181578485576,45.4925688815404 15.0173632865547,45.492720308371 15.0173632865547,45.492720308371 15.0172407996552,45.4934073582798 15.0178623816823,45.4943162856658 15.0178624921729,45.4946657852055 15.0175643247721,45.4949104091311 15.016943230552,45.4952073615746 15.0168515626274,45.4954442141404 15.0166947880663,45.495749104377 15.0170677582486,45.4961686465843 15.0170430255861,45.4964657787958 15.0172305508785,45.4967202265598 15.0174903951659,45.4966406408568 15.0179873403082,45.4961863223969 15.0184641562419,45.4960218447983 15.0183233434368,45.4962060655643 15.0181976675758,45.4965135623779 15.0181780971245,45.496929923325 15.0182429616684,45.4973046080109 15.0183924158905,45.4977150028485 15.018474292914,45.4980659287343 15.0183996312222,45.4982612068891 15.0182934600843,45.4983577771783 15.0180809747965,45.4985072750569 15.0179216956756,45.498586666375 15.0177888877329,45.4986178217271 15.0176449407067,45.4986272024277 15.0173682960609,45.4986116775289 15.0170938098471,45.4985400913724 15.0165326697178,45.4983488671827 15.0158287028436,45.4980386107747 15.0156495594859,45.4980116401432 15.0154960342648,45.4980836485783 15.0152658113511,45.4984346186527 15.0149844044138,45.4987900941856 15.0149716541337,45.4989610661577 15.01565031563,45.5002792460197 15.0158936699072,45.501102569129 15.0162264541694,45.5013994706341 15.0164824211162,45.5015479081276 15.0172760313576,45.5019302242344 15.0176088123334,45.5021776302959 15.0178264384429,45.5024565479151 15.0178904604461,45.5025825159414 15.0178264923997,45.5026275180968 15.0187478852524,45.5027713454844 15.0194262880956,45.5033201363746 15.0206040773261,45.5043413416844 15.0222171596785,45.5060687372952 15.0236127961154,45.5075262020697 15.0248418119545,45.5085472623471 15.0252386302156,45.5087406414225 15.0255714108243,45.508821553203 15.0258019887128,45.509014967405 15.0260196629816,45.5092533761774 15.0261349174975,45.5094108222222 15.0259692118498,45.5108641046897 15.0254571023881,45.5104727887718 15.0245226465272,45.5103426061121 15.023972470697,45.5106891620062 15.0231664832629,45.5114316977566 15.0228467348981,45.5119581695248 15.0221691983797,45.5139650394593 15.0214524512066,45.515308459243 15.0205566677085,45.5175326707495 15.0188387055438,45.5195467202088 15.017928143261,45.5209154338684 15.0173674633175,45.5212877843659 15.0172844695612,45.5215579289573 15.0166198469972,45.5219669149128 15.0162686906791,45.5223098045052 15.0159828386532,45.5227355591354 15.0159071149562,45.5229425328808 15.015881938433,45.5230902900899 15.0154783442329,45.5236461765401 15.015234432691,45.5239418066848 15.0151083937854,45.524142847614 15.0151167748314,45.5243675364709 15.014948616269,45.5245626438333 15.0149571137874,45.5247459400489 15.0148814851477,45.5248524009491 15.0147889922845,45.5250888907965 15.0210145789348,45.526292710197 15.0214347900119,45.5254268066343 15.0225370238734,45.5257816711421 15.0239233354982,45.5258161230266 15.0240774372148,45.5260436600355 15.0240126044614,45.5262133833882 15.024058857951,45.5263047973344 15.0237350806231,45.5265637488411 15.0244122692273,45.5267876661118 15.0247823793086,45.5268015339263 15.0251992590059,45.5269102332918 15.0253007685707,45.5268878948407 15.025626338048,45.5272042957254 15.0258463478859,45.5273591984668 15.0261196902564,45.5276752497886 15.0262273143917,45.527860681971 15.0267151869825,45.5283624991446 15.0268481312442,45.5284811567418 15.0273080240779,45.5288148879881 15.0275993357765,45.5289317970394 15.0276651355919,45.5289223328141 15.0278842124857,45.5287188259614 15.0281524209938,45.5287163306119 15.0284887867479,45.5288101904076 15.0287729849603,45.5290319294745 15.0289612798062,45.5292246273843 15.0293366654111,45.5295028517573 15.0295315234024,45.5297534966446 15.0296117268249,45.5301100819882 15.0296864448434,45.5302589859056 15.0299693304808,45.5306383740166 15.0304133646639,45.5306990857537 15.0315600724822,45.5310833657271 15.0318396806082,45.5310701504922 15.03218030288,45.5311839746093 15.0322378495285,45.5312915790762 15.0325911880266,45.5314731562161 15.0327563827378,45.5315351978243 15.0328684676362,45.5316356775908 15.0330495549825,45.5317251592734 15.0333698130202,45.5318157698879 15.033667044192,45.5321506025451 15.0339541214042,45.5324140802446 15.034114163941,45.5328415457613 15.0343900766767,45.5330539148528 15.0348996970277,45.5333363994914 15.0350462980983,45.5335455669949 15.03468951825,45.5340480555422 15.0343388252511,45.5346745387822 15.0339069733037,45.5351301657706 15.0333130166196,45.535585838478 15.0326110794098,45.535984579204 15.0323140393907,45.5362313991396 15.0319633591978,45.5367249688159 15.0315581808931,45.5368578975115 15.0311800722855,45.5368580013418 15.0308287487882,45.5366682309418 15.030261381135,45.5364024806017 15.0298833057448,45.5364595398602 15.0294782425626,45.5365734745786 15.0295053585782,45.5367632433506 15.0294784310039,45.5369341294778 15.0292624825623,45.5370480144634 15.0288031839049,45.5370290546371 15.028614289342,45.5372189678502 15.0288306199657,45.5375985549364 15.0289932015454,45.5385286757981 15.0289666627553,45.5392120190213 15.0287236647698,45.5395347620289 15.0282916351015,45.5398005917787 15.0282918392826,45.5399523942638 15.0288171220347,45.5402515488027 15.0289945796248,45.5407116805939 15.028913747161,45.5411483020104 15.0278068591811,45.5421734010765 15.02759791762,45.5427848008596 15.0275598913679,45.5433218325809 15.0277519279783,45.5432228040564 15.0280464269502,45.5431597435645 15.0297367395466,45.5430962375079 15.0304419030315,45.5430165961878 15.0307028777985,45.5430096875846 15.0311965471894,45.5430328596046 15.0315167229176,45.5430957602872 15.0320034085456,45.5432216021117 15.0326824036398,45.5435093575972 15.0328745472698,45.5436082844914 15.0330760157882,45.5438846561348 15.0331212189649,45.5441004238421 15.0329904200806,45.5446700581875 15.0329649185377,45.5448590311991 15.0330992504682,45.5450714437286 15.0332348088268,45.5451901827712 15.0333206727116,45.5452966983822 15.0334653161238,45.5454013970495 15.0336278414086,45.5454267247061 15.0337904682693,45.545407600187 15.0344541012109,45.5450171429298 15.034783649245,45.5448869267169 15.0349191234072,45.5448646594264 15.0350907260351,45.5448673963351 15.0352487705877,45.5448962324261 15.0353978668226,45.5449501765072 15.0355650439002,45.5450421778445 15.0357454379801,45.5451754772899 15.0359174110608,45.5453562004704 15.036039660476,45.5456798330878 15.036125531267,45.5457876963336 15.0362655423036,45.5458479410003 15.0364146297099,45.5458828072196 15.0366879151115,45.5458821798757 15.0370558666092,45.5459238135128 15.0371778262592,45.5459903617677 15.037453569383,45.5462187401092 15.0382531813213,45.5467610763476 15.0384836952864,45.5469451053897 15.0389851416366,45.5472336927525 15.0393062789506,45.5480783487154 15.039549916716,45.5485191841999 15.0396140679808,45.5486856315987 15.0403703967524,45.5496931828334 15.04035788585,45.5501071116374 15.0400893019872,45.5506247016294 15.0402176000432,45.5509395989496 15.0407429120597,45.5512272701544 15.0408967201144,45.5512137176628 15.0413067077074,45.551416033113 15.0414220481289,45.551514973239 15.0417169718483,45.5519881792981 15.0416658196927,45.5520943785294 15.04161503459,45.5526981864748 15.0416279546736,45.5528502539097 15.0418842887861,45.5530886165223 15.0419227666873,45.5531614890515 15.0418077295927,45.553477373322 15.0418591533481,45.5537356971276 15.0417953165338,45.5540101701726 15.0418338463572,45.5541523299921 15.0424877187992,45.5550240286617 15.0425391042463,45.5552255725312 15.0425264709651,45.5554577346018 15.0422962666666,45.5559212349388 15.0422836052375,45.5561174035793 15.0423863344193,45.5564638018317 15.0425020167472,45.5570000602332 15.042950709725,45.5575055993762 15.0433223353507,45.5577232189707 15.0436811046411,45.5578760541914 15.044206549847,45.5582285871213 15.0446037455868,45.5583732160624 15.0450265193054,45.5584648333022 15.0452314544627,45.5584512548285 15.0453721404294,45.558184848089 15.04560244949,45.5578707142012 15.045743298722,45.5578094691514 15.0458713796876,45.5577986197799 15.045909870357,45.557876889907 15.0458587968907,45.5580766736447 15.0458463859381,45.5585661884772 15.0458723974228,45.5590493890047 15.0457961953923,45.5598538712696 15.0455019152899,45.5602715118452 15.0453483507885,45.5604579285224 15.0449388101675,45.5609170056582 15.0448236017412,45.5610160326467 15.0446955689142,45.5610970678587 15.0443882631188,45.5612591577705 15.0442475182219,45.5614661741472 15.0441194976302,45.5615652053779 15.0439786386555,45.5616282480563 15.0434535599403,45.561790419069 15.0431462605678,45.5619705022916 15.0430054338172,45.5620785354379 15.0428517760345,45.5621595782122 15.042736575115,45.5622766897279 15.0425829232033,45.562366730472 15.042493354877,45.5625017388696 15.0423782877503,45.5627987267018 15.0423527621877,45.5629247128674 15.0421992291576,45.5631767230762 15.0420583774362,45.5632577600363 15.0417253918084,45.5633658621656 15.041494840637,45.563410937817 15.0412130283223,45.5634290365036 15.04111059224,45.5634920617565 15.0410594167195,45.5635820635076 15.0411235272441,45.5636630254567 15.0412260096929,45.5636629885184 15.0416999444159,45.5635998281591 15.0418793352991,45.5636627508758 15.0420714966041,45.5636716786018 15.0423916663227,45.5635545818914 15.0426478447134,45.5635184932012 15.0430065186251,45.5635003620652 15.0431602142899,45.5634643107613 15.043787714265,45.563203030263 15.0440951450122,45.5631849153383 15.0447484650525,45.563184661289 15.0453762710609,45.5631574186352 15.0457861971546,45.5631572550713 15.0461448456505,45.5631121190849 15.0465418869305,45.5630219746598 15.0467339124174,45.5628688345763 15.0468490390022,45.5626708240323 15.0470026474062,45.562535785892 15.047169117802,45.5624637305864 15.0476814125352,45.5623375411972 15.0479374825155,45.5621844623058 15.048629174253,45.5621301799331 15.0490646579423,45.5620670053639 15.0492695462274,45.5619859321474 15.0495641032582,45.5619048196924 15.0499483365403,45.561832575656 15.0503710306965,45.5617963967069 15.0506656175014,45.5617512747457 15.050921823028,45.5617601591645 15.0511397459586,45.5619310302239 15.0513064222222,45.5620929255533 15.05139619031,45.5622008652425 15.0514603469638,45.5623178147359 15.051614182299,45.5624437220438 15.0517551339071,45.5624886499537 15.0519858224632,45.5626055235768 15.0522805040053,45.5626593791114 15.0525623340668,45.5626682481195 15.0527290521035,45.5627311596392 15.052818874524,45.5628930881874 15.0527934312528,45.5630820649938 15.0528831362255,45.5631180168434 15.0530369515219,45.5632169272217 15.0532548014795,45.5632978108874 15.0534085070772,45.5632797424593 15.05354935962,45.5632166881746 15.0537157979225,45.5631176283466 15.0540743361177,45.5629643975082 15.0545482766447,45.5629281788406 15.0547276272933,45.5629370913947 15.0548173332674,45.5629730417259 15.0549199021154,45.5630629758156 15.0549968860347,45.5631889154729 15.0550866541401,45.5632878539065 15.0551763873268,45.5633507989452 15.0555224408778,45.5635305979719 15.0562531203746,45.5640251488853 15.0563556619389,45.5640835875147 15.0565222332172,45.5641194985544 15.0567528024202,45.5641013875725 15.0568552221049,45.5640383483079 15.0569063682673,45.5639438403351 15.0569062319951,45.5638088653916 15.0569317390569,45.563696373504 15.0570213475096,45.5636333404699 15.0571494276636,45.5636107806303 15.0573159614483,45.5636106971965 15.057418407111,45.5635746524122 15.0575079918738,45.5634891231702 15.0575333872815,45.5632685611951 15.0575973142164,45.5631470514569 15.0576996989835,45.5630525172683 15.0580710732259,45.5629353507256 15.0581862437078,45.5628183137578 15.0583269454233,45.5626157794464 15.0584933642116,45.5625077143207 15.0586726579417,45.5624626306932 15.0590185193252,45.562453454196 15.0591721546427,45.5623723896915 15.0594281556018,45.562183291732 15.0596074094893,45.562102213308 15.0598635415491,45.5620390910148 15.0601965373531,45.5619804268378 15.0603246971458,45.5619172808889 15.0604654564953,45.5617777322431 15.060695908265,45.5616606316444 15.0609264466094,45.5616245155717 15.0611698481945,45.5616378830036 15.0613364104079,45.561669287875 15.0617080536362,45.5618130611251 15.0624124875197,45.5617136967203 15.0627711385131,45.5616910043658 15.0629119866449,45.5616369368593 15.0631423974731,45.5614883371622 15.0633985126569,45.5614162086075 15.063731480643,45.5613394474755 15.0640388589794,45.561289784718 15.0645383778822,45.5612355135744 15.0647944435837,45.5611228893918 15.0648968902966,45.5610958362228 15.0654861059482,45.5610685049575 15.0659600915898,45.5610907281071 15.0660751997283,45.5609376898286 15.0662415616899,45.5607981192296 15.0663696317012,45.5607755490468 15.0665745860143,45.5607754297873 15.0668948643932,45.5608066468893 15.0671639421232,45.5608694773771 15.0673818032446,45.5609503341294 15.0675484908776,45.5610852107673 15.0677150928332,45.5611481005025 15.0679200430742,45.5611434796622 15.0686373625287,45.5610170741819 15.0688935949966,45.5610484141256 15.0692523607262,45.561124683075 15.06962404275,45.5612864272391 15.0700085925802,45.5614931539939 15.0703805488434,45.5618708556175 15.0705473420964,45.5620822136576 15.0707524536196,45.5622035643532 15.0709192266098,45.5623969251777 15.0709066769429,45.5626038947031 15.0708300743937,45.5628091042853 15.0707789492223,45.5629009189977 15.070923445769,45.5631031119609 15.0715520825043,45.5633373065409 15.0721617473989,45.5639578081299 15.0726332185294,45.5640954537929 15.0731047307821,45.5641642602282 15.0738317349688,45.564467306461 15.0742833599666,45.5644119438805 15.0751666030878,45.5640941748705 15.0754014850904,45.5635698671102 15.0755579104016,45.5631007705344 15.0767553013707,45.5627415685735 15.0770494847636,45.5625068738932 15.0775591675483,45.5619272160657 15.0786193214358,45.5617473344711 15.0796023580296,45.5624778585592 15.07991650993,45.5624225694002 15.0805245818105,45.5620497912161 15.0809762996273,45.5620770968037 15.0815273076694,45.5628216771659 15.0820774865722,45.5629868525702 15.0826464121409,45.5626554835943 15.083431905198,45.5626412351425 15.0840204027726,45.562213292854 15.0851783943606,45.5618539415347 15.0860212413955,45.560901555744 15.0859010040422,45.560343029315 15.0849126511299,45.557643185868 15.0864957351638,45.5573267861744 15.0871830246438,45.5563105304883 15.0870902716475,45.5558839896308 15.0886534295179,45.5548271910579 15.0920907521341,45.5515865951044 15.0939241472084,45.5457376992301 15.0983122282042,45.5395796633738 15.0986799209564,45.5385192479539 15.0994292328264,45.5360415251773 15.1004848635996,45.5328433867903 15.1009808512341,45.5312623831666 15.1014584781523,45.5303793981994</coordinates></LinearRing></outerBoundaryIs></Polygon></MultiGeometry>
  </Placemark>
</Folder>
</Document></kml>
