<?xml version="1.0" encoding="utf-8" ?>
<kml xmlns="http://www.opengis.net/kml/2.2">
<Document id="root_doc">
<Schema name="pregledovalniklovisca" id="pregledovalniklovisca">
	<SimpleField name="lov" type="string"></SimpleField>
	<SimpleField name="lov_naziv" type="string"></SimpleField>
	<SimpleField name="luo" type="string"></SimpleField>
	<SimpleField name="luo_naziv" type="string"></SimpleField>
	<SimpleField name="povrsina" type="float"></SimpleField>
</Schema>
<Folder><name>pregledovalniklovisca</name>
  <Placemark id="pregledovalniklovisca.1">
	<Style><LineStyle><color>ff0000ff</color></LineStyle><PolyStyle><fill>0</fill></PolyStyle></Style>
	<ExtendedData><SchemaData schemaUrl="#pregledovalniklovisca">
		<SimpleData name="lov">0309</SimpleData>
		<SimpleData name="lov_naziv">SODRAŽICA</SimpleData>
		<SimpleData name="luo">03</SimpleData>
		<SimpleData name="luo_naziv">Kočevsko Belokranjsko</SimpleData>
		<SimpleData name="povrsina">5224.06</SimpleData>
	</SchemaData></ExtendedData>
      <MultiGeometry><Polygon><outerBoundaryIs><LinearRing><coordinates>14.5745138892408,45.737876064573 14.573761440401,45.7381562490378 14.5731811482074,45.7385582757183 14.5725709838071,45.7391017272043 14.5715298698708,45.73940106227 14.5704034016596,45.7395181261131 14.5695655419684,45.7396363564954 14.5689601783459,45.7395331159895 14.5681781163756,45.7399142001186 14.5672806762108,45.7402745963089 14.5668439997359,45.7407580270672 14.5661510507238,45.7407958891207 14.5658867743358,45.7414011745612 14.5650444837633,45.742085152859 14.5645923557064,45.7420214387419 14.5638236559929,45.7422078937709 14.5630549562791,45.7418987706201 14.5625674881681,45.7414211801652 14.5621081432172,45.7413475785332 14.5618315988082,45.7413443073473 14.5611378941884,45.7422275205798 14.560451220359,45.7427811573059 14.5598840699605,45.7429995029246 14.5595512792308,45.7432276609172 14.5590356879595,45.7439194891299 14.559272391225,45.7439407508541 14.5596051819546,45.7439391153371 14.5597575157393,45.7441043023078 14.5600832756789,45.7442253300751 14.5604535639557,45.7445409823416 14.5608519753926,45.7449318653174 14.5615597415924,45.7457953962479 14.5619628402227,45.7462688606621 14.5617659781008,45.7468976871556 14.560683236431,45.7473294390861 14.5600475358295,45.7475455182254 14.5593819543701,45.7478954951514 14.5591128313504,45.7481988612255 14.5590351020603,45.7483460463279 14.5590808021957,45.748489142583 14.5592085282152,45.7487696101789 14.5595958075679,45.7490114408011 14.5602238914802,45.749377762115 14.56057074379,45.7496459601238 14.5605471125235,45.7500430080111 14.5606951497143,45.7501781958011 14.560787331184,45.7504823671315 14.5609810685102,45.7507527402559 14.5610685627865,45.7510427357802 14.5606748385429,45.7519497797234 14.560479538819,45.7523008192161 14.5602373671612,45.7526082495048 14.5599373867851,45.7526954634627 14.5593562975866,45.7526106911618 14.5600172255781,45.7530356963091 14.5608534280311,45.7542221557018 14.5614481441472,45.7554076820597 14.5617742935564,45.756190772908 14.562828339642,45.756553742522 14.5638823987491,45.756916792416 14.5643639764676,45.7571086681152 14.5648435507672,45.7575752441326 14.5656250815903,45.7580429664788 14.5661320977906,45.7588689327607 14.5664586953678,45.7595885753319 14.5665751126343,45.760159492144 14.5666401257682,45.7606122496585 14.5669724121139,45.7608645545193 14.5673167046181,45.7612104833643 14.5675980010212,45.761407705298 14.5676490045093,45.7614618864782 14.5678168322856,45.7620031229158 14.5678924070397,45.7623882543616 14.567792091877,45.7626765316092 14.5675544340848,45.7629368450301 14.5671403292281,45.7631552786511 14.5667061265266,45.7634286124791 14.5665271267853,45.7637165901402 14.5663475078042,45.764100844011 14.5661087720773,45.7644985500854 14.565516387616,45.7649087683025 14.5647075636608,45.7653594599509 14.5633846707243,45.7662618627447 14.5628136356761,45.7664522368037 14.5623987335228,45.7667669288731 14.5617683772486,45.767012048374 14.5607839022841,45.7673108715265 14.5600541199901,45.7677068559854 14.559324002872,45.7681440453867 14.5589110177433,45.7685213582959 14.5589227238708,45.7689283837813 14.5592330045543,45.7693155960659 14.5596474777533,45.7697136467929 14.5599729638251,45.7700487271307 14.5600896526444,45.7703830927777 14.5600246268983,45.7710819880436 14.5597807046082,45.7717698463412 14.5598511743083,45.7722918225366 14.5601910171097,45.7727000212493 14.5606953407898,45.7730565730155 14.5608534944721,45.7735646687216 14.5612831707711,45.773882329448 14.5617528431587,45.7741177202038 14.5622622751998,45.7742844265924 14.5626533919593,45.7745195126405 14.5631621861449,45.7747687242872 14.5635736267995,45.7749213731448 14.5636120941301,45.7750177087638 14.5634930258747,45.7751821873959 14.5631385639877,45.7752908782748 14.5628822314925,45.7754136204822 14.5626246078138,45.7757013805942 14.5621313936283,45.775974470548 14.5619929681111,45.7760976625431 14.562030163184,45.7763726941711 14.5619477232666,45.7768671783812 14.5618283226829,45.7770729547889 14.5619457857851,45.7771146160515 14.5624970653864,45.7769653818761 14.5630690058052,45.7768705719913 14.5634259311978,45.776826496437 14.5637731868513,45.7771484216342 14.5642076100674,45.7773905960348 14.5645869401097,45.7776073644286 14.5649010704847,45.7778579857159 14.5652241866232,45.7779951755187 14.5650611974828,45.778102351251 14.5644935464497,45.7781570563522 14.5637876925051,45.7782565810112 14.5633246459178,45.7784023794704 14.5627967437142,45.7785535066597 14.5620905704992,45.7786927907709 14.5621209398064,45.7788051122324 14.5615173474228,45.7787025597011 14.5612906918354,45.7787608964894 14.5609953294525,45.7788566704824 14.5605354721636,45.778971426777 14.560232429087,45.7790951530334 14.5614045210984,45.7797092728063 14.5619928699085,45.7799533959829 14.562922821513,45.7807683066854 14.5634103399873,45.7808839052742 14.5641837171012,45.7808866778532 14.5651595558242,45.7810324742405 14.5661164980564,45.7809789748781 14.5667844080882,45.7814654215277 14.5666201699343,45.7816498874717 14.5667209167006,45.7817926178573 14.5671070608716,45.7818651656795 14.5681655171975,45.7818404673935 14.5684098355063,45.7818270837159 14.5684296237863,45.7819125494406 14.5681634478931,45.7821251561514 14.5674671625944,45.7826779686449 14.5672211875887,45.7829049564147 14.5671175912897,45.7831466100082 14.5663426367121,45.7833432468469 14.565261065514,45.783723800907 14.5644621190611,45.784390118859 14.5638062035109,45.7849858031702 14.5630915215538,45.7852822557394 14.561990668522,45.7855061399629 14.5615774711768,45.7854861993182 14.5616808585835,45.7857835296521 14.5619015355279,45.7859173662921 14.5628538690058,45.7862342338537 14.5637780934145,45.7864627158769 14.5644834864852,45.7867164506713 14.5649449261358,45.7869179639387 14.5655870874662,45.7870346817046 14.5657408745743,45.7871054506076 14.5659885065183,45.787281312385 14.5664197882271,45.7874589504291 14.566560876834,45.7875089746647 14.5670350593576,45.7877276239739 14.5675249698065,45.7878255778626 14.5680985170309,45.7878024629949 14.5687089445857,45.7876167108899 14.5693904582588,45.7875188638375 14.5702846012109,45.787734942533 14.5711428676053,45.787950969548 14.5716441680679,45.7879903716307 14.5722702290515,45.7881303862087 14.5728239525266,45.7883453500864 14.5735932633949,45.7884732957017 14.574397540586,45.7887392155129 14.5745920989279,45.7890657570768 14.5752000782898,45.7892181954453 14.5758715138884,45.7893479212831 14.5762567673945,45.7894276331548 14.5767039654972,45.7893611760378 14.5770823124019,45.7890617744792 14.5774958154366,45.7888752464042 14.577818536616,45.7888387377493 14.5781386444077,45.7891656471166 14.5782747932383,45.7895997625487 14.5785051697568,45.7897508789476 14.5787230925501,45.7898479610643 14.5789155637267,45.789908957037 14.5791340641519,45.7899294676633 14.5793916296826,45.7898863259871 14.5797139901114,45.7897786366115 14.5798168901631,45.7897781152718 14.5799839025294,45.7898039236853 14.5800482514108,45.7897987614247 14.580228713251,45.7897463364611 14.5803705489865,45.7896820719813 14.5804993948884,45.7896519519692 14.5810726057084,45.7897270287173 14.5814474028133,45.7899162801708 14.5819299142908,45.7900808201925 14.5825027889817,45.7901328536942 14.5832373247606,45.7901353553406 14.5837932556601,45.7900620686536 14.584265627262,45.789965350443 14.5850663995457,45.7899159829968 14.5860289483206,45.7898007010937 14.5865185702718,45.7896837006226 14.5872375012788,45.7894471336521 14.5875785032045,45.7893730519017 14.5883301691528,45.7894758201726 14.5888305749795,45.789640395533 14.5893494500096,45.7897424091178 14.5901545194686,45.7898953860829 14.5908511013804,45.7899341444636 14.5911724995446,45.7899550904664 14.5915200289164,45.7899203414979 14.5918035974479,45.7898376736791 14.5920488229917,45.7897215757258 14.5926119901508,45.7894649830517 14.5931333861515,45.7892035599033 14.5933790060861,45.7889793947034 14.5935208161388,45.7889340095681 14.5936370206955,45.7888723368219 14.5939861031883,45.7886225340496 14.5943619169131,45.7882333563393 14.5945557110064,45.7881134711788 14.5952402831798,45.7876942527219 14.5960153706772,45.7872242416431 14.5964960988294,45.7869791255723 14.5975997470906,45.7868878190761 14.598241229127,45.786965299644 14.5989525886443,45.7868222113032 14.5994578097328,45.7866567109323 14.5998056751514,45.7865354672652 14.6006540415191,45.78690852276 14.6012040866238,45.7871839826966 14.6021170715728,45.788184862275 14.6033066551713,45.7890900566902 14.6045369963566,45.7886024019016 14.6056253845896,45.7879601984488 14.6065329228128,45.787554638805 14.6078516789722,45.7872884231399 14.6087091021717,45.7870748711477 14.6094198127623,45.7868000748774 14.6100747800243,45.7861630949194 14.6104374186862,45.785634350404 14.6110765399587,45.7854969688879 14.6114170991093,45.785274977482 14.6114586143095,45.7850380216463 14.6108484470614,45.7847857110188 14.6103096200091,45.7845949167701 14.6103882372796,45.7843864314993 14.6111477557385,45.7842810429862 14.6122408064936,45.7842973548965 14.6131033780435,45.7841671086939 14.6131559959475,45.7839972248257 14.6129392125383,45.7837301501146 14.6128637632826,45.7834824497265 14.6132105673533,45.7835448106064 14.613339474954,45.7835011567548 14.6137122301794,45.7835303113603 14.6139690134593,45.7835923655567 14.6142003001288,45.7836219403174 14.6148044870095,45.7836598807796 14.6151512943814,45.7837222357773 14.6154978427385,45.7838223804133 14.6158827509978,45.7839550457303 14.6164090700639,45.7840962827745 14.6167816582988,45.7841506211756 14.6173087941639,45.7841730833334 14.6176169831561,45.7842416000806 14.6181425905944,45.7844881032353 14.6184248403217,45.7845889238698 14.6191822331003,45.7847939055053 14.6194904522699,45.7848399223173 14.6196703658928,45.7848603169108 14.6199276022147,45.7848575736827 14.6203260423832,45.7848939905296 14.6204930165155,45.7849260382157 14.6206601800268,45.7849301925193 14.6209432110351,45.7849167350532 14.6213295836533,45.784836134502 14.6215997534479,45.7848226327846 14.6217155048188,45.7848221162716 14.6222293698043,45.784906507933 14.62261533982,45.7848852884333 14.6228471097878,45.7848446629608 14.6229760311355,45.784798298896 14.6233509210348,45.7845124994497 14.6236477543599,45.7843587121358 14.6238798178983,45.7842739953796 14.6247161707572,45.784213759525 14.6249737960899,45.7841525192757 14.6254626132619,45.7841361266763 14.6255527326897,45.7841220252662 14.6257976046361,45.7840445449794 14.625990516872,45.7840442768156 14.6262988121298,45.7840983737075 14.6264659556253,45.7841052188495 14.6265434065836,45.7840622816715 14.6268796322828,45.7837853422234 14.6271637210756,45.7835928127762 14.6273059639404,45.7834763029518 14.6277964038216,45.7832150703054 14.6279638381364,45.7831778240445 14.6282598145292,45.783149993815 14.6286970677374,45.7831505157858 14.6292365644806,45.7832476464184 14.6298276172944,45.7833278453596 14.6301747787596,45.7833388673515 14.6303291791736,45.7833276696131 14.630960044169,45.7832217330683 14.6317516611386,45.7830965156643 14.6327503048876,45.7828180927196 14.6328663650938,45.782769876543 14.6330083991997,45.7826830523097 14.6334305967805,45.7824881613845 14.6339904411216,45.7822668059074 14.6344505794296,45.7820310918606 14.6348726689205,45.7815163165481 14.6352347171104,45.781057225517 14.635615110161,45.7808212521206 14.6361741656263,45.7806975116208 14.6366935729511,45.7805596954273 14.6371325767976,45.7805053029105 14.6378839121106,45.7804760136297 14.6390405514759,45.7805921484411 14.6392074366188,45.7806376655146 14.6399397770582,45.7807424628477 14.6405299575439,45.7809566738418 14.6409152179222,45.7810406668232 14.641069211545,45.7810915394547 14.6412234766953,45.7811001221549 14.6415702577933,45.7811686955007 14.6417363572074,45.7813374789364 14.6421064018065,45.7817903379409 14.6427329459724,45.7823546733439 14.6430263520198,45.7827479028756 14.643128567206,45.7828525988866 14.6432439012215,45.7829168448029 14.6433466392282,45.7829396605219 14.6434494690914,45.7829480796481 14.6435782487128,45.7829205876655 14.6436686483103,45.7828614828782 14.6438508391394,45.7825246262097 14.6439412836296,45.7824583229486 14.6441217368803,45.7823940995978 14.6443020008945,45.7823595687486 14.6449322148593,45.7823300359571 14.6456521470531,45.7823889582962 14.6465910453615,45.782373870246 14.6470665439828,45.7824266285651 14.6477091622883,45.782489798096 14.6479020975978,45.7824849940117 14.6482628533823,45.7823790290329 14.6484300568314,45.7823759444388 14.6488934553214,45.7822873894364 14.64931803477,45.7822571103906 14.6497680008614,45.7822800857243 14.6502439012307,45.7822689463034 14.6507072279455,45.7822118766992 14.6514025218824,45.7820772306341 14.6514928221814,45.7820325161352 14.6517641927637,45.7818227904952 14.6519190887764,45.7817305831476 14.6521516976248,45.7815495320653 14.6523716799905,45.781330650513 14.6524750114259,45.7812580810961 14.6528618555763,45.7810900947602 14.6530694758839,45.7807901923334 14.6533276904696,45.7806263127651 14.6534708859263,45.7803460096853 14.6535097155395,45.7803056364624 14.6537571444182,45.7798060979377 14.6542853277432,45.7796340359641 14.6546852368092,45.7794300909509 14.6549829507684,45.779115160615 14.6550738648029,45.7789696675414 14.6551663147328,45.7785749344735 14.6551557690122,45.7781995961148 14.6551060688719,45.7779178087234 14.6551067900145,45.7778008369047 14.6551979844041,45.7776094547454 14.6553790853824,45.7774354399166 14.6554053131528,45.7773527374175 14.6553679159437,45.777140271809 14.6551769074495,45.7768355630817 14.6550499283704,45.7765742377529 14.6550132330926,45.7762690946967 14.6550281667825,45.7759326144952 14.6551587880818,45.77560278209 14.6554182582309,45.7752301477579 14.6555355020148,45.7749839559763 14.6558732620919,45.7744252978722 14.6558886106325,45.7740204338571 14.6558636414615,45.7738988855761 14.6556218957366,45.7734824493096 14.6555205039118,45.7732221012687 14.655508205472,45.7731311843179 14.6555608890812,45.7729279881856 14.6556384296674,45.7728643360596 14.6557543444025,45.7728331923315 14.6560503577246,45.7727881939678 14.6563465197853,45.7727189006635 14.6564239597388,45.7726714441136 14.6565279437319,45.772489097189 14.6566443872597,45.7723715732669 14.6570183382458,45.7721972352556 14.6571344879189,45.7721273993922 14.6572639855228,45.7719775211718 14.6572907810449,45.7718012405702 14.6572784690041,45.7717121233489 14.6572920816228,45.7715888914513 14.6573313101305,45.7714819327944 14.6574741093826,45.7712592103309 14.6577328283542,45.7710035423488 14.6580554965694,45.7708029530383 14.6581844279972,45.7707448517572 14.6584554275195,45.7705827981705 14.6587656504102,45.7703137847506 14.6588953313998,45.7701324121416 14.6589348519544,45.7699768645148 14.6588218360029,45.7695338248909 14.6587583898735,45.7693959658233 14.6587465094797,45.7692357657085 14.658772947828,45.7691170708944 14.6590579075798,45.7687723978462 14.6592396362668,45.7684886027341 14.6592529259753,45.7684175580551 14.6596589470549,45.7683974429131 14.6601366326041,45.7685383340375 14.6606143606175,45.7686514194237 14.6610380690823,45.7687467964376 14.6617322735877,45.7687605512206 14.6620159525598,45.768624620914 14.6621065866569,45.7685196122183 14.6621330284007,45.7683991170201 14.6621849664489,45.7683146892575 14.6630764283542,45.7675965804957 14.6632189462393,45.7674151507689 14.6634127767384,45.7672312626067 14.6634905169085,45.7671316136132 14.6636204780444,45.7668998474749 14.6637240547406,45.7667795789397 14.6638272472443,45.7667231950988 14.664007448735,45.7666886328902 14.6642007278294,45.7666172169627 14.6643816464117,45.7664629826408 14.6644977857841,45.7663913395911 14.6653850288463,45.7663687469922 14.6656937223692,45.7663462557782 14.665873975228,45.7663026927565 14.6660158680743,45.766223925057 14.6664047344178,45.7656923784189 14.6665727984451,45.7655363034676 14.666779237221,45.7654127330571 14.6671272908684,45.765256282266 14.667307474925,45.7652235143978 14.6674749095521,45.7651727131021 14.6677449845436,45.7651573023582 14.6681434819632,45.7651656589 14.6684644376056,45.7652421740233 14.6687338203282,45.7653437331826 14.6688494141116,45.7653629641076 14.6689779705969,45.7653642364337 14.6691067186,45.7653331163012 14.6693474817101,45.7650782695641 14.6698079883578,45.764730838075 14.6701282618293,45.764508612291 14.6705087698315,45.764230771592 14.6713138806525,45.7638485151054 14.6715841541519,45.7637980035715 14.6716998776859,45.7637947369376 14.6718540473457,45.7638122760601 14.6727610456259,45.7637015922837 14.6734509220906,45.7633451748518 14.6742835328107,45.7632243685302 14.6755946812623,45.7633175391095 14.6762818794354,45.7634202660362 14.6766828570013,45.7632421608082 14.6769574046748,45.76278385827 14.6771680566984,45.7623029694371 14.6772348534009,45.7618216738855 14.6769657415456,45.7613170239565 14.677140668495,45.7609443702724 14.6777169061202,45.760688473621 14.6784085248635,45.760352456511 14.6788924322791,45.7601445234155 14.6796059423864,45.7600016582169 14.6806194697124,45.759704231658 14.6809841864739,45.7590018747048 14.6829843932273,45.7577799307997 14.6835811208277,45.7580048260679 14.6845284391414,45.7572423430708 14.6849634110101,45.7567671874388 14.6847473883427,45.7562086235894 14.6840924772292,45.7557047244171 14.6833969135562,45.7553679822664 14.6826112111121,45.7551063890331 14.6818934518467,45.7549235324172 14.6809097836954,45.7546217847618 14.6802933077091,45.7543969101245 14.6799366350052,45.7540332006875 14.6796604561072,45.7535303362254 14.6793441664235,45.7530970033028 14.6785898876952,45.7525648994643 14.6778162632065,45.7519350173301 14.677439217994,45.7516549242627 14.6768430327424,45.7513743003144 14.6761874428083,45.7510098231103 14.6755517837929,45.7506453087389 14.6748162474896,45.7503503313972 14.6741601963663,45.7500694329995 14.6734457692953,45.7495513555186 14.6724738476533,45.7487814002354 14.6721985436597,45.7481668540178 14.6719633671168,45.747482687422 14.6703557248818,45.7464040533818 14.6700223387848,45.7455103945144 14.6696074282278,45.7449093853908 14.6693525057772,45.7442251559223 14.6691775957446,45.7434854595554 14.6687024569502,45.7429679544278 14.6681618523427,45.7424826501546 14.6678856062246,45.741693347867 14.6684842915663,45.7406580604776 14.6685411294013,45.7394137938272 14.66541086236,45.7385577722987 14.6646557825069,45.7368617632348 14.6639915847563,45.7349958625386 14.6638662021147,45.7344772050456 14.6638133590226,45.7340329049222 14.6636728112361,45.7327876083576 14.6637143290369,45.7320356717843 14.6636109467032,45.7307645696399 14.6635086013006,45.7282944764589 14.6633952653634,45.727313442048 14.6633077496581,45.7269109700271 14.6631707389097,45.7261934191803 14.66316070926,45.7257245895763 14.663021544624,45.7253660555425 14.6627701649351,45.7244412107175 14.6626816779278,45.7242016004702 14.6622604144003,45.7237558505774 14.6623392341874,45.7234672450213 14.6625622355764,45.7227021667618 14.6625023812678,45.7219749445385 14.6623010104922,45.7212823965361 14.6622383845196,45.7210159579616 14.6618170560386,45.7205855027421 14.6614717872306,45.7203244354253 14.6610104797783,45.7201341077339 14.6607947202308,45.7197006591891 14.6608870351012,45.7193050172033 14.6609543378767,45.718796824737 14.6609545337878,45.7187644321849 14.660930943569,45.7184170357895 14.6605862914542,45.7180569884944 14.6600472737876,45.7179753028868 14.6599332435314,45.7177149186128 14.6599234767722,45.7172073969979 14.6599002532601,45.7168007039346 14.6592222014961,45.7163487787005 14.6587368767731,45.7158902267596 14.6582110026206,45.7150681182304 14.6578038518425,45.7142001125817 14.6571613986061,45.713248796932 14.6569108385396,45.7120255625899 14.6559893326358,45.7114919034983 14.6554242328129,45.711485701515 14.6545480824606,45.7119329609019 14.6540226204851,45.711746909756 14.6539970438059,45.7117288360928 14.6529319504511,45.7115726377561 14.6527537528933,45.7113111512625 14.6527038262568,45.7110771387635 14.6524704367472,45.7114318542053 14.6524699911665,45.7115037477038 14.651878784586,45.7115650245313 14.6517636372728,45.7114926887839 14.6511649605482,45.7106900310936 14.6504734804793,45.7103549878132 14.6496784900329,45.7101635926879 14.648974350931,45.7098015071631 14.6486809537114,45.7094811725313 14.6484373816121,45.7094084384245 14.6482197225322,45.7092997911562 14.6478119859117,45.7087812337434 14.6471510733279,45.7097185969648 14.6436020594056,45.7144161987178 14.6392897847399,45.7138844648128 14.6387322953552,45.7146871335108 14.6378254197811,45.715885508479 14.6370452607467,45.7173461232136 14.6354101561745,45.7179212941932 14.6342259977628,45.7185012156085 14.6316032063041,45.7202358091053 14.6296644050784,45.7224055490287 14.6285151654289,45.7232953281196 14.6273401241335,45.7241958090632 14.6243020319531,45.7258697605265 14.623362018647,45.7260952168605 14.6223289701532,45.7262462137587 14.6213406700017,45.7261053618751 14.620814596155,45.7260064378302 14.6203409519724,45.7262852451208 14.6201332592811,45.7268274989951 14.6198438537249,45.7273693906012 14.6194676981443,45.7275928204323 14.6190562435407,45.7276409387179 14.6173936422912,45.7276183767169 14.6165401562166,45.7273382845258 14.6162444199896,45.7273732838911 14.6157805568393,45.727569682656 14.6153521624707,45.7277830253573 14.6151457895749,45.7281252471817 14.6080422229403,45.7318337701124 14.6035879320734,45.7330547373628 14.5936870750946,45.7358283435963 14.5903391577569,45.736805275958 14.5897727909795,45.7369382147907 14.5859202775806,45.7383452016672 14.5849540184436,45.7386818224151 14.5826168663035,45.7384672526714 14.579483090452,45.7382434071905 14.5786942780219,45.7371931264187 14.5777575880758,45.7371326207959 14.5771102631142,45.7373297137587 14.576476067817,45.7376081942281 14.5755823155386,45.7377990559098 14.5750258604402,45.7378390984129 14.5745138892408,45.737876064573</coordinates></LinearRing></outerBoundaryIs></Polygon></MultiGeometry>
  </Placemark>
</Folder>
</Document></kml>
