{"type":"FeatureCollection","features":[{"type":"Feature","geometry":{"type":"Polygon","coordinates":[[[15.2366204521726,45.7204045777051],[15.2381575732135,45.7208786424998],[15.2386697472775,45.7210286516136],[15.2391221012124,45.721158088043],[15.2398418384041,45.7216594824736],[15.2404810138017,45.7219748715332],[15.2408807559197,45.7222347939643],[15.2412537173954,45.7224202673943],[15.241439974366,45.7224757520517],[15.241679175094,45.722475246317],[15.2426383971805,45.7230320842648],[15.2435184264189,45.7237193751709],[15.2444279016591,45.7241131687645],[15.2449847670362,45.7247779241094],[15.2458897299682,45.725073996513],[15.2464485891102,45.7252218905892],[15.247034244207,45.7254441381188],[15.2476992374811,45.7255359184599],[15.2482575284421,45.7255534227273],[15.2487902548201,45.7258316543154],[15.2499074249811,45.725997030346],[15.2506032485186,45.7260567831545],[15.2514187866688,45.7259965039107],[15.2525936580694,45.7265621411985],[15.2529842406658,45.7269647508515],[15.2538122700782,45.7268234441696],[15.254395663861,45.7265657014304],[15.2553845419512,45.7264825125951],[15.2563254216513,45.7257650582866],[15.2576978247699,45.7258325160007],[15.2584466584134,45.7260752123878],[15.25964549686,45.7260858114009],[15.2596344161581,45.7256629268259],[15.2597104347601,45.725571693478],[15.259496886211,45.7254044385783],[15.2593808639817,45.7253135673817],[15.2590483944278,45.725163083902],[15.2581604040573,45.724761149998],[15.2579752463921,45.7247079752343],[15.2577746104929,45.7246503548785],[15.2577068212349,45.7246303311534],[15.2576657766019,45.7246182072819],[15.2575131722906,45.724538378429],[15.2575131722906,45.724538378429],[15.257514473016,45.7245360754691],[15.2575280820237,45.7245119804426],[15.2576312643631,45.724209052332],[15.2578322360201,45.7241337248403],[15.2580903929401,45.7240369625526],[15.2583580811359,45.7241951737026],[15.2587063632926,45.7241961654193],[15.259291296042,45.7241978285983],[15.25924413829,45.7238624870839],[15.2588559683072,45.7231249844578],[15.2586604369022,45.7228359072818],[15.2586214577904,45.7227782794564],[15.2585856446924,45.722728871051],[15.258505441616,45.7226644462962],[15.2583566694715,45.7223249095929],[15.2583126417632,45.7222244260848],[15.2582100925262,45.722141990675],[15.2579910602079,45.7219659178439],[15.2585213630091,45.7214927695077],[15.2581498083822,45.7212973149835],[15.2579601612212,45.7211975510112],[15.2578566009001,45.721243340203],[15.2577856783396,45.7212746985131],[15.2577856783396,45.7212746985131],[15.2577856783396,45.7212746985131],[15.2577874267252,45.7212045875617],[15.2577918605865,45.7210267872576],[15.2576199198639,45.7207956920467],[15.2575725054162,45.7207319647483],[15.2571766743357,45.7208910428206],[15.2571766743357,45.7208910428206],[15.2571766743357,45.7208910428206],[15.2571091148989,45.7207535241304],[15.2571091148989,45.7207535241304],[15.2571091148989,45.7207535241304],[15.2574680157466,45.7204692761277],[15.2574520478727,45.7202650554998],[15.2573206295928,45.7201244414878],[15.2573765654517,45.7197448660699],[15.2573291140722,45.7196387270358],[15.2572838941172,45.7195375788457],[15.2572680815161,45.7194159165259],[15.2572609904791,45.7193613578368],[15.2570470384429,45.719094236186],[15.2569377210701,45.7190041237052],[15.2567493052411,45.7188488078659],[15.2567493052411,45.7188488078659],[15.2567493052411,45.7188488078659],[15.2568567135559,45.7187760800512],[15.256914502485,45.7187369501624],[15.2570727011485,45.7186677589179],[15.2572334390653,45.7186761252834],[15.2573539826724,45.7186766006036],[15.2574513058706,45.7186769842696],[15.2576094234832,45.7185064739542],[15.2576517681086,45.7184455034271],[15.2576619996112,45.7184307714264],[15.2581491833285,45.7185033660523],[15.2581491833285,45.7185033660523],[15.2581491833285,45.7185033660523],[15.2582666183763,45.7185647375762],[15.2583677752021,45.7185776189424],[15.2586797206889,45.7186173416514],[15.2587937622278,45.7186579984698],[15.2588377256543,45.7186736717743],[15.2588894771187,45.7188369598544],[15.2592998066763,45.7190393861803],[15.2595041242989,45.7190772029179],[15.2596302262269,45.7191005426619],[15.2602053826367,45.7192221481201],[15.2602413458428,45.7192124990618],[15.2602686337024,45.7192051776205],[15.2605295460979,45.7192684099736],[15.2609314543839,45.7193658113594],[15.2612955245568,45.7195352231684],[15.2614988240827,45.7195199959737],[15.2615681474054,45.7195148035516],[15.2617172998282,45.7194898072174],[15.2618904180173,45.7194681993849],[15.2620139948894,45.7194527749057],[15.2623799343512,45.7191699349571],[15.2624325519317,45.719137106135],[15.2625734688216,45.7190491858672],[15.2627808047964,45.719001242439],[15.2628729644168,45.7189799317203],[15.2628471026893,45.7188340421852],[15.2633954544794,45.7179523160488],[15.2634406502779,45.7178988443053],[15.2634787441503,45.7178537748505],[15.2637946684086,45.7177487222389],[15.264521831974,45.7175069175932],[15.2649568720039,45.7172822169313],[15.265073062963,45.7172152715433],[15.2656742899476,45.7170391320797],[15.2659808762896,45.7170452873056],[15.2662968331621,45.7170516297979],[15.2667973958797,45.717128565445],[15.266950964869,45.7170908243307],[15.2670957006001,45.7170552538423],[15.2673971906352,45.7169497208278],[15.2673269448055,45.7166866100471],[15.2673247336321,45.7166783278979],[15.2673247336321,45.7166783278979],[15.2672944674392,45.7166444067695],[15.2672422117443,45.7165858405779],[15.2672422117443,45.7165858405779],[15.2672422117443,45.7165858405779],[15.2671217198766,45.7162345667829],[15.2669927206614,45.716119911195],[15.2668033555066,45.7159516007316],[15.2668033555066,45.7159516007316],[15.2668033555066,45.7159516007316],[15.2669724608867,45.7155335140876],[15.2667149088079,45.7152342990449],[15.2667149088079,45.7152342990449],[15.2667149088079,45.7152342990449],[15.2666847569682,45.715025343636],[15.2666847569682,45.715025343636],[15.2666847569682,45.715025343636],[15.2667902008663,45.7147258207407],[15.2668066213361,45.7144626721744],[15.2668138313951,45.7143471255969],[15.2668138313951,45.7143471255969],[15.2668138313951,45.7143471255969],[15.2669478104852,45.7142410849775],[15.2669778337972,45.7142033962689],[15.2671554230331,45.7139804646703],[15.2671431359303,45.7136016131965],[15.2671337417609,45.7133119565845],[15.267149544898,45.7132320165061],[15.267149544898,45.7132320165061],[15.267149544898,45.7132320165061],[15.2672298018739,45.7131962463041],[15.2672991217061,45.7131653506595],[15.2675499034591,45.712946583031],[15.2677140665665,45.7128033753205],[15.268339821636,45.7128634997963],[15.268547791156,45.712883481361],[15.2685519856914,45.7128709197615],[15.2685591876117,45.7128493517716],[15.2677382845034,45.712764356794],[15.2677382845034,45.712764356794],[15.2677382845034,45.712764356794],[15.2681289492924,45.7123220837726],[15.2678159714196,45.7118993671852],[15.2681298846555,45.7115238599416],[15.2681475493919,45.711081561718],[15.2681657399971,45.7110299930487],[15.2681941828213,45.7109493600996],[15.2682796246848,45.7107005146947],[15.2683211099785,45.7105796899118],[15.2684473644319,45.7102039924093],[15.2685237001275,45.7099717518948],[15.268591400459,45.7095546964047],[15.2686440888494,45.7092301149474],[15.2686440888494,45.7092301149474],[15.2686440888494,45.7092301149474],[15.2688777130618,45.709113453241],[15.2688917611389,45.7091064382154],[15.2690089020656,45.7088903888718],[15.269165855149,45.708600909017],[15.269165855149,45.708600909017],[15.269165855149,45.708600909017],[15.269292441063,45.7085465125489],[15.2695648454001,45.7084294541898],[15.269574839704,45.7083978472507],[15.2695789821985,45.708370128101],[15.2695798169381,45.7083645425083],[15.2695375172692,45.70832150739],[15.2694397823469,45.7082220728704],[15.2694792018198,45.7080597440109],[15.2694501613281,45.7080229719451],[15.269426997487,45.7079936410552],[15.269426997487,45.7079936410552],[15.269426997487,45.7079936410552],[15.2694241962953,45.7079744222336],[15.2694106618773,45.7078815631464],[15.2695393909148,45.7077781111906],[15.2695438453115,45.7077745314444],[15.2694016418879,45.707447605627],[15.2694450108065,45.7073566412069],[15.269449958814,45.7073462629565],[15.269449958814,45.7073462629565],[15.269449958814,45.7073462629565],[15.2694767654298,45.7073145821854],[15.2695083202855,45.7072772897639],[15.2695662163863,45.7072718442917],[15.2695414571844,45.7072242127266],[15.2695414571844,45.7072242127266],[15.2695414571844,45.7072242127266],[15.2697983595472,45.7072861432089],[15.2698141684498,45.7072656282975],[15.2698195467776,45.7072586489401],[15.2697739020393,45.7072478310053],[15.2697210565796,45.7072353064507],[15.2697210565796,45.7072353064507],[15.2697210565796,45.7072353064507],[15.2709261580658,45.7070581195882],[15.2719011542482,45.7069147551402],[15.273307039933,45.7063010588157],[15.2736644116759,45.7063201962668],[15.2741321523552,45.7063452423252],[15.27441606057,45.7065717630596],[15.27441606057,45.7065717630596],[15.27441606057,45.7065717630596],[15.274351319881,45.7066413956309],[15.2741545410945,45.7068530419651],[15.2750776191333,45.7071542904595],[15.275408098447,45.7072621404841],[15.2761839547448,45.7075502766569],[15.2769871183349,45.7078312982179],[15.2770970108536,45.707869748214],[15.2770970108536,45.707869748214],[15.2772033514237,45.7079355336752],[15.2776642348639,45.7082206470302],[15.2777957216032,45.7083185867396],[15.2778618475687,45.708364885424],[15.2779383921819,45.7084184786732],[15.278011659835,45.7084760503406],[15.278072872172,45.7085241491512],[15.278098397907,45.7085416637668],[15.2781289315703,45.7085626145764],[15.2782325923672,45.7086432551656],[15.2783983405637,45.7087642185937],[15.2784116357601,45.7087739214265],[15.2784257421564,45.7087847290222],[15.2785797538008,45.7089027244415],[15.2787280071341,45.7090141193432],[15.2789098882481,45.7091467574755],[15.2790528672484,45.7092561852433],[15.2792488357046,45.7094061547668],[15.2792913350564,45.7094396291144],[15.2793610148835,45.709494511871],[15.2794729092955,45.7095772007536],[15.2795103590403,45.7096075587717],[15.2795961924253,45.7096771380185],[15.2797430159446,45.7097843059778],[15.2798563516773,45.7098724797961],[15.2799944309179,45.7099773293402],[15.2801105396759,45.7100649176574],[15.2801426921514,45.7100891722717],[15.2801660810139,45.7101080834899],[15.2802809355272,45.710200949604],[15.2803847074214,45.7102784687241],[15.2804486592833,45.710326241544],[15.2805056679951,45.710371154314],[15.2805819895026,45.7104312819892],[15.280729995785,45.710543034795],[15.2808730882521,45.7106480509089],[15.281050934693,45.7107936527844],[15.2833032293806,45.710258101683],[15.2841232960081,45.7095722092248],[15.2844241403074,45.7091256944816],[15.2844673834494,45.709067279088],[15.28472004732,45.7086689333723],[15.2848114299804,45.7085555094097],[15.2850089910532,45.7082581691632],[15.2850131258695,45.708251826181],[15.2850263228112,45.7082315815069],[15.2850891283861,45.7081482647908],[15.2851396071667,45.708081300368],[15.2851858602113,45.7080387689312],[15.2852164358643,45.7080106534074],[15.285342071934,45.7078909360246],[15.2854928941603,45.7077472181405],[15.2855710415427,45.7076735351413],[15.2856310654529,45.7076169400936],[15.2857581553689,45.7074922684212],[15.2858852447205,45.7073675966061],[15.2859114217443,45.7073424397105],[15.2859488914708,45.7073064301432],[15.2859648335811,45.7073063060472],[15.2860000049148,45.70730603226],[15.2862068168285,45.7068607050771],[15.2862263808285,45.706818577617],[15.2862263808285,45.706818577617],[15.2862263808285,45.706818577617],[15.2863077252098,45.7067618770637],[15.2867611825194,45.7064457945336],[15.2868383595147,45.7063938616586],[15.2869067400961,45.7063553706047],[15.2869420880653,45.7063354733901],[15.2870255817622,45.7062804987353],[15.2870567736024,45.706259961086],[15.2872041167739,45.7061722887869],[15.2873056797802,45.7061118563826],[15.2873570562246,45.7060634588236],[15.2877836902689,45.7056615575557],[15.2879549477964,45.7053488915412],[15.2880047686798,45.7051946883257],[15.2880421754106,45.7050789082312],[15.2880249686471,45.7048055779084],[15.2880218996781,45.7047568268848],[15.2879726681199,45.7044229409942],[15.287981988832,45.7043413476654],[15.287988399326,45.7042852301918],[15.2882427856122,45.7038062488923],[15.288480874649,45.7033055326967],[15.2884327718249,45.7028917407935],[15.2887338916702,45.701738951196],[15.2887391218312,45.7015755141515],[15.288742962794,45.7014554875304],[15.288914635181,45.70117701165],[15.2890048053168,45.7009568695488],[15.2891984146711,45.700740555819],[15.289203859716,45.7007344722102],[15.2892323293696,45.7004480800682],[15.2892678310682,45.7000909446345],[15.289124533857,45.6997197749257],[15.2889825865104,45.6995853421915],[15.2887518774981,45.6994702096664],[15.288629227129,45.6994381396096],[15.2884328562035,45.699386793088],[15.2878623869757,45.6991248568243],[15.2875093610631,45.6988701990757],[15.2874368150609,45.698771222299],[15.2873804156094,45.6984150384903],[15.2873554528504,45.6983806093559],[15.2871423311491,45.6980866657032],[15.2871423311491,45.6980866657032],[15.2871423311491,45.6980866657032],[15.2871426846305,45.6979597422222],[15.2871430551299,45.6978267080679],[15.2871412219932,45.6976943502598],[15.2871423359926,45.6976234872262],[15.2871434499896,45.6975526241917],[15.287142115385,45.6974600556776],[15.287140463714,45.6973454948536],[15.2871417575293,45.6971541764709],[15.2871417793347,45.697150952072],[15.2871362101657,45.6969158450387],[15.2871359787308,45.6967758112591],[15.287135903968,45.6967305743888],[15.2871351391906,45.6966778807908],[15.2871323336227,45.6964845745809],[15.2873776039723,45.6962367793514],[15.2874758777716,45.6961383532313],[15.2875528765726,45.6960612347845],[15.2876395065413,45.6959744862714],[15.287723677044,45.6958902002697],[15.2874465770408,45.6950125004851],[15.2874465770408,45.6950125004851],[15.2874465770408,45.6950125004851],[15.287441466386,45.694967342735],[15.2874574050901,45.6949293736116],[15.2874650612807,45.6949111350431],[15.2875611667053,45.6946473379759],[15.2876390766169,45.6944160698768],[15.28788104295,45.6942272195477],[15.2880032134094,45.6938389122456],[15.2880385473185,45.6936684885469],[15.2880329220842,45.6932980496536],[15.2880341683619,45.6927654470638],[15.288035637741,45.6926777292085],[15.2880366253544,45.6926187713051],[15.2880955845864,45.692498587551],[15.2881041681612,45.6924823032171],[15.2881074103055,45.6924761523785],[15.288101384046,45.6924777872391],[15.2880827492959,45.6924771882902],[15.2880650417289,45.6924766191395],[15.2880588555103,45.6924764066017],[15.2880552818439,45.6924762838223],[15.2880552818439,45.6924762838223],[15.2880552818439,45.6924762838223],[15.2880573925011,45.6924622414129],[15.2881027312506,45.6924650964741],[15.2882260333416,45.6924318726372],[15.2883299359037,45.6924038758834],[15.2885983952992,45.6921507104294],[15.2888403413433,45.6920602076466],[15.2891902685022,45.6919459568818],[15.2896177525858,45.6918063817953],[15.2897339123179,45.6917741438965],[15.2900845921338,45.6917070306448],[15.2901532215368,45.6916938961759],[15.2902792991313,45.6916678412461],[15.2905270906507,45.691640936842],[15.2908865034531,45.6915734361141],[15.2910871198282,45.6915609576313],[15.2912368558846,45.6915579581872],[15.2914885685736,45.691552915551],[15.2917382925969,45.6915294263777],[15.2919369604897,45.6915107391672],[15.2921240749741,45.6914910220754],[15.2921312434517,45.6914902666944],[15.2924143274223,45.6915098782863],[15.2926881973836,45.6914860517914],[15.2928071164314,45.6914402376923],[15.2928320952379,45.6914306144693],[15.2928895632968,45.6913221296125],[15.292897881364,45.6913043525032],[15.2930552682588,45.6909679879878],[15.2931497220537,45.6908599313068],[15.293267006991,45.6907257547384],[15.2932851002711,45.6906992537729],[15.2933087119895,45.6906477238189],[15.2933667491232,45.6905738339606],[15.2935169902556,45.6903825537282],[15.2935750825474,45.6903397537457],[15.2935756959481,45.6903393018171],[15.2937780407345,45.6902655368537],[15.2940072951656,45.6901853403928],[15.2943908857732,45.6900511534002],[15.2944366354077,45.6900347488767],[15.2946354735349,45.6899293179847],[15.2947020910083,45.6897885831721],[15.2947434082759,45.689701296721],[15.2949811966677,45.6895320579123],[15.2955131826918,45.689422615482],[15.2954566469657,45.6888289745404],[15.2954566469657,45.6888289745404],[15.2954566469657,45.6888289745404],[15.2954671753937,45.6888290822844],[15.2954777038216,45.6888291900275],[15.2960453246707,45.6885215460687],[15.2969073191881,45.6880543431221],[15.2970481269841,45.68798391519],[15.2971279453377,45.6879439922335],[15.2971562259367,45.6879264622873],[15.2971757525364,45.6879044560346],[15.2973074192457,45.6877723806953],[15.2974366755071,45.687670095323],[15.2975032606678,45.6876369887578],[15.2976042231243,45.6875498037631],[15.2976294345719,45.6875346212099],[15.2977322737389,45.6874624581073],[15.2978024488635,45.6874043271781],[15.2979542122219,45.687263658512],[15.2981448354504,45.6870869695488],[15.2982434570284,45.6870253693784],[15.298258975587,45.6870156762884],[15.2983899451847,45.6869223834928],[15.2984439668132,45.6868804299095],[15.2985667699497,45.6867850597858],[15.2986765018105,45.6867058592592],[15.2987581867405,45.6866396892977],[15.2987981762749,45.6866073293216],[15.298800243729,45.6866056563133],[15.2988029760468,45.6866036002295],[15.2988508806718,45.6865675517058],[15.2989116147605,45.6865291734255],[15.2989129377481,45.6865283374198],[15.2990670151903,45.6864352533233],[15.2992177846638,45.6863595169288],[15.2992207914109,45.686358006538],[15.2993504378337,45.6862819925304],[15.2993846454764,45.6862611847984],[15.2994288818654,45.6862342767695],[15.2994588047873,45.6862154897158],[15.2995050144308,45.6861864770325],[15.299588536965,45.6861332203486],[15.2996486988183,45.686094859094],[15.2997529257112,45.6860190912565],[15.2998776443496,45.6860931777359],[15.2999690370518,45.6861474674332],[15.2999731026934,45.6861495634462],[15.3001103906209,45.6862203410935],[15.3008665230714,45.6866677196064],[15.300982489406,45.686746237883],[15.301456693853,45.6870724300126],[15.3019366998519,45.6874259591734],[15.3023460031937,45.6877227623497],[15.3023736332503,45.6877427979063],[15.3025464885591,45.6878468986842],[15.3027488397475,45.6879685573959],[15.3027488397475,45.6879685573959],[15.3027488397475,45.6879685573959],[15.3026040987081,45.6879382797513],[15.3024311099462,45.687902092825],[15.3019123666696,45.6878428173709],[15.3016380557834,45.6878178659848],[15.3013086562694,45.6877879028234],[15.3013099008265,45.6877631353291],[15.3013109761217,45.6877417362428],[15.3011489068701,45.6877092303651],[15.3011489068701,45.6877092303651],[15.3011489068701,45.6877092303651],[15.3011587990391,45.6876386588647],[15.3011116580349,45.6876145158545],[15.301096746567,45.6876068790184],[15.301096746567,45.6876068790184],[15.301096746567,45.6876068790184],[15.3013492873552,45.6875123625633],[15.3013492873552,45.6875123625633],[15.3013492873552,45.6875123625633],[15.3015282984612,45.6875440136126],[15.301228849299,45.687342615306],[15.3010554447771,45.6872336646891],[15.3008146962741,45.6870824004892],[15.3007416260003,45.6871266837552],[15.3005098878825,45.6870060885681],[15.3002083182823,45.6871990817089],[15.3001348147199,45.687251454127],[15.3000806765292,45.6872900283272],[15.3000734935668,45.6872951519684],[15.2999797654964,45.6873620085209],[15.2998259477546,45.6875103785477],[15.2997784676226,45.6875561768902],[15.2996601567637,45.6877096035982],[15.2996549174459,45.6877163979758],[15.2995633331672,45.6878282150963],[15.2994959193428,45.6879340817901],[15.2994216265824,45.6880507506587],[15.299414204532,45.6880793841963],[15.2994087716429,45.6880955062189],[15.2994049783619,45.6881067627217],[15.2993983198921,45.6881258286781],[15.2993925857573,45.6881422478703],[15.2993755355306,45.6881959983537],[15.299350792462,45.6882740001733],[15.2992750385422,45.6885137291183],[15.2992909331713,45.6885150136775],[15.2993321957629,45.6885183483933],[15.2995308909731,45.6885738164924],[15.2997390214695,45.6886319180729],[15.2997390214695,45.6886319180729],[15.2997390214695,45.6886319180729],[15.299730684662,45.6886490338287],[15.2997162892557,45.6886785880725],[15.2996647963101,45.6887730236461],[15.2996647963101,45.6887730236461],[15.2994225968514,45.688689796005],[15.2993606671673,45.6886504631295],[15.2993396337709,45.6886371043464],[15.2993211306499,45.6886383400232],[15.2992050025837,45.6886460952266],[15.299095916869,45.6886467683048],[15.2989769927647,45.6886475019689],[15.2988335551238,45.6886713856765],[15.298712362597,45.6886915652085],[15.2983953245807,45.6892138358432],[15.298374187335,45.6892468242346],[15.298374187335,45.6892468242346],[15.298374187335,45.6892468242346],[15.2983450024783,45.6892633670444],[15.2983033190562,45.6892748658338],[15.2982946192692,45.6892772657547],[15.2982780331705,45.6892824572838],[15.2982325819133,45.6892966837298],[15.2980869689688,45.6893414245663],[15.2980041669687,45.6893840572338],[15.2979958047444,45.6893883627259],[15.2979212506509,45.6894112335798],[15.2977277778495,45.6894705846438],[15.2974622345527,45.6895120218888],[15.2967525617022,45.6896227609068],[15.2965606996884,45.6896867859485],[15.2965059187768,45.6897113901387],[15.2963666483654,45.6897739415599],[15.29639277143,45.6897925908276],[15.2965830327981,45.6899284179478],[15.2967387353502,45.6900628840847],[15.2967447738339,45.6900680989566],[15.297007141787,45.6902985793252],[15.297007141787,45.6902985793252],[15.297007141787,45.6902985793252],[15.296910328469,45.6903702761718],[15.2968409609534,45.690436322784],[15.2967172709833,45.6905824939107],[15.2966911644438,45.6906133453058],[15.2966467054845,45.6906743162505],[15.2965991320806,45.6907395581734],[15.2965862166889,45.6907720139206],[15.2965593451067,45.6908395407662],[15.2965574934436,45.6909993524633],[15.2965798429295,45.6910163129031],[15.2965986159226,45.6910305592248],[15.2965909749939,45.6912331663297],[15.2965768818785,45.6916068562184],[15.2966244815129,45.6917749773084],[15.2966706928355,45.6919381939084],[15.29669923842,45.6920432179857],[15.2967031282494,45.6921960861778],[15.2967046089302,45.6924761042471],[15.2967914597444,45.6930204456615],[15.2968831756048,45.6930862837302],[15.2972028709027,45.6933157746423],[15.2972872946776,45.693376652309],[15.2973108852888,45.6933943172409],[15.2973179379019,45.6933996003799],[15.2973343470408,45.6934118925219],[15.2973506092107,45.6932797406664],[15.2973733688981,45.6930947867672],[15.2975146901474,45.6928548569511],[15.2976292732998,45.6926603204197],[15.2979250964472,45.6921516947355],[15.2980357513645,45.6919631334896],[15.2981905271317,45.6916993859096],[15.2980704160343,45.6916932607896],[15.297999166588,45.6916896273314],[15.2979540629148,45.6916859711735],[15.2978432278518,45.6916769866724],[15.2976244910408,45.691661899952],[15.2975756734507,45.6916567182154],[15.2974932417024,45.6916514227346],[15.2974020242653,45.6916455627836],[15.2973737952216,45.6916432619821],[15.2973239263833,45.6916391974169],[15.2973239263833,45.6916391974169],[15.2973239263833,45.6916391974169],[15.2974696681891,45.6909635979784],[15.2976013838488,45.69028272591],[15.2976050055164,45.6902635504447],[15.2979622031471,45.6903140887638],[15.2980994062329,45.6903445615757],[15.2981812415237,45.6903627371033],[15.2983358428413,45.6903901377399],[15.2983870576661,45.6903875744944],[15.2984368812485,45.6903889740401],[15.2985193577279,45.6903740016227],[15.2987310656866,45.6903237785394],[15.2988328599007,45.6902957980657],[15.2988328599007,45.6902957980657],[15.2988328599007,45.6902957980657],[15.2988478676829,45.6903172643564],[15.2988351806607,45.6903281669187],[15.2987070240302,45.6904382976978],[15.2986729909499,45.6904725433967],[15.2986453409159,45.6905003661336],[15.2987484682352,45.6905780203725],[15.299048315109,45.6908283738857],[15.2991072798493,45.6909948698738],[15.2991436048683,45.6910974386238],[15.2991732181034,45.6910835774743],[15.2991948345063,45.6910734594152],[15.299219861672,45.6911022439382],[15.2992206717017,45.691103175578],[15.2992465299939,45.6911301061479],[15.2992893587203,45.6911747108026],[15.2993489333702,45.6911506196826],[15.2993754614889,45.6911382181058],[15.2994257779911,45.6911146957135],[15.2995543353654,45.6910419826993],[15.2996810241553,45.6909703262444],[15.2997222713811,45.6910279475601],[15.2997238418813,45.6910301415059],[15.2997918900442,45.6910060279242],[15.2997915805296,45.6910083144867],[15.2997757090994,45.6911255656228],[15.2997585774206,45.691131636403],[15.2997076607848,45.6911496791948],[15.2997589838057,45.691215320917],[15.2998274178348,45.6911912962838],[15.2998274178348,45.6911912962838],[15.2998274178348,45.6911912962838],[15.2999284841844,45.6912911802512],[15.2999766795974,45.691396151935],[15.2999340931923,45.6914277572169],[15.3000147725089,45.6914846835392],[15.3000356216218,45.6914704926174],[15.3000573728651,45.69145568765],[15.3000773476152,45.6914515697708],[15.3001117521986,45.6914444771111],[15.3004414707455,45.691756475662],[15.3004414707455,45.691756475662],[15.3004414707455,45.691756475662],[15.3003780252324,45.6918729883663],[15.3003738978889,45.6918759738627],[15.3003047383179,45.6919260000747],[15.3002234757646,45.6920172958145],[15.3002222903375,45.6920186275994],[15.3001595716021,45.692127129928],[15.3001107175131,45.6922832859094],[15.3001038932435,45.6923214670211],[15.3000958822499,45.6923662876697],[15.300081122262,45.692357333521],[15.3000495090238,45.6923381553295],[15.3000495090238,45.6923381553295],[15.3000495090238,45.6923381553295],[15.3000800194867,45.6922071631697],[15.3000916819153,45.6921570920946],[15.2994299115399,45.6922021094491],[15.2994133937867,45.6922106109845],[15.2994133937867,45.6922106109845],[15.2994133937867,45.6922106109845],[15.2992186040376,45.6920397068585],[15.2991853072182,45.6920130840794],[15.2990918506656,45.6919383598427],[15.2990836826594,45.6919431099216],[15.2990766187956,45.6919472178888],[15.2981919787957,45.6926490451604],[15.2976630565533,45.6936796308031],[15.2978577494692,45.6938562965886],[15.2979244534036,45.6939180584341],[15.2979519446519,45.693943512807],[15.2979557897149,45.6939466825],[15.2980480235675,45.6940227156957],[15.2981998252117,45.694077118196],[15.2983319730281,45.6941298621721],[15.2985981148388,45.6938152809062],[15.2990981910784,45.6932241764723],[15.2996980362735,45.6925642276941],[15.2997114142011,45.6925495091053],[15.2997781219994,45.6926092043272],[15.29984455666,45.6926686549586],[15.2998825463411,45.6927027192815],[15.2999042909086,45.6927222170245],[15.299991212265,45.6928001999649],[15.2999918929792,45.6928008106778],[15.2998459844678,45.6929665900829],[15.2993043816958,45.6935819420976],[15.2992240500223,45.6936628657594],[15.2992240500223,45.6936628657594],[15.2992179446387,45.6936677827827],[15.2990557983654,45.6937983682489],[15.2988801540351,45.6939711570006],[15.2986235561615,45.6942235807738],[15.2988374955028,45.6942762003287],[15.2989090183413,45.6942023806444],[15.299245490812,45.6938550996685],[15.2993337890294,45.6938198931922],[15.2994135939933,45.6937880730693],[15.299773684029,45.6934476220969],[15.2999198840529,45.6933093942174],[15.3001774783897,45.6930743163574],[15.3001920266755,45.6930574096222],[15.3001964915159,45.6930522209761],[15.3001964915159,45.6930522209761],[15.3001964915159,45.6930522209761],[15.3002087113873,45.6931035933079],[15.3002674223103,45.6933504126417],[15.3003144240306,45.6933983552776],[15.3003660576545,45.6934510224244],[15.3003660576545,45.6934510224244],[15.3003660576545,45.6934510224244],[15.3003240046063,45.693534545658],[15.3003240046063,45.693534545658],[15.3003240046063,45.693534545658],[15.3001156371066,45.6937551874986],[15.3000765099759,45.6938022867785],[15.2997702798864,45.6941709080233],[15.2997123981772,45.6942614605536],[15.2996679011082,45.694331073383],[15.2995193854236,45.6944837111998],[15.2994266039667,45.6946620273955],[15.2993787054444,45.6948296081142],[15.2993680764757,45.6949410867651],[15.2993658161158,45.6949647937942],[15.2993630592451,45.6949869891653],[15.2993450098058,45.6951323034968],[15.2992513517611,45.6955076808451],[15.2992220297113,45.695739819375],[15.2992231186782,45.6957781346831],[15.2992245587701,45.6958288042382],[15.2992380531935,45.695948713141],[15.2992416774764,45.6959809177451],[15.299258638781,45.6960681007375],[15.2993024090819,45.6962930836673],[15.2992981631548,45.6966284549853],[15.2992791083816,45.6967061522231],[15.2992403535152,45.6968641773691],[15.299155643387,45.6970399526538],[15.2991355050988,45.6971058183498],[15.299101374534,45.6972174478047],[15.3001662959521,45.6972961779165],[15.30151178633,45.6973977330909],[15.3015252533601,45.6973971545913],[15.301540799874,45.6973964867618],[15.3015714566056,45.697438157147],[15.3017522907371,45.6976393508587],[15.3024865903584,45.6984563052033],[15.3024852361471,45.6984645313857],[15.3024712967572,45.6985492063322],[15.3024542845547,45.6986253343859],[15.3024383202777,45.6986967728791],[15.3022560201617,45.6990147091067],[15.3022802891717,45.6990145549171],[15.304138584288,45.6989758801609],[15.3042859712862,45.6989573380434],[15.3044038303391,45.6989425105628],[15.3047434478043,45.698913081134],[15.3049247467373,45.6989097180007],[15.3048995078888,45.6988429740597],[15.3048811015658,45.698794298575],[15.3048823190197,45.6987882498577],[15.3049725015547,45.6983401892656],[15.3046104533706,45.6979319381801],[15.3045883860127,45.6979070544579],[15.3045933296821,45.6978825235475],[15.304612643837,45.6977866848532],[15.3047147762605,45.6976771752608],[15.3049707796411,45.6974329129284],[15.3051283888335,45.6973480896857],[15.3054415612904,45.6972682799507],[15.3056029681752,45.69722714615],[15.3058481540291,45.6971666525037],[15.3058481540291,45.6971666525037],[15.3058484565061,45.6971666532218],[15.3063825934951,45.6971679199776],[15.3069560004685,45.6971801479578],[15.3070395773678,45.697178943169],[15.3075160704128,45.6971720731943],[15.3075343199648,45.6970812329789],[15.3075587949556,45.6970696275858],[15.3075923376978,45.6970537224885],[15.3076575694874,45.6971142997519],[15.3076772622639,45.6971325873436],[15.3077699645741,45.6972432617798],[15.3078813549736,45.6973762466685],[15.3078874099863,45.6973903444753],[15.3079580965727,45.6975549225743],[15.3079442600999,45.6977687434164],[15.3079391576934,45.6978475926556],[15.307923649273,45.6980029825133],[15.3078902278695,45.6983378523761],[15.3079587634199,45.6983781592176],[15.3080631878188,45.6984297968694],[15.30820298945,45.6984697314156],[15.3082386451818,45.6984853819406],[15.3083852242514,45.6985434741884],[15.3084959780061,45.6986017529703],[15.3086036749208,45.6986645389631],[15.3088178674079,45.6984710589692],[15.3088437653251,45.6984476652725],[15.3088798084009,45.6984159938333],[15.3090934706047,45.698228245582],[15.3094170271534,45.6980816435966],[15.3096570653092,45.6979728823238],[15.3097582041984,45.6979315766644],[15.3099276555927,45.6978623714782],[15.309946082611,45.6978508038889],[15.3100670300214,45.6978017958494],[15.3101222643593,45.6977746499175],[15.3103547828615,45.697660373839],[15.3104037274093,45.6976682056512],[15.3104498895585,45.6976755922194],[15.3105636130816,45.697658114509],[15.3107610160114,45.697627776153],[15.3109076682362,45.6976063215458],[15.3109277223639,45.6975871909443],[15.3109682354532,45.6975533097667],[15.3109791044194,45.6975442200192],[15.3113074340912,45.6972414387309],[15.3113245520951,45.697225465403],[15.3112687320265,45.6970007543227],[15.310602943524,45.6968157652051],[15.3104281772139,45.6964436277624],[15.3103891156204,45.6963599295532],[15.3103343560827,45.696242594537],[15.3104334617187,45.696077340233],[15.3104972122463,45.6959710384627],[15.310511641693,45.6958405263885],[15.3103458160673,45.6957376784458],[15.3102004976621,45.6957453316492],[15.3101314431981,45.6957489683417],[15.3099798721167,45.6956529408182],[15.3098573680814,45.6955753282682],[15.3093577498824,45.6953893411658],[15.3092976754749,45.6952995225271],[15.3093194570432,45.695265573597],[15.3094291856782,45.6950945489638],[15.3095946161769,45.6950333634205],[15.3096305362773,45.6949521899007],[15.3096729914917,45.694856247781],[15.3096436292348,45.6947875469754],[15.3096174465035,45.6947262853654],[15.3094894642263,45.6946394402501],[15.30926150161,45.6945606040648],[15.30926150161,45.6945606040648],[15.30926150161,45.6945606040648],[15.3091207541734,45.6944638951442],[15.3091207541734,45.6944638951442],[15.3091207541734,45.6944638951442],[15.3089655614917,45.6942155166316],[15.3089655614917,45.6942155166316],[15.3089655614917,45.6942155166316],[15.308975377577,45.6941311077366],[15.308997926598,45.6939372068909],[15.3088594929697,45.693607349792],[15.308751253744,45.6933976259568],[15.3087102183924,45.6932437788042],[15.3087218835271,45.6931936276862],[15.308740868649,45.6931584967932],[15.3087952226072,45.6930579176105],[15.3091114231263,45.69288672788],[15.3091114231263,45.69288672788],[15.3091114231263,45.69288672788],[15.3094949050432,45.6928092055536],[15.3094981984304,45.6928070346549],[15.3095160139018,45.6927952912436],[15.3095252900945,45.692739888437],[15.309526082381,45.6927351564372],[15.3095149490905,45.6926972056586],[15.3095092016963,45.6926776141176],[15.3091863259938,45.6923127142356],[15.309076905019,45.6918649032264],[15.3090196955873,45.6916982993825],[15.3089004859967,45.6913511369503],[15.3088496535891,45.6912673328759],[15.3088384219563,45.6912488159784],[15.3087800801507,45.6911576805501],[15.3086139868137,45.6908982252198],[15.3086591063686,45.6906511944741],[15.3086534160941,45.6905738672968],[15.3086484214727,45.6905059934175],[15.308652676174,45.6904828304287],[15.3086549037649,45.6904707032093],[15.3086549037649,45.6904707032093],[15.3086549037649,45.6904707032093],[15.3086796184638,45.6904355437038],[15.3088706163902,45.6902865582408],[15.3088791948555,45.690258910768],[15.3088169076171,45.6901391339823],[15.3087650446516,45.6901136607605],[15.3086782553126,45.6900710328565],[15.3086495630888,45.690059952684],[15.3085803765895,45.6900658732345],[15.30853881345,45.6900694299289],[15.3082263491464,45.6901001471604],[15.3080556886801,45.6900248431368],[15.3079400380695,45.6897963322784],[15.3079415947047,45.6897828334529],[15.3079432245905,45.6897686994066],[15.3079501042538,45.6897520580821],[15.3079536147037,45.6897435665963],[15.3079847748306,45.6896851296139],[15.3079904686546,45.6896744515337],[15.3078217034862,45.6896166884149],[15.3076490593897,45.6895538965342],[15.3070941748748,45.6893694878547],[15.3070095683639,45.6893373804705],[15.3068697974595,45.6892843384933],[15.3067889269768,45.6892635900199],[15.306736937353,45.6892650793362],[15.3064470494422,45.6892961517701],[15.3061781276855,45.6893249762007],[15.3057588976086,45.6888467680913],[15.3056468698721,45.6887862404325],[15.3056468698721,45.6887862404325],[15.3056468698721,45.6887862404325],[15.3056518475108,45.6887833019024],[15.3056640187818,45.6887761166368],[15.3055252385282,45.6886360268957],[15.305141185977,45.6885571498165],[15.3048663128106,45.6887472044907],[15.304419166567,45.6887054756847],[15.3040636769614,45.6884717508721],[15.3040289635406,45.6880124882025],[15.3034455281337,45.6877189902812],[15.3028980358627,45.6873759043],[15.3029132452796,45.6868399346457],[15.3025571999217,45.6864997585161],[15.3021647990645,45.6863452191296],[15.3016497802303,45.6863073481988],[15.3015651040606,45.6860789289185],[15.3009491893632,45.6856837348713],[15.3006017821613,45.6853228340935],[15.2999025047254,45.6851567664725],[15.2998955906687,45.6847758031546],[15.2998216818387,45.6844463950601],[15.2996996102238,45.6841369091744],[15.2993348798112,45.6841111408765],[15.2989950636234,45.6841833860109],[15.298602909422,45.6840703151408],[15.298043547033,45.6841389019229],[15.2975676477043,45.684501597968],[15.2972287246252,45.6842100404723],[15.2966183118116,45.6840932112988],[15.2963321959701,45.6836870575782],[15.2964985102391,45.6832864784575],[15.2966085628761,45.6830014913893],[15.296053246548,45.682837725747],[15.295683654166,45.6826669082309],[15.2954545123373,45.68249743603],[15.2953079778597,45.6822420874882],[15.2952533467981,45.6818378518379],[15.2949864309275,45.6816612777685],[15.2945538867987,45.6816501562952],[15.2946035943497,45.6813374323767],[15.2942508043326,45.6811611679625],[15.293876379658,45.6811920955469],[15.293170285452,45.6814276816004],[15.2928369105217,45.6815026813502],[15.292576375407,45.6813170871347],[15.2929516245278,45.6808780955413],[15.2930693345943,45.6805328045098],[15.2928728878889,45.6803280604187],[15.292760084392,45.6800636238863],[15.2927616900957,45.6797069329838],[15.2927680471402,45.6793998097111],[15.2928680286676,45.6791752294759],[15.2928435396937,45.6788608967336],[15.2929793344917,45.6786118395754],[15.2934246295648,45.6785374517915],[15.2934986610725,45.6782606583315],[15.2937266807506,45.6779257008501],[15.2941385810685,45.6776036768778],[15.2943805299028,45.6772335893761],[15.2952195816182,45.6769065908144],[15.2954711198412,45.6764581022164],[15.2957216464658,45.6759645348694],[15.2957827754933,45.6756778752237],[15.2955042367962,45.6754338460666],[15.2952279406898,45.6751276331354],[15.2952431195085,45.674816527489],[15.2942177192363,45.6739178269259],[15.2920716618305,45.6726402853636],[15.2904698398081,45.6707555641943],[15.2888771106986,45.6690706463238],[15.2885682865407,45.6677410471863],[15.2886679754565,45.6664615250624],[15.287909580806,45.6650249905011],[15.2873010358447,45.6637234064137],[15.2867020143244,45.6627484288353],[15.2852644424033,45.6618073084292],[15.2841167597949,45.6608574408403],[15.2823164830553,45.6600126552102],[15.2811233989983,45.6597938820073],[15.2811805430173,45.659186723814],[15.2812315994274,45.6585428679121],[15.2807541992274,45.657762099646],[15.2815916145752,45.6570739267836],[15.2812203499286,45.6562699532266],[15.2806849868364,45.6553123325999],[15.281939789792,45.6538885181475],[15.278360227858,45.6543015847878],[15.277305403542,45.6536274858654],[15.276750916526,45.6525717224698],[15.2745564932035,45.6522805267146],[15.2722131556576,45.6526829547328],[15.270201887865,45.6528012865639],[15.2681134041189,45.6532760927424],[15.2662756604743,45.6541427777632],[15.2654586138274,45.6546644147946],[15.2640943876429,45.6546581284647],[15.2634679305519,45.654675771649],[15.2619966878241,45.6557689260918],[15.2615172303749,45.6570748520959],[15.2607929916057,45.6578990320082],[15.2616869745572,45.6588615933597],[15.262186290762,45.6599937699287],[15.2620427524799,45.6603631147634],[15.2626749118023,45.6607828679864],[15.2636893634762,45.6612849691354],[15.2648920863915,45.6621947823417],[15.2656848639927,45.6632735328355],[15.2661321977865,45.6637286993062],[15.26569287962,45.6644254609332],[15.2656145972099,45.6648326304944],[15.2657964185901,45.6650980137492],[15.2655668042652,45.6653100048554],[15.2646767282165,45.6654031319289],[15.2646879660432,45.6656908675373],[15.2649026608585,45.6662327798878],[15.2650710572835,45.6666989446122],[15.2649852016252,45.6675154580152],[15.2647561888983,45.6677761261149],[15.2649996424265,45.667883179803],[15.2642070558702,45.6679746372899],[15.2632346735583,45.667931891043],[15.2625318296841,45.66808593733],[15.2621113947368,45.6684456597702],[15.2612560469033,45.6688152842085],[15.2606949322076,45.6692023175145],[15.2608370501978,45.6695428437779],[15.2605703011491,45.6699471103263],[15.2598426276907,45.6702896182737],[15.2591668172013,45.6707754347078],[15.255652248487,45.671500507275],[15.2547704093713,45.6717087151417],[15.2541830702081,45.6719611621928],[15.2538140006784,45.6724014530862],[15.253650894746,45.6731464133743],[15.253615354569,45.6737745640228],[15.2533262250805,45.6740137467653],[15.2527383257833,45.6745762641554],[15.2521195311703,45.6749213611186],[15.251990829706,45.6752163348046],[15.2514815541713,45.6754559981746],[15.2509117008346,45.6755834053154],[15.2507027082961,45.6758364424414],[15.2501732726613,45.6760480699355],[15.2498347748943,45.6764486888096],[15.2494163976351,45.6768705367556],[15.2490782669948,45.6773273010242],[15.248220118919,45.6778974022601],[15.2474976983298,45.6774918929831],[15.2470619006676,45.6784820934334],[15.2473130708321,45.6787061439295],[15.247804351326,45.6789156361929],[15.2482466321636,45.6793356996253],[15.2486672781646,45.6793909333092],[15.2494892613774,45.6796909392951],[15.2500715784318,45.6801036711566],[15.2503925346114,45.6803416891453],[15.2500260430701,45.6804574881634],[15.2494193047315,45.6805873979596],[15.2489510572225,45.6806554554819],[15.2483285798305,45.6809719254413],[15.2474478400506,45.6811781844227],[15.2466625770402,45.6816124235882],[15.2463738725201,45.6819058463224],[15.2449613489435,45.6823676093095],[15.2445816607008,45.6824949367433],[15.2436134554542,45.6829071409563],[15.2432804403721,45.6831713163212],[15.2430171718631,45.6834450603639],[15.2428752439231,45.683547041228],[15.2423794515789,45.6840221164766],[15.2420185900449,45.6843514037741],[15.2416308772746,45.6844086428038],[15.2406161750161,45.684588497727],[15.2395452337072,45.6848279392978],[15.2391101154749,45.6851499045715],[15.2384292884801,45.6853248116614],[15.2377678251232,45.6855258589881],[15.2368261422159,45.6860410689653],[15.2358251643971,45.6862591849158],[15.2353368811955,45.6862180804574],[15.2349164259373,45.6860028103914],[15.2344697179561,45.6856795249549],[15.234066770107,45.6855662547551],[15.233758054964,45.6854528803466],[15.2333636614599,45.6853275326473],[15.2331747017659,45.6852078832255],[15.2328999931166,45.6850283007228],[15.2323081711211,45.6848133702255],[15.2320179989671,45.6846186101675],[15.2320155821984,45.6850277606973],[15.2320966840422,45.685298890001],[15.2318423723421,45.6856120918366],[15.2315985144858,45.6859081754266],[15.2313765524071,45.6865645897194],[15.2311040747451,45.6871452513753],[15.230982124767,45.6874297492491],[15.2308994084654,45.6880762528237],[15.2304714561963,45.6885981991417],[15.2301201832846,45.6893174985003],[15.2294085925683,45.6907800469035],[15.2294313547944,45.6911658412051],[15.2293488060286,45.6916705323131],[15.2291815752801,45.6921901501565],[15.2291838785405,45.6927540584805],[15.2291852119417,45.6930805080159],[15.229033418241,45.6933884585143],[15.2286597235565,45.6937533613839],[15.2284905826605,45.6940907697259],[15.2288823825878,45.6951101933252],[15.2287272825598,45.6954277779266],[15.228466739522,45.6957716677736],[15.228151764807,45.6959930212521],[15.2275075994931,45.6964467316006],[15.2274210325941,45.6966632188931],[15.2273041993796,45.6972378017224],[15.2272592753097,45.6975593940761],[15.2272286698906,45.6979289179155],[15.2271205919963,45.6981932277385],[15.2267302550805,45.6984864420307],[15.226413168573,45.6986354498957],[15.2259907484177,45.6989033505103],[15.2258224499429,45.6991707475427],[15.2257178929186,45.6994825591005],[15.2255710776189,45.6998240578034],[15.2254034899194,45.7002695255657],[15.2253839712048,45.7006850972306],[15.22553366233,45.7010261004818],[15.2255568795827,45.7015305791367],[15.2258341761854,45.7020197089006],[15.2262171154701,45.7024641781294],[15.2269714948345,45.702950559801],[15.2184906922472,45.7050887584377],[15.2180427660844,45.7051606992533],[15.2178474811696,45.7055044397243],[15.2155196698947,45.7072555676992],[15.2157470313717,45.7076329691527],[15.2160811590361,45.7076863263561],[15.2163273294419,45.7082437431779],[15.217675481474,45.7081422033908],[15.2185904567451,45.7089052955416],[15.2189766357067,45.7091295086783],[15.2194164695283,45.7091480107587],[15.2196974178241,45.7094913784468],[15.2196596975342,45.7097310705102],[15.2193406855302,45.7102625715586],[15.2200921387196,45.7118897830184],[15.2207099955889,45.7120014273035],[15.2212901491014,45.7127781908884],[15.2216111839016,45.7127595724326],[15.222366959599,45.7122452122391],[15.2227014783642,45.7123885302867],[15.2227030150994,45.7127754456056],[15.2235945293542,45.7132880357247],[15.2250358051971,45.7139600633963],[15.2251109036815,45.7142374167946],[15.2245954846409,45.7147919041355],[15.2243179963867,45.7151027936383],[15.2245900793741,45.7156871353483],[15.2252624804527,45.7158383293106],[15.2267778128773,45.7165378128257],[15.2279358439959,45.7171471088071],[15.2290407177168,45.7171898896679],[15.2300344949088,45.7175491665434],[15.2306170356263,45.7180489159618],[15.2306834243683,45.7181058298385],[15.2310671274252,45.7182320175389],[15.2314355579363,45.7185166912724],[15.2317839536382,45.7189568914546],[15.2337483520728,45.7206883508025],[15.2355796294708,45.720366147175],[15.2366204521726,45.7204045777051]],[[15.3031703922063,45.6891440362652],[15.303266537356,45.6891643868297],[15.3035974358257,45.6892902917657],[15.3038631200046,45.6894647791921],[15.3042470337022,45.6897540373891],[15.3050224389474,45.6902127644366],[15.3053366906273,45.6904393079246],[15.3057768115434,45.6906735220702],[15.3061912588298,45.6909550435341],[15.3064694839735,45.6911895088031],[15.306389244837,45.6912613491737],[15.306193137098,45.6911345513077],[15.305699593014,45.6908284966561],[15.3055924755177,45.6907744344838],[15.305496218022,45.6907341103201],[15.3053302005466,45.6906387239744],[15.3050952072736,45.6905142776604],[15.3048698580493,45.6904632299211],[15.3045690385254,45.6903456167802],[15.3044908083736,45.6903146917505],[15.3040514552223,45.690149576287],[15.3040070696127,45.6901328678866],[15.3033812920763,45.689895900728],[15.3033263609633,45.6898758907544],[15.3024187884858,45.6896657607265],[15.3021405305942,45.6896591184739],[15.3020647866011,45.6896841536219],[15.3020144116928,45.6896994936519],[15.3015102573986,45.6897777593479],[15.3014979098965,45.6897258726791],[15.3014583672239,45.6896783768758],[15.3014929763656,45.6896440026447],[15.3016412026403,45.6894886634534],[15.3017793883362,45.6891614861427],[15.3018628000452,45.6889628568253],[15.3029937004976,45.6891388361736],[15.3031703922063,45.6891440362652]],[[15.3031393242363,45.6955850726988],[15.3031393242363,45.6955850726988],[15.3031393242363,45.6955850726988],[15.3032344511989,45.6955458972653],[15.3033836465898,45.6954844549611],[15.3036417680633,45.695561153142],[15.3042791264121,45.6953172278131],[15.304273610645,45.6948920808949],[15.30427349333,45.6948823041568],[15.3042731420612,45.6948530302602],[15.3036977380001,45.6943064555804],[15.3030991700936,45.6937378631547],[15.303094074647,45.6937330953476],[15.3030853615223,45.6937249424786],[15.3029388548136,45.6938012778363],[15.3028315868783,45.6938571681059],[15.3026807269916,45.6939365316645],[15.3025671908369,45.6939962598752],[15.3025154736211,45.6940225931869],[15.3025112334948,45.6940247521673],[15.3025153408325,45.6940368705402],[15.3025163220597,45.6940397655722],[15.3025523420753,45.6941620063435],[15.3027771288747,45.6949248506289],[15.3030524539916,45.6954169915321],[15.303094652722,45.6954924205128],[15.3030642996283,45.6955307430803],[15.3028496299095,45.6954448600247],[15.3028397499425,45.6954409073237],[15.3028397499425,45.6954409073237],[15.3028397499425,45.6954409073237],[15.3025830469803,45.695243667294],[15.302134850332,45.6948992866328],[15.3021372704246,45.6948839534984],[15.3021377061506,45.6948811928401],[15.3021080146527,45.6948522407646],[15.3018885824498,45.6946382720192],[15.3013997838774,45.693448210037],[15.3013997838774,45.693448210037],[15.3013997838774,45.693448210037],[15.3013988209472,45.6934338250543],[15.3013866613677,45.6932521753589],[15.3013672686108,45.693251326702],[15.3007747537257,45.692876417244],[15.3002068533149,45.6925170747881],[15.3002177722984,45.6924949353856],[15.3002337813278,45.692462475339],[15.3002337813278,45.692462475339],[15.3002337813278,45.692462475339],[15.3002959097244,45.6924115625821],[15.3003049067256,45.6924048780525],[15.3004648496918,45.6922860443506],[15.3004892271095,45.6923066759445],[15.3006710573596,45.6921907515049],[15.3009431247377,45.6921181400824],[15.3011167615764,45.6921265907235],[15.3011167615764,45.6921265907235],[15.3011011714125,45.6921426902372],[15.3009051809512,45.6923450829761],[15.3008699730775,45.6923835996852],[15.3007608109699,45.6925030204405],[15.3007604711377,45.6925574744387],[15.3007601202537,45.6926136992975],[15.3009174836676,45.6926632983886],[15.300934521679,45.6926686685504],[15.3011752837817,45.6927436184372],[15.3013143771671,45.6927986801807],[15.3013862002655,45.6928327417593],[15.3014026828959,45.6928405585139],[15.3014051131095,45.6928414829884],[15.3014390938639,45.6928544095568],[15.3015131020252,45.6928826084089],[15.3015436954307,45.6928942651944],[15.3016018640918,45.6928091494843],[15.3016299423527,45.6927680636649],[15.3017352321788,45.6927687754327],[15.3018033104742,45.6927739045128],[15.3019703570608,45.6927814951344],[15.3021177046527,45.6927881904263],[15.3022608126679,45.6927652130222],[15.3023473376939,45.6927513204794],[15.302430059575,45.6927663423169],[15.3026012999091,45.6927974384014],[15.3027065237795,45.6927859119879],[15.3027420097648,45.6928105932949],[15.3027792128393,45.692836468841],[15.3030477850367,45.6929249282549],[15.3032729273665,45.6927946241113],[15.3033981137847,45.6927221703383],[15.3033981137847,45.6927221703383],[15.3033981137847,45.6927221703383],[15.303511470948,45.6926951447953],[15.3035120160197,45.6927059894719],[15.3035130536519,45.6927266340564],[15.3034529209779,45.6927300697009],[15.3034255136276,45.6927316355929],[15.3034268407952,45.6927427059318],[15.3034298164371,45.6927675267158],[15.3035160589316,45.6927600091458],[15.3035160589316,45.6927600091458],[15.3035160589316,45.6927600091458],[15.30351628662,45.6927783647322],[15.30351628662,45.6927783647322],[15.30351628662,45.6927783647322],[15.3032513880443,45.6929087897264],[15.3032044681224,45.6929318910088],[15.303205438142,45.6929335302911],[15.3032065414231,45.6929353947782],[15.3034327652159,45.6933128057146],[15.3035548765413,45.6935034216931],[15.3035718241499,45.6935269517677],[15.3038174358006,45.6935239593696],[15.3038998350704,45.6935323560553],[15.3040429010531,45.6935469346791],[15.3042095125831,45.6935839873047],[15.3042316188506,45.6935889034807],[15.3043193711698,45.6936115144834],[15.3044943062274,45.6936565894698],[15.3046021340207,45.6936751081317],[15.304685419455,45.6936707443329],[15.3046962241817,45.6936701782071],[15.3047210520658,45.6936624766587],[15.3047500613178,45.6936534780508],[15.3047501805303,45.693653435881],[15.3047510865447,45.6936531153908],[15.3048314169086,45.6936206877748],[15.304893291901,45.6935893787442],[15.3048959528109,45.69358803231],[15.3052956118637,45.6933903558557],[15.3053418231333,45.6933749059517],[15.3053745619792,45.6933639602929],[15.3054508524214,45.6933443203854],[15.3054508524214,45.6933443203854],[15.3054508524214,45.6933443203854],[15.3054158919087,45.6934219230103],[15.3054135538095,45.6934271129329],[15.3049800707255,45.6943705552139],[15.305128836482,45.6945027904363],[15.3051948016043,45.6945674907598],[15.3052344646145,45.6946122854694],[15.3052834969727,45.694656335279],[15.3053415952121,45.6947512908663],[15.3053709461517,45.6947992618191],[15.3053766493949,45.6948079441593],[15.3055228209639,45.695030467633],[15.30535907129,45.69513598615],[15.3049874592032,45.6953754466103],[15.305007172419,45.6954587166567],[15.3046811594233,45.6957748298689],[15.3044059391502,45.6960416892417],[15.3039683368046,45.6965160658789],[15.3033893758831,45.6958658882546],[15.3031393242363,45.6955850726988]]]},"properties":{"fill-opacity":0,"stroke-opacity":1,"stroke":"#ff0000","lov":"0330","lov_naziv":"SUHOR","luo":"03","luo_naziv":"Kočevsko Belokranjsko","povrsina":2764.59},"id":"pregledovalniklovisca.1"}]}