{"type":"FeatureCollection","features":[{"type":"Feature","geometry":{"type":"Polygon","coordinates":[[[14.5504631654691,45.80186000205],[14.5506196179535,45.8020819674105],[14.5509125540448,45.8022096305222],[14.5511852645351,45.8020525178449],[14.551527037304,45.801737581362],[14.5519012608269,45.8014984439979],[14.5523213684308,45.801392745056],[14.5528409655497,45.8014580353927],[14.5531552788743,45.8017280342541],[14.5534014208323,45.8020451850747],[14.5536000443092,45.8021752619934],[14.5538976269777,45.8022052177116],[14.5543055422175,45.8020960446574],[14.5546235222409,45.8019233539086],[14.5550770941092,45.8017669367776],[14.5554845008421,45.8017210132205],[14.5565682380473,45.8019306477751],[14.5568829511104,45.8021690550526],[14.5570385529415,45.8025016832608],[14.5569668682075,45.8029757779544],[14.5567803419065,45.8036550305778],[14.5566862654202,45.8041132017284],[14.5567713105173,45.8047776711296],[14.5569352152951,45.805102413329],[14.5574894561304,45.8054445040527],[14.5576236829748,45.805634700783],[14.5575745134007,45.8061088827668],[14.5568867122788,45.8072605653861],[14.5567936298999,45.8075764825157],[14.5568825712414,45.8077665943576],[14.5572429792105,45.8079418319917],[14.5576948402154,45.8080068376709],[14.5585310097453,45.8080889835022],[14.5592772291617,45.8080917742529],[14.5602748906382,45.8077793399279],[14.5607505172633,45.8077019873508],[14.5610211103554,45.8077979556924],[14.5612453103267,45.8080019006719],[14.5617154666575,45.8086385107552],[14.5616903374531,45.8089388560313],[14.5615034803679,45.8096813699853],[14.5614314516682,45.8102028847633],[14.5611056118793,45.8113401443012],[14.56089273385,45.8124936732436],[14.560776398348,45.8128885059385],[14.5603616945363,45.8138356545257],[14.5602897734621,45.8143414222191],[14.5604232800789,45.8146107045195],[14.5607148080469,45.8149122670451],[14.5610073826757,45.8150973994416],[14.5612777194214,45.8152306175453],[14.5618187392875,45.8154697893847],[14.5622689277437,45.8157402834748],[14.5625143160695,45.8161680856642],[14.5625799005991,45.8164529416523],[14.5625317581762,45.8168164541261],[14.5622780565681,45.8174164549546],[14.5618895880091,45.8179051738747],[14.5611161133755,45.81845566877],[14.5601171438714,45.818910542215],[14.5595945040741,45.8191932237193],[14.5592967151275,45.8196506104169],[14.5593038741325,45.8200155043452],[14.5592246515793,45.8201722127468],[14.5595172039603,45.8203630173979],[14.5599876989053,45.8209182031967],[14.5600511583991,45.821471910483],[14.5601879825161,45.8218939004184],[14.5606321752429,45.8223595427209],[14.5609342176426,45.8225075500023],[14.5615786996948,45.8228058766707],[14.5620283263792,45.8231553710295],[14.5631563149817,45.8235390418261],[14.5640845539613,45.8234476586882],[14.5645387679846,45.8232279515522],[14.5651868461186,45.8229852259561],[14.5656720740573,45.8229633168654],[14.5662589723863,45.8231236398862],[14.5666869616512,45.8233466128264],[14.567046152556,45.8236957444079],[14.5673145071142,45.8240920399661],[14.5675844565514,45.8242828282062],[14.5678998314417,45.8244579512386],[14.5686897335162,45.8246821946897],[14.5694108497604,45.8250485206967],[14.5700635357412,45.8254778400935],[14.5710093393851,45.8260346774517],[14.5717290258897,45.8265749132657],[14.5721794723665,45.8268296223535],[14.5728330476789,45.8271481646699],[14.5733049476768,45.8275610430154],[14.5738681790595,45.8278634955934],[14.5741144322506,45.8281964370561],[14.574706235355,45.8277400171718],[14.5750723702157,45.8272037534115],[14.5754804358578,45.8271103421151],[14.5760907784558,45.8271757735036],[14.5767462971939,45.827241368981],[14.576996765725,45.8270366939221],[14.5770672349525,45.8267049313581],[14.5773620364509,45.8266110940442],[14.577792855447,45.8264861759217],[14.5787657077547,45.826489676528],[14.5799201096293,45.8264146547059],[14.5807758554528,45.8263646198451],[14.5815480026945,45.8265469587989],[14.5820008611884,45.8264853609347],[14.5826129878015,45.8263294150577],[14.5830881413944,45.8263152234085],[14.5836082432166,45.8263487026355],[14.5840366914288,45.8265399394199],[14.5841249197872,45.8268249549101],[14.5843278204448,45.8269205313344],[14.5847356223109,45.8268429223704],[14.5849152853174,45.8270174150715],[14.5847329186584,45.8272065186603],[14.5846950806857,45.8272062911604],[14.5847064929563,45.8276966294906],[14.5850900036049,45.8278402798887],[14.5854049841362,45.8280786084437],[14.58623914144,45.8284609844625],[14.5865354700037,45.8281774528409],[14.5867734606498,45.8281937002132],[14.5868950499165,45.8284949404014],[14.5869383541786,45.8287481185091],[14.5873669492486,45.8289235069096],[14.587523740068,45.829129675504],[14.5874527454564,45.8295405341865],[14.5877217399659,45.8298735283126],[14.5879694849418,45.8300166790463],[14.5886017119005,45.8301927968803],[14.5890095318617,45.8301151727685],[14.5892842494134,45.8296892092773],[14.5897141363539,45.829690753677],[14.5906438274355,45.8294093039594],[14.5914381978546,45.8290800338294],[14.5920506733579,45.8288766196659],[14.5924139826665,45.8286880600548],[14.5927783533188,45.8283889186077],[14.5932549036401,45.8281850134651],[14.5938433305752,45.8281712702351],[14.5939534597379,45.828566940346],[14.5940856679898,45.8290417804832],[14.5942860529252,45.8294693535037],[14.5945777407392,45.82980241206],[14.5949598001319,45.830151626572],[14.5954547581532,45.8305169859085],[14.5958584515493,45.8310085310403],[14.5954913307471,45.8316872045676],[14.5954197035328,45.8321929937779],[14.5949891084757,45.8322863963491],[14.5948293985582,45.832459759849],[14.5947382234921,45.8325542745405],[14.594399259956,45.8324899064681],[14.5943530331277,45.8326162530558],[14.5947582233988,45.8329022948412],[14.5944859435552,45.832996166887],[14.5941021429549,45.8328842197967],[14.5940546505993,45.8331844914436],[14.5939185095162,45.8332314267033],[14.5937811028179,45.833452286977],[14.5940316644051,45.8336903624711],[14.5940272691646,45.8338168575161],[14.5936561938799,45.8339897381077],[14.5936401266881,45.834163430665],[14.5939789707611,45.8342278005444],[14.5940679662034,45.8344336290603],[14.5942422671241,45.8353355689387],[14.5939465138871,45.8355401205833],[14.5935625822987,45.8354439176117],[14.5930870077631,45.8355055703008],[14.5929523968191,45.835853759876],[14.5928771161564,45.8363270516621],[14.5931009931221,45.8366598719547],[14.5931216759527,45.8369129667932],[14.5933471690166,45.8370244437867],[14.5937965338142,45.8374529028784],[14.5941764891437,45.8379917879281],[14.5941749487535,45.8382922225513],[14.5943772048775,45.8384668702312],[14.594534751392,45.8385939399432],[14.594668365611,45.8388790177393],[14.5949167422259,45.8389430638284],[14.5952319420321,45.8391655292758],[14.595456288117,45.8394193448458],[14.5954089120178,45.8397037808128],[14.5952257365407,45.8400035720796],[14.5952241169573,45.8402091684318],[14.5949971162596,45.8403032019713],[14.594793574608,45.8402867340244],[14.594543929505,45.8403965226678],[14.5942268863123,45.840427069857],[14.5938673008572,45.840536466552],[14.5938628028923,45.8406946336907],[14.594246541487,45.8408224175095],[14.5941099212885,45.8409326964671],[14.5937249028849,45.8409630007812],[14.5937918396099,45.8411054955861],[14.5936086373735,45.8413894477882],[14.5938332153885,45.8416115946596],[14.5940367609191,45.8416281543053],[14.5942422745502,45.8413916995991],[14.5944911213566,45.8413924930074],[14.5947389484705,45.841551465359],[14.5949196073066,45.8415995248908],[14.595056456017,45.8414577531339],[14.5951926169156,45.8414107266734],[14.5955750886854,45.8416966846221],[14.5957546037964,45.8419028318967],[14.5962301296439,45.8418728406013],[14.5964335630218,45.8419051419057],[14.5962731432505,45.8421734324748],[14.5962936139153,45.8424581083697],[14.5962015090104,45.8426792212239],[14.5965578630042,45.8426797601418],[14.596809120154,45.8427219473468],[14.5969115065808,45.842877342375],[14.5966429571753,45.8431969898393],[14.5968338764776,45.8433939977626],[14.5973785762086,45.8437886765762],[14.5976000053003,45.8438617096949],[14.5977041094512,45.8437793855859],[14.5976906454231,45.8435932616609],[14.5975448298198,45.8432825906345],[14.5976646120271,45.8430969359194],[14.5978570243534,45.8430871756895],[14.5980185602673,45.8432531254517],[14.5984012280204,45.8435334958359],[14.5986778620824,45.8435565126103],[14.5989347748735,45.8435290712688],[14.5991368712422,45.8436051828182],[14.5993393059692,45.8436342361913],[14.5996101438852,45.8435500654236],[14.5998260964541,45.8435791653006],[14.602373818123,45.8437411135996],[14.6030732737611,45.8440869052014],[14.6033294789638,45.84426775283],[14.6037415827325,45.8442511869007],[14.6036754225139,45.8445028985426],[14.6038534913947,45.844809444484],[14.6042397226719,45.8448107828502],[14.6047025629611,45.8449023639167],[14.6049585861318,45.8451102009206],[14.6050983587637,45.84537162301],[14.6057942812734,45.8452750491478],[14.6059584097299,45.8457345078722],[14.6063566336129,45.8458618509522],[14.6065530503683,45.8463079231621],[14.6071526435019,45.8461795166872],[14.6072146105926,45.8465216496501],[14.6082610306117,45.8468063360496],[14.6090712349656,45.8468656175657],[14.6097585829,45.8471131596172],[14.6100552712252,45.8471991125781],[14.6108125285283,45.8470975886765],[14.611231152681,45.8471272671114],[14.6117976296291,45.8472800876775],[14.6126205122114,45.8474620283492],[14.6128764545413,45.847576089214],[14.6129557337997,45.8478407158075],[14.6131302378502,45.8480017391424],[14.6134138099201,45.8480309522512],[14.613831789998,45.8481549168609],[14.6142357305216,45.8483544148159],[14.6147213092439,45.8484786943363],[14.61633795348,45.8491728322467],[14.6169975456971,45.849533610832],[14.617292640137,45.8498554642261],[14.6174901240863,45.8506302136649],[14.6175831439398,45.850866449579],[14.6182960033453,45.8513501299646],[14.618714535044,45.8513985862244],[14.6189314314424,45.851295384188],[14.6192301531459,45.8510698132578],[14.619460180959,45.8510232506681],[14.6196487479754,45.8511088185293],[14.6201061025974,45.851412308994],[14.6204968909597,45.85158339763],[14.6208611540788,45.8516600990893],[14.6213612579181,45.8516426818298],[14.6217264827387,45.8515777570174],[14.6221868558838,45.8514186678879],[14.6224437942834,45.851391083827],[14.6228366936071,45.8512318590893],[14.6235128662999,45.8511488789765],[14.6238919871506,45.8510273063452],[14.624968269982,45.8509172005572],[14.6257906807962,45.8508958724527],[14.6261672667465,45.8509210394777],[14.6267485194017,45.851090480233],[14.6273118513723,45.8513795314437],[14.6278412583065,45.8516206006317],[14.62833705724,45.851765820564],[14.6294834253494,45.8519610184368],[14.6299440282074,45.852249813451],[14.6310705957843,45.852851905478],[14.6316857395767,45.8530812663862],[14.632267031628,45.8532506791251],[14.6329513958412,45.8533725513074],[14.6333272655546,45.8535293314202],[14.634011949529,45.8536033295436],[14.6344047142794,45.8537960617605],[14.6346939707859,45.8540842891812],[14.6349656850587,45.8544562300749],[14.6352513207476,45.8553189590303],[14.6353177911985,45.8556304077842],[14.635349539692,45.8560136387209],[14.6354164807192,45.8562532858259],[14.635603984799,45.8564094572094],[14.6358430533813,45.8565179239207],[14.6360793079943,45.8566630925019],[14.6362850492343,45.8567087369426],[14.6366324104966,45.856759330385],[14.6368508833181,45.8568275089806],[14.6374338114074,45.8571300690681],[14.6380047305969,45.857498182628],[14.6383894695942,45.8579222109274],[14.6389483574677,45.8585199073671],[14.6392072243715,45.8588549959845],[14.639472289822,45.8590683623442],[14.6399102212579,45.8592554593013],[14.6404336636197,45.8593829878359],[14.6407504472303,45.8592655722256],[14.6408078656586,45.858808300912],[14.6412928658607,45.8585451970056],[14.6416631317202,45.8582001205764],[14.641934426692,45.8578251298336],[14.6422075836779,45.857560818109],[14.6427871141535,45.8572935947987],[14.6438647775563,45.8569803233798],[14.644592900854,45.8569959072359],[14.6443995648341,45.8565584588807],[14.644854563174,45.8562083269039],[14.6454595642373,45.8559815696077],[14.6455627014746,45.8555777049272],[14.6457911976749,45.8552445022112],[14.6459712385201,45.8546124193301],[14.6463515167504,45.8541214128939],[14.6464538646242,45.8538405458589],[14.6463869836444,45.8524872375319],[14.6466700195501,45.8514687428953],[14.6467229058811,45.8510471755825],[14.6463243215118,45.8504484830272],[14.6463356385998,45.8504303423262],[14.6473370282467,45.8500801803146],[14.6480859725839,45.8497405696541],[14.6488476700823,45.8494189890323],[14.6495836085223,45.8490972343463],[14.650306549803,45.8487935208838],[14.6511844366887,45.8484182928229],[14.6518556912688,45.8481414054001],[14.6523330665767,45.8479629010731],[14.6530560347621,45.8476500823727],[14.6539208986386,45.8472927894571],[14.654489015087,45.8470335698749],[14.6551344312887,45.846765582889],[14.6557927716407,45.8464886332869],[14.6564639808019,45.8462116285905],[14.6567087122312,45.8461943683163],[14.6573555443995,45.8456924277973],[14.6578346649078,45.8452439688535],[14.6583005727328,45.8448494557207],[14.6587665289773,45.844445942912],[14.6590780426462,45.8440328796148],[14.6596349836402,45.8434856682968],[14.6601790204942,45.842920420044],[14.6605677034464,45.8425166699261],[14.6609557249175,45.8422208912734],[14.6617959611382,45.8416564237061],[14.6624925028243,45.8414335357278],[14.6631895818884,45.8411206660829],[14.6638994183372,45.840825825495],[14.6644542788102,45.8406115066011],[14.664712397248,45.8405042894765],[14.6654098843106,45.8401193342477],[14.6660042133639,45.8397611569398],[14.6662131269309,45.8396574817148],[14.6672797964438,45.8395759223754],[14.6681940653221,45.8395335913854],[14.6694046311097,45.8394560291271],[14.6703318228708,45.8394047205173],[14.6704091153384,45.8393959455855],[14.6707458357983,45.8390549960377],[14.6714192114,45.8383820916221],[14.6718853890537,45.8379155401871],[14.6723263420064,45.8373588454477],[14.67290930625,45.8367306622847],[14.673414338303,45.8362192261613],[14.6740360530119,45.8355641541509],[14.6745154770741,45.8350256462773],[14.6750073454898,45.8345590650373],[14.6754469325779,45.8342273917929],[14.6760684445838,45.8335993016606],[14.6764309954775,45.8332314145123],[14.6766379866073,45.8330520422307],[14.6771686697652,45.8325226659561],[14.6777640888145,45.831948480179],[14.6782947758136,45.8314370944153],[14.6789289929373,45.8308269300477],[14.6794717033529,45.8304595391645],[14.6799373092465,45.8300469401484],[14.6801184321263,45.8298854848377],[14.6809661216878,45.8302027818714],[14.6819038941794,45.8305473171583],[14.6824530412098,45.8299494933718],[14.682888210344,45.8294523072626],[14.683393238084,45.8289138326371],[14.6837559140757,45.828509930627],[14.6842093407153,45.8279893053222],[14.6844163387686,45.8278008309114],[14.684519581236,45.8277291326452],[14.6849086422414,45.8272083267663],[14.6855300202215,45.8265711861325],[14.6861387666945,45.825889017739],[14.6866954858834,45.8252786867729],[14.6873690064292,45.8245157079353],[14.6880657945438,45.8237542282181],[14.6885993142514,45.8231423847496],[14.6889100580969,45.8227833140811],[14.6913722542375,45.8192461560032],[14.6916425693571,45.818953643149],[14.6916012422364,45.8187705136331],[14.6926125359708,45.8183597835654],[14.693190965067,45.81817490096],[14.6936451762389,45.8180664348326],[14.6939761949415,45.8179181360886],[14.6942790371074,45.8176039290372],[14.6941652930417,45.8170609590977],[14.6948867609477,45.8158933359301],[14.6951570071838,45.8154420007812],[14.6955199976133,45.8151611531599],[14.6960555100785,45.814886072204],[14.6966018191714,45.814612277106],[14.6958387565108,45.8147316306418],[14.695646071375,45.8146708313598],[14.6924430216856,45.8144858950759],[14.6903455527612,45.8144920174418],[14.6881633950579,45.8135332008619],[14.6870195197029,45.8132727321927],[14.6856687955438,45.8132096379674],[14.6835093574223,45.8128060579128],[14.681954762414,45.8123932346607],[14.6809910772264,45.8121557018539],[14.6807345092512,45.8120200160775],[14.6796584952094,45.8111783959146],[14.6787465661634,45.8108959994774],[14.6769339754883,45.8105903574754],[14.6767669231863,45.8105529934425],[14.6764715283542,45.8104594785646],[14.6760858966175,45.8103954003783],[14.67594503773,45.810278927451],[14.6759992792982,45.8098003904147],[14.6760010895896,45.8094881667159],[14.6758382690191,45.8087219793722],[14.6757870601678,45.8086777441231],[14.6756317553937,45.8076815900486],[14.6752788187989,45.8065112135976],[14.6753409530974,45.8057152511349],[14.6748469215492,45.8065979853574],[14.6746895538449,45.8058053575142],[14.6743008243742,45.8054839229005],[14.67393939291,45.8049608306667],[14.6737267247692,45.8044321335],[14.6733091335195,45.8040766907132],[14.6728505754225,45.8035997466285],[14.6717210251626,45.803093611015],[14.6706044669823,45.8034425777454],[14.6703502337513,45.8033147033896],[14.6699142668959,45.80306960007],[14.6698115606966,45.8030333114803],[14.6695039952548,45.8028092728692],[14.6695299639809,45.8027036219491],[14.6694709024619,45.8022051440591],[14.66801889592,45.8016549382344],[14.6690740866605,45.8007599125439],[14.6698588759038,45.8003589840363],[14.6699237874037,45.7999323981304],[14.6695692887946,45.7990763868526],[14.6691956762777,45.7984088264187],[14.668503605522,45.7979294784892],[14.6678529515825,45.7974745412439],[14.6674959575955,45.7970460094325],[14.6661336871242,45.7964008417086],[14.6648349667194,45.7961677712046],[14.662867159972,45.7961169921414],[14.6616198176446,45.7960485195698],[14.6607955771456,45.7962099286643],[14.6597670584122,45.796117790759],[14.65960392865,45.7954451564342],[14.6596607466503,45.7945427390631],[14.6595632073006,45.7936615468373],[14.6593340804086,45.7932667526216],[14.6590022488704,45.7928401585363],[14.6583100755005,45.7924241838016],[14.6575268752604,45.7921923905726],[14.6567809864769,45.7921695471003],[14.6560085937383,45.7922734004646],[14.6558163342099,45.7921630461645],[14.6553690699673,45.7916884043817],[14.6550871780093,45.7915129930151],[14.6549468434621,45.7913263111534],[14.6548061654607,45.7911954155434],[14.6543834346681,45.7909161000854],[14.6541915836563,45.7907409588085],[14.6533077824335,45.7901453136749],[14.6530413958228,45.7895254439976],[14.6528381835513,45.7891100197902],[14.6524412070327,45.7888298754902],[14.6520710826944,45.7883689521082],[14.6515504466461,45.7872741104787],[14.6512700589083,45.7868629469242],[14.6508096156126,45.786452132318],[14.6507215048196,45.7861450316672],[14.650747294113,45.7861343129157],[14.6507361076894,45.7858661387112],[14.6506717767321,45.785664297152],[14.6505851288259,45.7855144856531],[14.6504212864944,45.785369296845],[14.6502225094341,45.7852167124882],[14.6500409329091,45.7851107000655],[14.6497891740248,45.785019228961],[14.6495652216016,45.7849646443603],[14.649436216123,45.7848637410903],[14.649358456223,45.78458933376],[14.6490989957227,45.7843935507932],[14.648867686991,45.7843640466174],[14.6486750561303,45.784319364325],[14.6485725564955,45.7842578627809],[14.6484826727993,45.7841944204002],[14.6484140717932,45.7840596893784],[14.6484994038708,45.7839059963108],[14.6488641695067,45.7836337589284],[14.6492551879354,45.7833992125642],[14.6493145739986,45.7831783142043],[14.6481903428147,45.7827845252673],[14.6474280210289,45.7826348783494],[14.6470665439828,45.7824266285651],[14.6465910453615,45.782373870246],[14.6456521470531,45.7823889582962],[14.6449322148593,45.7823300359571],[14.6443020008945,45.7823595687486],[14.6441217368803,45.7823940995978],[14.6439412836296,45.7824583229486],[14.6438508391394,45.7825246262097],[14.6436686483103,45.7828614828782],[14.6435782487128,45.7829205876655],[14.6434494690914,45.7829480796481],[14.6433466392282,45.7829396605219],[14.6432439012215,45.7829168448029],[14.643128567206,45.7828525988866],[14.6430263520198,45.7827479028756],[14.6427329459724,45.7823546733439],[14.6421064018065,45.7817903379409],[14.6417363572074,45.7813374789364],[14.6415702577933,45.7811686955007],[14.6412234766953,45.7811001221549],[14.641069211545,45.7810915394547],[14.6409152179222,45.7810406668232],[14.6405299575439,45.7809566738418],[14.6399397770582,45.7807424628477],[14.6392074366188,45.7806376655146],[14.6390405514759,45.7805921484411],[14.6378839121106,45.7804760136297],[14.6371325767976,45.7805053029105],[14.6366935729511,45.7805596954273],[14.6361741656263,45.7806975116208],[14.635615110161,45.7808212521206],[14.6352347171104,45.781057225517],[14.6348726689205,45.7815163165481],[14.6344505794296,45.7820310918606],[14.6339904411216,45.7822668059074],[14.6334305967805,45.7824881613845],[14.6330083991997,45.7826830523097],[14.6328663650938,45.782769876543],[14.6327503048876,45.7828180927196],[14.6317516611386,45.7830965156643],[14.630960044169,45.7832217330683],[14.6303291791736,45.7833276696131],[14.6301747787596,45.7833388673515],[14.6298276172944,45.7833278453596],[14.6292365644806,45.7832476464184],[14.6286970677374,45.7831505157858],[14.6282598145292,45.783149993815],[14.6279638381364,45.7831778240445],[14.6277964038216,45.7832150703054],[14.6273059639404,45.7834763029518],[14.6271637210756,45.7835928127762],[14.6268796322828,45.7837853422234],[14.6265434065836,45.7840622816715],[14.6264659556253,45.7841052188495],[14.6262988121298,45.7840983737075],[14.625990516872,45.7840442768156],[14.6257976046361,45.7840445449794],[14.6255527326897,45.7841220252662],[14.6254626132619,45.7841361266763],[14.6249737960899,45.7841525192757],[14.6247161707572,45.784213759525],[14.6238798178983,45.7842739953796],[14.6236477543599,45.7843587121358],[14.6233509210348,45.7845124994497],[14.6229760311355,45.784798298896],[14.6228471097878,45.7848446629608],[14.62261533982,45.7848852884333],[14.6222293698043,45.784906507933],[14.6217155048188,45.7848221162716],[14.6215997534479,45.7848226327846],[14.6213295836533,45.784836134502],[14.6209432110351,45.7849167350532],[14.6206601800268,45.7849301925193],[14.6204930165155,45.7849260382157],[14.6203260423832,45.7848939905296],[14.6199276022147,45.7848575736827],[14.6196703658928,45.7848603169108],[14.6194904522699,45.7848399223173],[14.6191822331003,45.7847939055053],[14.6184248403217,45.7845889238698],[14.6181425905944,45.7844881032353],[14.6176169831561,45.7842416000806],[14.6173087941639,45.7841730833334],[14.6167816582988,45.7841506211756],[14.6164090700639,45.7840962827745],[14.6158827509978,45.7839550457303],[14.6154978427385,45.7838223804133],[14.6151512943814,45.7837222357773],[14.6148044870095,45.7836598807796],[14.6142003001288,45.7836219403174],[14.6139690134593,45.7835923655567],[14.6137122301794,45.7835303113603],[14.613339474954,45.7835011567548],[14.6132105673533,45.7835448106064],[14.6128637632826,45.7834824497265],[14.6129392125383,45.7837301501146],[14.6131559959475,45.7839972248257],[14.6131033780435,45.7841671086939],[14.6122408064936,45.7842973548965],[14.6111477557385,45.7842810429862],[14.6103882372796,45.7843864314993],[14.6103096200091,45.7845949167701],[14.6108484470614,45.7847857110188],[14.6114586143095,45.7850380216463],[14.6114170991093,45.785274977482],[14.6110765399587,45.7854969688879],[14.6104374186862,45.785634350404],[14.6100747800243,45.7861630949194],[14.6094198127623,45.7868000748774],[14.6087091021717,45.7870748711477],[14.6078516789722,45.7872884231399],[14.6065329228128,45.787554638805],[14.6056253845896,45.7879601984488],[14.6045369963566,45.7886024019016],[14.6033066551713,45.7890900566902],[14.6021170715728,45.788184862275],[14.6012040866238,45.7871839826966],[14.6006540415191,45.78690852276],[14.5998056751514,45.7865354672652],[14.5994578097328,45.7866567109323],[14.5989525886443,45.7868222113032],[14.598241229127,45.786965299644],[14.5975997470906,45.7868878190761],[14.5964960988294,45.7869791255723],[14.5960153706772,45.7872242416431],[14.5952402831798,45.7876942527219],[14.5945557110064,45.7881134711788],[14.5943619169131,45.7882333563393],[14.5939861031883,45.7886225340496],[14.5936370206955,45.7888723368219],[14.5935208161388,45.7889340095681],[14.5933790060861,45.7889793947034],[14.5931333861515,45.7892035599033],[14.5926119901508,45.7894649830517],[14.5920488229917,45.7897215757258],[14.5918035974479,45.7898376736791],[14.5915200289164,45.7899203414979],[14.5911724995446,45.7899550904664],[14.5908511013804,45.7899341444636],[14.5901545194686,45.7898953860829],[14.5893494500096,45.7897424091178],[14.5888305749795,45.789640395533],[14.5883301691528,45.7894758201726],[14.5875785032045,45.7893730519017],[14.5872375012788,45.7894471336521],[14.5865185702718,45.7896837006226],[14.5860289483206,45.7898007010937],[14.5850663995457,45.7899159829968],[14.584265627262,45.789965350443],[14.5837932556601,45.7900620686536],[14.5832373247606,45.7901353553406],[14.5825027889817,45.7901328536942],[14.5819299142908,45.7900808201925],[14.5814474028133,45.7899162801708],[14.5810726057084,45.7897270287173],[14.5804993948884,45.7896519519692],[14.5803705489865,45.7896820719813],[14.580228713251,45.7897463364611],[14.5800482514108,45.7897987614247],[14.5799839025294,45.7898039236853],[14.5798168901631,45.7897781152718],[14.5797139901114,45.7897786366115],[14.5793916296826,45.7898863259871],[14.5791340641519,45.7899294676633],[14.5789155637267,45.789908957037],[14.5787230925501,45.7898479610643],[14.5785051697568,45.7897508789476],[14.5782747932383,45.7895997625487],[14.5781386444077,45.7891656471166],[14.577818536616,45.7888387377493],[14.5774958154366,45.7888752464042],[14.5770823124019,45.7890617744792],[14.5767039654972,45.7893611760378],[14.5762567673945,45.7894276331548],[14.5758715138884,45.7893479212831],[14.5752000782898,45.7892181954453],[14.5745920989279,45.7890657570768],[14.574397540586,45.7887392155129],[14.5735932633949,45.7884732957017],[14.5728239525266,45.7883453500864],[14.5722702290515,45.7881303862087],[14.5716441680679,45.7879903716307],[14.5711428676053,45.787950969548],[14.5702846012109,45.787734942533],[14.5693904582588,45.7875188638375],[14.5687089445857,45.7876167108899],[14.5680985170309,45.7878024629949],[14.5675249698065,45.7878255778626],[14.5670350593576,45.7877276239739],[14.566560876834,45.7875089746647],[14.5664197882271,45.7874589504291],[14.5659885065183,45.787281312385],[14.5657408745743,45.7871054506076],[14.5655870874662,45.7870346817046],[14.5649449261358,45.7869179639387],[14.5644834864852,45.7867164506713],[14.5637780934145,45.7864627158769],[14.5628538690058,45.7862342338537],[14.5619015355279,45.7859173662921],[14.5616808585835,45.7857835296521],[14.5615774711768,45.7854861993182],[14.561990668522,45.7855061399629],[14.5630915215538,45.7852822557394],[14.5638062035109,45.7849858031702],[14.5644621190611,45.784390118859],[14.565261065514,45.783723800907],[14.5663426367121,45.7833432468469],[14.5671175912897,45.7831466100082],[14.5672211875887,45.7829049564147],[14.5674671625944,45.7826779686449],[14.5681634478931,45.7821251561514],[14.5684296237863,45.7819125494406],[14.5684098355063,45.7818270837159],[14.5681655171975,45.7818404673935],[14.5671070608716,45.7818651656795],[14.5667209167006,45.7817926178573],[14.5666201699343,45.7816498874717],[14.5667844080882,45.7814654215277],[14.5661164980564,45.7809789748781],[14.5651595558242,45.7810324742405],[14.5641837171012,45.7808866778532],[14.5634103399873,45.7808839052742],[14.562922821513,45.7807683066854],[14.5619928699085,45.7799533959829],[14.5614045210984,45.7797092728063],[14.560232429087,45.7790951530334],[14.5600073822619,45.7790957263026],[14.5598100271598,45.7791397761792],[14.5594333357417,45.7791115102664],[14.5588024351638,45.7790639058587],[14.5584471690696,45.7790095352431],[14.5583141635547,45.779014329979],[14.5582458656375,45.7792114820658],[14.5581168266237,45.7792675805084],[14.5579399439415,45.779324393508],[14.5577853629445,45.7792115902691],[14.5575838374819,45.779034719251],[14.5567049058111,45.7789350339429],[14.555979455041,45.7788434967451],[14.5552852590981,45.7787676431362],[14.5545404752295,45.7786660337663],[14.5542573222486,45.7786644795728],[14.5541487609898,45.7788776685433],[14.5540540839947,45.7791557871775],[14.5539052076629,45.7794413424219],[14.5537529576091,45.7798272119757],[14.5536721147574,45.7799505287144],[14.5535234349525,45.7800337191949],[14.5533458239329,45.7801325428848],[14.552877627361,45.7804024512127],[14.5524257334928,45.7806272515225],[14.5518577906989,45.7808901963368],[14.5513246309551,45.7811769396442],[14.5512020617104,45.7813709049821],[14.5509620075256,45.7817819800767],[14.5507789694533,45.7818667415451],[14.5505041533543,45.7821059972069],[14.5504026905441,45.7822814188379],[14.5502788319505,45.7823311402087],[14.5501123280134,45.7824384606677],[14.5498796251371,45.782701545344],[14.5497814681636,45.7827694533913],[14.549455616265,45.7829572168139],[14.5493739700926,45.7830667603474],[14.5492775147193,45.7832106177402],[14.5491182052263,45.7833342514845],[14.5488629987695,45.7834365410771],[14.5484885007748,45.7836275288729],[14.5483145190399,45.7836725510242],[14.5482290718741,45.7837586839176],[14.548048541557,45.7839615045702],[14.5477219818645,45.7842511174895],[14.5474190050149,45.7845344343023],[14.5473170023484,45.7846159119467],[14.5467922705582,45.7847123597939],[14.5465471868714,45.7848020871546],[14.5463414067606,45.7849931074745],[14.5460999937472,45.7852324850405],[14.5459718343115,45.7853671256679],[14.5459911147677,45.7855269166178],[14.5460263545933,45.7855902225336],[14.5462773933132,45.7859083988531],[14.5464556435517,45.786162759887],[14.546580197089,45.786472965027],[14.5467696789081,45.7868970721812],[14.5469991566454,45.7873378038864],[14.5471722661238,45.7878150234983],[14.5473647531602,45.7882185360858],[14.5474145400434,45.7884236174527],[14.5474834629078,45.7885050522745],[14.547618161684,45.7885482361193],[14.5484545504219,45.78864503364],[14.5492601995524,45.7887262272395],[14.5494011195546,45.788652009811],[14.5497625236821,45.7883339160267],[14.5501874643835,45.7879193428745],[14.5504646769436,45.7876737090694],[14.5507810910888,45.7873669524186],[14.5509189724643,45.78731809548],[14.5512095304704,45.7873639571213],[14.5517962551322,45.7874781951558],[14.5524537392101,45.7875900979431],[14.5527589627838,45.7877162751297],[14.5531673524039,45.7879693666919],[14.5536492241555,45.7883304497582],[14.5538039546491,45.7884266127201],[14.5541961082663,45.7886524632503],[14.5543385084081,45.7886821722402],[14.5545780505655,45.7886266889485],[14.5549389898445,45.7885248885619],[14.5553725692499,45.7884912145428],[14.5559622187799,45.7884340309128],[14.5565889640309,45.7883698797969],[14.5570935566206,45.7883500617696],[14.5578070234015,45.7883952057115],[14.5583211032845,45.7884443435502],[14.55851787782,45.7884129812271],[14.5586549833317,45.7883478256103],[14.5602148827,45.7885070760757],[14.5610317357358,45.7884736854372],[14.5613621799562,45.7885358708528],[14.5615335152434,45.7886649297316],[14.562099981103,45.7887591515289],[14.562506243792,45.7887643969997],[14.5625729888226,45.7887653723849],[14.5627038012457,45.7886821018714],[14.5630559481497,45.7888806849172],[14.563146034218,45.7890220278074],[14.5633403040857,45.7890148521845],[14.5636793354985,45.7890816526808],[14.5639132667513,45.7892499082683],[14.5642656688669,45.7899284409804],[14.5646070216952,45.7905734579262],[14.5645001611821,45.7908841109085],[14.5648067987038,45.7914624097675],[14.5642610544696,45.7921711702465],[14.5638053327869,45.7928802717393],[14.5632975753029,45.7936791522312],[14.5633190839033,45.794219113048],[14.5635112510436,45.7943188250604],[14.5635612970226,45.7944989757562],[14.5635217956979,45.7946157985518],[14.5626997059939,45.794468687535],[14.5625835192263,45.7945222306539],[14.5620902958829,45.7950872138492],[14.5615581906442,45.7956881275449],[14.5610897871167,45.7962185593499],[14.5606510640865,45.796539450554],[14.5599535484436,45.7969056832203],[14.5594378123621,45.797056661332],[14.5590129552455,45.7971180081787],[14.5583948054333,45.7972056004603],[14.5580341341705,45.7972671917224],[14.5575065233075,45.7972921435714],[14.55699248836,45.7972271659031],[14.5565039671267,45.7971892788712],[14.5560282384323,45.7971604374302],[14.555615897012,45.7972488141915],[14.5551514564867,45.7974179683824],[14.5546612139373,45.7975961080687],[14.5541314457043,45.7978909750582],[14.5536925069249,45.7980872167249],[14.5533315373285,45.7981847838517],[14.5527756693782,45.7985245323441],[14.5524394141499,45.7987481649547],[14.5520369629076,45.7992054842581],[14.551790458885,45.7994654586489],[14.5514280330462,45.799742973394],[14.5511428596688,45.8000117925135],[14.5508955527288,45.800370739424],[14.5507125472552,45.8007479345723],[14.5505157505449,45.801224052776],[14.5503060137113,45.801709117639],[14.5502337713988,45.8018298559202],[14.5504631654691,45.80186000205]]]},"properties":{"fill-opacity":0,"stroke-opacity":1,"stroke":"#ff0000","lov":"0307","lov_naziv":"VELIKE LAŠČE","luo":"03","luo_naziv":"Kočevsko Belokranjsko","povrsina":5647.73},"id":"pregledovalniklovisca.1"}]}