{"type":"FeatureCollection","features":[{"type":"Feature","geometry":{"type":"Polygon","coordinates":[[[13.3818573262649,46.2889096269442],[13.3815348296288,46.2888957040378],[13.3810292092322,46.2889212943385],[13.3806539825239,46.2888646045148],[13.3801342079857,46.2889238414291],[13.3799967458178,46.288939507101],[13.379429234891,46.2895672151735],[13.3786630459647,46.2902858548576],[13.3786228798527,46.2903236286108],[13.3781545615811,46.2907640481171],[13.3776327102177,46.291386906568],[13.3776305070896,46.2913995021036],[13.3776170134826,46.2914766464612],[13.3775169944781,46.2920484581673],[13.3774768010628,46.2923411098249],[13.3774159608278,46.2927840861449],[13.377315901195,46.2931982210322],[13.3771808358947,46.2937572295418],[13.3767867407077,46.2945620241966],[13.3767930848944,46.2946397532189],[13.37681151731,46.294865586264],[13.3767878217133,46.294928337652],[13.3767550479416,46.2950151298798],[13.3767269057547,46.2951372739633],[13.3766287444871,46.2954282034089],[13.376583634285,46.2956852464529],[13.3765433868649,46.2959397133982],[13.3765376591222,46.2959759272164],[13.3764718535336,46.2960990014766],[13.3763712687405,46.2962871210871],[13.3763487207852,46.2963731870954],[13.3762766033226,46.2966484589853],[13.3761165493246,46.2968688505993],[13.3760829699792,46.2969150885236],[13.3758643112177,46.2972641376273],[13.3756455968887,46.2974780970415],[13.375463156746,46.2976565692539],[13.375476439399,46.2980594422844],[13.375482109121,46.2982314082214],[13.3755607442897,46.298236754458],[13.3758524857889,46.2982565553041],[13.3765030760196,46.2982974089965],[13.3765450229872,46.2983000429196],[13.3776698579862,46.2983774641952],[13.3791891914868,46.2984897999541],[13.3811196961328,46.2986352911578],[13.3820132089598,46.2987000361951],[13.3837766683455,46.2988233238365],[13.385786617077,46.298965180755],[13.3872933676075,46.2990694933061],[13.3879498088907,46.2991139320621],[13.3886328201477,46.2991642299562],[13.3893156372912,46.2992106746985],[13.3895271141939,46.299225058367],[13.390461744236,46.299291576201],[13.3920171922748,46.299400290971],[13.3934452586585,46.2995016160416],[13.394031230777,46.2995413405313],[13.3945124753604,46.2995756323591],[13.3956675911882,46.2996491628848],[13.3962921639635,46.2996935064512],[13.3975407784567,46.2997821454522],[13.3982775702926,46.2998316999932],[13.3991623919109,46.2998931299876],[13.4006049042077,46.299989619305],[13.4020123294717,46.3000875793318],[13.4027160279236,46.300128185132],[13.4028701183286,46.3001369961543],[13.4028761535081,46.3001464434119],[13.4029679563505,46.3002901479178],[13.4031064402089,46.3005053191217],[13.4034447477573,46.301029084829],[13.4040468133176,46.3019611724054],[13.4043188816229,46.3023864949685],[13.4050868312668,46.3035726218872],[13.4053228348019,46.3039394960177],[13.4055415243145,46.3042812955426],[13.4056535204086,46.304457045683],[13.4057306395154,46.3045776056165],[13.4058553463158,46.3048432360604],[13.4057946408188,46.3049085197535],[13.4057547334653,46.3049314172469],[13.4057226882796,46.3049498036693],[13.4058297064848,46.3049952839956],[13.4060109748429,46.3050723185663],[13.4062089691688,46.3052149874954],[13.4063458273475,46.305366250968],[13.4063682143283,46.3055297743612],[13.4063891547416,46.3055729639467],[13.406457021249,46.3057129380823],[13.4064646997043,46.3057145749323],[13.4067848794016,46.3057828285025],[13.4070717386444,46.3058084802907],[13.4070935825633,46.3058104336071],[13.4075333401431,46.3057419728532],[13.4076554456413,46.3057293124695],[13.4078508090867,46.3057090561263],[13.4080154679591,46.3057210410791],[13.4082467199202,46.305737872705],[13.4083577763383,46.3057311093458],[13.4084547267358,46.3057252049566],[13.4087457408651,46.3057074813632],[13.40903944671,46.305571661164],[13.4092637948958,46.3054861597706],[13.4096559178385,46.3054216166071],[13.4098779470387,46.3054340625005],[13.4103851957741,46.3055857041453],[13.4109141757142,46.3056863609325],[13.4115985295213,46.3057611026945],[13.412117807684,46.3057170322662],[13.4126770306322,46.3056968171888],[13.4130405334506,46.3056970955237],[13.4134210372823,46.3058143937899],[13.4139637920276,46.3059058704222],[13.4144338036475,46.3059403722407],[13.4149600893605,46.3058963860936],[13.4152111502809,46.3058251892591],[13.4154180514346,46.3056601675896],[13.4156788278184,46.3054771778233],[13.4161282762215,46.305310837568],[13.4167597241036,46.3053474765188],[13.4171838459908,46.305402025271],[13.4172561043628,46.3054309174265],[13.4176566878947,46.3055184285733],[13.4179944333857,46.3057097074496],[13.4182070029796,46.3057854770381],[13.4183077304123,46.3058213807221],[13.418297267366,46.3059326304125],[13.4182884536777,46.3060263426886],[13.4181636167645,46.3061505776716],[13.4181452001209,46.3061687180695],[13.4178955878002,46.3064145847554],[13.4177619571103,46.3065462090578],[13.4178110153072,46.3069387209638],[13.4178508639143,46.307122756088],[13.4179001579667,46.3073504120286],[13.4178540074036,46.3075597705123],[13.4177297050894,46.3076652979904],[13.4174839320344,46.3077035258174],[13.4173440687696,46.3077252800516],[13.4173175402298,46.3079300248349],[13.4173096702502,46.3079907642735],[13.4171540269126,46.3080963254012],[13.4169388929707,46.3082422334827],[13.4168040626546,46.3084876122743],[13.4166310299268,46.3086485168755],[13.4165863547851,46.3087889576237],[13.4165497891248,46.3089039048375],[13.4162956281341,46.3090776309548],[13.4158456231441,46.3095006572732],[13.4157383978735,46.3096213275067],[13.4156859338433,46.3096803697602],[13.4156625937354,46.309787294181],[13.4162251496104,46.310359490553],[13.4162519007302,46.3105978399135],[13.4161467884315,46.3109649132387],[13.4159979074244,46.3112333993262],[13.4160513966137,46.3114720292201],[13.416116487264,46.3117900860715],[13.4162523300383,46.3122165509105],[13.4163280819347,46.3123901686455],[13.4163835896483,46.3125589172577],[13.416180712503,46.3128266554918],[13.4161484610767,46.3130174013219],[13.4160379110455,46.3131092615783],[13.4160259778973,46.3132050237055],[13.4160205068042,46.3132489284672],[13.4159981947826,46.3132736076333],[13.4159580048001,46.3133180614145],[13.4158521784084,46.3134891631961],[13.4158959888486,46.313676284358],[13.4159209207063,46.3140370341804],[13.4159231010608,46.3140685824869],[13.4158948479381,46.3140993418827],[13.4157369879729,46.3142712044834],[13.4156311227146,46.3143864595563],[13.4155598431299,46.3143903649236],[13.4154961291943,46.3143938557352],[13.4154060931768,46.3144766425113],[13.4153581815158,46.3147464372062],[13.4155906895378,46.315080940566],[13.4158423271008,46.3151141833253],[13.4159460258605,46.3151278823514],[13.4160300042383,46.3152550081831],[13.4160430784969,46.3152794078695],[13.4161004816114,46.3153865355099],[13.4162257747084,46.3154768948312],[13.4163086952832,46.3156227201747],[13.4164644767962,46.3157080653696],[13.4164744885558,46.3157135503147],[13.4164843797856,46.3157641783014],[13.4164982481541,46.3158351630132],[13.4164743464052,46.3159867720904],[13.4164732952242,46.3159934397234],[13.4164487749114,46.3160336306535],[13.4163180542428,46.3162478921123],[13.4161119170301,46.3163896227569],[13.4158996497941,46.3166447239975],[13.4166366823045,46.3167078389533],[13.4167216079746,46.3167156566353],[13.4169829853541,46.3167397168575],[13.4170515917461,46.3168286843863],[13.4170620926904,46.3168423017924],[13.4173011655984,46.3171476391699],[13.4174302964286,46.3173125599364],[13.4180003063046,46.3180303362012],[13.4181505581148,46.3182191992385],[13.4191358192521,46.3184563213104],[13.420645181869,46.3193253588898],[13.4214378014959,46.3197327273493],[13.4220339437622,46.3200772764701],[13.4237441992804,46.3211981805426],[13.424793526427,46.321780283239],[13.4250443287604,46.3220369225043],[13.425279554309,46.3222843493495],[13.4255083206778,46.3225216097752],[13.4256381158856,46.3224950211006],[13.4256725261964,46.3224879720858],[13.4262470661949,46.3223520621385],[13.4264183356172,46.3223115469147],[13.4266822055054,46.3224344732575],[13.4267303878588,46.3224569193491],[13.4267768821124,46.3224573713716],[13.4270199059877,46.3224597337701],[13.4273859208347,46.3223762361657],[13.4276613288832,46.3224397427129],[13.4276871645844,46.3224457001451],[13.4277026681029,46.322445168479],[13.4281721670175,46.3224290668322],[13.4286065636439,46.3225515536738],[13.4289822073023,46.3226034125204],[13.4291333598437,46.3226899741588],[13.429499630643,46.3226292364383],[13.4298579556636,46.3225874626549],[13.4305188730097,46.3225545210698],[13.4315655277456,46.3226297462786],[13.4316406813228,46.3226351473432],[13.4317311106413,46.3226205774917],[13.4320940506375,46.3225621002812],[13.4326703329426,46.3224596060558],[13.4337243704301,46.3221958098135],[13.4337545284032,46.3221882619307],[13.4339998771187,46.3220640169317],[13.4340415203245,46.3220429286334],[13.4341747626694,46.3220038674379],[13.4345605073305,46.3218907817119],[13.434835524816,46.3218101559123],[13.4351828297002,46.3216854395259],[13.4356341971338,46.321682169956],[13.4359885628139,46.3215192193058],[13.4366893048146,46.3215099998871],[13.4370922940414,46.3217325246459],[13.4376600379981,46.321938405438],[13.4384704996805,46.3220987438168],[13.4389812565372,46.3223223739942],[13.4396192793525,46.3226603850529],[13.439832902858,46.3231949501626],[13.4399326990236,46.3234669503549],[13.4399003866434,46.3236670588108],[13.4399558415309,46.3238451520157],[13.439883298709,46.3241173195031],[13.4401809910466,46.324216662974],[13.4403031613366,46.3244189692313],[13.4404428083554,46.3244861946732],[13.4407534755434,46.3246957503877],[13.4410259008557,46.3250491900863],[13.4411445010642,46.3251441991534],[13.4413557682975,46.3252916660963],[13.4413962686543,46.3255255177287],[13.4416313632236,46.3257852351529],[13.441745332461,46.3260433910811],[13.4418881634539,46.3268173043076],[13.4426064456852,46.327734377233],[13.4433349496365,46.3283973216967],[13.4434021953113,46.3285540701407],[13.4436774363882,46.3291437200203],[13.4439661619272,46.3298351319187],[13.4438581167777,46.3298712861935],[13.4437568830553,46.3299051610785],[13.4437211387468,46.3299793518398],[13.4437417206973,46.3300080765978],[13.4438122173794,46.330106463529],[13.4439290451174,46.3302596137151],[13.4439417016153,46.330276205137],[13.4439568891,46.3302836575893],[13.4440863997348,46.3303472078989],[13.4442739950253,46.3304392595808],[13.4443201963292,46.3304447738031],[13.4444952177461,46.3304656627966],[13.4446485180155,46.3305284801741],[13.4446676874744,46.3305443479514],[13.4447802462799,46.3306375197688],[13.4451058722794,46.3306038861863],[13.4452189808592,46.3305922030874],[13.4453790468341,46.3306410027882],[13.4454219248994,46.330654075075],[13.445760324319,46.3307393818217],[13.4460736762941,46.3306130911908],[13.4466179231554,46.3306578264145],[13.4469270870949,46.3305670157558],[13.4471018696724,46.3305156763992],[13.4474087995782,46.3306564479314],[13.4475937207145,46.330741260143],[13.4479082332844,46.3309272754895],[13.448254173615,46.3311318910426],[13.4481742331254,46.3315885869779],[13.4480720558764,46.3318716935696],[13.4480720191849,46.3319739920124],[13.4482314812802,46.3321911913525],[13.4485324182754,46.3323202478921],[13.4485966627277,46.332335491538],[13.4487073727269,46.332361760224],[13.4487514552159,46.3325209791779],[13.4487538059294,46.3325294695564],[13.4490166974863,46.3328833001162],[13.4484510749672,46.3330010468108],[13.4480887197141,46.3331833614858],[13.4482878716177,46.333448605052],[13.448477546105,46.3336724221838],[13.4487067905616,46.3338841797785],[13.4488418245759,46.3340973578272],[13.4490123636042,46.3342538847793],[13.4490664648301,46.3343342445506],[13.4491727660127,46.3344050650568],[13.4493310101057,46.3345104907115],[13.4493215884918,46.3346211483098],[13.4493207033744,46.334631544057],[13.449345384533,46.3347187924077],[13.4493966472282,46.3347801292867],[13.4494139158336,46.3348008534042],[13.4494391107763,46.3348310899163],[13.4493948981174,46.3349155143822],[13.4493868548766,46.3349308624117],[13.4493541195981,46.3349933274357],[13.4493056713351,46.3350391861256],[13.4492460057813,46.3350958692947],[13.4492556504951,46.3351231174367],[13.4492594778819,46.3351339305212],[13.4491984063705,46.3351568499909],[13.4491893700795,46.3351602412075],[13.4490998340394,46.3351937560131],[13.4488503665915,46.3353156133146],[13.4486368483934,46.3354860583246],[13.4485400540129,46.3355633258131],[13.4480666214705,46.3358695547065],[13.4477070499155,46.336214396455],[13.4472737780231,46.3365362072257],[13.4472321608097,46.336567117936],[13.4471790788044,46.3366484996536],[13.447161351084,46.336675678527],[13.4470210022409,46.3368908502639],[13.4469159405803,46.3375416854953],[13.4469067896493,46.3375983728197],[13.4468872189135,46.337628743623],[13.4467518950812,46.3378387445757],[13.4467098748832,46.3379785309048],[13.4466831921581,46.3381271629807],[13.4464884435345,46.3383390113698],[13.44633382296,46.3388080066025],[13.4461210985462,46.3391727433824],[13.4459824404856,46.3393212028115],[13.44534951228,46.3397156609474],[13.4453377643074,46.3397229825166],[13.4453187879073,46.3397190767256],[13.4451435195678,46.3396830021909],[13.4450188544356,46.3398162533085],[13.444984099972,46.3398534012525],[13.4446885127558,46.3400990813983],[13.4445147255201,46.3402435249159],[13.4444842735448,46.3403690721696],[13.4445296704617,46.3405043787837],[13.4445078673509,46.341199749955],[13.4444330639852,46.3414599224557],[13.4444376245781,46.3414907842353],[13.4444614009398,46.3416516796427],[13.4443718559091,46.3418529383193],[13.444281986488,46.3420549244755],[13.4443897757068,46.3422897800138],[13.4443693968405,46.3425227115265],[13.4441566072535,46.342911646185],[13.4440805261183,46.3430976636356],[13.4442170083656,46.343630808821],[13.4442146363523,46.3439433410645],[13.4442430353701,46.344082555125],[13.444176905701,46.3443253007386],[13.4439544406364,46.3445696073988],[13.4437424889822,46.3447643287],[13.4436557443572,46.3448440210043],[13.4436292212745,46.3448683877051],[13.4431261486866,46.3452720823517],[13.4427234601339,46.3454652900331],[13.4426347238491,46.3455078648205],[13.4425176387651,46.3454944653295],[13.4422652647905,46.3454655826325],[13.4421654994772,46.3456078869068],[13.4420125939123,46.345825988278],[13.4418457892592,46.34589574839],[13.4418315418256,46.3459017068525],[13.4415100323961,46.346210968459],[13.4413803806011,46.3464985524337],[13.4412981286537,46.3470244898034],[13.4413827450294,46.3471328906395],[13.4415283684073,46.34729358734],[13.4418653023553,46.3474521228877],[13.4420418245229,46.3476457201054],[13.4425498252796,46.3482451055287],[13.442569810526,46.3482686856272],[13.442538313189,46.3483620978021],[13.442384277452,46.3486253279778],[13.4421914482027,46.3487814119791],[13.441940669087,46.3488143166435],[13.4419342726075,46.3488151559162],[13.441928438334,46.3488204066851],[13.4417964009157,46.3489392382596],[13.4417813116703,46.3489411810702],[13.4415998806804,46.3489645409876],[13.4415055294906,46.3491801783618],[13.4413213589758,46.3492966111054],[13.4412776589285,46.3494032624422],[13.4412711635697,46.3496317038765],[13.4410532938997,46.3499553330878],[13.4410343456977,46.3501510346586],[13.4408119592523,46.3505068575065],[13.4407799270884,46.3505581091947],[13.4406035189577,46.3506069873684],[13.4405859722165,46.3506300827421],[13.4405473648067,46.3506808985117],[13.4405188705505,46.3509837168852],[13.4404420602099,46.3510712019534],[13.440364181954,46.3512007794911],[13.4402567990961,46.3512382334842],[13.44000879624,46.3513247336437],[13.4398877962309,46.3513669365706],[13.4396540297296,46.3515364033087],[13.4394401293377,46.3517199964983],[13.4392777926433,46.3520119996102],[13.4392625078032,46.3520394930375],[13.4392259202057,46.3520648463052],[13.4386815575346,46.3524420565936],[13.4385192306541,46.3525545377392],[13.4383957524156,46.3526400990294],[13.4383733192193,46.3528548256659],[13.4383691327996,46.3528948971336],[13.4382602833124,46.3529826933099],[13.4379140272259,46.3532619750765],[13.4378024783183,46.3536288877821],[13.4375735954692,46.3538543797767],[13.4369803686891,46.3543073792641],[13.4369717092465,46.3544105491614],[13.4371621106151,46.3548284646215],[13.4373763554563,46.3553445055931],[13.4374216826569,46.3555458534658],[13.437367714226,46.355647594331],[13.4374161753865,46.3558301808099],[13.4375874139305,46.3559770167645],[13.4378068470659,46.3563158822087],[13.4378097648497,46.3564021686182],[13.4378141096562,46.3565306554623],[13.4377429854984,46.3566127170972],[13.4375983193053,46.3567796291519],[13.4375757930381,46.3570985399095],[13.4375708658906,46.3571682943449],[13.4375009354317,46.3572829012209],[13.4374252796176,46.3574068906012],[13.4375342705432,46.3577588180012],[13.4375733080058,46.3578848673467],[13.4375669231521,46.3580020122312],[13.4375457882811,46.3583897757921],[13.4377887346136,46.3586061502684],[13.4377484459297,46.3588342193726],[13.437880340962,46.3591672097025],[13.438045552928,46.3592796830835],[13.438524425132,46.3597358161901],[13.4387393794344,46.3600045300247],[13.4390278338544,46.3601474760661],[13.4394724083964,46.3601466113474],[13.4395643146518,46.3601464323697],[13.4396006529407,46.3601510788481],[13.4400542780684,46.3602090816282],[13.4402836954705,46.3601982660452],[13.440631661767,46.3602822783239],[13.4408190938749,46.3603174946321],[13.4410893864281,46.3602548634078],[13.4412327368119,46.3602216464498],[13.4412659489187,46.3602285404691],[13.4414674781623,46.3602703727576],[13.4416599829377,46.3602119992626],[13.4417324005683,46.3601900398452],[13.4422634402975,46.3602478411577],[13.4425731053054,46.3604223789035],[13.4427736567189,46.3605354154784],[13.4431656057305,46.3607365332002],[13.4433205773349,46.3607434119583],[13.4435542438201,46.3608118232616],[13.4438816730878,46.3608799484763],[13.4440890501475,46.3609230949551],[13.444150209391,46.3609358195471],[13.44424046826,46.3609049816343],[13.4444498048242,46.3608334591352],[13.4447454557593,46.3608654628441],[13.4450654894271,46.3609770629822],[13.4452480449857,46.3610084433568],[13.4453604809073,46.3610277703591],[13.4455057003397,46.3610105143548],[13.4458544200259,46.3609690762047],[13.4459206429735,46.3609974381172],[13.4461076186145,46.3610775155364],[13.446150876081,46.3610944029867],[13.4462871801744,46.3611476150972],[13.4463174925408,46.3611906810038],[13.4465656383863,46.3615432282364],[13.4466310154042,46.3616140440722],[13.4466834027828,46.3616707894829],[13.4467209541226,46.361774070613],[13.4467583904384,46.3618770349945],[13.4468472157148,46.3619987553526],[13.4469262274979,46.362107027436],[13.4470437434767,46.36226806203],[13.447395015168,46.3625078156252],[13.447484767464,46.3625690737874],[13.447552954051,46.3626156126821],[13.4478636906966,46.3628036450562],[13.4480123644228,46.3627990954378],[13.4480132868756,46.3627992298514],[13.4482942552164,46.3628401702835],[13.4486757631165,46.3629339703504],[13.4489686785347,46.3629514647835],[13.4490792591658,46.3629580690364],[13.4491545425363,46.3629408394183],[13.4496559912713,46.362826074539],[13.4498970893016,46.3628758593829],[13.4501127462435,46.3628740146543],[13.4504624546006,46.3629021477881],[13.4509083295434,46.3628614945609],[13.4514196500832,46.3628917244809],[13.451667901027,46.3629138010571],[13.4519180521256,46.3630193383901],[13.4519878201744,46.3630487729662],[13.4522319235882,46.3630842879894],[13.4522365789405,46.3630833464607],[13.4532459515986,46.3628791991168],[13.4534480932256,46.3628819337684],[13.4539616507833,46.362828328466],[13.4544796030519,46.362853865846],[13.455668720128,46.3627393850327],[13.4559632095026,46.3628085924955],[13.457473700349,46.3627776982865],[13.4575596054898,46.3628422877202],[13.4576244604817,46.3628509027756],[13.457638272587,46.3628527375106],[13.4576530874962,46.3628547054514],[13.4576519118211,46.3628707809712],[13.4576425237128,46.3629991482796],[13.4577835057745,46.3630448670654],[13.4579265607242,46.3630912578097],[13.4579427229902,46.3630964989932],[13.4580858013515,46.3630644118924],[13.458315856636,46.3630128186785],[13.4586617035797,46.3629335377997],[13.4589039536678,46.3629264780265],[13.45919987539,46.3629178534281],[13.4593160725351,46.3629144666677],[13.4594061013228,46.3629442387427],[13.4594629917806,46.362963052083],[13.4594859746216,46.3629544579239],[13.4596192882037,46.3629046067554],[13.4600226573498,46.3629518779147],[13.460495285818,46.362911637628],[13.4608099745253,46.362738539525],[13.4609736781775,46.3626661564049],[13.4610852161049,46.3627464371457],[13.4611520175304,46.3627945180975],[13.4613331998767,46.3626567614283],[13.4613931742218,46.3626111614793],[13.4617009690003,46.3624520038057],[13.4620620211328,46.3623075974037],[13.4621459364355,46.3622862922268],[13.4624285181299,46.3622145472483],[13.462497454052,46.362181765567],[13.4626195069322,46.3621237245295],[13.4627747479716,46.362121223409],[13.4629241545529,46.3620765366406],[13.4630856285969,46.3620834760081],[13.463321793044,46.3620360861844],[13.4635065417896,46.3619810915165],[13.4637443057829,46.3619103150474],[13.4640263369245,46.3619327287208],[13.4641283178696,46.3619062073995],[13.4644742845435,46.3618174634595],[13.4647638488918,46.361835387909],[13.464900131999,46.3617812551906],[13.4652395983583,46.3616832444864],[13.4654271974132,46.3616064972074],[13.4662990800511,46.3611469224418],[13.4670468580546,46.3609097078454],[13.4671290943753,46.3608595263195],[13.4671296652041,46.3608391196193],[13.4671322265574,46.3607475528979],[13.4671886149659,46.360664364844],[13.4673254160273,46.3605915219507],[13.4674463580956,46.3605978218066],[13.4675793735019,46.3606603360606],[13.4676875901045,46.3606383937555],[13.4677544936054,46.3606578247184],[13.467745478686,46.3606736459176],[13.4677122651212,46.3607319356942],[13.4677581170041,46.3607745672534],[13.4679607727373,46.360758658883],[13.4682894134992,46.3606337093133],[13.468325141683,46.3606201253274],[13.4684872919997,46.3606932066601],[13.4686413686814,46.3607626488051],[13.4689617041164,46.3609070258663],[13.4692848390849,46.3610003628004],[13.4693013972667,46.3610051455674],[13.4693413497378,46.3610069430168],[13.4697196866291,46.3610239635802],[13.4697455493425,46.361025127042],[13.4697537879271,46.3610386232544],[13.4698737978238,46.3612352192117],[13.4702254959544,46.3612414021462],[13.4702381476317,46.3612416245455],[13.4707174984732,46.3614439970187],[13.4708995021771,46.3615598645949],[13.4711520250245,46.3617206249335],[13.4714250673089,46.3617805129729],[13.4715866742114,46.361815958839],[13.4716314845032,46.3618306314286],[13.4720103678818,46.3619546912104],[13.4724009804799,46.3621286989523],[13.472552985053,46.3621444652173],[13.4728669654883,46.3621770313254],[13.4730111833958,46.3624376541477],[13.4730518431301,46.362511131755],[13.4731426329318,46.3626752003864],[13.4730726754678,46.3628724747889],[13.4738189531004,46.3628289060201],[13.4745953131732,46.3630118338382],[13.4751797924062,46.3630802719711],[13.4760254133417,46.3634460375138],[13.4766483693685,46.3638089200632],[13.4769447202769,46.3640647904362],[13.4770446431758,46.3643413463692],[13.4772303016638,46.3644557447263],[13.4773120315109,46.3646715068302],[13.4774334291615,46.3648548789156],[13.4775959169236,46.3651003158437],[13.477684363149,46.3651450406359],[13.47775599537,46.3651812629515],[13.4778855286092,46.3653881960306],[13.4778888513625,46.3653935042023],[13.4778913896564,46.3653975591823],[13.4778939038306,46.365402607088],[13.4780557296357,46.3657275154873],[13.4781648678985,46.3657932676553],[13.478677677279,46.3661022147455],[13.4786872049684,46.366107954742],[13.4787082705142,46.3661166498127],[13.4793174667216,46.3663681004041],[13.4794318410078,46.3664153086871],[13.4800935049277,46.3667195140411],[13.480102964475,46.3667238630927],[13.4802385382042,46.3667861933096],[13.480859747728,46.3671300452961],[13.4810366359039,46.3672898353484],[13.4813946994318,46.367613284575],[13.4814799965614,46.3678006774571],[13.4816296782576,46.3681295163519],[13.4816388591343,46.3681968750386],[13.4816726898578,46.3684450845665],[13.4816800113162,46.3684988004311],[13.4817441360515,46.3686284020569],[13.4817994389626,46.3686266554472],[13.4819126001267,46.3686230814395],[13.4820218944387,46.3686550816292],[13.4821949848309,46.368705760331],[13.4823468313122,46.3687502187898],[13.4823507626516,46.368815791622],[13.4823563434165,46.3689088758542],[13.4824347015665,46.3689986284482],[13.4831952349945,46.369088299679],[13.4832808071095,46.3690983887855],[13.4833871402537,46.3691692484304],[13.4834594766116,46.3692174527007],[13.4838521495886,46.36939531712],[13.4839247935205,46.3694568316477],[13.4839919635711,46.3694531337714],[13.4841377601687,46.3695390108844],[13.4843749212201,46.3697473813732],[13.4850007160493,46.3700168645119],[13.4854067762989,46.3700497062564],[13.4854849693363,46.3700560302609],[13.4855259222521,46.3701369154008],[13.4855681618513,46.3702203415788],[13.4856645332716,46.3702383715423],[13.485782427373,46.370260428021],[13.4859175738969,46.3703367696949],[13.4860278932972,46.3703990867298],[13.486128594277,46.3704143658574],[13.4862411330518,46.370490442791],[13.4866324594582,46.3704401106718],[13.4868900210432,46.3703285710155],[13.4869679171063,46.3702948371295],[13.4871314075471,46.3702753890258],[13.4874613752863,46.3702361367585],[13.4883199912322,46.3698835558272],[13.48833703638,46.3698631182317],[13.4883968821157,46.3697913614239],[13.4887309925956,46.3697571715429],[13.4888956550689,46.3697403210808],[13.4888991010346,46.369739968441],[13.4892385715241,46.3698164323958],[13.4892590890522,46.369846296314],[13.4892648595844,46.3698546955018],[13.4893550356065,46.3699859491193],[13.489351692372,46.3701071872597],[13.4893658897089,46.3701090093163],[13.489512684994,46.3701278486062],[13.4897235417576,46.3700700830113],[13.4899444349166,46.3701150177165],[13.4903841809987,46.3701051855943],[13.4903963069287,46.3701049144511],[13.4904655768202,46.3701033655088],[13.4904792853821,46.3701021436518],[13.4907407655175,46.3700788373551],[13.490893942635,46.3700882965956],[13.4912461195174,46.3701100440008],[13.4914134258141,46.3701203750084],[13.4915671512728,46.3701736873902],[13.4915835398976,46.370170847906],[13.4916414631951,46.3701608121258],[13.4918380374676,46.3699846868698],[13.4918417605336,46.3699813510885],[13.4918869052885,46.3699933522192],[13.4921562146538,46.3700649440433],[13.4925600496936,46.3700934821365],[13.4926459822737,46.3700909109281],[13.4928835705217,46.3700838016581],[13.4931268764998,46.3701362234205],[13.4932325018767,46.370149589646],[13.4937625956169,46.3702166680989],[13.4942655957811,46.3703165048144],[13.494529436171,46.3703011144947],[13.494656937575,46.3702936768698],[13.4947572183499,46.3703130951726],[13.4950099002612,46.370362023881],[13.4953086949397,46.3703582191177],[13.4955601796548,46.3705341849522],[13.4970505757726,46.3707357104937],[13.4972210151387,46.3706979322311],[13.4973084627516,46.3706785491547],[13.4975619269191,46.3707176836649],[13.497704003967,46.3707396198914],[13.4981209714865,46.3707777579438],[13.4986536960692,46.3709412161138],[13.498921262976,46.3709784269515],[13.4991523478596,46.3710105636492],[13.4992444814152,46.3710541324103],[13.4995582170962,46.3712024928668],[13.4998826200919,46.3713201402749],[13.4999587383157,46.3713477449681],[13.4999972163584,46.3714215197224],[13.5000738377228,46.3715684268464],[13.5007007574295,46.3718146257995],[13.5013639703088,46.3719558397127],[13.5013775295473,46.371958726752],[13.5013937301711,46.3719721577263],[13.5015948701679,46.3721389102113],[13.5018881941337,46.3722546792809],[13.5023012176073,46.3726705427311],[13.5028800937449,46.3730060722634],[13.5040049962242,46.3734671479183],[13.5041783378529,46.3735879035466],[13.504203222963,46.3736052392894],[13.5045398521629,46.3739955407997],[13.5046020057124,46.3740676034314],[13.5048052219712,46.3741652732563],[13.5052403194697,46.3743743875031],[13.5053565857859,46.3745073919416],[13.5053971294485,46.37455377224],[13.5055821404532,46.3746408795236],[13.5056404614848,46.3746683382398],[13.5061161101972,46.3748896237147],[13.506209352534,46.3749330022956],[13.5071308265211,46.3752339927919],[13.5073246108334,46.3752972891898],[13.5074767506658,46.3755067909949],[13.5076496110359,46.3757448235382],[13.5077346428161,46.3758286288321],[13.5084737358706,46.3765570479928],[13.5086472968983,46.3767280990088],[13.5088930065468,46.3768418792899],[13.5091610934479,46.3769120445437],[13.5093890153049,46.376859589074],[13.5093915863237,46.3768589973593],[13.5100893382986,46.3768751296674],[13.5103282519019,46.3768806524662],[13.5108634295849,46.3767709307153],[13.5109910150558,46.3767163565175],[13.5112657575464,46.3765988356052],[13.511592056622,46.3765003082777],[13.512026957468,46.3763689861913],[13.5122578122617,46.3762992766466],[13.5123976779263,46.3763665061475],[13.512457222257,46.3763856413192],[13.5126847956718,46.3764587739262],[13.5129539274569,46.3764809888519],[13.5132329899267,46.3764488048474],[13.513427152647,46.3764264118233],[13.5136347105353,46.3764379467153],[13.5137568368274,46.3764447336249],[13.5143686054724,46.3764371101881],[13.5144919340513,46.3764355729559],[13.5145473138085,46.3764419557126],[13.5153121837183,46.3765301073903],[13.5154287274191,46.3765435386429],[13.5158407430424,46.3765217386372],[13.5176711415115,46.3764988793077],[13.5184130391522,46.3770792774014],[13.5203478026654,46.3771684829538],[13.5213173655402,46.3768483106667],[13.5225298809971,46.3764314911832],[13.5239317534011,46.3761167925144],[13.5244291811861,46.3754914308044],[13.5255427996081,46.3751730817449],[13.5266964404882,46.3751543941442],[13.5289636705184,46.3748174021131],[13.5304812419986,46.3737726400975],[13.5323242228747,46.3731309710687],[13.5346644415632,46.3718637734339],[13.5362654129478,46.371285428041],[13.5373380318544,46.3707004820369],[13.5393123912114,46.3705258057551],[13.5401750780899,46.3706031334658],[13.5416736114025,46.3702561616989],[13.5427852584804,46.3700041087082],[13.5438417511838,46.3700173894895],[13.5458828010447,46.3691451768395],[13.546904559637,46.368659183056],[13.5476303144286,46.3684687570081],[13.5504182782885,46.3684038203802],[13.5514320741525,46.3682169318869],[13.5531784824276,46.3675737028504],[13.5543380977354,46.3673221445088],[13.5554205795671,46.3681668078324],[13.5570933514366,46.3684868179443],[13.5584388856419,46.3684702316857],[13.5597791774965,46.368653031325],[13.5618474152388,46.3687337689373],[13.5635070210013,46.3683583963833],[13.5637702713933,46.3700519160519],[13.5650694373257,46.3708293909617],[13.5665511596129,46.3705279478002],[13.5683683422534,46.3700174530734],[13.5693883693655,46.3697101909795],[13.5706025675036,46.3695424646807],[13.5728330542194,46.3692045031263],[13.5749359892555,46.3686973806026],[13.5770420491803,46.3680684363136],[13.5780851345841,46.3677157678147],[13.5792152504418,46.3673945818464],[13.5802287259041,46.3673308754932],[13.5823720608279,46.3677986035822],[13.5832824886011,46.3683122916393],[13.5841557059085,46.3685665724983],[13.5849217588723,46.3687129936426],[13.5851733369032,46.3691880996105],[13.5855971845337,46.3698023634109],[13.5859155656452,46.3702478835576],[13.5865582377213,46.3709104656425],[13.5870316615629,46.3713121035298],[13.5876044235734,46.3721261379001],[13.588358244296,46.3727444669022],[13.5891035838475,46.3728448984118],[13.5898512787045,46.3728539427427],[13.590462640315,46.373028918988],[13.5911619916065,46.3732044363834],[13.5915684146588,46.3736508453533],[13.5923522209368,46.3739647827041],[13.5930935485009,46.3742172810484],[13.5942555272139,46.3743683307279],[13.5948241702981,46.3744970526633],[13.5951720357632,46.374653469725],[13.5960254022984,46.3748312094553],[13.596792357194,46.3749470613972],[13.5974022103944,46.375182712841],[13.5977956992823,46.3752787706812],[13.5980945908983,46.3756325160533],[13.5979473664031,46.3762245243455],[13.5979777628969,46.376956637284],[13.5978462542623,46.3771478340201],[13.5975215250393,46.3773764281355],[13.5974037894246,46.3776794482145],[13.5977740346959,46.3779884539166],[13.5981956987452,46.3783355170677],[13.5985019560223,46.3787425247632],[13.5986808365922,46.3791742422495],[13.59868806183,46.3793846846459],[13.5984530671685,46.3796623360199],[13.5981660411444,46.3799918924371],[13.5984122516264,46.3802666254087],[13.5988348344826,46.3805786083542],[13.5993345704382,46.3808477187006],[13.5997712424853,46.3811073272848],[13.5999552936149,46.3813374794007],[13.6004461145238,46.3814573926223],[13.6007730742395,46.3815490268017],[13.6012366686976,46.3817475985414],[13.6016747957121,46.3819457669541],[13.6019122286364,46.382071391858],[13.6022998017473,46.382269029649],[13.6028827558192,46.3822586100413],[13.6033882078482,46.3822998742125],[13.6039076463541,46.3822974007652],[13.6045120182825,46.382436227415],[13.6047514675038,46.3824830558501],[13.6052927721169,46.3826123814797],[13.6071281395049,46.3831519121584],[13.6082040938867,46.3836734443256],[13.6090188259237,46.3840076167458],[13.6099062604572,46.3844742957262],[13.6102647572355,46.3848204558669],[13.6105484634956,46.38512197981],[13.6109123034589,46.3852578492262],[13.6112516877999,46.3853584214915],[13.6114463150069,46.385676405627],[13.6123640321489,46.3859504440697],[13.6129184416043,46.3860623480399],[13.6134752018235,46.3860866455095],[13.6138446003088,46.3860034921774],[13.6140767516452,46.3863395611244],[13.6143346997186,46.3866582178172],[13.614604594031,46.387003290354],[13.6148244645621,46.3873214845163],[13.6149982102654,46.3874637649677],[13.6153759227487,46.3875559719898],[13.6156895403229,46.3876737634276],[13.6158999132693,46.3878691193004],[13.6160723334735,46.3880640154073],[13.6163334017576,46.3882599840672],[13.6166341968408,46.3883863449578],[13.6169230508882,46.3884861989497],[13.6173398323503,46.3885351458803],[13.6177581655766,46.3885226594937],[13.6182930159678,46.3884064029645],[13.6185600627675,46.3883658136385],[13.618941987416,46.3882915224358],[13.6194126479891,46.3882095742116],[13.6197731991459,46.3879773020511],[13.6200146767857,46.387945127904],[13.6205141457175,46.3882315963849],[13.6209613819418,46.3885787932706],[13.6212747979819,46.3887052941505],[13.6215590290178,46.3889891623918],[13.6218950568823,46.3892299280703],[13.6221718478396,46.3893033516902],[13.622583132538,46.3895712038961],[13.6229708366119,46.3897686828136],[13.6233063067046,46.3900268920534],[13.6235183860778,46.3901609837455],[13.6237663116779,46.390374321539],[13.6243553550072,46.3906267623242],[13.6246950194595,46.3907184806836],[13.624881408257,46.3908609880388],[13.6250807582035,46.3909948337395],[13.6254049558628,46.3912003578535],[13.6255794009128,46.3913163588223],[13.6257783139372,46.3914677424778],[13.6259406809238,46.3915573260527],[13.6262648851507,46.3917628477802],[13.6263834910317,46.392088529889],[13.6264757398538,46.392448984105],[13.6267340075935,46.3927588889918],[13.6272839040806,46.393054660456],[13.6275202553049,46.3932328521236],[13.6279217105465,46.3933866630519],[13.6281470841282,46.3934945439542],[13.6286456375975,46.393816054412],[13.628982607115,46.3940216314603],[13.6292934400929,46.3942532558085],[13.6297557138431,46.3945129659298],[13.6301557796963,46.3947281128177],[13.6305688972621,46.3949258701889],[13.6308068922175,46.3950338969712],[13.6311990464473,46.3950561367108],[13.6320232867493,46.3950221849866],[13.6322200419167,46.395261163637],[13.6324049353606,46.395464911215],[13.6325101870694,46.3958167886094],[13.6327691630515,46.3961003264848],[13.6331706543128,46.3962541192958],[13.6335467075929,46.3964164238834],[13.6341395785709,46.3965198670079],[13.6346308307229,46.3966309108268],[13.6351649819737,46.3965496559451],[13.6354632454168,46.3967811133345],[13.635853013473,46.3968996679504],[13.6360652400195,46.3970249207085],[13.6364183589589,46.3970904929226],[13.6367736607973,46.3970684579561],[13.6373440297011,46.3970577123958],[13.6377884294169,46.3970191916574],[13.6382192177476,46.3970155059438],[13.6385352510905,46.3970455410885],[13.6388714926268,46.3972774417526],[13.6390579408089,46.3974199264778],[13.6392687817238,46.3976065172405],[13.6396392912353,46.3979877260152],[13.6398891864853,46.3981309642071],[13.64010142715,46.3982562095982],[13.6403010581991,46.3983813046424],[13.640763725209,46.3986234302361],[13.6409347445138,46.3988796321558],[13.6410925024967,46.3991619478288],[13.6412340397804,46.3995843358082],[13.6412528663751,46.399847455738],[13.6413600112633,46.4001204423101],[13.6416225317453,46.4002638266637],[13.6419621970159,46.4003643106656],[13.642535648551,46.4007391928079],[13.6427820884982,46.401022558854],[13.6429425557519,46.4011910003533],[13.6431669053483,46.4013426553012],[13.6433420716108,46.4014323658304],[13.6435829428458,46.4014264963072],[13.6439248783483,46.4014305521525],[13.6441015660471,46.4014589191383],[13.64434005097,46.4015493789741],[13.6446914741608,46.4016849930658],[13.644941703844,46.4018106796546],[13.6450609620215,46.4021100778127],[13.6452722755755,46.4022791185163],[13.6456618863728,46.4024064548321],[13.6458379282399,46.4024610830871],[13.6461911803329,46.4025178993631],[13.6463806143808,46.4025464137329],[13.6467983988524,46.4025601760654],[13.6473777540184,46.4026984791569],[13.6479594945182,46.4027403583151],[13.6483225919833,46.4029200052175],[13.6487235292273,46.4031000081809],[13.6490481054946,46.4032966519395],[13.6493206780147,46.4035453136576],[13.6495418119354,46.4038283660114],[13.6496376900377,46.4040486683154],[13.6497016439524,46.4045402166981],[13.6498510996683,46.4056727399541],[13.6500722447079,46.4059557913008],[13.6505738516363,46.4061632477137],[13.6510662197155,46.4062391449871],[13.6515701221607,46.4063589921389],[13.6518051857426,46.4065896610463],[13.6521042235657,46.4067947220613],[13.652416738035,46.40696494232],[13.6527057567136,46.4070647073391],[13.653070927376,46.4071566414992],[13.6534746291029,46.4072314838666],[13.6540945212712,46.40727378099],[13.6549242243579,46.4075377128727],[13.6554174732942,46.4075785129674],[13.6561842097788,46.4078328780464],[13.6570422990266,46.4079744074392],[13.6573588374516,46.4079868519586],[13.6577589835068,46.408201812499],[13.658182037783,46.4085223067188],[13.6585045322575,46.408806530854],[13.6590562645539,46.4090408995005],[13.6594316262117,46.4092381090709],[13.6598146682801,46.4096369427807],[13.6601388938158,46.4098510950091],[13.660308749896,46.4101598868114],[13.6618723730147,46.4083987468878],[13.6626320028127,46.4079079343162],[13.6638429226775,46.4076151993427],[13.6641420222401,46.4073030752391],[13.6645185497132,46.4069305843279],[13.6675467654171,46.406939281236],[13.6686973333246,46.4070402251331],[13.6721879193956,46.4053881853817],[13.6730081540104,46.4037764265593],[13.6733659285509,46.4025860303134],[13.6733030582841,46.4017889655006],[13.6733355823032,46.4004527300451],[13.6722427317537,46.3997577927776],[13.6717203737928,46.3992684001721],[13.6716040255662,46.3989826493076],[13.6715739832643,46.3985273154942],[13.6719673142666,46.397564873109],[13.6722296709539,46.3969137386338],[13.6729008947477,46.3963525525935],[13.6732914303398,46.3955037966614],[13.6719090483156,46.3948908784864],[13.671065563848,46.3940850116023],[13.6700586102676,46.3932488061385],[13.6699664599698,46.3919679813672],[13.6695353321722,46.391109946745],[13.6695177503368,46.3901427294544],[13.669823375998,46.3894068102753],[13.6703685412549,46.3889579857531],[13.6706343240345,46.3881647389929],[13.670650333301,46.3875107427192],[13.6704259790096,46.3865981627069],[13.669459422785,46.3857908515073],[13.6686545500122,46.3850991387092],[13.6678454164133,46.3845780464422],[13.6675265233845,46.3841762966274],[13.667252167493,46.3836328200669],[13.6683402100364,46.3828204585017],[13.6686841145901,46.3821987113405],[13.6686247844469,46.3812595273283],[13.6686832648515,46.3805491630679],[13.6692763268172,46.3798165007352],[13.670441568384,46.3792040343597],[13.6689167750181,46.377707880057],[13.6673225153963,46.375698956705],[13.6685837714539,46.3745188272479],[13.669685420278,46.3731378094234],[13.6703187617227,46.3724339506071],[13.6707112274636,46.3714999295339],[13.6707368839439,46.3704479188039],[13.6704435991539,46.3693040271985],[13.6660965559276,46.3665020582227],[13.658986025435,46.3628195581518],[13.6547152493266,46.3619896903803],[13.6483093675713,46.3578110581172],[13.6456216274662,46.3562185971995],[13.6441198689779,46.3551939210492],[13.6426325924677,46.3550506725436],[13.6411528117922,46.354605367807],[13.628226718691,46.3524140408292],[13.6262268682056,46.3538508145511],[13.6253941160786,46.3551503481493],[13.6245153445743,46.356827024237],[13.6176601615027,46.3563589057691],[13.60797757108,46.3623454854482],[13.6066263902305,46.3624169290068],[13.6058418996578,46.3625826309674],[13.6052927831905,46.3626198400353],[13.6041320197741,46.3626643359352],[13.6032637019306,46.3628144212767],[13.6024389600262,46.3629067308755],[13.6018732594793,46.3627685454266],[13.6015175469416,46.3626620768111],[13.6005524302366,46.3624751821871],[13.5999215217184,46.3620004135383],[13.5996354269454,46.3616466488757],[13.5991333907624,46.3614945641477],[13.5987561430676,46.3614023984933],[13.5981275714731,46.3612488484176],[13.5975825727074,46.3611254709562],[13.5973763322465,46.3609477655265],[13.5969208825401,46.3606211570887],[13.596464694215,46.3603235986975],[13.5957955455403,46.3601111457898],[13.595210585298,46.3598997234113],[13.5945857848125,46.3596001755654],[13.5938783066945,46.3592412156467],[13.5932458993722,46.3592335260545],[13.5921959376638,46.3590748475503],[13.5919129098885,46.3586042274237],[13.5916261356366,46.3582795850065],[13.5913363640734,46.3580716886169],[13.5905497429693,46.3575073163342],[13.5893063946334,46.3566746755898],[13.5884378888824,46.3560218253594],[13.5873692374323,46.3549576625151],[13.5863864361539,46.3538361590707],[13.5861134000909,46.3529861452577],[13.5858509156071,46.3517274278084],[13.585273748116,46.3512240009554],[13.5844322571978,46.3511553730947],[13.5836660187458,46.351438022846],[13.5831611039811,46.3514026157342],[13.5827862159276,46.3512228834492],[13.5825402388654,46.3509571153784],[13.582297283331,46.3505746003705],[13.5820557133863,46.3501336200953],[13.5819391453237,46.3497526717044],[13.581651721872,46.349457146603],[13.5814470871652,46.3492210399575],[13.5812891987352,46.3488103371789],[13.5807488961487,46.3485117614332],[13.5802936486702,46.3481850883533],[13.5801802522939,46.3476873035197],[13.5796084709485,46.3469795876053],[13.5791255362633,46.3460977070591],[13.5794533995164,46.3448462187072],[13.5795897286589,46.3444683196239],[13.5795122436712,46.344204637928],[13.5791820276969,46.3439377256165],[13.578718376709,46.3439320525457],[13.5782088617305,46.3440718322139],[13.5774902026854,46.3441506155342],[13.5767745719157,46.3441126480364],[13.5764427223381,46.3439041894291],[13.5761140367466,46.3435789852441],[13.5759132362642,46.3431969811284],[13.5760878751892,46.3429654983341],[13.5765223205741,46.3424744413523],[13.5764885758335,46.3421529100825],[13.5760754857439,46.3418266547058],[13.574904728805,46.3414618948355],[13.5734498200165,46.3406848334266],[13.5731747690014,46.3399223045075],[13.5726559996304,46.3388063799635],[13.5727103576964,46.3383399221426],[13.5729334037698,46.3378754800584],[13.5730743152874,46.3373224692769],[13.5738142729582,46.336426400427],[13.5735262016819,46.3361600870619],[13.5731064688294,46.3360965470358],[13.5725587395221,46.3360897994819],[13.5718883305893,46.335935581673],[13.5711788964629,46.3356639980512],[13.5706059626909,46.3350146131219],[13.5704580839837,46.3342244257963],[13.5710724580037,46.3332976527744],[13.5722093001033,46.3333409174541],[13.5741466661354,46.3333938878149],[13.5752490256392,46.3331446416785],[13.5755523781502,46.332827220171],[13.5757729724105,46.3324503747807],[13.5759920482779,46.3321319021479],[13.5760043028091,46.3316648278692],[13.5756291712415,46.3309852713141],[13.575468363522,46.3300603301075],[13.5751513779479,46.3297380572496],[13.5744102919217,46.3294174237359],[13.5741206465541,46.3290330479866],[13.5740833773164,46.328548081253],[13.574045213296,46.3280975627774],[13.5735530580996,46.3278146676411],[13.5728601944363,46.3275638144757],[13.5724197084001,46.3272122805723],[13.5722308285028,46.3267946086506],[13.5721908783239,46.3264133459534],[13.5720002026419,46.3260648400471],[13.5718559109516,46.3258553809935],[13.571253799565,46.3251430127659],[13.5701694198546,46.3242193831393],[13.5691378599212,46.3244340174312],[13.5677192504953,46.3253264158038],[13.5668562191127,46.3253725527872],[13.5655652954237,46.32450324266],[13.5648503761242,46.3235841974698],[13.5648610789153,46.3228273923783],[13.5642051248623,46.3215569302345],[13.5632607210561,46.3215734967081],[13.5607943881532,46.3233059377457],[13.5587580615833,46.324275741059],[13.5564479456977,46.3247301971622],[13.5545164993217,46.3248196977069],[13.5529171326722,46.3247710328937],[13.5496170159914,46.3245052707952],[13.5477101700785,46.3245631181058],[13.5457049599317,46.3243386079115],[13.5443920348743,46.3243219885553],[13.5419681959378,46.3244134639839],[13.5406586528535,46.3242452409992],[13.5399423604668,46.3237303589827],[13.5387206153662,46.3230067542368],[13.5379342216344,46.3223898341543],[13.5368243206429,46.3218083564976],[13.535116509544,46.3212919959516],[13.5339539881445,46.3217148108172],[13.5326885965234,46.3230069590105],[13.5319297644767,46.3237651334775],[13.5303266476985,46.3238583510309],[13.5296506616609,46.3236508192412],[13.5291258859239,46.3227053838376],[13.5289343593773,46.3221909749635],[13.5275282024905,46.3211452040679],[13.5266702337747,46.3204767195316],[13.5253043141456,46.31970063782],[13.5226053148168,46.3194363592612],[13.5204203566871,46.3198063207831],[13.5188038988224,46.319820027973],[13.5170539449362,46.3198481757732],[13.5149700802875,46.3195083798929],[13.5124372001544,46.3190774099551],[13.5100520830368,46.3186292354924],[13.509097604275,46.3181240107611],[13.507670164775,46.3177926404543],[13.505448803196,46.3179912522418],[13.5031636069561,46.3175064515022],[13.5019319292219,46.3174787114111],[13.4998901478686,46.3174017322899],[13.4983242834574,46.3173863924882],[13.4976840642705,46.3167808313495],[13.4974130217837,46.316180029574],[13.4963603173544,46.3156543327229],[13.4946518791174,46.3150916518157],[13.4921270507849,46.3143760227727],[13.4891680057329,46.3145361541284],[13.4883971738886,46.3142132185045],[13.4870060147592,46.3134405724085],[13.4861570318656,46.3124684225134],[13.4858740668091,46.31193329506],[13.4852057064432,46.3099268619214],[13.4852581509777,46.3089390241163],[13.4856995351256,46.3079099128486],[13.4869538823003,46.3069421274743],[13.4877817171035,46.3065207611987],[13.4881673318443,46.3060765365157],[13.4883251532979,46.3044325675784],[13.4886153377912,46.3031815508016],[13.489826039784,46.3019114766672],[13.4915047699267,46.3010296820951],[13.493530464426,46.3004590638775],[13.4959848620203,46.2992114251968],[13.4973249018193,46.2982051542428],[13.4989830436969,46.2973081333331],[13.5002439965397,46.2965656702889],[13.5013689250803,46.2958121428919],[13.5019174711264,46.2952504328202],[13.5024697480774,46.2945467013791],[13.503469929389,46.2939624678235],[13.5057418917394,46.2932328149716],[13.5066089685384,46.2929400364208],[13.5074889148302,46.2924789895752],[13.5091722355976,46.2923345945892],[13.5108364495348,46.2924254756137],[13.5118918831784,46.291967310606],[13.5129315067861,46.2914404605967],[13.5136445273031,46.2908524019475],[13.5134266070842,46.2897973319994],[13.5134120401742,46.2886665394664],[13.5139201726444,46.2883537414594],[13.5152752691449,46.2885642522182],[13.5163556151438,46.2889576057688],[13.51741705324,46.2888787045168],[13.5179317560382,46.2885188279646],[13.5178227860305,46.2876270403531],[13.517997863969,46.2871699070537],[13.5181119079867,46.2865745031878],[13.5187058696371,46.2860176194044],[13.5192342431549,46.2857270134431],[13.5197090550975,46.2659178764591],[13.5191629222574,46.2662826633891],[13.5168922231472,46.2672061343299],[13.5127517579495,46.2678728469152],[13.5111307580189,46.2683166382145],[13.5090762494807,46.2686849337227],[13.5068155094437,46.2692365637549],[13.5049283714268,46.2696070608375],[13.5031107929568,46.2698854050702],[13.5017886680042,46.2704259198273],[13.4990130320713,46.2714121456786],[13.4974119483752,46.2723440199463],[13.4953468980016,46.2730837903581],[13.494065852885,46.273345838645],[13.4918743848547,46.2738050530283],[13.4907667528562,46.2738602537764],[13.490242175924,46.2734350399852],[13.489754260079,46.2728941523617],[13.4890287932138,46.2724663685825],[13.4879204205304,46.2725446551183],[13.4862366429913,46.2728245907939],[13.4834858700137,46.2729044659204],[13.4830431532384,46.2731542963069],[13.4804751592171,46.2738871226349],[13.4746028102919,46.2741114012367],[13.4731908902649,46.2742553132816],[13.4711023262386,46.2746225612404],[13.4696936202475,46.2746502273305],[13.4682811580922,46.2748172846226],[13.4669559896677,46.2754502982127],[13.4647905510864,46.2761649570379],[13.463701122658,46.2767545823427],[13.4624088011123,46.2774111977066],[13.4604153697174,46.277965415089],[13.4589664643123,46.2782248989748],[13.4568218183172,46.278196056442],[13.4540004248881,46.2783904243227],[13.4520206175762,46.2784566635262],[13.4504429116667,46.2785283199363],[13.4489862110085,46.2790663993835],[13.4470541415838,46.2798071014474],[13.445630184872,46.2803687960547],[13.4446778870774,46.2808438588161],[13.4433819547054,46.2816164554436],[13.4416896543842,46.2821744463869],[13.4387856390291,46.282901754503],[13.4354050638392,46.283878171433],[13.432901034702,46.2846806233573],[13.4288807605616,46.28574110818],[13.4266561426636,46.2861521900223],[13.4231867464694,46.2867088265416],[13.4205296276066,46.2869975767045],[13.4182077049021,46.2872909039352],[13.416466247064,46.2872204565553],[13.4150518477739,46.2874332554656],[13.413133386192,46.2876856467474],[13.4107192031561,46.2888374167362],[13.4081605769281,46.2891969780372],[13.4068076487008,46.2895965059062],[13.4050587213855,46.2897813050539],[13.4019246799981,46.2903186716584],[13.4013809149949,46.2905666828087],[13.3998911804391,46.2910571579749],[13.398306966475,46.2913371918073],[13.3969944279859,46.2915047681911],[13.3932370425397,46.2915683510611],[13.3896499974639,46.2915412676767],[13.3865414036798,46.2907027299158],[13.3865397231426,46.2907085223499],[13.3862083683083,46.2906908886849],[13.3859175328876,46.2906591605455],[13.3857357357696,46.2906578530045],[13.3854769412895,46.2906104234207],[13.3848256219399,46.290491052376],[13.3845975487089,46.2905117146914],[13.3845386717552,46.2905170485778],[13.3844707056077,46.2905200608155],[13.3842323586253,46.2905306239547],[13.3842081414889,46.2905327114921],[13.3839678257059,46.2905534266264],[13.3837508628559,46.2905562973889],[13.3837521582021,46.2905240113989],[13.3837615706766,46.2902894076965],[13.3836876410913,46.2901786358653],[13.3836752727821,46.2901601038559],[13.3836264473627,46.2900869463405],[13.3834201844076,46.2899953157347],[13.3833026988612,46.2899839619441],[13.3830242882958,46.2899570558773],[13.3828485425082,46.2898341471262],[13.3827377746189,46.2897566805963],[13.3826656283735,46.2897151939593],[13.382522340563,46.2896327980936],[13.3825146113695,46.2896072814249],[13.3824613035245,46.2894312936552],[13.382236724218,46.2892742609445],[13.3821734902779,46.2891474031991],[13.3819785305775,46.2890137144543],[13.3819565855364,46.2889986661296],[13.3819388182137,46.2889827282206],[13.3818573262649,46.2889096269442]]]},"properties":{"fill-opacity":0,"stroke-opacity":1,"stroke":"#ff0000","lov":"1103","lov_naziv":"BOVEC","luo":"11","luo_naziv":"Triglavsko","povrsina":11612.28},"id":"pregledovalniklovisca.1"}]}