<?xml version="1.0" encoding="utf-8" ?>
<kml xmlns="http://www.opengis.net/kml/2.2">
<Document id="root_doc">
<Schema name="pregledovalniklovisca" id="pregledovalniklovisca">
	<SimpleField name="lov" type="string"></SimpleField>
	<SimpleField name="lov_naziv" type="string"></SimpleField>
	<SimpleField name="luo" type="string"></SimpleField>
	<SimpleField name="luo_naziv" type="string"></SimpleField>
	<SimpleField name="povrsina" type="float"></SimpleField>
</Schema>
<Folder><name>pregledovalniklovisca</name>
  <Placemark id="pregledovalniklovisca.1">
	<Style><LineStyle><color>ff0000ff</color></LineStyle><PolyStyle><fill>0</fill></PolyStyle></Style>
	<ExtendedData><SchemaData schemaUrl="#pregledovalniklovisca">
		<SimpleData name="lov">1105</SimpleData>
		<SimpleData name="lov_naziv">ČEZSOČA</SimpleData>
		<SimpleData name="luo">11</SimpleData>
		<SimpleData name="luo_naziv">Triglavsko</SimpleData>
		<SimpleData name="povrsina">3605.62</SimpleData>
	</SchemaData></ExtendedData>
      <MultiGeometry><Polygon><outerBoundaryIs><LinearRing><coordinates>13.5761081365335,46.3301214739214 13.576933342677,46.3299538731985 13.5774993439314,46.3298897489574 13.5781950082844,46.3297738808801 13.5788380014065,46.3297107075032 13.5795240007598,46.3299679170076 13.5800532562525,46.3303297930409 13.5804528520431,46.3307435003433 13.580676686995,46.3310128678281 13.5816718223628,46.331220458189 13.5832054293406,46.3314347142748 13.5838923882938,46.3316563702183 13.5844052776011,46.3316626321114 13.5853088540317,46.3314426776445 13.5861835107083,46.3313467003053 13.5872817077179,46.3315377916903 13.5880936429763,46.3318853085223 13.5885730525023,46.3321933555979 13.5888721071536,46.3325346237718 13.5893803078769,46.3327185009705 13.5902038163603,46.3326219517279 13.5904853896982,46.3326431481594 13.5909941842834,46.3328092109563 13.5912969046409,46.3330084514847 13.5924208638364,46.3331998108136 13.5933917407372,46.3333537366237 13.5945934961454,46.333510492608 13.5957205325276,46.3335774254629 13.5964358782376,46.3336927372462 13.5968104977039,46.3340882657993 13.5974302238002,46.3349310839248 13.5982565055289,46.3357229877282 13.5987222612353,46.3365639106539 13.5991367342707,46.3374042931563 13.5997148952687,46.3378732939095 13.6006849677582,46.3380627767155 13.6017135933527,46.3379684749871 13.6033908369185,46.3375976868589 13.604985627651,46.3374391924155 13.6061466003919,46.3371864948485 13.6074358606775,46.3369354381507 13.6085749650346,46.336540293279 13.6093219465026,46.3364248603821 13.6101925927989,46.3364886213333 13.6111146684777,46.3367375336645 13.611751281827,46.3367382478873 13.6126485470096,46.3367667742798 13.6129309589991,46.3287014788168 13.6142898761261,46.3286709924378 13.6154167417704,46.3289990090344 13.6167334617788,46.3293030398234 13.6179388228915,46.3295271633524 13.6191115597591,46.3295410644496 13.6204940365735,46.3287447637412 13.6213535774397,46.3276800516733 13.6219368998782,46.3270577272888 13.6224446452721,46.3264344892374 13.6230665100046,46.3257864414092 13.6237195667843,46.3254009454056 13.6245264968954,46.324912389158 13.6251762517946,46.3246578449874 13.6260137200753,46.3244580072176 13.6267529272971,46.323653987513 13.627752369983,46.3230366307553 13.6284856380588,46.3224684363028 13.6290303887232,46.3218718845461 13.6290143478582,46.3210065165153 13.6282026233466,46.3201842374704 13.6277240979354,46.3196543145386 13.6272455839447,46.3191242997117 13.6270332161163,46.3185450254141 13.6270523589216,46.3177849871473 13.6274576427893,46.3167148612789 13.6279340047587,46.3158290410054 13.6282557157192,46.315072633135 13.6281249256349,46.3142583411074 13.6279137470832,46.3136266281979 13.627889861129,46.3130757989731 13.6280171970687,46.3125266946348 13.628447749715,46.3119550462342 13.6291110763728,46.3111500994362 13.6298016861751,46.3107650182747 13.6295366778809,46.3092675754488 13.6296798166618,46.308089479255 13.6298164078543,46.3071734847025 13.6303297586213,46.3063143685235 13.6308385176596,46.30563873934 13.6315487716639,46.3044673408012 13.6324704084899,46.3024070161265 13.6329485153666,46.3014426476761 13.6334982212561,46.3006364054353 13.6335890103638,46.3000344028267 13.6338661355792,46.2995395352939 13.6341108366863,46.2988345529702 13.6335782126835,46.2970718278765 13.6330544536771,46.2972230188796 13.6307526731361,46.297845976568 13.6277588693926,46.2986442178353 13.6265257564662,46.2990153929846 13.6256815654532,46.2994839929952 13.6245455053307,46.3000785463693 13.6224412281732,46.300695705109 13.6173935693181,46.2961792224291 13.6135078480818,46.2940025020009 13.6097167904102,46.2928822726381 13.60720124953,46.2921704666415 13.6037406649624,46.2914472463231 13.6014407296755,46.2911835827114 13.5995633457081,46.2906628686284 13.5974652225841,46.2899034163609 13.5966355490569,46.2898147777384 13.5929862207771,46.2890889139713 13.5895535227356,46.2899027961936 13.5862632132754,46.2906871156363 13.5841668949027,46.2912798261915 13.5828006908098,46.2915575590388 13.5818181094824,46.2917811029785 13.5807482515497,46.2920919084727 13.5795988522413,46.2921955874546 13.5785738182454,46.2924185760122 13.5774158932909,46.2928460299296 13.5759956126008,46.2935646860201 13.5749621387722,46.2941114398834 13.5738490039532,46.2944510624431 13.5728230115802,46.2947034086176 13.5719283871699,46.2948101908966 13.5709463407664,46.2950042268523 13.5634369002689,46.298930279168 13.5624503917461,46.2991717817092 13.5604609596454,46.2988933833104 13.5590898518445,46.2985743401112 13.5576521674957,46.2980279784553 13.5564390150085,46.2975332895077 13.5552473245742,46.2980739981403 13.5540272898576,46.2986303509954 13.553001650061,46.2990352977818 13.5507560249779,46.2999966438226 13.5474022668313,46.3008781000838 13.5425522652493,46.3019604657293 13.540543583998,46.3011656603048 13.5387186387596,46.300615015563 13.5371545006933,46.3009910719786 13.5355543166069,46.3015204990049 13.5344954538442,46.3017038804926 13.5323318358772,46.3014409338421 13.5316810806439,46.301314442693 13.5295964440017,46.2995136504559 13.528010516916,46.2982121145053 13.5273888527908,46.2974623702499 13.5266798945126,46.2969334609988 13.5249589130364,46.2962243234588 13.5231998797512,46.2952134384203 13.5212543132482,46.2934388508162 13.5206540857942,46.2920768094017 13.5202575595222,46.2910412148646 13.5196070233266,46.2899729983105 13.519337013464,46.2889684597599 13.5192832298453,46.2878195252412 13.5192134549524,46.2872591680366 13.5192342431549,46.2857270134431 13.5187058696371,46.2860176194044 13.5181119079867,46.2865745031878 13.517997863969,46.2871699070537 13.5178227860305,46.2876270403531 13.5179317560382,46.2885188279646 13.51741705324,46.2888787045168 13.5163556151438,46.2889576057688 13.5152752691449,46.2885642522182 13.5139201726444,46.2883537414594 13.5134120401742,46.2886665394664 13.5134266070842,46.2897973319994 13.5136445273031,46.2908524019475 13.5129315067861,46.2914404605967 13.5118918831784,46.291967310606 13.5108364495348,46.2924254756137 13.5091722355976,46.2923345945892 13.5074889148302,46.2924789895752 13.5066089685384,46.2929400364208 13.5057418917394,46.2932328149716 13.503469929389,46.2939624678235 13.5024697480774,46.2945467013791 13.5019174711264,46.2952504328202 13.5013689250803,46.2958121428919 13.5002439965397,46.2965656702889 13.4989830436969,46.2973081333331 13.4973249018193,46.2982051542428 13.4959848620203,46.2992114251968 13.493530464426,46.3004590638775 13.4915047699267,46.3010296820951 13.489826039784,46.3019114766672 13.4886153377912,46.3031815508016 13.4883251532979,46.3044325675784 13.4881673318443,46.3060765365157 13.4877817171035,46.3065207611987 13.4869538823003,46.3069421274743 13.4856995351256,46.3079099128486 13.4852581509777,46.3089390241163 13.4852057064432,46.3099268619214 13.4858740668091,46.31193329506 13.4861570318656,46.3124684225134 13.4870060147592,46.3134405724085 13.4883971738886,46.3142132185045 13.4891680057329,46.3145361541284 13.4921270507849,46.3143760227727 13.4946518791174,46.3150916518157 13.4963603173544,46.3156543327229 13.4974130217837,46.316180029574 13.4976840642705,46.3167808313495 13.4983242834574,46.3173863924882 13.4998901478686,46.3174017322899 13.5019319292219,46.3174787114111 13.5031636069561,46.3175064515022 13.505448803196,46.3179912522418 13.507670164775,46.3177926404543 13.509097604275,46.3181240107611 13.5100520830368,46.3186292354924 13.5124372001544,46.3190774099551 13.5149700802875,46.3195083798929 13.5170539449362,46.3198481757732 13.5188038988224,46.319820027973 13.5204203566871,46.3198063207831 13.5226053148168,46.3194363592612 13.5253043141456,46.31970063782 13.5266702337747,46.3204767195316 13.5275282024905,46.3211452040679 13.5289343593773,46.3221909749635 13.5291258859239,46.3227053838376 13.5296506616609,46.3236508192412 13.5303266476985,46.3238583510309 13.5319297644767,46.3237651334775 13.5326885965234,46.3230069590105 13.5339539881445,46.3217148108172 13.535116509544,46.3212919959516 13.5368243206429,46.3218083564976 13.5379342216344,46.3223898341543 13.5387206153662,46.3230067542368 13.5399423604668,46.3237303589827 13.5406586528535,46.3242452409992 13.5419681959378,46.3244134639839 13.5443920348743,46.3243219885553 13.5457049599317,46.3243386079115 13.5477101700785,46.3245631181058 13.5496170159914,46.3245052707952 13.5529171326722,46.3247710328937 13.5545164993217,46.3248196977069 13.5564479456977,46.3247301971622 13.5587580615833,46.324275741059 13.5607943881532,46.3233059377457 13.5632607210561,46.3215734967081 13.5642051248623,46.3215569302345 13.5648610789153,46.3228273923783 13.5648503761242,46.3235841974698 13.5655652954237,46.32450324266 13.5668562191127,46.3253725527872 13.5677192504953,46.3253264158038 13.5691378599212,46.3244340174312 13.5701694198546,46.3242193831393 13.571253799565,46.3251430127659 13.5718559109516,46.3258553809935 13.5720002026419,46.3260648400471 13.5721908783239,46.3264133459534 13.5722308285028,46.3267946086506 13.5724197084001,46.3272122805723 13.5728601944363,46.3275638144757 13.5735530580996,46.3278146676411 13.574045213296,46.3280975627774 13.5740833773164,46.328548081253 13.5741206465541,46.3290330479866 13.5744102919217,46.3294174237359 13.5751513779479,46.3297380572496 13.575468363522,46.3300603301075 13.5761081365335,46.3301214739214</coordinates></LinearRing></outerBoundaryIs></Polygon></MultiGeometry>
  </Placemark>
</Folder>
</Document></kml>
