<?xml version="1.0" encoding="utf-8" ?>
<kml xmlns="http://www.opengis.net/kml/2.2">
<Document id="root_doc">
<Schema name="pregledovalniklovisca" id="pregledovalniklovisca">
	<SimpleField name="lov" type="string"></SimpleField>
	<SimpleField name="lov_naziv" type="string"></SimpleField>
	<SimpleField name="luo" type="string"></SimpleField>
	<SimpleField name="luo_naziv" type="string"></SimpleField>
	<SimpleField name="povrsina" type="float"></SimpleField>
</Schema>
<Folder><name>pregledovalniklovisca</name>
  <Placemark id="pregledovalniklovisca.1">
	<Style><LineStyle><color>ff0000ff</color></LineStyle><PolyStyle><fill>0</fill></PolyStyle></Style>
	<ExtendedData><SchemaData schemaUrl="#pregledovalniklovisca">
		<SimpleData name="lov">1106</SimpleData>
		<SimpleData name="lov_naziv">DREŽNICA</SimpleData>
		<SimpleData name="luo">11</SimpleData>
		<SimpleData name="luo_naziv">Triglavsko</SimpleData>
		<SimpleData name="povrsina">4310.59</SimpleData>
	</SchemaData></ExtendedData>
      <MultiGeometry><Polygon><outerBoundaryIs><LinearRing><coordinates>13.6343235453232,46.2962106065075 13.6358122165285,46.2947432882363 13.6370411240568,46.2934994053786 13.6381077024264,46.2929583333036 13.6387027053939,46.2923864443218 13.6397777078574,46.2914931228889 13.6413505937698,46.2910334409565 13.643195398846,46.2898470144269 13.6440148607232,46.2890010045336 13.6460270526361,46.2883953135393 13.6475634703341,46.2879351140669 13.6628524152771,46.2834065001489 13.6637771834823,46.2842224817198 13.6658970683106,46.2851781013056 13.6676980082856,46.2858028229617 13.6689592049503,46.2862199634983 13.6702167659513,46.2867881123817 13.6712536002855,46.2874794642019 13.6734838147659,46.2883859297436 13.6814745030047,46.2835116843029 13.6811391698952,46.2832414061061 13.6807162111885,46.2830590090299 13.6802569710969,46.2826096914929 13.6797150861892,46.2820411030994 13.6799872703155,46.2813633304625 13.6799564133909,46.2808597549965 13.6800067856583,46.2805346342475 13.6799284023732,46.2802377178447 13.6795916724446,46.2800267110423 13.6793899694877,46.2795211618468 13.6787178225671,46.2790397769574 13.6781752764141,46.2785007743739 13.6775425285158,46.2781679337128 13.677039121638,46.2777772941611 13.6763257614868,46.2772363057425 13.6757762565031,46.2769932224948 13.675488660555,46.2765162722661 13.6741334837972,46.2760271242007 13.6739212657794,46.2759654603482 13.6736664985983,46.2759033924144 13.6731163066547,46.2756897995123 13.6725696901579,46.2753283296452 13.6724465333201,46.2751196913756 13.6724541357282,46.2747941668874 13.6722924633457,46.2744074741654 13.672255376043,46.2741702340976 13.6720062109942,46.2738713281971 13.6714567610605,46.2736281346588 13.6709479723044,46.2734743046849 13.670826842579,46.2731768846508 13.6708786895516,46.2727926722392 13.6707562602059,46.2725544393328 13.6708059625761,46.2722589155313 13.6709024994018,46.2717864191359 13.6706974571463,46.2714288208744 13.6704994444488,46.2707752921539 13.670591819307,46.2704802646355 13.6708123387867,46.2701868170582 13.670946082304,46.2699514726022 13.6710405971326,46.269567755972 13.6710930264212,46.2691538588432 13.6711441518566,46.2687992388641 13.6711546234358,46.2683552527163 13.6712044468965,46.2680598199216 13.6709944088105,46.2679093722693 13.6706921326411,46.2680539536187 13.670393891566,46.2680208839493 13.6703540832157,46.2679020161414 13.6704009182757,46.2677249537047 13.6701042382831,46.2676327890091 13.6697654771136,46.2675104426952 13.6694274314419,46.2673585924743 13.6690047654736,46.2671760648501 13.6681495317886,46.2672254863081 13.6675155419383,46.2669516872852 13.6674797842671,46.2666552584381 13.6673552310817,46.2665058004782 13.6668920592978,46.2662340791421 13.6660018095447,46.2659573729055 13.6652397059102,46.265682156046 13.6651621404025,46.2653556370211 13.6648716919179,46.2649970305527 13.6650524244338,46.264584724254 13.6648060857251,46.2641674302324 13.6645611880525,46.2636909500402 13.6644388056217,46.2634527105075 13.6641058342701,46.2630936051507 13.663257007348,46.2628765638435 13.6622331987586,46.2628351659465 13.6618944849448,46.2627127967111 13.6619834186452,46.2625658315576 13.6613892963058,46.2624109597769 13.6604971038823,46.2622229913371 13.6596503393104,46.2619171436523 13.6585902528554,46.2616088766183 13.6577407491206,46.2614213875336 13.657361556132,46.2612097257955 13.6565512411597,46.2611707842829 13.6560432057973,46.2609872051215 13.6562168891293,46.2608708419927 13.6563477769077,46.2607539755819 13.6564360012768,46.2606365176159 13.6566941600791,46.2605507478364 13.6566117216065,46.2604313741013 13.6562129935799,46.2604038343863 13.6550798958512,46.2602134412356 13.654331804553,46.2601662186835 13.6545355604317,46.2600030660424 13.6547579270332,46.2597631148272 13.6537274181316,46.2578519144162 13.6536122097744,46.2573177349187 13.653416694471,46.2568849990493 13.6531526115313,46.2565139864979 13.6526489665292,46.2560845463517 13.6518801673456,46.2553287025714 13.6507358254406,46.2548136891397 13.6499735854634,46.2544688186316 13.6494087586006,46.2536645316836 13.6463787809473,46.2522208769233 13.6449777392834,46.2519170823756 13.6443187131897,46.2517657607396 13.6439067051499,46.2516746791194 13.6431648352721,46.2515222780226 13.6425092362673,46.2512272089004 13.6421015674184,46.2508450179088 13.6420316640717,46.2504456046976 13.6415089391913,46.2498071495656 13.6410713327474,46.249083509206 13.6409812979378,46.2486384192441 13.6409235013171,46.248153584254 13.6410423451845,46.2475740377048 13.641201571448,46.2467770549417 13.6413552839073,46.2461979224166 13.6415085252657,46.2456429869377 13.6416911323146,46.2453062263054 13.6419147126047,46.2447279230927 13.6421707733795,46.2442468168549 13.642464190906,46.2437178378133 13.643282129393,46.2434472807704 13.6424820784271,46.2422883687971 13.642321364326,46.242085278941 13.6419978110264,46.2417653580388 13.641549939302,46.2414440488407 13.6406838940428,46.2412901554711 13.6396487579281,46.2412780213213 13.6381454157824,46.241777739321 13.6376064541518,46.2418001985269 13.6367003533992,46.2415883943474 13.6355473029031,46.2413162322938 13.6343400785837,46.2415606701609 13.6335048330508,46.2418382442711 13.632178394167,46.2418801428998 13.631228817175,46.2417539698726 13.630077938837,46.2413954938435 13.6289734370483,46.2408364711954 13.6274091323158,46.2404443971368 13.6265032245048,46.2402325143077 13.6248889886981,46.2401846750206 13.624225134805,46.2402342702255 13.6228162565018,46.2408150902252 13.6219120092245,46.2414798049687 13.6203307486687,46.2419411901957 13.6189950583531,46.2423563949778 13.617916984527,46.2424010384242 13.6173801757275,46.2423372334581 13.6166311546923,46.2424720391738 13.6159672668224,46.2425215860073 13.6148114130155,46.2423640771634 13.6143087280669,46.2425880473081 13.6142287853059,46.2424720917806 13.6141103818316,46.2422407734648 13.6139061176731,46.2421234003214 13.6138290696926,46.2418925831647 13.613920462515,46.2415487321555 13.61392973913,46.2411752737189 13.6136463923458,46.2409132530694 13.6133208431599,46.2406794213741 13.6133280820104,46.2403921330562 13.6132510387193,46.2401613154957 13.6133453260786,46.2397026034795 13.6131867694999,46.2394133037599 13.6126971425111,46.2391200762036 13.6118033779936,46.2384195765295 13.6114372245821,46.2381565445921 13.6109183351789,46.2373743961836 13.6103523064297,46.2368216452767 13.6090753141704,46.2365477088162 13.6079174274285,46.236476300113 13.6068321883361,46.2368082179779 13.6049669369139,46.2368720240032 13.603739937218,46.2362537683572 13.6032226338432,46.2354141107242 13.6028715970773,46.2345476913233 13.6019752424502,46.2339620689839 13.60111454088,46.2336068490695 13.600895862291,46.234064029072 13.600328731307,46.235206861856 13.59964165921,46.2361756525108 13.5986546104056,46.2375433045748 13.5975623501352,46.2390382296058 13.5964354730706,46.239849278045 13.5943972030835,46.2410473357169 13.5921640776285,46.241844733334 13.5909981550749,46.2425698619257 13.5894821453045,46.2441724017334 13.5885900359288,46.2454127444357 13.5880020374589,46.2459743864102 13.5871673647396,46.2465613184449 13.5867439434645,46.2470964662339 13.5865663236905,46.2476346520338 13.5861385033254,46.2483404231583 13.5861643882903,46.2489379885145 13.5863468468185,46.2498218969592 13.5861648310144,46.2505306175595 13.5859448913432,46.2511251419967 13.5856809205167,46.2518329378085 13.5859058154486,46.2526604182867 13.5860559477714,46.2532026568928 13.5863298616053,46.2537179944717 13.5864462065467,46.2539753181371 13.5869732719567,46.2542093778046 13.587542517957,46.2543870029605 13.5878236235049,46.2546179292663 13.5878976715589,46.2549316821359 13.5878875810442,46.2553297804897 13.5873777661761,46.2560345424651 13.5869571949457,46.2564559089614 13.5866608715516,46.2568220368568 13.5864437050531,46.2573027794216 13.5860640903185,46.2577247389915 13.5856448257627,46.258089343431 13.584474207516,46.2589850256024 13.5840901753611,46.259577513594 13.5836701538019,46.2599704429806 13.5835780754301,46.2603675247822 13.5835225811811,46.2609356495558 13.5833764696776,46.2618439206903 13.5832829235579,46.2622977572057 13.5826559074175,46.2627735019544 13.5819022735962,46.2633899205729 13.5812787722584,46.2637234532845 13.5803669304566,46.264110355239 13.5800282044312,46.2645327121933 13.5794903122365,46.2647251404778 13.5790248273641,46.2652881671631 13.578313569847,46.2658482254901 13.5779345702457,46.2662416436578 13.5776023001354,46.2664081892278 13.5772569168489,46.2670864293533 13.5769561862787,46.2676230662787 13.576454082579,46.2680150368564 13.5755832491168,46.2684024111471 13.5747466261912,46.2690460896372 13.5740360157385,46.269577607594 13.5734841658647,46.2703102134601 13.5730912086506,46.271243821138 13.5732047007116,46.2716150282135 13.573632938932,46.2725019312508 13.5736212638817,46.2729568706702 13.5737347651303,46.2733279872483 13.5737275177959,46.2736123024821 13.5735561900757,46.2738945703596 13.5735489416733,46.2741788855431 13.5732143967431,46.274430684506 13.5728820648998,46.2745971254474 13.5723902048257,46.2745910738416 13.5718536667685,46.2747265297988 13.5714751653421,46.275091590712 13.5708931953872,46.2753971537443 13.570026514838,46.275613857962 13.5690741475423,46.2759717308179 13.5685756141632,46.2762214633026 13.5678275638862,46.2766103155715 13.5674490251069,46.2769752726352 13.5672374053606,46.2772285944346 13.5672308643627,46.2774844864088 13.5668926922292,46.2778784690473 13.5665595792847,46.2780733133061 13.5656971607451,46.2781194487936 13.5649988333111,46.2781676377593 13.5642169086216,46.2782716356064 13.5634746181642,46.2784328993043 13.5626093482573,46.2785927018639 13.562197949362,46.2786444812262 13.5614584919708,46.2786921312343 13.5610815147576,46.2790002236907 13.5601625768624,46.2796427584569 13.5595381420947,46.2800046817362 13.5586616526735,46.2805908761588 13.5577055242203,46.281090854396 13.5570831683966,46.2813674058438 13.5565427925814,46.2816449890975 13.5559166878459,46.2820637345055 13.5555739238717,46.2826282146717 13.5551506589117,46.2831348132523 13.554397934088,46.283694107466 13.5535169691171,46.2844508847364 13.552684334683,46.2849238618322 13.5517331934037,46.2852247423715 13.5510310177543,46.2854149548995 13.550292213439,46.2854340194808 13.5496823979337,46.2852272636437 13.5492359507427,46.2850509195193 13.548742371071,46.2851016074609 13.5482861611945,46.2852949254838 13.5475474877049,46.2853139739801 13.5465664667168,46.285187868999 13.5460840396905,46.2848120343725 13.5447370881716,46.2845674428531 13.5434697488204,46.2844091444401 13.541992291335,46.2844472629353 13.5412527413882,46.2844947810618 13.5405632489158,46.2842015751217 13.5395934711956,46.283648900734 13.538938188532,46.283612095804 13.5382792538479,46.2837174880907 13.5376545011662,46.284079287677 13.5369418260852,46.2846674108769 13.5367292796838,46.2849490957103 13.5361061493947,46.2852539545106 13.5356491375356,46.2854756433875 13.5346098386407,46.2860027943804 13.5338590135666,46.2864766830626 13.5330217587694,46.2871200468432 13.5325982522846,46.2876265586709 13.5320994499727,46.2878761283718 13.5311921855703,46.2880636752791 13.530414625183,46.2879968188288 13.5297175402259,46.2879878552179 13.5291077767343,46.2877809902832 13.528492057769,46.2878014976342 13.5278307693298,46.2879920939498 13.526923359523,46.2881796051049 13.5260228112623,46.2881111338533 13.5252057859326,46.2879868700272 13.5243789679623,46.2882321737726 13.5234732029176,46.288362725745 13.5222445448868,46.2882900762224 13.521588585935,46.2882815946585 13.5209803811502,46.2880178434342 13.5205011689146,46.2875282162798 13.5201868487189,46.2870122002368 13.5199901608876,46.2866968170452 13.5200409822865,46.2863277750621 13.5198465946344,46.2859271267452 13.5192342431549,46.2857270134431 13.5192134549524,46.2872591680366 13.5192832298453,46.2878195252412 13.519337013464,46.2889684597599 13.5196070233266,46.2899729983105 13.5202575595222,46.2910412148646 13.5206540857942,46.2920768094017 13.5212543132482,46.2934388508162 13.5231998797512,46.2952134384203 13.5249589130364,46.2962243234588 13.5266798945126,46.2969334609988 13.5273888527908,46.2974623702499 13.528010516916,46.2982121145053 13.5295964440017,46.2995136504559 13.5316810806439,46.301314442693 13.5323318358772,46.3014409338421 13.5344954538442,46.3017038804926 13.5355543166069,46.3015204990049 13.5371545006933,46.3009910719786 13.5387186387596,46.300615015563 13.540543583998,46.3011656603048 13.5425522652493,46.3019604657293 13.5474022668313,46.3008781000838 13.5507560249779,46.2999966438226 13.553001650061,46.2990352977818 13.5540272898576,46.2986303509954 13.5552473245742,46.2980739981403 13.5564390150085,46.2975332895077 13.5576521674957,46.2980279784553 13.5590898518445,46.2985743401112 13.5604609596454,46.2988933833104 13.5624503917461,46.2991717817092 13.5634369002689,46.298930279168 13.5709463407664,46.2950042268523 13.5719283871699,46.2948101908966 13.5728230115802,46.2947034086176 13.5738490039532,46.2944510624431 13.5749621387722,46.2941114398834 13.5759956126008,46.2935646860201 13.5774158932909,46.2928460299296 13.5785738182454,46.2924185760122 13.5795988522413,46.2921955874546 13.5807482515497,46.2920919084727 13.5818181094824,46.2917811029785 13.5828006908098,46.2915575590388 13.5841668949027,46.2912798261915 13.5862632132754,46.2906871156363 13.5895535227356,46.2899027961936 13.5929862207771,46.2890889139713 13.5966355490569,46.2898147777384 13.5974652225841,46.2899034163609 13.5995633457081,46.2906628686284 13.6014407296755,46.2911835827114 13.6037406649624,46.2914472463231 13.60720124953,46.2921704666415 13.6097167904102,46.2928822726381 13.6135078480818,46.2940025020009 13.6173935693181,46.2961792224291 13.6224412281732,46.300695705109 13.6245455053307,46.3000785463693 13.6256815654532,46.2994839929952 13.6265257564662,46.2990153929846 13.6277588693926,46.2986442178353 13.6307526731361,46.297845976568 13.6330544536771,46.2972230188796 13.6335782126835,46.2970718278765 13.6343235453232,46.2962106065075</coordinates></LinearRing></outerBoundaryIs></Polygon></MultiGeometry>
  </Placemark>
</Folder>
</Document></kml>
