{"type":"FeatureCollection","features":[{"type":"Feature","geometry":{"type":"Polygon","coordinates":[[[13.7572027637151,46.2605199603893],[13.7576868685084,46.2603362785743],[13.7581160493157,46.2602869578872],[13.7582739057825,46.2601897021169],[13.7589900159009,46.2600715158918],[13.7594826157278,46.2600858597878],[13.7598214193727,46.2600175572766],[13.7601450231037,46.2600480594556],[13.7604153340297,46.2601409641087],[13.760584737602,46.2601067216425],[13.761152920556,46.2602208483295],[13.7613093533834,46.2601865541982],[13.7616317437632,46.2602710229501],[13.7620201928918,46.2603022222561],[13.7625881785961,46.2604253369847],[13.7628086446716,46.2604277231961],[13.7630518109718,46.2605743117538],[13.7634897107991,46.2607140089803],[13.7635006570573,46.2608041005911],[13.7637438268761,46.260950687702],[13.7640023926822,46.2609894729077],[13.7641043232451,46.2610715508271],[13.7645953172996,46.2611578338765],[13.7648032217631,46.2611420858441],[13.7648938011516,46.2611520618437],[13.7650109241189,46.2611353325705],[13.7654370762755,46.2612209114801],[13.765963952686,46.2614425359468],[13.7661678216946,46.2616066882602],[13.7662705638316,46.2616527837174],[13.7669583189911,46.2616422094048],[13.7669990407647,46.2615616727568],[13.7673404656941,46.2613764110912],[13.7674310459693,46.2613863850883],[13.76753640939,46.2613155425174],[13.7681629427851,46.261142349148],[13.7684356902302,46.2611272932157],[13.7685507979664,46.2612005118021],[13.7687455314196,46.2611936120362],[13.7688480736305,46.2612487003444],[13.7689657997355,46.261204981556],[13.7691132884333,46.2609906340385],[13.7693230027488,46.2608939213928],[13.7695442762748,46.2608603140209],[13.7696370697542,46.2607713395719],[13.7696518515876,46.2606904328093],[13.7697689722215,46.2606736986355],[13.7701365208555,46.2604797124119],[13.770190880615,46.2603633320552],[13.7703858120651,46.2603474343055],[13.7708181991989,46.2601541432817],[13.7713802685637,46.2599622444549],[13.7716063589708,46.2597127491479],[13.7719974214876,46.2596269774461],[13.7722119449634,46.2593143754231],[13.7723296642928,46.2592706530886],[13.7725012644473,46.2591375359817],[13.7728256735963,46.2591320216169],[13.7728376384205,46.259177136668],[13.7730327656571,46.2591522391843],[13.7730471386776,46.2590894121951],[13.773229499836,46.2590552900616],[13.7733751605772,46.258921893272],[13.7735962232517,46.2588972731128],[13.7737664153589,46.2588271202535],[13.7741027884253,46.2588667172093],[13.7744144280707,46.2588520640763],[13.7745592837479,46.2587546464348],[13.7747636264274,46.2583159679339],[13.7747929691405,46.258163327929],[13.7749420296803,46.2578770110639],[13.7750350097179,46.257779036875],[13.7751419590055,46.2576362256653],[13.7751980374084,46.2574478827033],[13.7751511734039,46.2572224474717],[13.7752334579458,46.2570163906145],[13.7755345239699,46.2568935632731],[13.7756931411397,46.2567603022692],[13.7758272233889,46.2565637970302],[13.7760624442459,46.2564853397605],[13.7761199192728,46.2562340299846],[13.776215295943,46.256028112556],[13.7762043296226,46.2559380218936],[13.7762959032856,46.255903012882],[13.7763374074602,46.2557864919133],[13.7766526301534,46.2556099191563],[13.7768778784996,46.2553963935726],[13.7770600231294,46.2553713503021],[13.777322571648,46.2552302014831],[13.7774660131549,46.255195746278],[13.7776110536381,46.2550893293706],[13.7778326987165,46.2550377152608],[13.7782512536264,46.2548801474563],[13.779003760046,46.2548701927288],[13.7790707930448,46.2547719380768],[13.7791485970825,46.2547727690224],[13.779319567853,46.2546666268662],[13.7793213643519,46.2545856700972],[13.7794007649131,46.2545145392942],[13.7795837038155,46.2544535111692],[13.7797518792126,46.2544733011153],[13.7801953595905,46.2543610688602],[13.7805065735677,46.2543643892416],[13.7807028767786,46.2542855072349],[13.7808590816471,46.2542601812318],[13.7810035151518,46.2541807455223],[13.7810967470719,46.2540647743844],[13.781174749472,46.254056608738],[13.7812950412145,46.2538959392989],[13.7813872060972,46.2538339405177],[13.7814562261211,46.2536457323446],[13.7816656917055,46.2535579916518],[13.7817207473434,46.253414621131],[13.7816824438962,46.25338722093],[13.7819467657338,46.2531650144167],[13.7820770329335,46.2531394103739],[13.7820411193609,46.2530040677935],[13.7820570735789,46.2528692778215],[13.7821512272254,46.2527173262999],[13.7823658647309,46.2523957088121],[13.7824879409764,46.2521540811051],[13.7825655423477,46.2521639049008],[13.7826201960731,46.252038524299],[13.7825332113714,46.2518666486381],[13.782677835189,46.2517782154832],[13.7828075017053,46.2517795962039],[13.7830811942543,46.2517195287429],[13.7833818141022,46.2516147605476],[13.7834987125571,46.2516070072656],[13.7837211337258,46.2515194006529],[13.7837989332986,46.2515202283894],[13.7843624619319,46.2512562124448],[13.7844683804285,46.2511583680843],[13.7845856752338,46.2511326232402],[13.7847169299553,46.251062040021],[13.7849642866414,46.2510196827343],[13.7851491941753,46.250868693276],[13.7858368131291,46.2508580040069],[13.7860309129066,46.2508780600772],[13.7865115341939,46.2508381763541],[13.7869322124363,46.2505817185445],[13.7870355469132,46.2506008097084],[13.7871398729873,46.2505749246344],[13.7871492699183,46.250736976326],[13.787200342445,46.2507735075099],[13.7876174489538,46.2506789612778],[13.7877913637224,46.2504378776268],[13.7879078627871,46.250448110267],[13.7879617099304,46.2503587078675],[13.7879505271215,46.2502776133002],[13.7882908213732,46.2501372634962],[13.78862913333,46.2500868650075],[13.7888148218232,46.2498997985732],[13.7890097113919,46.2498838686222],[13.7892618104972,46.2496256162548],[13.7895244984603,46.2494754434608],[13.7896419852879,46.2494406981239],[13.7896818730948,46.2493961337734],[13.789864388087,46.2493530793446],[13.7899441631486,46.2492639504674],[13.7902176378877,46.2492128609368],[13.7902577228485,46.2491593011359],[13.7903616491828,46.2491514035574],[13.7904017339584,46.2490978437036],[13.7904926941032,46.2490898088065],[13.7905325809669,46.2490452441473],[13.790818427054,46.249021276073],[13.7915087886067,46.248884619016],[13.7918636114431,46.2486724334635],[13.7919445673162,46.2485293316502],[13.792116086565,46.2483961840662],[13.7923626361079,46.2483897915765],[13.7925852297714,46.2482930822014],[13.7928082831097,46.2481694752118],[13.7930069147596,46.2479826285789],[13.7931680288638,46.2477324041711],[13.7932864961204,46.2476526787501],[13.7933546783297,46.2475004437409],[13.7934863077349,46.2474118597052],[13.7937470016536,46.2473516294934],[13.7938792216152,46.247236059224],[13.7940092722826,46.2472194366239],[13.794062120557,46.2471750074611],[13.794152682772,46.2471849601281],[13.7942717387716,46.2470782478791],[13.7944277201475,46.2470618983025],[13.7945082727841,46.2469367850647],[13.7946658300858,46.2468484730813],[13.7949903627811,46.2468338998171],[13.7953156830913,46.2467833445812],[13.7954054572004,46.2468292773015],[13.7956009248785,46.2467863501922],[13.7957950142142,46.2468063895919],[13.796042739268,46.2467459275521],[13.7963317196681,46.2465780212983],[13.7964786685785,46.246381627057],[13.7966252229821,46.2462032231449],[13.7969267707698,46.2460534423466],[13.7972511016812,46.24604785788],[13.7973819349869,46.2459952503223],[13.7975929188937,46.2458355176347],[13.7979486812632,46.2455783363047],[13.7985617803995,46.2454138321339],[13.7988719641312,46.2454620784184],[13.7991548437766,46.2455730184138],[13.7994943623755,46.2454596190571],[13.7997909933724,46.2455347125342],[13.8001436053493,46.2454214487182],[13.8003160776964,46.2452432221173],[13.8005777344819,46.245137999725],[13.8006812598084,46.2451480832358],[13.8008637523866,46.2451050109939],[13.8010210983615,46.2450256853575],[13.8012285407381,46.2450278609115],[13.8014373546429,46.2449670690928],[13.8016736654555,46.2448345864206],[13.8018153022944,46.244881057769],[13.8020357093052,46.2448833677461],[13.8026491803336,46.2447008508629],[13.8029102431076,46.2446226089244],[13.8029029529549,46.2443616097213],[13.8028009942709,46.2442795659055],[13.8028923361954,46.2442535304587],[13.802894097367,46.2441725728376],[13.8031932695546,46.2441307186874],[13.8033124970978,46.2440150014411],[13.8037260057646,46.2440823108448],[13.8040135804503,46.2439773517975],[13.8040290868432,46.2438605485984],[13.8040946951848,46.2438251556449],[13.8041783486422,46.2435561105263],[13.8042366581291,46.2432598082069],[13.8043291703605,46.2431797998003],[13.8045029880512,46.2429386894811],[13.8045992119011,46.2426877701626],[13.8046311982452,46.2424091870191],[13.8048296393281,46.2422223177157],[13.8051301666553,46.2421174912567],[13.8054976628392,46.2419143930252],[13.8056820931645,46.2417813598893],[13.8057368788507,46.2416469721022],[13.8058830021532,46.2414864564233],[13.8060813701368,46.2413085815045],[13.806202146428,46.2411208986173],[13.806651123164,46.2407476979802],[13.8072806162247,46.2404213658892],[13.8073357864682,46.24026898663],[13.8074406684226,46.2402160967657],[13.8075339504403,46.2401001043787],[13.8077427388018,46.2400393007438],[13.8078745221307,46.2399417043188],[13.8081489085608,46.2398455946287],[13.8082789377305,46.2398289555637],[13.8086796522122,46.2398871163862],[13.8088621212556,46.2398440311088],[13.8090440060669,46.2398279314921],[13.809301728444,46.2399025950005],[13.8098342243201,46.2398631535314],[13.8101126910085,46.2395781373364],[13.8104267411599,46.239446445641],[13.8110784328563,46.2392912731835],[13.8111841512461,46.2391934018445],[13.8113155379464,46.2391137920137],[13.8114983909227,46.2390527118236],[13.8116810492835,46.2390006266646],[13.8120229615158,46.238779246732],[13.8124978090408,46.238406201907],[13.8127953907659,46.2384362848733],[13.8130279605432,46.2384746893813],[13.8131819727637,46.2385482672394],[13.8132992277227,46.2385224924909],[13.8134671737349,46.238551227873],[13.813519416283,46.2385337754237],[13.8138305445735,46.2385370042515],[13.8139112343495,46.2384028812811],[13.813976052594,46.2384035537998],[13.8140259689208,46.2384940451558],[13.8141151641133,46.2385669492773],[13.8142186798259,46.2385770204447],[13.8145692807377,46.2385536646633],[13.8153985697048,46.2385802560558],[13.8156829968407,46.2386191925292],[13.8163017088852,46.2387965504453],[13.816430185795,46.238851864808],[13.8165987147636,46.23885360958],[13.8167525395185,46.2389361780226],[13.8169851143218,46.2389745745224],[13.8171902153305,46.2390846650499],[13.8176573014843,46.2390714123855],[13.8180957535433,46.2391839145833],[13.8182279029594,46.2390683153152],[13.8183194222598,46.2390332720162],[13.8186398215858,46.2386047109536],[13.81875707422,46.2385789305836],[13.8188356286669,46.2385437528984],[13.8192988487061,46.2387104904875],[13.8197887707082,46.2388415124892],[13.8198293979795,46.2387609558131],[13.820049010544,46.2387992122555],[13.8201507924242,46.2388902362672],[13.8203591770943,46.2388474001118],[13.820461537917,46.2389114377817],[13.8210799468198,46.2390977640228],[13.8212479007957,46.2391263980717],[13.8215449138285,46.2391834444168],[13.8217399495766,46.239158462823],[13.8222192275924,46.239181396533],[13.8224129158188,46.2392193813253],[13.8225562254662,46.2391938654794],[13.8228534326748,46.2392419130766],[13.8231533331928,46.2391640247939],[13.8235830636913,46.2390784745447],[13.8239067756104,46.2390998001267],[13.8244253300637,46.2391051339737],[13.8246609847385,46.2389995889947],[13.8248300908546,46.2389743355255],[13.8250144650663,46.2388412705955],[13.825508049443,46.2388013561448],[13.8258590314655,46.2387599749567],[13.8260815263345,46.2386632892239],[13.8264447055583,46.2386579309018],[13.8274167967173,46.2386769036598],[13.8279516976561,46.2385294343093],[13.8281593090894,46.2385225653894],[13.8286875682955,46.2386809342575],[13.8288172061305,46.2386822625096],[13.8290739940184,46.2388018585774],[13.8295126594342,46.2389053218022],[13.8296554529528,46.2388977864611],[13.8296928143075,46.2389701477175],[13.8297702149281,46.23898893478],[13.8298199666204,46.2390884148659],[13.8301541596989,46.2392267955171],[13.8304142027024,46.2391934670182],[13.8308932942716,46.2392253597846],[13.8310627805002,46.2391821062947],[13.8312309293235,46.2392018202892],[13.8315303749196,46.2391508974147],[13.8320626587163,46.2391203475647],[13.8323623551717,46.239051430385],[13.8330164641126,46.2387791021113],[13.8337064062271,46.2386511831711],[13.8340558571733,46.2386817399506],[13.8345379943309,46.2385696909926],[13.8348254827465,46.2384646535086],[13.8350883752938,46.2382963832455],[13.8353390639208,46.2380919986573],[13.8353276229962,46.2380199033308],[13.8357195772459,46.2378799384955],[13.8358646504569,46.2377644504683],[13.8361008485064,46.237631895395],[13.8363481072277,46.2375894258833],[13.8364668728824,46.2374915740077],[13.8365711516065,46.2374656433107],[13.8366637975544,46.2373766127131],[13.8368593907882,46.2373246189545],[13.8369516558869,46.2372535789397],[13.83717241522,46.2372378300713],[13.8373956444355,46.237105140392],[13.8376943737109,46.2370811861173],[13.8381893928641,46.2369782500678],[13.8383988958704,46.2368814083083],[13.8385157563257,46.236873598378],[13.8387243094663,46.2368217331041],[13.8388178996837,46.236687723612],[13.8392321581728,46.236718922867],[13.8394189560018,46.2364688937795],[13.8396718957377,46.2361565543273],[13.8400698935173,46.2357286307805],[13.8404559454092,46.2358675075744],[13.8411890794337,46.2355330425413],[13.8414874200639,46.2355270691109],[13.8418265425911,46.2354315346073],[13.8420980103771,46.2354702740596],[13.8422518646913,46.2355528085032],[13.8426527754594,46.235601854883],[13.8430031579407,46.2355874070223],[13.8434944336335,46.235655359712],[13.8438202125902,46.2355776789961],[13.8440183782928,46.2354087334724],[13.8442052111024,46.2351496095595],[13.8441979143184,46.2348796153193],[13.8446090175665,46.2344429010385],[13.8446638897052,46.2342994980328],[13.8446398520268,46.2342092815894],[13.8448087460179,46.2341929937631],[13.8449553004671,46.2340055303149],[13.8449716605593,46.2338437433123],[13.8451721399723,46.2335578535639],[13.8452677844669,46.2333248886235],[13.8455045069357,46.2331653272929],[13.8456371524689,46.2330226192547],[13.846115069159,46.2331084205243],[13.8465797774812,46.2332120812243],[13.8469686548486,46.2332160043211],[13.8470866368064,46.233154212834],[13.8474349311293,46.2332387011961],[13.8478226791796,46.2332965941062],[13.848367673135,46.2332750937953],[13.8486915500483,46.2332873535262],[13.8492369197311,46.2332478581529],[13.8497308142329,46.2331898475239],[13.8501993462268,46.2331045876074],[13.8504345509038,46.2330169796135],[13.8514356141347,46.2328919919196],[13.8517204144288,46.2329128477918],[13.8520555644854,46.2330061873871],[13.8523631027909,46.2331802249514],[13.8524001153591,46.2332705700323],[13.852793492926,46.2330585820742],[13.8531049694366,46.2330437128005],[13.8532599581123,46.2330722597283],[13.8531248658844,46.2327110104348],[13.8530401257059,46.2324222449871],[13.853025258294,46.2318912520477],[13.8529660694356,46.2316207375779],[13.8530877893019,46.2313790303332],[13.853231310111,46.2313354834282],[13.8533350074421,46.2313365236512],[13.8534511049315,46.2313646802121],[13.8536196131997,46.2313663702036],[13.8538542432726,46.2313057414536],[13.8541027730132,46.2312001748153],[13.8544446551762,46.2309696701993],[13.854878952617,46.230659114165],[13.8549501236964,46.230353917047],[13.8550558770057,46.2302560054045],[13.8550318238935,46.2301657909431],[13.8552397754013,46.2301408815435],[13.8556179140778,46.2300366994307],[13.8557618033305,46.229975158321],[13.8557764477318,46.2298943287108],[13.855764981499,46.2298222350975],[13.8558846287833,46.2296794749777],[13.8557833647812,46.2295614958007],[13.8559963602653,46.2292937069061],[13.8564184232579,46.2289469431137],[13.8566147155979,46.2288589330779],[13.8572139365322,46.2287209673455],[13.8578618284734,46.2287364398316],[13.8582936641605,46.2285428117765],[13.8597142960751,46.2281791025765],[13.8598803734851,46.2282977247386],[13.8600195407289,46.2284700624398],[13.8605205722021,46.2286909944019],[13.8608279277393,46.2288740048462],[13.8617507505154,46.2293870492852],[13.8618799960812,46.229406330856],[13.8619699846041,46.2294432161792],[13.8622681051092,46.2294461836864],[13.8626302911772,46.2294857772785],[13.8627623262336,46.2293700353087],[13.8632074832131,46.2291585265314],[13.86331359107,46.2290426160566],[13.8635487579128,46.2289549806672],[13.8636687545458,46.2287942211563],[13.8638907725577,46.2287154517097],[13.8641142745689,46.2285647177297],[13.8642344542473,46.2283949620789],[13.8644181419131,46.2282888186954],[13.8644466622193,46.2281631390207],[13.8647108995357,46.22792283494],[13.8649624310245,46.2277893826588],[13.8648361989864,46.2273662431175],[13.864140082756,46.2265972520906],[13.8636479718086,46.226321180805],[13.8627648316605,46.2260413078892],[13.8622727344954,46.22576514081],[13.8618902387006,46.2253420562624],[13.8614037637325,46.2247944909682],[13.8611615493202,46.2244714121683],[13.8609186982826,46.2241729792662],[13.860890839766,46.2238026401076],[13.8611106747707,46.2234838945592],[13.8612956334301,46.2231402383569],[13.8613393060728,46.222745869016],[13.8614184905389,46.2223517633728],[13.8615002215011,46.221834419091],[13.8616952423478,46.2209972667905],[13.8618136337647,46.2202549931121],[13.8604064520139,46.2185384009168],[13.8563805098926,46.2169521758455],[13.8553363076304,46.2158618593683],[13.8548817269914,46.2152148937499],[13.8544716482059,46.2143792473162],[13.854459983039,46.2138868838029],[13.8544697834184,46.2132161373597],[13.8544407434822,46.2126306566797],[13.8524762906894,46.209508744956],[13.851883793793,46.2089355102448],[13.8514666364697,46.2084872984921],[13.8512255783869,46.2081149035703],[13.8509535244935,46.207520050999],[13.8509699870795,46.2067306055139],[13.8509456759867,46.2061874585484],[13.8508143482573,46.2056680685048],[13.8505757514004,46.2051722525314],[13.850086474319,46.2047727058983],[13.8496673007873,46.2044232583364],[13.8495684003116,46.2040521101952],[13.8497547787688,46.2036344372623],[13.8498376186733,46.2030677150751],[13.8494565339999,46.2025952055802],[13.8490372512522,46.2022457544635],[13.8488337966027,46.2017749412554],[13.8489491786499,46.2013565544682],[13.8489238573854,46.2008627921168],[13.8485355786362,46.2007357070922],[13.8480417149785,46.2005581610113],[13.8477640575087,46.2002346951589],[13.8475586870314,46.1998625616923],[13.8472079784274,46.1996371494012],[13.846640942958,46.1995575607646],[13.8465446501097,46.1990631715695],[13.8462377106375,46.198443301872],[13.8459230292979,46.1981935063464],[13.8458937331615,46.197897105973],[13.8462557851919,46.1975798234317],[13.8463309050303,46.1973831785436],[13.8460868311855,46.1971587489125],[13.8457351133971,46.1969826275794],[13.8455997237145,46.1966605027983],[13.8456794956284,46.1962417593036],[13.8455425556129,46.1959937573978],[13.8451634936089,46.1954225518111],[13.8447073790429,46.195146670909],[13.844570318399,46.1948985765936],[13.8443262626017,46.1946741432764],[13.8439740493594,46.1945226643276],[13.8435178186636,46.1942467774507],[13.8433479906031,46.1938749955924],[13.8428567919773,46.1935741892637],[13.8420077009421,46.193393200191],[13.8415874989672,46.1930930176169],[13.8414511048776,46.1928202733025],[13.8413253108358,46.1925363894937],[13.8409979477699,46.1923255003398],[13.8411468506658,46.1920769718999],[13.8411493635815,46.1918218307003],[13.8405902766536,46.1915040408976],[13.8397819063124,46.1910767390756],[13.8389716018682,46.1907480235367],[13.8384814954465,46.1903978134759],[13.8381729532386,46.1898789458218],[13.8375041541417,46.190330114604],[13.8370251851824,46.19071770979],[13.8366920923605,46.1908778933703],[13.8360707551923,46.1909575835308],[13.835175645886,46.1913204186783],[13.8342112438315,46.1917798021792],[13.8336107713265,46.1918279308798],[13.8332762798996,46.1920534114513],[13.8329856019019,46.1924429113663],[13.8329779811263,46.1931027939019],[13.8323039632483,46.1935150999362],[13.8314461656265,46.1939665515388],[13.8305962926686,46.1940865231058],[13.8301212747168,46.1942779860071],[13.8297861885963,46.1945362007865],[13.8292626264513,46.1947924843354],[13.8284319431291,46.1947951301468],[13.827893464269,46.1949421159276],[13.8274184297178,46.1951335674094],[13.8268525702889,46.1951605118559],[13.8260457735611,46.1954466239872],[13.8255806952879,46.1958878482234],[13.8252448936783,46.1967010025262],[13.8246984634464,46.1968064134512],[13.8240410697209,46.1967016704292],[13.8228889666653,46.1969681918828],[13.8220950490039,46.1974012464104],[13.8214121068723,46.1978004397803],[13.820757827424,46.1982705544016],[13.8198075211985,46.1986533035111],[13.8196546748752,46.1992076750629],[13.8197835380239,46.1997975259639],[13.8200545135409,46.2005947943025],[13.8201995753156,46.2012030765299],[13.8197282624914,46.2019188129691],[13.8196388171024,46.2022290195312],[13.8189924561358,46.2023869057161],[13.8180788675731,46.2024614987157],[13.8171367609274,46.2024519335244],[13.8156281416889,46.2025019932427],[13.8155321781793,46.2032168321439],[13.8153967885456,46.203734129271],[13.8148857824796,46.2041947177702],[13.8140316315382,46.2044803438085],[13.8136338984581,46.2047106887533],[13.813211644008,46.2053874985367],[13.8130156482261,46.2057451794145],[13.8126949369501,46.2059547270776],[13.8116928146922,46.2062616519075],[13.8114438166014,46.2065466199223],[13.8113441139893,46.2068071374896],[13.8110088636259,46.2070652950888],[13.8107663911042,46.2073898280361],[13.810713844982,46.2076508356159],[13.8105192345736,46.2079432054273],[13.8103709512162,46.2082686276055],[13.8101132070474,46.208363746585],[13.8095742128951,46.2080642797796],[13.809337956364,46.2080945696287],[13.8087699663802,46.2082194739959],[13.8084838481388,46.2083800645568],[13.8081950305941,46.2086713583838],[13.8079518259437,46.209028628168],[13.8073386536561,46.2090549826418],[13.8069563377925,46.2093126372024],[13.8066666684981,46.2096366687496],[13.8062055249645,46.2097220075294],[13.8053948211008,46.2096235640249],[13.8048273855072,46.2097157940441],[13.8044920870181,46.2099739319352],[13.804068005306,46.2099695858056],[13.803649944415,46.2099267023038],[13.8034633406852,46.2096036322178],[13.8031377199395,46.2094040801057],[13.8026735840481,46.2090723441274],[13.8023964234047,46.2088078864142],[13.801877559441,46.2084247384827],[13.8015146294028,46.2081774643324],[13.8011790410143,46.2081151023238],[13.8008072686362,46.2082028861545],[13.800624444051,46.2079394137268],[13.800441621195,46.2076759410115],[13.8002109281478,46.2074446260975],[13.7996504986888,46.2072099385779],[13.7988538168619,46.2070055165209],[13.7982580244957,46.2069904369166],[13.7971573928374,46.2070206083356],[13.796315706869,46.2067175333739],[13.7955649051164,46.2065789825607],[13.7950295342708,46.206669342444],[13.7948941304683,46.2070951114614],[13.7946974234195,46.2074855039482],[13.7941694131034,46.2079378127064],[13.7938805229714,46.2082290696717],[13.7938284813908,46.208457414294],[13.7935394571281,46.20874866896],[13.7928217317219,46.2092643799684],[13.7922999607972,46.2101281966892],[13.7918536408098,46.2104642115836],[13.791414169395,46.2111789973709],[13.7910288969787,46.2115672994664],[13.7900234833994,46.2123089332252],[13.7888253283584,46.2132446590913],[13.788861253099,46.2137682378913],[13.7893709433375,46.2141659232223],[13.7911373290546,46.2152961543094],[13.791786402758,46.215793374188],[13.7926781061582,46.2159661882741],[13.7940401351119,46.2161766187976],[13.7950204686024,46.2166119035339],[13.7953376516115,46.2172037654571],[13.7956598450262,46.2175667858371],[13.7964800682693,46.2180467974046],[13.7969567091428,46.2186266574112],[13.7975088069499,46.2192536456678],[13.7972739242354,46.2192185140706],[13.7966627766587,46.2191467611849],[13.7960496170403,46.2191730552717],[13.7959062180144,46.2192697062586],[13.7955623700256,46.219920103236],[13.7953596574555,46.2203401241238],[13.7955906267882,46.2208033136193],[13.7954893920322,46.2211292115961],[13.7956203162914,46.2216210380652],[13.7958973777158,46.2218855105718],[13.7960310351224,46.2222466334415],[13.7955479211284,46.2227974917918],[13.7952560973705,46.2232195424639],[13.7950593349468,46.2236098440046],[13.7948545328051,46.2242785290836],[13.7946592295509,46.224684770602],[13.7946874746972,46.2255678904156],[13.7946762840859,46.226090969449],[13.7946580670117,46.2269409386972],[13.7939878749388,46.2274244964009],[13.7932558370812,46.2285939862699],[13.7927621443548,46.2296352569494],[13.7921375204301,46.2301846057148],[13.7915636522846,46.2305710055208],[13.7909284944365,46.2316107724025],[13.7907787224662,46.2320015630802],[13.791146586684,46.2324304891505],[13.791091049293,46.2328222766793],[13.7909440159654,46.2330823648345],[13.7908906299319,46.2333761037724],[13.7914043488837,46.2338589361773],[13.7918184486282,46.2340724121921],[13.792284875113,46.2343062337278],[13.7925706963019,46.2346404457815],[13.7926942152176,46.2349971459532],[13.7924530734315,46.235256241993],[13.792166049846,46.2354494419618],[13.7922089319122,46.2356460373884],[13.7923876308065,46.2361057107234],[13.7928054590072,46.2364043374177],[13.7930335012256,46.2367664596071],[13.7928850339179,46.2370918557282],[13.7927830331511,46.2374504927274],[13.7923539799959,46.2376749434563],[13.7920219102751,46.2377695059959],[13.7917342827693,46.2379954487886],[13.7914929934485,46.2382545411277],[13.7908760283327,46.2384442491883],[13.7904061089485,46.2383739569737],[13.7897504456464,46.2381709649613],[13.7892841273522,46.2379371343978],[13.7887227172018,46.2377351346858],[13.7875493859899,46.2374938931818],[13.7864078120758,46.2372594548603],[13.7855212544367,46.2375380446245],[13.7848965954141,46.238087442822],[13.7842761296488,46.2384405599482],[13.7835134974299,46.2388250012162],[13.7828050144063,46.238882960257],[13.7819109334921,46.2388081158831],[13.781198959471,46.2390295096449],[13.7801142104681,46.2390508692371],[13.7791293812939,46.2388115527673],[13.7785194936513,46.2386743059599],[13.7779081570738,46.238602451154],[13.7771090583075,46.2384959242026],[13.7767313521908,46.2385246333283],[13.7765364500379,46.2388169408732],[13.7763421461155,46.2390764141425],[13.7762894018256,46.2393374925189],[13.7762337508504,46.2397292712535],[13.7760381155086,46.2400542304288],[13.775751009777,46.2402473882055],[13.7755566949889,46.2405069499417],[13.775360455866,46.2408645618313],[13.7752576070633,46.2412558343559],[13.7748648575338,46.2419710537623],[13.7742722009706,46.2432074140742],[13.7735037350271,46.2438532786291],[13.7728488013458,46.2436174473266],[13.772523094662,46.2434178082757],[13.7719174219313,46.2430843395053],[13.7713604052543,46.2426860697255],[13.7707569377408,46.2422545473609],[13.7701042262609,46.2419206530375],[13.7689279660043,46.2418100104609],[13.7678909530418,46.2417990177948],[13.7670861002516,46.2419539117574],[13.7664219495463,46.2421430688357],[13.7659912875504,46.2424328138971],[13.7651427678244,46.2424237409578],[13.7645807999283,46.2422542771132],[13.7641166287003,46.241922296049],[13.7636074762928,46.2414917554595],[13.7626647205966,46.2414817347973],[13.7621433433567,46.2416069116317],[13.7616256396036,46.2415687340044],[13.760732890316,46.2414283276756],[13.7603066238009,46.2415218668104],[13.7594103220803,46.2415449834559],[13.7587960309762,46.2416038158655],[13.7579875957372,46.2419221787049],[13.7558254241655,46.2422658480409],[13.7616583367914,46.2465063821189],[13.7606001769601,46.2472403441677],[13.7598580188948,46.2484067181509],[13.7593417350082,46.2496658720394],[13.7588199514813,46.2511734700682],[13.7585490167439,46.2516447776222],[13.7583096022565,46.2521616834732],[13.7582315185857,46.2527480013371],[13.7580908878542,46.2532207230711],[13.7576580889436,46.2536451931348],[13.7576836272905,46.2539616369349],[13.757964197391,46.2545292682433],[13.7581817160841,46.2550058806897],[13.7580409490766,46.2554786007087],[13.7580995483837,46.2557728201996],[13.7582860533607,46.256181345527],[13.7584092425677,46.2564988496845],[13.7582970746197,46.2571525468491],[13.7580226638356,46.2577819879552],[13.7575918677961,46.2581161460848],[13.7565043213057,46.2586916666414],[13.7561340159057,46.2592296368117],[13.7561586558527,46.2595912374528],[13.7563450290225,46.2599997642537],[13.7568916418456,46.260694724562],[13.7572027637151,46.2605199603893]]]},"properties":{"fill-opacity":0,"stroke-opacity":1,"stroke":"#ff0000","lov":"1111","lov_naziv":"LPN PRODI RAZOR","luo":"11","luo_naziv":"Triglavsko","povrsina":2536.48},"id":"pregledovalniklovisca.1"}]}