{"type":"FeatureCollection","features":[{"type":"Feature","geometry":{"type":"Polygon","coordinates":[[[13.6475634703341,46.2879351140669],[13.6460270526361,46.2883953135393],[13.6440148607232,46.2890010045336],[13.643195398846,46.2898470144269],[13.6413505937698,46.2910334409565],[13.6397777078574,46.2914931228889],[13.6387027053939,46.2923864443218],[13.6381077024264,46.2929583333036],[13.6370411240568,46.2934994053786],[13.6358122165285,46.2947432882363],[13.6343235453232,46.2962106065075],[13.6335782126835,46.2970718278765],[13.6341108366863,46.2988345529702],[13.6338661355792,46.2995395352939],[13.6335890103638,46.3000344028267],[13.6334982212561,46.3006364054353],[13.6329485153666,46.3014426476761],[13.6324704084899,46.3024070161265],[13.6315487716639,46.3044673408012],[13.6308385176596,46.30563873934],[13.6303297586213,46.3063143685235],[13.6298164078543,46.3071734847025],[13.6296798166618,46.308089479255],[13.6295366778809,46.3092675754488],[13.6298016861751,46.3107650182747],[13.6291110763728,46.3111500994362],[13.628447749715,46.3119550462342],[13.6280171970687,46.3125266946348],[13.627889861129,46.3130757989731],[13.6279137470832,46.3136266281979],[13.6281249256349,46.3142583411074],[13.6282557157192,46.315072633135],[13.6279340047587,46.3158290410054],[13.6274576427893,46.3167148612789],[13.6270523589216,46.3177849871473],[13.6270332161163,46.3185450254141],[13.6272455839447,46.3191242997117],[13.6277240979354,46.3196543145386],[13.6282026233466,46.3201842374704],[13.6290143478582,46.3210065165153],[13.6290303887232,46.3218718845461],[13.6284856380588,46.3224684363028],[13.627752369983,46.3230366307553],[13.6267529272971,46.323653987513],[13.6260137200753,46.3244580072176],[13.6251762517946,46.3246578449874],[13.6245264968954,46.324912389158],[13.6237195667843,46.3254009454056],[13.6230665100046,46.3257864414092],[13.6224446452721,46.3264344892374],[13.6219368998782,46.3270577272888],[13.6213535774397,46.3276800516733],[13.6204940365735,46.3287447637412],[13.6191115597591,46.3295410644496],[13.6179388228915,46.3295271633524],[13.6167334617788,46.3293030398234],[13.6154167417704,46.3289990090344],[13.6142898761261,46.3286709924378],[13.6129309589991,46.3287014788168],[13.6126485470096,46.3367667742798],[13.611751281827,46.3367382478873],[13.6111146684777,46.3367375336645],[13.6101925927989,46.3364886213333],[13.6093219465026,46.3364248603821],[13.6085749650346,46.336540293279],[13.6074358606775,46.3369354381507],[13.6061466003919,46.3371864948485],[13.604985627651,46.3374391924155],[13.6033908369185,46.3375976868589],[13.6017135933527,46.3379684749871],[13.6006849677582,46.3380627767155],[13.5997148952687,46.3378732939095],[13.5991367342707,46.3374042931563],[13.5987222612353,46.3365639106539],[13.5982565055289,46.3357229877282],[13.5974302238002,46.3349310839248],[13.5968104977039,46.3340882657993],[13.5964358782376,46.3336927372462],[13.5957205325276,46.3335774254629],[13.5945934961454,46.333510492608],[13.5933917407372,46.3333537366237],[13.5924208638364,46.3331998108136],[13.5912969046409,46.3330084514847],[13.5909941842834,46.3328092109563],[13.5904853896982,46.3326431481594],[13.5902038163603,46.3326219517279],[13.5893803078769,46.3327185009705],[13.5888721071536,46.3325346237718],[13.5885730525023,46.3321933555979],[13.5880936429763,46.3318853085223],[13.5872817077179,46.3315377916903],[13.5861835107083,46.3313467003053],[13.5853088540317,46.3314426776445],[13.5844052776011,46.3316626321114],[13.5838923882938,46.3316563702183],[13.5832054293406,46.3314347142748],[13.5816718223628,46.331220458189],[13.580676686995,46.3310128678281],[13.5804528520431,46.3307435003433],[13.5800532562525,46.3303297930409],[13.5795240007598,46.3299679170076],[13.5788380014065,46.3297107075032],[13.5781950082844,46.3297738808801],[13.5774993439314,46.3298897489574],[13.576933342677,46.3299538731985],[13.5761081365335,46.3301214739214],[13.575468363522,46.3300603301075],[13.5756291712415,46.3309852713141],[13.5760043028091,46.3316648278692],[13.5759920482779,46.3321319021479],[13.5757729724105,46.3324503747807],[13.5755523781502,46.332827220171],[13.5752490256392,46.3331446416785],[13.5741466661354,46.3333938878149],[13.5722093001033,46.3333409174541],[13.5710724580037,46.3332976527744],[13.5704580839837,46.3342244257963],[13.5706059626909,46.3350146131219],[13.5711788964629,46.3356639980512],[13.5718883305893,46.335935581673],[13.5725587395221,46.3360897994819],[13.5731064688294,46.3360965470358],[13.5735262016819,46.3361600870619],[13.5738142729582,46.336426400427],[13.5730743152874,46.3373224692769],[13.5729334037698,46.3378754800584],[13.5727103576964,46.3383399221426],[13.5726559996304,46.3388063799635],[13.5731747690014,46.3399223045075],[13.5734498200165,46.3406848334266],[13.574904728805,46.3414618948355],[13.5760754857439,46.3418266547058],[13.5764885758335,46.3421529100825],[13.5765223205741,46.3424744413523],[13.5760878751892,46.3429654983341],[13.5759132362642,46.3431969811284],[13.5761140367466,46.3435789852441],[13.5764427223381,46.3439041894291],[13.5767745719157,46.3441126480364],[13.5774902026854,46.3441506155342],[13.5782088617305,46.3440718322139],[13.578718376709,46.3439320525457],[13.5791820276969,46.3439377256165],[13.5795122436712,46.344204637928],[13.5795897286589,46.3444683196239],[13.5794533995164,46.3448462187072],[13.5791255362633,46.3460977070591],[13.5796084709485,46.3469795876053],[13.5801802522939,46.3476873035197],[13.5802936486702,46.3481850883533],[13.5807488961487,46.3485117614332],[13.5812891987352,46.3488103371789],[13.5814470871652,46.3492210399575],[13.581651721872,46.349457146603],[13.5819391453237,46.3497526717044],[13.5820557133863,46.3501336200953],[13.582297283331,46.3505746003705],[13.5825402388654,46.3509571153784],[13.5827862159276,46.3512228834492],[13.5831611039811,46.3514026157342],[13.5836660187458,46.351438022846],[13.5844322571978,46.3511553730947],[13.585273748116,46.3512240009554],[13.5858509156071,46.3517274278084],[13.5861134000909,46.3529861452577],[13.5863864361539,46.3538361590707],[13.5873692374323,46.3549576625151],[13.5884378888824,46.3560218253594],[13.5893063946334,46.3566746755898],[13.5905497429693,46.3575073163342],[13.5913363640734,46.3580716886169],[13.5916261356366,46.3582795850065],[13.5919129098885,46.3586042274237],[13.5921959376638,46.3590748475503],[13.5932458993722,46.3592335260545],[13.5938783066945,46.3592412156467],[13.5945857848125,46.3596001755654],[13.595210585298,46.3598997234113],[13.5957955455403,46.3601111457898],[13.596464694215,46.3603235986975],[13.5969208825401,46.3606211570887],[13.5973763322465,46.3609477655265],[13.5975825727074,46.3611254709562],[13.5981275714731,46.3612488484176],[13.5987561430676,46.3614023984933],[13.5991333907624,46.3614945641477],[13.5996354269454,46.3616466488757],[13.5999215217184,46.3620004135383],[13.6005524302366,46.3624751821871],[13.6015175469416,46.3626620768111],[13.6018732594793,46.3627685454266],[13.6024389600262,46.3629067308755],[13.6032637019306,46.3628144212767],[13.6041320197741,46.3626643359352],[13.6052927831905,46.3626198400353],[13.6058418996578,46.3625826309674],[13.6066263902305,46.3624169290068],[13.60797757108,46.3623454854482],[13.6176601615027,46.3563589057691],[13.6245153445743,46.356827024237],[13.6253941160786,46.3551503481493],[13.6262268682056,46.3538508145511],[13.628226718691,46.3524140408292],[13.6411528117922,46.354605367807],[13.6426325924677,46.3550506725436],[13.6441198689779,46.3551939210492],[13.6456216274662,46.3562185971995],[13.6483093675713,46.3578110581172],[13.6547152493266,46.3619896903803],[13.658986025435,46.3628195581518],[13.6660965559276,46.3665020582227],[13.6704435991539,46.3693040271985],[13.6777733241445,46.3695076093282],[13.683295425798,46.3724894775208],[13.6851633650094,46.3734931940761],[13.6906359911971,46.3751359883271],[13.6934290605436,46.3770326909958],[13.6991713150044,46.3786070782879],[13.7098978743,46.3860311456108],[13.7145870115879,46.3895858231191],[13.7198218878084,46.3927050178432],[13.730291676552,46.3857038576078],[13.7313821323314,46.3848048213165],[13.7320955883144,46.3842005696001],[13.7326604021795,46.383794042575],[13.733304521235,46.3835164206531],[13.7340723086327,46.3832259488887],[13.7345080308998,46.3830600064718],[13.7349195538887,46.3829735093221],[13.7354618120858,46.3828160296393],[13.7362665720093,46.3826238409171],[13.7373830567813,46.382376337894],[13.7383555691157,46.3821308342957],[13.7391640547748,46.3818549928583],[13.7398478437652,46.3816419210947],[13.7408307500886,46.3814069476699],[13.7418635005755,46.3811862798923],[13.7425561571807,46.3809428791525],[13.7430629171235,46.3806479465072],[13.7434771628474,46.3803507353672],[13.7441225240546,46.3800090963735],[13.7445865238292,46.3795088222785],[13.7447779288303,46.379194853977],[13.7448040758178,46.3790125889317],[13.7448758081336,46.3787584872286],[13.7449629529174,46.378557907724],[13.7448381147163,46.377952738847],[13.7448725088549,46.3773481481854],[13.7448774022049,46.3771346095969],[13.7448056267318,46.3767837426167],[13.7444552183819,46.3767304110279],[13.7440990471493,46.3766846626411],[13.7436869692416,46.3765770282861],[13.7431260866143,46.3763715772623],[13.7426225787054,46.3761245578014],[13.7422254552127,46.375949064153],[13.7417015794215,46.3757911582637],[13.7411533020466,46.3754960446649],[13.7408466603612,46.3752074584643],[13.7404082489949,46.3749173299062],[13.7398688463236,46.3747174077628],[13.7393160051549,46.3743842669916],[13.7390540485683,46.3740694470511],[13.7389626809449,46.373741392829],[13.7388570676534,46.3732925295346],[13.7387085161574,46.3730488674359],[13.7383568018026,46.372844710348],[13.7377644542841,46.372800114673],[13.7366372504328,46.3728333708662],[13.7360445982645,46.3727964104938],[13.7354826565662,46.3726228499674],[13.7350097067006,46.3724007869131],[13.7344664296509,46.372128549106],[13.7338031303176,46.3715887536895],[13.7331391004658,46.3710754878891],[13.7325924108554,46.3707157508842],[13.7319654128702,46.3705071726359],[13.7312842462204,46.3703759952646],[13.7302815388324,46.3706140859078],[13.7295554343433,46.3706440781704],[13.7291106804181,46.3706314878818],[13.7286632105939,46.370332665965],[13.7282528562097,46.3699525608793],[13.7277234016735,46.3697983973989],[13.7272483871288,46.3696676002979],[13.7270367309946,46.3695245284043],[13.7268066850061,46.3692444044825],[13.7267012432007,46.3689158235044],[13.726658717412,46.368530991058],[13.7268297095676,46.3680578449303],[13.7268575214774,46.3675713179941],[13.7265990921199,46.3673440507528],[13.7261856786307,46.3672088967994],[13.7256345603952,46.3670319892674],[13.7252375515937,46.3668567074057],[13.7249303738376,46.3668034378852],[13.7244978716119,46.366734913884],[13.7238705630171,46.3667773085329],[13.72345527287,46.3670076786526],[13.7230147198959,46.367429584706],[13.7226781048248,46.367490514292],[13.722345432229,46.3673879184501],[13.7220544705899,46.3671130422409],[13.7218161507283,46.3667545402882],[13.7215069563434,46.3663478302463],[13.7213912201672,46.3658938884674],[13.7212871949785,46.3656454828969],[13.7210125947965,46.365499896314],[13.7202558288009,46.3653206621529],[13.7195275750381,46.3652340532608],[13.7190866004051,46.365061766454],[13.7187258370374,46.3647496610747],[13.7183456574748,46.3643454757636],[13.7178877705326,46.3641410547516],[13.7172440351951,46.3639701757726],[13.7160808785778,46.3636702902354],[13.7151857989191,46.3631783468612],[13.7148529020323,46.362904150456],[13.7147659030382,46.3626682562979],[13.7146600454831,46.3623609824],[13.714575883788,46.3620041979232],[13.7144062800638,46.3617497402629],[13.7139019023387,46.361706009812],[13.7131990766628,46.3619225814578],[13.7127634831334,46.3621262327172],[13.7121812952103,46.362219185455],[13.711483193583,46.3620021358501],[13.710030225178,46.3611756462479],[13.709370786543,46.3607194250142],[13.7090289858021,46.3603009761644],[13.7087070057678,46.3597530107726],[13.7083366315411,46.3593288387519],[13.7081057467011,46.3589137093731],[13.7075921909507,46.3587975999487],[13.706853975404,46.3588843531474],[13.7061243367078,46.3589765069781],[13.7052567032668,46.3587104452404],[13.7047042703943,46.3584911347378],[13.7043319602651,46.358205484309],[13.703940605634,46.3575658474777],[13.7036329404012,46.3574648299602],[13.701962495887,46.3571619263181],[13.7005118409798,46.3569946548751],[13.6996827629553,46.3566833731487],[13.6990471228493,46.3558708939526],[13.6985498293273,46.3553619316377],[13.6980115176081,46.3550539470852],[13.6975471580839,46.3546963282094],[13.6972323514176,46.3541643365784],[13.6963774726208,46.3533997280702],[13.6946595289558,46.3522227281815],[13.6938440856636,46.3513326798773],[13.6931042798256,46.3503176194234],[13.6913167647377,46.3490139923964],[13.690602719325,46.3484522192039],[13.6897433406446,46.3478888660028],[13.6892879859233,46.3471538835863],[13.6888706879927,46.3463437591765],[13.6880494032331,46.3457053432893],[13.687258613491,46.3453188334385],[13.6866120960385,46.3449843598743],[13.686148968462,46.3445765036669],[13.685652629621,46.3440423028454],[13.6854124113091,46.3434355584309],[13.6854211972124,46.3430582265284],[13.6852490217588,46.3426535316005],[13.6848920034129,46.3423726712824],[13.6846078485569,46.3420926481665],[13.6842532520345,46.3417111348861],[13.6840445949243,46.3413060181908],[13.6837639425043,46.340875059999],[13.6836227132871,46.340697268558],[13.6833729956933,46.3404931254027],[13.6831567542167,46.3404151483243],[13.6826456301071,46.3405100288696],[13.682139816976,46.3403784185044],[13.6814188473807,46.3401185436049],[13.6806598356527,46.3399337117799],[13.6793145553132,46.339943551722],[13.6781098766586,46.3401563592454],[13.6770124617582,46.3404457920093],[13.6763838644181,46.3408916160514],[13.6758667801719,46.3412380493611],[13.6753174492152,46.3414079412561],[13.6747346593425,46.3414516616262],[13.6739006202231,46.3413665940594],[13.6731344418336,46.341483665638],[13.6719278790749,46.3417718727605],[13.670689818755,46.341858343288],[13.6695594990909,46.3419963486494],[13.6682505337316,46.3420064809985],[13.6672759287903,46.3417184599638],[13.6663696521813,46.3416073031475],[13.6655730829723,46.3414723174434],[13.664416068248,46.3412073349804],[13.6633646078739,46.341094548166],[13.6625304637889,46.3410093963697],[13.6617309724005,46.3410002207298],[13.6608581408023,46.3410152827167],[13.6600543489289,46.3411821205046],[13.6595818743112,46.3411766720577],[13.6594800311484,46.3408735313858],[13.6589821399011,46.340414772543],[13.6588379177481,46.340362696381],[13.6582201265147,46.340355537532],[13.6573090915531,46.3404457006719],[13.6567282801202,46.340413775838],[13.656002013515,46.3403802282097],[13.6553799047463,46.3405491687871],[13.6547990935615,46.3405172341527],[13.6542569865561,46.3403850732771],[13.6536452426191,46.3401263086669],[13.6526978415021,46.340216006796],[13.6518202027411,46.3404323008652],[13.6508376694023,46.3404711848622],[13.6491350713552,46.3402248001837],[13.6483452586384,46.3398129296763],[13.6469837132987,46.3389917532423],[13.6463812050269,46.3383555354749],[13.6459627432871,46.3376208154077],[13.6458659539782,46.3371162743343],[13.6459205583907,46.3363619638853],[13.6455330168908,46.3358540683947],[13.6451097424441,46.33532064581],[13.6448729895367,46.3345879846536],[13.6446732217213,46.3338306590971],[13.6444723465812,46.3331236144835],[13.6442677441023,46.3325675887549],[13.6437341904778,46.3320831474892],[13.6433103413268,46.3315748133229],[13.6430264558074,46.331294689246],[13.6424862066468,46.3310870074674],[13.6422330814955,46.3310337070342],[13.6427220115989,46.3303599514746],[13.6433869822027,46.3299147432569],[13.6438727797286,46.329366726874],[13.6437857127725,46.328459672244],[13.6432590443614,46.3276985549842],[13.6434662975515,46.3266439285917],[13.6443572922923,46.3258741665004],[13.6452365882613,46.3255824622025],[13.6453626508929,46.3248792919325],[13.6451029896555,46.3235927580252],[13.6453429433826,46.322689578873],[13.6453235928572,46.3219846851941],[13.6460243011109,46.3215649869233],[13.6470439586293,46.3214762892568],[13.6479539426131,46.3214113878298],[13.6483609781248,46.3211141632367],[13.6481217593155,46.3204821571323],[13.647222073933,46.3201193625268],[13.6469732064321,46.3198899566674],[13.6469491319556,46.3193863655334],[13.6471368230203,46.3191368436486],[13.6476847725441,46.3190174549828],[13.6485547791894,46.3191030497767],[13.6492499815687,46.3189098173017],[13.6501000857135,46.3183157827011],[13.650659514589,46.3177183113333],[13.6513994355022,46.317173261111],[13.652498985047,46.3167833294169],[13.6547614790267,46.3148718756015],[13.6556108462894,46.3143028934112],[13.6561755886675,46.313478906265],[13.6572561413428,46.3123589376556],[13.6586605448674,46.3113685405437],[13.6598041232018,46.3106520044655],[13.6601763849365,46.3102787527441],[13.6605794591894,46.3101324118802],[13.6610679738755,46.3094585710444],[13.6615509571497,46.3090111244435],[13.6628240168244,46.3089503548882],[13.6637785625545,46.3085335158855],[13.6647445885115,46.3076386882953],[13.6651519131537,46.3073162144448],[13.6657705561745,46.3072730514585],[13.6663832194761,46.307481378925],[13.6669583225872,46.3077396498224],[13.6677139196156,46.3080504060625],[13.6683713547342,46.3079069116976],[13.6693525553308,46.3078930541796],[13.6702332602975,46.3075256864569],[13.671439554354,46.307212300861],[13.6722392934803,46.307196309635],[13.6729591805836,46.3074814241147],[13.6737498088548,46.3078427517969],[13.6741755864345,46.3082755103029],[13.6748681348141,46.3081827704686],[13.6755599436054,46.3081152102077],[13.6762149331964,46.3080723217883],[13.6765143803178,46.3076982636195],[13.6768865091662,46.3073249558783],[13.6767960202002,46.3065437557282],[13.6768037719398,46.3062167048661],[13.6769222370414,46.3058153583086],[13.6766077717842,46.3052833090134],[13.6761076252488,46.3049252752072],[13.6762332398592,46.3042220637265],[13.6766416860534,46.3038491771103],[13.6762629172108,46.3029640491809],[13.6762349395386,46.3026113920822],[13.6762778200285,46.3023350425496],[13.6770083167862,46.3021672420142],[13.6774512629114,46.3018702387594],[13.6775328963564,46.3014937475306],[13.6773971109,46.3010894587397],[13.6777697922398,46.3006910517587],[13.6776832804313,46.2997337307971],[13.6774416440014,46.2992025255953],[13.6767986264918,46.298742161937],[13.6759365201392,46.2983296421001],[13.6768185798965,46.2923747465319],[13.6762979679827,46.2927145752842],[13.6759329312269,46.2927492162458],[13.6753308551475,46.2927422413448],[13.6748842055151,46.2926788525271],[13.6744785331516,46.2926547154001],[13.6741697855017,46.292680286311],[13.6738994360322,46.2928518779065],[13.6734170245706,46.293108461884],[13.6729348433025,46.293355329422],[13.6724150719863,46.2934173140398],[13.6719387507188,46.2934214986514],[13.6716736840474,46.2933795507747],[13.671242445362,46.2932531658466],[13.6692634052045,46.292264107285],[13.6660142259189,46.2922457631791],[13.6660227115577,46.2918963175236],[13.6660774789339,46.2913726845218],[13.6661144623417,46.2910041371815],[13.6660972769712,46.2905573111444],[13.6657582856496,46.290097012587],[13.6654404891478,46.289918485693],[13.6649691512632,46.2897188207582],[13.6645126445934,46.2894804588247],[13.6642684585567,46.2891572123406],[13.6640091879474,46.2888726573394],[13.6632388186947,46.2883005111318],[13.6621425255738,46.287879929175],[13.6611388961042,46.2876837348365],[13.6596060333882,46.2873648125942],[13.6586116655912,46.2867900083599],[13.6580070268051,46.286316851988],[13.6582886676384,46.2862522282466],[13.6584987191852,46.2862546933533],[13.6588226346767,46.2861807573175],[13.65895145651,46.2860657535579],[13.6591524691879,46.2858642326319],[13.6593385225471,46.2857013142739],[13.6595810942026,46.2855197141259],[13.6599337362802,46.2854170504846],[13.6602158462396,46.2853329033492],[13.6603441894825,46.2852373265674],[13.6603757634923,46.2850920302796],[13.6604936419102,46.2848507543739],[13.6606069197927,46.284803496214],[13.6608325052508,46.2847381194445],[13.6610575075956,46.2847019766272],[13.6612959204688,46.2846853346063],[13.6615636694496,46.2846204501356],[13.6617492360896,46.2844770462748],[13.6619385865814,46.284178213034],[13.6619702603306,46.2840232903396],[13.6621829052378,46.2839188910944],[13.6624074304566,46.2839021742065],[13.6625773303227,46.2838264253317],[13.6626652842757,46.2836624437688],[13.6628524152771,46.2834065001489],[13.6475634703341,46.2879351140669]]]},"properties":{"fill-opacity":0,"stroke-opacity":1,"stroke":"#ff0000","lov":"1104","lov_naziv":"SOČA","luo":"11","luo_naziv":"Triglavsko","povrsina":4486.27},"id":"pregledovalniklovisca.1"}]}