{"type":"FeatureCollection","features":[{"type":"Feature","geometry":{"type":"Polygon","coordinates":[[[13.695681028058,46.2801774962123],[13.7069624320731,46.2770519606244],[13.7077375000891,46.2773542167851],[13.7082560766743,46.2774729038483],[13.7087125849452,46.2774554780487],[13.7089758529398,46.2773454453681],[13.7092421692512,46.2771000370665],[13.709538925225,46.2769452147213],[13.7102209633455,46.2770431547361],[13.7106744217697,46.2771610961233],[13.7110994253432,46.277098138997],[13.7113352902499,46.2767619595711],[13.7114096785876,46.2763562998584],[13.7116098033345,46.2761552163844],[13.7121000474431,46.2760929907928],[13.7128750034366,46.27639512091],[13.7130968396369,46.2766686172068],[13.7134149032852,46.2770109457842],[13.7137033231701,46.2772173505432],[13.7138625572514,46.2773772247423],[13.7139902880774,46.2774915778644],[13.71425248965,46.2774266875046],[13.7143837883403,46.2773829976955],[13.7147757011836,46.2773422379922],[13.7161935909786,46.2780353968148],[13.7174521338748,46.2785688476869],[13.7197491228655,46.2792943147305],[13.7211696214797,46.2798746145782],[13.7231087895531,46.2805735172713],[13.7258591016299,46.2799940072003],[13.7269449038337,46.2795316763187],[13.7297649447096,46.2787495997348],[13.7318946074183,46.2782309760666],[13.736051072056,46.277418214691],[13.7361877985209,46.2774932342452],[13.736543224946,46.277272230486],[13.7368484127056,46.2769786921169],[13.7370098684431,46.2767285515689],[13.7371600037313,46.2764063073205],[13.7373035248777,46.276371903455],[13.7372154057544,46.2762539651897],[13.737294065507,46.2762188448463],[13.7376158913106,46.2763303667364],[13.7383170107382,46.2763111149172],[13.738457640668,46.2764026399113],[13.7388949821261,46.2765694166908],[13.7389553034249,46.2767680227235],[13.7387845991657,46.2768561125712],[13.7388086863127,46.2769373540121],[13.7387543199864,46.2770447218203],[13.7387790263693,46.2770989781965],[13.7388305032125,46.2771175407026],[13.7390516532945,46.2770929883238],[13.7391319638567,46.2769859065277],[13.7394552419902,46.2770344581345],[13.7393883170038,46.2771236931621],[13.7398278590852,46.2772005176133],[13.7401939737201,46.2770785906231],[13.7403144381607,46.2769178767174],[13.7404861708091,46.2767848094166],[13.7404888503556,46.2766678740336],[13.7406476095102,46.2765346635491],[13.7410637527378,46.2764942605825],[13.7411329403563,46.2763060791742],[13.7414609533933,46.2761477393332],[13.7415412578771,46.2760406557657],[13.7417607552699,46.2760880583615],[13.741997754325,46.2759377125043],[13.742533728082,46.275763663258],[13.7428625588442,46.2755692492011],[13.7435988635584,46.2751454733162],[13.7439256293794,46.2750410964906],[13.7445863770613,46.2750843437472],[13.7449541102679,46.2748904408423],[13.745047172642,46.274792492161],[13.7450504583741,46.2746485713871],[13.7454875644149,46.2742573976422],[13.7457980238057,46.2737299632323],[13.7459431743846,46.2736235879559],[13.7461266236763,46.2735446244833],[13.7462717731311,46.273438248775],[13.7463026397381,46.2732226519734],[13.7472705275698,46.272882367541],[13.7474401833029,46.2728391500477],[13.7477969689837,46.2725551449399],[13.7478959636981,46.2721963370182],[13.7482813477917,46.2717956786175],[13.7485460957551,46.271564647175],[13.7486691831374,46.2712870780397],[13.7488159594191,46.2711087384166],[13.7488317964491,46.2709829494404],[13.7487706284299,46.2708202384469],[13.7486328615547,46.2706027950844],[13.7486093766615,46.2704945703057],[13.7486511556936,46.2703690653148],[13.7487845492638,46.2702085738338],[13.7488835330045,46.2698497648052],[13.7490961814905,46.2696271591344],[13.7491840332492,46.2691872522094],[13.7491477818961,46.2690698905195],[13.749190581749,46.2688994099191],[13.7491403368299,46.2688268816642],[13.7493245839499,46.2687119324989],[13.7494812526759,46.2686686598483],[13.7495728642765,46.2686336727054],[13.7495621441514,46.2685345850218],[13.7496420124181,46.2684454855017],[13.7496449511328,46.2683105579702],[13.7498798497799,46.2682501457663],[13.7499325513759,46.2682146428528],[13.7498750623243,46.2678901109589],[13.7499038661132,46.2677644635674],[13.7498945771325,46.2676024103623],[13.750323935317,46.2669772928379],[13.7504076841265,46.26671728622],[13.7505262539149,46.2666376064092],[13.7505674122805,46.2665390858023],[13.7507779973181,46.2664064274885],[13.7512255126895,46.2661234028544],[13.751920881199,46.2657800115335],[13.7521821144057,46.2657018874631],[13.7525756973662,46.2655082419682],[13.7527526693062,46.2651412829989],[13.7529691595234,46.2647477628791],[13.7530615334272,46.2641009636791],[13.7531689598935,46.2639401836917],[13.7533665593262,46.2638073789327],[13.7532717776976,46.2634104632892],[13.7534726393682,46.2631336468402],[13.7536578775832,46.2629737148159],[13.7536745162689,46.262811944472],[13.7540460072468,46.2624471039097],[13.7543311931614,46.2618833806647],[13.7547089206505,46.261815517449],[13.7549211067305,46.2616108902942],[13.7550388443907,46.2615671859703],[13.7554011572161,46.2616071204438],[13.7558287218276,46.2616297693177],[13.7559730069255,46.2615593609974],[13.7561732378133,46.2613095248338],[13.7564239158737,46.2611233083293],[13.7568916418456,46.260694724562],[13.7563450290225,46.2599997642537],[13.7561586558527,46.2595912374528],[13.7561340159057,46.2592296368117],[13.7565043213057,46.2586916666414],[13.7575918677961,46.2581161460848],[13.7580226638356,46.2577819879552],[13.7582970746197,46.2571525468491],[13.7584092425677,46.2564988496845],[13.7582860533607,46.256181345527],[13.7580995483837,46.2557728201996],[13.7580409490766,46.2554786007087],[13.7581817160841,46.2550058806897],[13.757964197391,46.2545292682433],[13.7576836272905,46.2539616369349],[13.7576580889436,46.2536451931348],[13.7580908878542,46.2532207230711],[13.7582315185857,46.2527480013371],[13.7583096022565,46.2521616834732],[13.7585490167439,46.2516447776222],[13.7588199514813,46.2511734700682],[13.7593417350082,46.2496658720394],[13.7598580188948,46.2484067181509],[13.7606001769601,46.2472403441677],[13.7616583367914,46.2465063821189],[13.7558254241655,46.2422658480409],[13.7550015806648,46.2412407175849],[13.7542027701914,46.2405546041483],[13.7536262591556,46.2401192359955],[13.7528479990347,46.2399754275919],[13.751715655173,46.2396469909995],[13.7501924227477,46.2392308646408],[13.7502944539948,46.2376668899581],[13.7502815202542,46.236785997145],[13.7501737957828,46.2357684776201],[13.7502159425265,46.2353398542814],[13.7495128322098,46.2347450870408],[13.7490987109475,46.2343341452131],[13.7488133292752,46.2339922712116],[13.7487558268631,46.2336528910612],[13.7492009694023,46.2326640037806],[13.7490823716917,46.2321432880816],[13.7487658769699,46.231733323175],[13.7481590182082,46.2312073508933],[13.7479367988946,46.2309565897444],[13.7477810614527,46.2306387162899],[13.7477535339412,46.2304125807765],[13.7477254930848,46.230209023021],[13.7475748949646,46.2296653715569],[13.7461398450202,46.2297853199465],[13.7446721246334,46.2299049815171],[13.7431725123895,46.2300016002237],[13.7421615374701,46.2300809037631],[13.7411195735416,46.2300921968612],[13.7399208863697,46.2298307521425],[13.7389474851799,46.2296846074158],[13.7380773775004,46.2292912672785],[13.7370765080623,46.2289189692965],[13.7360991121983,46.2289535133541],[13.7348618466099,46.2289625897981],[13.7342145745717,46.2287974303172],[13.7339912629961,46.2285917066321],[13.7336739924541,46.228226857794],[13.7330927054685,46.2280172560731],[13.7326747297789,46.2277868786886],[13.7323884444691,46.2274901199825],[13.7320411276956,46.2270121062335],[13.731627717302,46.2265784348904],[13.7312087181424,46.2263932075519],[13.7305314300402,46.2261147768372],[13.7299847908265,46.2258152103019],[13.7291141605699,46.225444289194],[13.7284664262434,46.2253016752883],[13.7276889678935,46.2251350304648],[13.727010539878,46.2249017329558],[13.726596268283,46.2245132904439],[13.7264747678678,46.2241280186001],[13.7263181290096,46.2238552722211],[13.7255772752185,46.2235084433607],[13.7251598901452,46.2232553714373],[13.7247175618674,46.2226633581742],[13.7243998636745,46.2223210618055],[13.7238858236451,46.2220218296223],[13.723531417891,46.2218598784672],[13.7239404583336,46.2210513516902],[13.7242981465708,46.2207916307272],[13.7246793317041,46.2200432527499],[13.7250862507788,46.2193250317709],[13.7257472282998,46.2188806430662],[13.7268111935831,46.2185702122565],[13.7277527124277,46.2179992839234],[13.72874672318,46.2172198322116],[13.7293772043609,46.2166847494187],[13.7297427905207,46.2163499708339],[13.7299501736708,46.2158102722611],[13.7302527838738,46.2153844584329],[13.7313956798168,46.215216390603],[13.7320488912483,46.215110630946],[13.7325420780239,46.2148901759833],[13.7327413787124,46.2147116280342],[13.73346378209,46.2144259596683],[13.7338583467076,46.2142496631192],[13.7338980056879,46.2139339339217],[13.733841522003,46.2135493893832],[13.7342416581189,46.2131246451062],[13.7345079353575,46.2128565917742],[13.7343265457008,46.2122448298103],[13.7342700605022,46.2118602853594],[13.7343747589671,46.2115452760458],[13.7348023423104,46.2113466683114],[13.7352008997126,46.2109896534883],[13.7355022743007,46.2106090687271],[13.7357071194884,46.2101821585928],[13.7357274550145,46.2092790443653],[13.7361259891846,46.2089221159275],[13.7374155024337,46.208010263965],[13.7376258833405,46.2073349930196],[13.7378322489465,46.2068404351659],[13.7388910833643,46.2060615198509],[13.7398282016696,46.2048974234059],[13.7402622941021,46.2044052813856],[13.740534048145,46.2038887655826],[13.7404441050163,46.203549111992],[13.7408436005814,46.2031469204375],[13.7412770246575,46.202677350579],[13.7416495305383,46.2020265303627],[13.7417902936618,46.2015537362852],[13.7420732247782,46.2005405923798],[13.7420557808261,46.1998628950335],[13.7417146066989,46.1991138838319],[13.7412743500159,46.1984316209825],[13.7406769501103,46.1974992064144],[13.7401341498552,46.1970415544457],[13.7399531304397,46.1964073103319],[13.7394423432867,46.1959725914056],[13.7391906295904,46.1955859851571],[13.7389765988503,46.1949738687563],[13.7385424787626,46.1940206601137],[13.737566542122,46.1925646288712],[13.7363976649208,46.1910162119045],[13.7362461132303,46.1905176983174],[13.7354746855778,46.1901027526899],[13.7349299262419,46.1897354778543],[13.7345193574349,46.1891889277145],[13.7345981070156,46.1885800434894],[13.7350700609807,46.1878399198948],[13.7359019143902,46.1870134408059],[13.7369002878396,46.1860080373131],[13.7375883629574,46.1857897131979],[13.738410978902,46.1853696178638],[13.7388382134876,46.185170990496],[13.7397538148201,46.1849551635355],[13.74024412013,46.1848475605646],[13.7404819779891,46.1843985103852],[13.7403018970737,46.1837190186674],[13.739666745827,46.1830345996806],[13.7387667953606,46.1825505077351],[13.7376118608344,46.181837846934],[13.7371991249472,46.1813816160811],[13.7370197381446,46.1806796328605],[13.7368749295028,46.1798876070584],[13.7370886918762,46.1790542862245],[13.7377212323677,46.1784062591981],[13.7381880170036,46.1778919904476],[13.7390424971816,46.1774947354993],[13.7395068134432,46.1770932620987],[13.7397795936481,46.1765316799248],[13.7395381546693,46.1756934243193],[13.7397768814066,46.1751991273404],[13.7404753768833,46.1745066446666],[13.7406775960587,46.1741926123116],[13.740717697797,46.1738542999562],[13.7405306879375,46.1734909016379],[13.7400210044427,46.1730111183602],[13.7392583079042,46.173101860227],[13.7377320589562,46.173461918746],[13.7366056001029,46.1737257850336],[13.7357399346561,46.1736409045485],[13.734621972853,46.1735281217776],[13.7334611019202,46.1737162673961],[13.7323999422119,46.1742823205321],[13.7317437811756,46.1745262506888],[13.7312373165542,46.1745457327963],[13.7299294677072,46.1748327125112],[13.7288413842709,46.174996517065],[13.7274653176867,46.1751068096409],[13.7259090643513,46.1751900643348],[13.7249970794921,46.1755567082787],[13.7241435268174,46.1765267366239],[13.7236576102002,46.1772245525384],[13.7236828268601,46.1777020589786],[13.7239633928698,46.1780819148291],[13.7238406159262,46.1787083861996],[13.7234195046668,46.1797335317951],[13.7225722567336,46.1804273066049],[13.7216531801643,46.1810951688793],[13.7205987487741,46.1813597727397],[13.7179489447201,46.1818324993838],[13.716814628038,46.1824225995947],[13.7165140251504,46.1829215518802],[13.716016388828,46.1841216203315],[13.7154792196903,46.1854718592971],[13.7142448196765,46.1872663758741],[13.7129398283407,46.1889846852822],[13.7117966377382,46.1899514478157],[13.710376523817,46.1903876451229],[13.7084409441031,46.1912198268033],[13.7065081210718,46.1919264926417],[13.7037479709341,46.1924479365487],[13.7017125487124,46.1929021493391],[13.6993702198079,46.1941063688815],[13.6967334645355,46.1955332890006],[13.6938061364275,46.1970070335453],[13.6916728154096,46.1985399995874],[13.6897456116451,46.2005273189339],[13.687942709581,46.2018378965818],[13.6861031092074,46.2031731265386],[13.6839366587792,46.2045548594234],[13.6826954773788,46.2050429777994],[13.6814121213844,46.2057817140392],[13.6794832606849,46.2062870552262],[13.6766938407067,46.2064809909052],[13.6732943693795,46.2064669570409],[13.6712338934398,46.2064180100147],[13.6680014124137,46.2059881896724],[13.6656774022553,46.2056758657814],[13.6606660542881,46.2049517166706],[13.6593680815784,46.2056985818799],[13.6580894568299,46.2061124850269],[13.6578871666442,46.2065328086904],[13.6579986367047,46.2072235895859],[13.6577370868232,46.2074430246272],[13.6573479472431,46.2076386468243],[13.6573084898719,46.207949583912],[13.6574573721222,46.2084184785136],[13.6574167023497,46.2087738485872],[13.6566699861336,46.2091877739317],[13.6562206230438,46.2092270292032],[13.6557076714417,46.209243221292],[13.6553479272949,46.2095504803561],[13.6551401774607,46.2101930607995],[13.6551214365102,46.2109713863935],[13.6555809561133,46.2118442324934],[13.6560474111804,46.21242807139],[13.6563841067461,46.2130770539009],[13.656559162756,46.2137908964418],[13.6563557497695,46.2142555609137],[13.6559953041706,46.2145850371351],[13.655734255187,46.214782159686],[13.6556311859505,46.2150701241301],[13.6554646482017,46.2153351183327],[13.6551341549212,46.2157538384657],[13.6551304829112,46.2159095403351],[13.6553204718163,46.2160007598467],[13.6556679061339,46.216204948793],[13.6564221665299,46.2168143937794],[13.6571197645996,46.2171116779825],[13.6574998897567,46.2172940217791],[13.6579680364444,46.2178111113968],[13.6580544325039,46.2182125100583],[13.6582017230908,46.2187480549053],[13.6587339028278,46.2192658928893],[13.6592378755407,46.2196276525248],[13.6598389589608,46.2199461013668],[13.6605073115153,46.2201318139621],[13.6618872536299,46.2200366786808],[13.6629475271274,46.2199154744278],[13.6632320755193,46.2200745474226],[13.6631290348124,46.2203625186832],[13.6631247158934,46.2205404366726],[13.6634418174411,46.2206775763065],[13.6641166651007,46.2205963909586],[13.6644711697714,46.220511549224],[13.6648539087578,46.2205826911351],[13.6652035615466,46.2206979825159],[13.6660876397158,46.2212421182803],[13.6669413422395,46.2217191322347],[13.6672563073529,46.2219452205488],[13.667473635335,46.2222368405043],[13.6676284280851,46.2224611504222],[13.6677875284504,46.222507451927],[13.6683320754327,46.222513707211],[13.6687133496532,46.2226515797405],[13.6686711241205,46.223073785423],[13.6687304344132,46.2232746681559],[13.6689200640455,46.2233880842717],[13.66930390279,46.2234147769144],[13.6693957645992,46.2235937247013],[13.6693893158414,46.2238606022122],[13.6694486295463,46.2240614845826],[13.6697028204279,46.2241534273137],[13.6704016591827,46.2244061072773],[13.6708432141999,46.224700418604],[13.6713996632041,46.2255521022628],[13.671769294424,46.2261791970465],[13.6719812975941,46.2266932516665],[13.6719338618165,46.2273377231008],[13.6720482239992,46.2279174036115],[13.6719761543857,46.2282501893175],[13.6718369678591,46.2287157162975],[13.6720820657837,46.2291857079661],[13.6724569624978,46.2295903560491],[13.6725477709151,46.2298138259015],[13.6730539431347,46.2300866552178],[13.6735282383572,46.2303590223934],[13.6749001050801,46.2303182502957],[13.6753508045833,46.2314046891097],[13.6754083260137,46.2322416619205],[13.6754119968933,46.23289734328],[13.6756943050288,46.2336280520664],[13.6758769425939,46.2343576055464],[13.6762583696243,46.2351241007552],[13.676886264483,46.2360319172229],[13.6773593132356,46.2367421557442],[13.6784382290804,46.237989613314],[13.6791174009482,46.2395947658537],[13.67933567045,46.2401822065002],[13.6799668631147,46.2409515738582],[13.6807993777744,46.2416538914901],[13.6819194590973,46.2428790267512],[13.6828920770244,46.2439986222238],[13.6838349407161,46.245214408223],[13.6826039868189,46.2460437306442],[13.6835943344027,46.2462408451537],[13.6843131812132,46.2465388359201],[13.6850721078221,46.2470050838311],[13.6852568604489,46.247571612843],[13.6853170243332,46.2478163129899],[13.6855330365228,46.2479865977259],[13.6853738029575,46.2482135692465],[13.6856135505487,46.2483078292417],[13.6856534955982,46.248476089133],[13.6858266521842,46.2486000840187],[13.6861507967305,46.248847818199],[13.6862311858676,46.2491690477936],[13.6861134848858,46.2495032961593],[13.6860392413263,46.2498533394095],[13.6860331796441,46.2501125733245],[13.6862764476329,46.2500543672986],[13.686428661841,46.2501323240494],[13.686513059464,46.2502857988933],[13.686803195354,46.2501060362492],[13.6870015477239,46.2500930192196],[13.6868432748944,46.2502742972147],[13.6870166729079,46.2503830875074],[13.6872615281008,46.2502638056239],[13.6873926629399,46.2502958124848],[13.6874108321021,46.2504638216529],[13.6875888336351,46.2503742724135],[13.687764417567,46.2503914936638],[13.6878719511486,46.250499526552],[13.6880716293704,46.2504255208658],[13.6881578508717,46.2505027179073],[13.6883957947418,46.2506732488223],[13.6885085258776,46.2505524482239],[13.6887497426478,46.2505857164285],[13.6888771404985,46.2507854792427],[13.6891391822141,46.2508646919985],[13.6898382559902,46.2510709179358],[13.6901657012876,46.2511813789225],[13.6904959215652,46.2511698667419],[13.6906977759429,46.2510043783917],[13.6908246904392,46.2512193389921],[13.6908655086736,46.2513571059607],[13.691105643326,46.2514360633075],[13.6917824555009,46.2516573179047],[13.6920211428234,46.251797258758],[13.6919456129264,46.2522082929574],[13.6916752198234,46.2524797975409],[13.6916057244857,46.2526315071181],[13.6915130946579,46.2528288382948],[13.6907873608501,46.2528206188189],[13.6904560407925,46.2528779157287],[13.6899062612914,46.2528717062186],[13.6894890792481,46.2528364233023],[13.6888931639066,46.2529211829836],[13.6886498836756,46.2529794843944],[13.6883838328859,46.2530680250172],[13.6881595561826,46.253248547407],[13.6880021369022,46.2533992457447],[13.6878002655727,46.2535647290885],[13.6873542505861,46.253819001801],[13.6887738038041,46.2552080179989],[13.6883110775301,46.2561790107214],[13.6881594554934,46.2570162726508],[13.6880955160456,46.2578697460758],[13.6879989945844,46.2582347399371],[13.6878336833404,46.2587210379464],[13.6871793089032,46.2594153168776],[13.6859255356284,46.2603468009531],[13.6848304999193,46.2610665908402],[13.6843490176155,46.2619001415984],[13.6835619392282,46.2626233731008],[13.682552694135,46.2634356317246],[13.6819477759856,46.2639015581961],[13.6808392203219,46.2642550523687],[13.6795829315852,46.264347526458],[13.6787672860814,46.2644144895664],[13.6780640539358,46.2643759485718],[13.6770312530097,46.2643184740936],[13.6816895211197,46.2668276598213],[13.6852214448517,46.2719836724212],[13.6857289364249,46.2739565909154],[13.6861533297691,46.2759712886766],[13.6869806892646,46.2774631011143],[13.6873191398098,46.2779231514347],[13.6870797574311,46.2784762559965],[13.6870811904919,46.2792745133822],[13.695681028058,46.2801774962123]]]},"properties":{"fill-opacity":0,"stroke-opacity":1,"stroke":"#ff0000","lov":"1109","lov_naziv":"TOLMIN","luo":"11","luo_naziv":"Triglavsko","povrsina":5200.38},"id":"pregledovalniklovisca.1"}]}