<?xml version="1.0" encoding="utf-8" ?>
<kml xmlns="http://www.opengis.net/kml/2.2">
<Document id="root_doc">
<Schema name="pregledovalniklovisca" id="pregledovalniklovisca">
	<SimpleField name="lov" type="string"></SimpleField>
	<SimpleField name="lov_naziv" type="string"></SimpleField>
	<SimpleField name="luo" type="string"></SimpleField>
	<SimpleField name="luo_naziv" type="string"></SimpleField>
	<SimpleField name="povrsina" type="float"></SimpleField>
</Schema>
<Folder><name>pregledovalniklovisca</name>
  <Placemark id="pregledovalniklovisca.1">
	<Style><LineStyle><color>ff0000ff</color></LineStyle><PolyStyle><fill>0</fill></PolyStyle></Style>
	<ExtendedData><SchemaData schemaUrl="#pregledovalniklovisca">
		<SimpleData name="lov">1418</SimpleData>
		<SimpleData name="lov_naziv">LUKOVICA</SimpleData>
		<SimpleData name="luo">14</SimpleData>
		<SimpleData name="luo_naziv">Kamniško Savinjsko</SimpleData>
		<SimpleData name="povrsina">5057.06</SimpleData>
	</SchemaData></ExtendedData>
      <MultiGeometry><Polygon><outerBoundaryIs><LinearRing><coordinates>14.7900009740336,46.1595640925224 14.7890447344867,46.1596415089649 14.7876096670788,46.1599235292555 14.7865855035986,46.1599177529615 14.7854249706078,46.1598524187765 14.7841513767035,46.1596286851963 14.7828997051206,46.1595948240749 14.7819367457905,46.1594040459448 14.7809099464735,46.1601628123187 14.780839171452,46.1604109147334 14.780646561538,46.1605592722128 14.7800067022913,46.160712257944 14.7796451297364,46.160954221221 14.7790982121312,46.1608209040058 14.7782164225196,46.1610507895238 14.7776217249611,46.1609504829423 14.777098837372,46.1607675372968 14.7763380393077,46.1605346383601 14.7757426788944,46.1605996927793 14.7752421489992,46.16074752665 14.774363172243,46.1603490100668 14.7740811207672,46.1595051272651 14.7730123916551,46.1589408529151 14.77087137718,46.1586224825128 14.7699453703475,46.1580915757931 14.7685674085435,46.1574936165478 14.766379169585,46.1571254906339 14.7640705623447,46.15708781883 14.7624046704024,46.1570183276204 14.761024457416,46.1570850904778 14.7601190312893,46.1572982319223 14.7592606525798,46.1576768374526 14.7580696626867,46.1578728956733 14.7571163314183,46.1581685979957 14.7562573513769,46.1586463309539 14.7555198349612,46.1585622499149 14.7545217891115,46.1581635058265 14.7535480418363,46.1576325436314 14.7531435855431,46.1575986504951 14.7515502964271,46.1572482590868 14.7512632647906,46.1575618240538 14.7511659214791,46.1580741039875 14.7509749424516,46.1581894846203 14.7494746170463,46.1583517585553 14.7481647410399,46.1585144325137 14.7474971214097,46.1587775732378 14.7464256628091,46.1588415123535 14.7457101551905,46.1591541120445 14.7453276858101,46.159517025321 14.7446122161147,46.1598461733964 14.7439927720646,46.1599606742831 14.7429200303057,46.1603221214909 14.7422539325769,46.1602215602729 14.7416592326315,46.1601376217775 14.74141946858,46.160517399536 14.7407284600487,46.1606481860526 14.7401555325027,46.1610272050147 14.7391061788673,46.16147135557 14.7375104304684,46.161633344564 14.7371290714254,46.1617481747195 14.7369632147684,46.1615825111132 14.736654145991,46.1614992034739 14.7361534752088,46.1616799762665 14.7354639451386,46.1614966353863 14.7348209567414,46.1615449012256 14.7338938434391,46.1612784034308 14.7344488713015,46.1606192854153 14.7347830321012,46.1603023631852 14.7348879146679,46.1600860391823 14.7347644844113,46.1597970264592 14.7349528975622,46.1595231328763 14.7351408240367,46.1593502785994 14.7350379721143,46.1590901054792 14.7347065957857,46.1588294921146 14.7345415380594,46.1585548682825 14.7341268457657,46.1583084555439 14.7337334894249,46.1579611401819 14.7336933215946,46.1576722301266 14.7338489692869,46.157345987038 14.7331139421152,46.1570790300286 14.7323851095887,46.1573518367813 14.7321762557289,46.1575679150491 14.7310938792748,46.1578542805335 14.73071970026,46.157853489702 14.7301994874918,46.1579822755082 14.7299803789071,46.1582279269779 14.7295511051263,46.1584253947897 14.7290032307837,46.1584903181473 14.7286469511219,46.1583241907955 14.7280989620306,46.1584386852086 14.7268389121028,46.1581217619886 14.7264824427277,46.1580218482766 14.7264367151779,46.1576083983656 14.7261998443209,46.1573598629514 14.7258685523796,46.1569623736291 14.7253934724233,46.1567629306801 14.7249662410255,46.156497469985 14.724585963497,46.1563974030706 14.7241092406388,46.1565286052892 14.7232053398841,46.1564108935813 14.7226600528108,46.1559633008501 14.7221850763974,46.15574728956 14.7215930311076,46.1551011853065 14.7217840606003,46.1549858538127 14.7216420086577,46.1548367809241 14.721332917353,46.154769986919 14.7212128529496,46.1549845521637 14.7210944312137,46.1551813064245 14.7209024241079,46.1551822773858 14.7208317107272,46.1550332876716 14.7206913340381,46.1545535631101 14.7206214127007,46.1542227376439 14.7203716524088,46.1539198141708 14.7201237269471,46.1537918041858 14.7198137205607,46.1539068413756 14.7195283744291,46.1538565659278 14.719146695203,46.1540375563598 14.718814547893,46.1538218818083 14.7184352667264,46.1535068488152 14.7181247517864,46.1537211215593 14.7175299897047,46.1536701677184 14.7172911045255,46.1538514147428 14.7173704953962,46.154098769769 14.7173127699587,46.1542978295711 14.7168831829249,46.1545282696486 14.7163342726866,46.1548246329606 14.7160237018051,46.155071920282 14.7161417066305,46.1552870713504 14.7164505393988,46.1554035444083 14.7165210718618,46.1555855568433 14.7159722347835,46.155865273352 14.715095420915,46.156374863641 14.7147774181094,46.1568048661966 14.7139204075704,46.1568359250902 14.713418589351,46.1572315434777 14.7132024555505,46.1564421993319 14.7132898699501,46.1555905446047 14.7134799695033,46.1549845062999 14.7134858543547,46.1538006425832 14.713202231077,46.1522983541938 14.7123148723575,46.1510112945189 14.7111559488376,46.1499978728754 14.7102671597215,46.1489995201452 14.7096718362459,46.1475397988045 14.7095334649772,46.1461101177168 14.7057194369947,46.146253318796 14.7045703577806,46.1453040964128 14.7031806710163,46.1447664996057 14.6989042917669,46.1438031186749 14.6965380074488,46.1432998438464 14.6938398016185,46.1432081633235 14.6937016601198,46.1424430122833 14.693054175128,46.142495260057 14.6930677688203,46.1423783300473 14.6927835582594,46.1422785949115 14.6924476237778,46.1421698124671 14.6918653610111,46.1421322547259 14.6913611629532,46.1420229254217 14.6912183306737,46.1421035165094 14.6910499629916,46.1421210564353 14.6909591059334,46.142165797962 14.6906485091631,46.1421559604196 14.6902091827317,46.1420198092984 14.6894983976766,46.1418199374776 14.6890849638052,46.1416838523549 14.6886441741988,46.1418086165572 14.6885401692214,46.1418893100512 14.6885138761783,46.1419612178072 14.6885260581897,46.1420963023451 14.6885896095235,46.1423034162514 14.6885235720148,46.1425371693564 14.6883416492322,46.1426626374415 14.6878238485874,46.1426702219667 14.6876945128728,46.1426518738409 14.6874484290373,46.1426781935338 14.6872019373343,46.1427764909694 14.6870330055514,46.1428929950912 14.6867608796463,46.1429462342711 14.6864760136906,46.1429634481684 14.6836429931001,46.1440644852593 14.6827838851023,46.1444920912243 14.6817098080061,46.1450679096764 14.6812090123292,46.1452649972506 14.680184420718,46.1454937288849 14.6797546856243,46.145757139892 14.679633615876,46.1461205662929 14.679559447236,46.1466328513419 14.679202144888,46.1466815149391 14.6784654860282,46.1464976974214 14.6780609328359,46.1464800935154 14.6764558609463,46.1470836973202 14.6735506493768,46.1472318127492 14.6729682671189,46.1473168832188 14.6722611803004,46.1473871973884 14.6714925565707,46.1473129218182 14.6713046020346,46.147485671773 14.6711783096282,46.1477596397873 14.671054764818,46.1481806333274 14.6707906511397,46.1485766590227 14.6702895871767,46.1488068083653 14.6696466922232,46.148854617994 14.6692664693877,46.1487709222863 14.6679126993008,46.1482877951665 14.667342061817,46.1482035397197 14.6668905897942,46.1480866082195 14.6665109457663,46.147887198249 14.6662272493983,46.1475557152029 14.6657537674489,46.147141170346 14.6653953772723,46.1473881806532 14.6645600966861,46.1477826086977 14.663797137432,46.1480119608094 14.6629399342946,46.1480922127157 14.662249128383,46.1482060604463 14.6616051474489,46.1484522146586 14.6613177538328,46.1487489980335 14.6606461104489,46.1496398195568 14.6603970135045,46.149854207961 14.6604527914438,46.150151828129 14.6601643655357,46.1506138879153 14.659825803693,46.1515221593145 14.6593860127988,46.153455202731 14.6591668066025,46.1542976963722 14.6590605943265,46.1548298461259 14.6590363535895,46.1554217131022 14.6590452223019,46.1560401311364 14.6590935094394,46.1566071115458 14.6591567444741,46.1568502299749 14.6591931971594,46.1572372269437 14.6591250725913,46.1577858652994 14.6590813039069,46.1586044981937 14.6590909730355,46.1591353735777 14.6598003582047,46.1597697340783 14.6603601730996,46.1600311535788 14.6603791534842,46.160334422249 14.6601529484733,46.1605660627661 14.6595808706233,46.1606967122999 14.6584384461367,46.1606769292906 14.6573903688464,46.1607896793935 14.6562952825458,46.1608196824595 14.6559973281037,46.1608222952099 14.6562500786459,46.161154699535 14.656278762999,46.1616634985127 14.6547031444012,46.1615484420308 14.6519816648557,46.1613415267043 14.6505573252016,46.1610180439609 14.6493796755755,46.1628331713575 14.6488037866343,46.1635753979744 14.6491413372589,46.1645368160406 14.6483653838255,46.1651942104506 14.6486056797476,46.1653431363531 14.6486958497889,46.1656414969914 14.6493111640112,46.1662384735292 14.649332599433,46.1666352341029 14.6504472574568,46.1673163310857 14.6507074468896,46.1675981147539 14.6511579982457,46.1678804788749 14.6514666841137,46.1680301472075 14.6517266486982,46.1683283930468 14.6523452291172,46.1683963167324 14.6527492060785,46.168529716157 14.6531772981908,46.1685971465174 14.6535083426434,46.1689617346677 14.6537933164338,46.1690948596015 14.6538864248255,46.169425705392 14.6543380690981,46.1695592434868 14.6546963435975,46.1700653493065 14.6552150302429,46.1702065542348 14.6558086735451,46.1704562210089 14.6563063138506,46.1708378575872 14.6566129725308,46.1713181595538 14.6572040934149,46.1719976162393 14.6572969458341,46.1723945890382 14.6571511471685,46.172890177286 14.657196957442,46.17318785792 14.6574101651808,46.1733703340478 14.6586934785539,46.1737706870918 14.6595971087927,46.1744388272744 14.6597929194226,46.1749872602845 14.6603101588252,46.17543623779 14.6611787657298,46.1762472294263 14.6616513115656,46.1768704373313 14.6609833643465,46.1770834955948 14.6589578819503,46.1773422635512 14.6593137668815,46.1775581818952 14.6597653613592,46.1776916981906 14.6598588529262,46.1779895194035 14.6598996132181,46.1791303269987 14.6602785310646,46.1794785720804 14.6606234282209,46.1795045192042 14.6612297276486,46.1796961619514 14.6614659951358,46.180010869935 14.6617710258507,46.1807722301251 14.6615278108591,46.1816311184181 14.6615024837933,46.1818955658986 14.6620958027888,46.1822444394228 14.6623079483342,46.1826087396561 14.6628068545844,46.1828085141601 14.6626869057537,46.1829568866772 14.6622581835998,46.182972265987 14.6630634434685,46.1837018988451 14.6631987564932,46.1839649305067 14.6635853179559,46.1840670190955 14.6638475384178,46.1840182150008 14.6646117716656,46.1836400512958 14.664993432411,46.1835253743512 14.6655172936436,46.1835433734738 14.6661176440023,46.183679369058 14.6666574815105,46.1839905435868 14.6671003940385,46.1845224984417 14.6673191854344,46.1852307775528 14.6671390461651,46.1868536461328 14.6670650863364,46.1878176771883 14.6671278503455,46.1886225831752 14.6672769375064,46.1905370235435 14.6679137583049,46.1906968686508 14.6689823928955,46.1909842841211 14.6700519840895,46.1911136989186 14.6708254612706,46.1912580867869 14.6716890765799,46.1915607217346 14.6722130435428,46.1915305546274 14.6726908447606,46.1915950849902 14.6735999844991,46.1919136711419 14.6743965642094,46.1920105947933 14.6753085693495,46.1918234346606 14.6761285651062,46.1917940000293 14.6767660383702,46.1918272949371 14.6773359409892,46.1917181475451 14.6776335395348,46.1914502363641 14.6779753155344,46.1914036936184 14.678657005484,46.1916742725932 14.6792256531416,46.1918021923365 14.6797936607651,46.1920407748134 14.6808867934958,46.1920279060998 14.6817039990446,46.1925042544647 14.6824765255903,46.1928223895129 14.6828816331857,46.1929155568108 14.6831205530945,46.1931832604923 14.6831335825962,46.1975661712024 14.6839470650919,46.19782817617 14.6843499497818,46.1981806352665 14.6855389810478,46.1982540913058 14.6866251951983,46.198590785148 14.6880900187899,46.1984944707984 14.6894840850485,46.1987213997238 14.690089202604,46.1991094772525 14.6905694448031,46.1992162268756 14.691354355095,46.1991304447107 14.6921659654526,46.1988339214997 14.6931035806305,46.198710839573 14.6943432463532,46.198676641844 14.6954207752783,46.1986969725356 14.6965865760576,46.1988054313432 14.6977776320974,46.198940397191 14.6986643191186,46.1991010009211 14.6997413312984,46.1992180108659 14.7004444302877,46.1992344310271 14.7007979225154,46.1992786339066 14.7012545218392,46.1994963038531 14.7016265596343,46.1999448028115 14.7020211038463,46.2000901490847 14.7029787486677,46.1999770254369 14.7041440429461,46.1999221042378 14.7045847941182,46.2000781780853 14.7058452880301,46.2009772926621 14.7066003151515,46.2017345587746 14.708634779782,46.204585706666 14.7092684607745,46.204411602153 14.709648045511,46.2044301116199 14.7101805177682,46.2042557449575 14.7107378863336,46.2041517079225 14.7118528006409,46.2039085365699 14.7122838369246,46.2037514491727 14.7129171308671,46.2036475925617 14.7144344154478,46.2038972895712 14.7149149289263,46.2039687579477 14.7153942254887,46.2042510286184 14.7164304752173,46.204534590129 14.7170125621556,46.2045360324703 14.7173665214169,46.2046247219825 14.718176686778,46.2045739077348 14.7184561978662,46.2043462443153 14.719039577052,46.2041192374219 14.71980080344,46.2037522153136 14.7206125082066,46.203420311089 14.7216762554085,46.2032647327697 14.7223863447059,46.2029853828053 14.7231974931013,46.2027589075187 14.7238554948745,46.2027604988048 14.7245653036549,46.2025337689767 14.725274318672,46.2024651158845 14.7259842922924,46.202203288051 14.7265163430109,46.2020991133746 14.7268464717033,46.201871550428 14.7272517471554,46.2018022489036 14.7277327801262,46.2017682159728 14.7284174662631,46.2015062228001 14.7290516769465,46.20123078985 14.7293515093212,46.2011005889174 14.7297114904372,46.2008592324409 14.7298143674667,46.200543309418 14.7303720055533,46.2003689080835 14.7318162559288,46.2000208694404 14.7321269811439,46.1998861880898 14.732677599605,46.1998471688928 14.7337166167092,46.199585971895 14.7343480846595,46.1998157932826 14.7348795895083,46.1998170271114 14.7352073919281,46.200063683916 14.7355609695175,46.2002050406427 14.735813099415,46.2003988862426 14.7367472164481,46.2008577455812 14.7372785182483,46.2008765125814 14.7375049719289,46.2011581093571 14.7379343269443,46.2013347222664 14.738820439624,46.2012664809566 14.7393260635723,46.2013729937092 14.7399843451973,46.2013393132449 14.7405915016596,46.201375782137 14.7411221497777,46.2015350680717 14.7415011490441,46.2016764639487 14.7447155414294,46.2016307826418 14.7461081483359,46.2015108903896 14.7473516245923,46.2007932290037 14.747581105939,46.2004248453697 14.7486181715763,46.2005500339982 14.7492246858671,46.2007269939332 14.7501364902459,46.2005884521123 14.75097251877,46.2004145584168 14.7513785460824,46.2001694551159 14.7520369138582,46.2000829810742 14.7523159975715,46.1999430477466 14.752342419756,46.1997147527132 14.7542482482866,46.1980146805951 14.7547295180828,46.1979453549864 14.7550083766035,46.197822959356 14.7557169820726,46.1978244756992 14.7568289623296,46.1981430126981 14.7575886969641,46.1980391774265 14.7587523078229,46.197518083953 14.7592127025847,46.1970938405044 14.7594936692882,46.1965146435967 14.7598252128641,46.1959530970152 14.7604593208199,46.1956206262048 14.7615814701064,46.1953514322968 14.7622563974317,46.195554018353 14.7629135599426,46.1957310111372 14.7642041354887,46.1957335903452 14.7685797237092,46.1962692356626 14.7694882458469,46.1968244073455 14.7701208407146,46.1968432259265 14.7715970092457,46.1972457563525 14.7725302730281,46.1973740296608 14.7735991958673,46.1977238985123 14.7745558581444,46.1977099537535 14.7751712379152,46.1976320790628 14.7759912690362,46.1976020181995 14.7770386309267,46.1976830622545 14.7777659167883,46.1980322253203 14.7782439649881,46.1981122401754 14.7787678109603,46.1981131651305 14.7769180582247,46.1959723435568 14.7768691204164,46.1946825696185 14.777006894078,46.1944139979429 14.7766448776483,46.1938441195042 14.7761458647928,46.1933530583177 14.7761921106757,46.1931950655767 14.7760561357717,46.1930524613534 14.7756239955277,46.1929093660437 14.7753968795489,46.1927508367628 14.7754207119208,46.1924978783167 14.7756266346155,46.1922926933778 14.7763337976237,46.1919936578258 14.7766079256595,46.1918044398484 14.7772462919709,46.1916316768558 14.7776563898218,46.1915850591911 14.7779747746133,46.1916963453055 14.7781560362544,46.1919180318453 14.7781767361847,46.1924082472585 14.7789451232513,46.19383266517 14.7792170326071,46.1941651924664 14.7795578587514,46.1943713494152 14.7803307219837,46.1947206742207 14.7804450468088,46.1946101365962 14.7799457406822,46.194182342804 14.7797196208879,46.1938024894979 14.7798119002406,46.1935022460667 14.7800185042971,46.1931231359599 14.7800204000083,46.1926804703921 14.7801350362191,46.1924909369718 14.7805006713812,46.1921912183135 14.7808441297614,46.1917332826611 14.7810303715251,46.1907691242233 14.7816705271672,46.1901379251597 14.7816942087269,46.1899482163517 14.781535422482,46.1897739943159 14.7806023920618,46.1896141241214 14.7800795762599,46.1894076201592 14.7796471380154,46.1893436260741 14.7795109074389,46.1892326960343 14.7797389052759,46.1891697942172 14.7833369599341,46.1891764900109 14.7835642702214,46.1892875879628 14.7837447348681,46.1896831829398 14.7839268242014,46.1897309432623 14.7840411931133,46.1896046566736 14.7841338750641,46.1891937429239 14.7843178803488,46.1887513307351 14.7846149502191,46.1885147207102 14.7851849825808,46.1883418745058 14.7873938662051,46.1883458238453 14.7882359458125,46.1884737995409 14.7887823100942,46.1884906456387 14.7895116796733,46.1883495628613 14.7901731864925,46.1880661927752 14.7905614777845,46.1877822286616 14.7909272048444,46.1874350605539 14.7913831488189,46.1872777200726 14.7919072601708,46.1872154239201 14.7924990339254,46.1872797509447 14.7933865790128,46.1874077712398 14.7941152025139,46.1874248311368 14.7945024672272,46.1874096925879 14.7953684637105,46.1872372372345 14.795961294742,46.1870169620328 14.7966453774099,46.186780920794 14.7972160520672,46.1864182615541 14.7990661491787,46.1849667463709 14.8002973406937,46.1845577246541 14.800889780924,46.1844322552339 14.8014375069145,46.1841327862133 14.801848381236,46.1838488228012 14.8022833123405,46.1832487324085 14.8023532924993,46.1828061834607 14.8023083770905,46.182616351531 14.8020818668037,46.182315537829 14.8020826610175,46.1820942041931 14.802403492484,46.181557167002 14.8032508951429,46.1802461836321 14.8036183669562,46.1794088011935 14.8040320201273,46.1783659968324 14.8040360986107,46.1772908187019 14.8035373848577,46.1766892085705 14.8035611373847,46.1764204080604 14.8039275673911,46.1758676090406 14.8039970194336,46.17556730601 14.8034747950754,46.1751711550264 14.802475577342,46.1745212623779 14.801134844884,46.1738391865627 14.8000663809866,46.1734420683507 14.7987015267078,46.1731393408839 14.797814082531,46.1730430324336 14.796788131925,46.1730692851048 14.794922481956,46.1731170585687 14.7943082399041,46.1730053773027 14.7929891933132,46.1726552478608 14.7916692683451,46.1725421823753 14.7894388870976,46.1723643567154 14.7885736512923,46.1723944305232 14.7876627137426,46.1724876644418 14.786546210303,46.1727228459031 14.7856812742289,46.1726739014384 14.7847482121683,46.1725931514175 14.783815462739,46.1724333074535 14.7825417097065,46.1721779753891 14.7811120916407,46.1721056972817 14.779947009842,46.1720466870859 14.7791379131998,46.1719641503964 14.7798605745564,46.1709239181184 14.7798403713912,46.170307288968 14.7800018700998,46.1697858419366 14.7804131285642,46.1694387040172 14.7806979933336,46.1690577619731 14.7812592945771,46.1684916425522 14.7821497040993,46.1678765723965 14.783664914667,46.1672291190992 14.7839543005615,46.166346213344 14.784131657834,46.1661274620972 14.7844341218248,46.1659043578825 14.7846404665332,46.165556907912 14.7850741402463,46.1652573013957 14.7850532653391,46.1647986653994 14.7852137138899,46.1645302150483 14.785543049117,46.1643865152746 14.7861716429044,46.1640734140627 14.7869008716532,46.1638533500579 14.7875623411756,46.1635067421941 14.7883158708944,46.1629230398511 14.7889098074095,46.1623865441158 14.7892890320501,46.1611756551135 14.7898720118817,46.1608228607737 14.7904185928496,46.1607447770813 14.7907300176504,46.1594072552702 14.7900009740336,46.1595640925224</coordinates></LinearRing></outerBoundaryIs></Polygon></MultiGeometry>
  </Placemark>
</Folder>
</Document></kml>
