<?xml version="1.0" encoding="utf-8" ?>
<kml xmlns="http://www.opengis.net/kml/2.2">
<Document id="root_doc">
<Schema name="pregledovalniklovisca" id="pregledovalniklovisca">
	<SimpleField name="lov" type="string"></SimpleField>
	<SimpleField name="lov_naziv" type="string"></SimpleField>
	<SimpleField name="luo" type="string"></SimpleField>
	<SimpleField name="luo_naziv" type="string"></SimpleField>
	<SimpleField name="povrsina" type="float"></SimpleField>
</Schema>
<Folder><name>pregledovalniklovisca</name>
  <Placemark id="pregledovalniklovisca.1">
	<Style><LineStyle><color>ff0000ff</color></LineStyle><PolyStyle><fill>0</fill></PolyStyle></Style>
	<ExtendedData><SchemaData schemaUrl="#pregledovalniklovisca">
		<SimpleData name="lov">1412</SimpleData>
		<SimpleData name="lov_naziv">STAHOVICA</SimpleData>
		<SimpleData name="luo">14</SimpleData>
		<SimpleData name="luo_naziv">Kamniško Savinjsko</SimpleData>
		<SimpleData name="povrsina">2727.24</SimpleData>
	</SchemaData></ExtendedData>
      <MultiGeometry><Polygon><outerBoundaryIs><LinearRing><coordinates>14.6890676992956,46.2831850969339 14.6901156344325,46.2830394880781 14.6904934022078,46.2829919264111 14.691366840915,46.2830221787641 14.6926081610235,46.2830786062374 14.6938631098849,46.2831349667523 14.6949788796433,46.2831802356145 14.69581305871,46.2831770596118 14.6967685056224,46.2831625028363 14.6979303427891,46.28332653815 14.6986317275561,46.2834255587712 14.6994697794729,46.2836877837312 14.7001126910981,46.2838972171477 14.7007216093437,46.2840824454712 14.7010276524622,46.284170428998 14.7017221341966,46.2843009927645 14.7026386033858,46.2844661392681 14.7035774080513,46.284629626859 14.7046351174111,46.2848365105428 14.704784066481,46.2846732361692 14.7048795533274,46.2845573288297 14.7052721196146,46.2839519301491 14.7055831418325,46.2834992725327 14.7056677746825,46.2828166028299 14.705911525562,46.282298991179 14.7058876689384,46.2821253737677 14.7058147380662,46.2819559487483 14.7058241344096,46.2818732886239 14.7056338883281,46.2812689966203 14.7054752455447,46.2809186867815 14.7052977704673,46.2805718370724 14.7053380645076,46.2803172300248 14.7053029039369,46.2800742148369 14.7050946071151,46.2797407811253 14.7049202131475,46.2794254289305 14.7048567454327,46.2791139617283 14.7050213289249,46.2784280793924 14.7053422248091,46.2781129248356 14.7051334343742,46.2778002733617 14.7049257402267,46.2775739075665 14.7047606817032,46.2774304258248 14.7043196536375,46.2770900913009 14.70391012164,46.276781236891 14.7038445883915,46.2767343716358 14.7035211018169,46.2765193096627 14.7031901543386,46.2762927109658 14.7026895990959,46.2759504160952 14.7024940294463,46.2756925870857 14.7022863102606,46.2754743138355 14.7022024455237,46.2753868224591 14.7020235582318,46.2750921474888 14.7018565715687,46.2748523862663 14.7018046440474,46.274785671458 14.7016485053253,46.2746512956 14.7015352106401,46.2742253416458 14.7013458163394,46.2739315378469 14.7009294908886,46.2735193667865 14.7009690705632,46.2733511323778 14.7009023612749,46.2731639057397 14.7006520733171,46.2726648048504 14.7004619856289,46.2721190755587 14.7003836282948,46.2719271395063 14.7001914372627,46.2714587802756 14.7000343144406,46.2710553826545 14.6998173740774,46.2704636058786 14.6998123615098,46.2704787080508 14.6998066053229,46.2704636675774 14.6998136268988,46.2704608069017 14.6991051870743,46.269926399116 14.6989847402493,46.2698406084572 14.6982983770299,46.2693998248562 14.697822342001,46.2690980604516 14.6971017120146,46.2687578579797 14.696868079538,46.2685655979095 14.6963826838345,46.2680586659029 14.6962326419174,46.2677658575228 14.6956029552575,46.2669148446029 14.6959022386627,46.26672849867 14.6956700305059,46.2664921534508 14.6956058036,46.2663768179543 14.6959804776151,46.2659990315149 14.6964846080796,46.2655990944829 14.6973113326408,46.2652754964548 14.6977403822901,46.2651029849757 14.6984011177323,46.2645999851807 14.6989299341563,46.2641875062664 14.6994837310015,46.2637364024404 14.6999696238203,46.2631041833665 14.7005725777766,46.2624840551676 14.7009701163808,46.2618264080245 14.7013287159564,46.2612669075327 14.7014831078787,46.2610467884799 14.7022742541158,46.2605199937858 14.702262222098,46.2599390108063 14.701549071926,46.2598629242327 14.7012552024004,46.2597793821543 14.700891888799,46.2598000256351 14.700797274163,46.2597619896713 14.7007833508015,46.2597223653838 14.7006856503165,46.259560159355 14.7005120216457,46.2595732005362 14.6997991323807,46.2594030825751 14.6993463341701,46.2594207869814 14.6991674263854,46.259355536257 14.6974131457827,46.2587481818415 14.6971450374035,46.2586997865925 14.6965996225771,46.2586011703506 14.6960037722214,46.2582172048743 14.6954321198175,46.2580794652598 14.6946872754655,46.2579473785487 14.6942132016647,46.2579908278955 14.693962784663,46.2579111620897 14.6934856627716,46.2575937208838 14.6923914947485,46.2575593819164 14.6915040808939,46.2572250826282 14.6905937600289,46.2569066395624 14.6899546335504,46.257031499388 14.6896820230994,46.2568410979089 14.6897521621224,46.2565249451623 14.6898454439531,46.25612985933 14.6893927963403,46.2555277944791 14.6888919104839,46.2553841861643 14.6884821581811,46.255272494303 14.688232030595,46.2551454012033 14.6883016379546,46.2549241687549 14.68803020993,46.2545280894167 14.6878520777927,46.2537369250703 14.6870801064147,46.2531657388302 14.6861734477238,46.2521987485249 14.6851726606282,46.251753422303 14.6841034895516,46.2513395686872 14.6826675044282,46.2512727012592 14.681572759704,46.2513608896391 14.6806593281047,46.2516273598138 14.6800648811788,46.2519262960978 14.6794241673411,46.2523516908817 14.6787833516751,46.2527928269477 14.678258434453,46.252886361942 14.6782922305927,46.2526961651965 14.6779441477223,46.2523592278793 14.677945875982,46.2520418097192 14.6780012292682,46.2517805054896 14.6782176335424,46.2516130460878 14.6784362873395,46.2510160637462 14.6786023343929,46.2502323299996 14.6788207809719,46.2496913990988 14.6792265710132,46.249337686567 14.6795000030082,46.2485728768474 14.6790717984352,46.2481236122544 14.6783762312734,46.2473562608992 14.6781370199053,46.2468141326504 14.6778694388629,46.2465333843097 14.6775472770539,46.2463832116012 14.6752589403516,46.2456929429184 14.6731086940809,46.2452338030353 14.6712059562432,46.2452664953101 14.6681048909399,46.2446451813835 14.6657942998588,46.2443624144276 14.6648031563008,46.2447687983853 14.6640372611903,46.2448551733862 14.6626383637407,46.2452430648762 14.6598339395118,46.2447529518142 14.6591468233843,46.2452884918596 14.6580073075553,46.2461669106128 14.6559771046003,46.2463983474018 14.6523697829557,46.2472894113522 14.6507685737761,46.248186056937 14.6498952937316,46.2493219890856 14.6493723285009,46.2502871416443 14.6477819766526,46.2518773765401 14.6466419768677,46.2532056321284 14.642922862823,46.2529237997364 14.6358901108689,46.2523905749585 14.6356253000328,46.2526796227863 14.6352103710052,46.2528007522532 14.6343659647604,46.2535138762769 14.6337463401103,46.2541444897127 14.6331527486465,46.2542533427866 14.6325543340911,46.2545402328467 14.631893763081,46.2550243192987 14.6314804476496,46.2554815775782 14.6308628656706,46.2557801833404 14.6300185585995,46.2559040455247 14.6290385595452,46.255837889282 14.6282858333949,46.2558829499721 14.6274628243235,46.2562125395959 14.6269355602089,46.256653574863 14.6257723267752,46.2567132938796 14.6249510157682,46.2567897784072 14.6239944841038,46.2566287349691 14.6234713870801,46.2564373514911 14.6227658002013,46.2562454536108 14.6222639104379,46.2562913020046 14.6208727698056,46.2563343828186 14.6196651043955,46.2562357207478 14.6191626647462,46.2563606395025 14.618136157884,46.2564364813636 14.6172694046115,46.256481178592 14.6165616547695,46.2566212335983 14.6160351819434,46.2569358099303 14.6148884697965,46.2579124729737 14.6139048112765,46.258383670107 14.6121056667496,46.2580774322283 14.6110827894679,46.257615637664 14.6104726696508,46.2568230625667 14.6100454894987,46.2559521123641 14.609006742355,46.2559792453734 14.6085718478806,46.2562149247463 14.6079090588212,46.2564500010828 14.6066756481186,46.2567621977414 14.6060808764277,46.2570606581065 14.6051880014821,46.257579508565 14.6044749055132,46.2581140894567 14.6041756516827,46.2588726911686 14.6033123834893,46.2584272147493 14.6033605333026,46.2580637131592 14.6037557148279,46.2569898225592 14.6038040884759,46.2565946511566 14.6036924546224,46.2562464306546 14.6022925020163,46.2543129189886 14.6020905208802,46.2538694614588 14.602119605864,46.2529683078867 14.6021009949024,46.2523674065096 14.6018809849938,46.251244143057 14.6018386520408,46.2507854054797 14.6018645507878,46.2503428306206 14.6019366721274,46.2498212407913 14.602167163358,46.2494583738682 14.6021032620905,46.2488256441631 14.6018572389191,46.2481449546839 14.6017255558786,46.2474172473887 14.6010631884388,46.2476047803045 14.6005823479608,46.2479036100116 14.5999650300807,46.248154544671 14.5995751174758,46.2484852686161 14.5992773047749,46.2487056477584 14.5990035531759,46.2487205231198 14.5987314296066,46.2485299061147 14.5985066589476,46.2480706165962 14.5983021912537,46.2479750672493 14.5981643356197,46.248116919484 14.5980706412498,46.2484802594216 14.5978187904645,46.2486217104191 14.597466297638,46.2486570887546 14.5972267067242,46.2485407201277 14.5968415106284,46.2482073635491 14.596432116905,46.2480795076641 14.5948592958467,46.2480583797589 14.5943341670826,46.2481673639616 14.5937396424692,46.2484183458765 14.5931682882583,46.2486219016065 14.5921648335726,46.2486817572004 14.5914580598512,46.2486952489553 14.5902464966741,46.249149593517 14.5894233632796,46.2494788193116 14.5891485540495,46.2496518390952 14.5890307910406,46.2501732568538 14.5888926814732,46.2503625124999 14.5884523500562,46.2504698851091 14.5876136501498,46.2506743397831 14.5866342842784,46.2505603167198 14.5853561889932,46.2507456206858 14.5844898585546,46.2507426554146 14.5838964569319,46.2508355083195 14.5833464301989,46.2512288446668 14.5810329545377,46.2526912616746 14.5802536864347,46.2532577496311 14.580275065353,46.2534475801997 14.5803862948,46.2538116574633 14.5801790625575,46.2540797346125 14.5799713548987,46.2544268055012 14.5800379045159,46.254680052694 14.5801492556706,46.2550282953946 14.5796439693065,46.2555324441301 14.5792547287986,46.2557524346935 14.5789118577068,46.2558619285422 14.578227938007,46.2558595875295 14.5777711775394,46.2559528225979 14.57699449615,46.25615562878 14.5764914747556,46.256343608546 14.5759431598005,46.2564840026058 14.5752589894933,46.2565131332773 14.5742778333487,46.2566203301803 14.5733198614923,46.2566644445006 14.5728571207026,46.2567408127541 14.5721430055222,46.2567503788432 14.5716556362273,46.2567244413183 14.5709029658691,46.2566715942451 14.5696679865345,46.2563940660039 14.5694117144489,46.2563904019584 14.5686987397286,46.2562550051366 14.5682631729306,46.2562896200989 14.5674778931932,46.2564921492159 14.5669034020803,46.2564780080966 14.5664867008914,46.2563073705171 14.5662451438677,46.2560167428921 14.5656381046253,46.2557065523547 14.5641997306419,46.2552899942922 14.5623539463179,46.2549429375933 14.5624192795166,46.255322691745 14.5617004427556,46.2558944127556 14.5616222148987,46.2560265523631 14.5615612615381,46.2561394140718 14.5615133858473,46.2562225450046 14.5614783979119,46.2562997871633 14.5614606366905,46.2563800644804 14.5614557160195,46.2564603910474 14.5614336508347,46.2565436209416 14.5614194825223,46.256710105681 14.561426310742,46.2569274154431 14.561430069521,46.256992839862 14.5614424598118,46.2570493901131 14.5614207264713,46.2570909640074 14.5613860226333,46.2571324881388 14.5613600089605,46.2571740456001 14.5613466826477,46.2572186208252 14.5613589644303,46.2573050415319 14.5613583955314,46.2573763875292 14.56136607799,46.2574865433222 14.561365745837,46.2575281993068 14.5613611097216,46.2575728078707 14.5613480313916,46.2576025385852 14.5613176318606,46.257641020142 14.5612786472989,46.257682527812 14.5612484003438,46.2577181308161 14.5612309942539,46.2577537830919 14.5612263816907,46.2577954226473 14.5612557977449,46.2578640045891 14.5612554418237,46.2579086295712 14.5612251473643,46.2579501705688 14.5611989797889,46.2579946964886 14.5612030225597,46.2580244928934 14.5611981731161,46.2580958224525 14.5611803161488,46.2581879756999 14.5611583445788,46.2582593295095 14.5611492034324,46.2583157971332 14.5611181721828,46.2584496470232 14.5610832066618,46.2585238300538 14.5610696297264,46.258615999708 14.5610475630694,46.2586992294911 14.5609857029434,46.2589251827429 14.5609633990626,46.2590381025056 14.5609755509188,46.2591245227271 14.5609794040774,46.2591780711341 14.5610047777995,46.2592168567191 14.5610302812668,46.2592556427964 14.5610428619001,46.2592883510991 14.5610424576846,46.2593390040384 14.5610376315978,46.2594073645732 14.5610372754804,46.2594519895418 14.5610456460865,46.2594758643789 14.5610582504706,46.2595056036789 14.5610796868873,46.2595176523113 14.5611052036915,46.2595385339035 14.561122040469,46.2595743175974 14.5611347265329,46.2596100853561 14.5611257859043,46.2596576464621 14.5610953606636,46.2596991869109 14.5610735075416,46.2597556057142 14.5610600848686,46.2598121468515 14.5610726524872,46.2598627596142 14.561085232564,46.259895557879 14.5611021412247,46.2599223446051 14.5611277161509,46.2599522236582 14.561161651282,46.2599910420664 14.5611699509627,46.2600238238916 14.5611697377828,46.2600505448887 14.5611352563382,46.2600801934144 14.5611264103869,46.2601158785178 14.5611132260115,46.2601425497224 14.5610934083738,46.2601714447723 14.5610698273988,46.2602167903273 14.5610308171166,46.2602612668864 14.5609963828569,46.2602849773695 14.5609273503422,46.2603204313404 14.5608800278054,46.2603499405007 14.5608454637129,46.2603736504394 14.560776418453,46.2604269188121 14.5606858644932,46.2604771354083 14.5606386358363,46.2604948584397 14.5605914204648,46.2604946769881 14.5605357152287,46.2604855556132 14.5604929234397,46.2604674866094 14.5604202385665,46.2604404853627 14.560373142612,46.2604253688557 14.5603046196922,46.2604132289907 14.5602316501328,46.2604218556139 14.5601669924319,46.2604454495907 14.5601066024339,46.2604868744933 14.5600892184613,46.2605195575733 14.5600417180967,46.2605550038822 14.559998745937,46.2605757121187 14.559951387983,46.260593344396 14.5599041005451,46.2606021596266 14.5598783223834,46.2606139367575 14.5598267075931,46.260628583506 14.5597622504788,46.2606432707546 14.5597235247408,46.2606520289046 14.5596803996258,46.26067561555 14.559663062877,46.2607023605657 14.559649721412,46.2607647500493 14.5596364267361,46.260821291503 14.559592824561,46.2609044380256 14.559505977193,46.261026106069 14.5594407102588,46.2611418290501 14.559384242035,46.2612278950008 14.5593149073926,46.2613169703928 14.5592500210913,46.2613850993156 14.5591723397344,46.2614473306606 14.5591033153055,46.2614976290043 14.5590428519414,46.2615479603245 14.5589909496653,46.2615983246351 14.5589735884813,46.2616280385376 14.5589519129115,46.2616457694626 14.5589216622566,46.2616813718134 14.5588657172576,46.2617020295721 14.5587755888896,46.2616987126995 14.5587369681486,46.261710440009 14.5587152441072,46.2617341988539 14.5586806895374,46.2617726636459 14.5586632937085,46.2617905010079 14.5586289534942,46.261802244804 14.5585901307296,46.2618229685254 14.5585427235916,46.2618465382052 14.5585168008451,46.2618762189791 14.5585124010663,46.2618910474381 14.5585165141461,46.2619119369204 14.5585335413183,46.2619238790267 14.5585506260028,46.2619448185937 14.5585459535322,46.2619774605386 14.5585157024312,46.2620130627783 14.5584598530035,46.2620217543756 14.5583867849511,46.2620423457701 14.5583393775367,46.2620659153638 14.5582961546226,46.2621014674346 14.5582317192239,46.2621131848115 14.5581459290245,46.2621187914738 14.5580728033001,46.2621303852034 14.558017035684,46.2621450150796 14.5579739318045,46.2621657220407 14.5579094969863,46.2621773492658 14.5578922446945,46.2621772825548 14.5577250640297,46.2621736668776 14.5575876226466,46.262182042395 14.5574889903445,46.2621875988707 14.5573900603353,46.2622140277078 14.5572954586752,46.2622345350401 14.5571665168554,46.262266695678 14.5569946140027,46.2623017487784 14.5568313440121,46.2623279278143 14.5566124013941,46.2623568598182 14.5564448032411,46.2623888697235 14.5562256346433,46.2624296764676 14.5560711028884,46.2624499501553 14.5559766209094,46.2624555214409 14.5558607835386,46.2624550715138 14.5556677644991,46.2624543215425 14.5555777070818,46.2624420951571 14.5554878761305,46.2624179032511 14.555376559521,46.2623877795149 14.5553124606984,46.2623577493578 14.5552097303536,46.2623245997923 14.5551411822194,46.2623154258284 14.5550425638455,46.2623031657107 14.554935312139,46.2622997791695 14.5548235875465,46.2623201278278 14.5546947395249,46.2623404996577 14.5545743572716,46.2623726907098 14.5544066850164,46.2624136945797 14.554299143695,46.2624460253591 14.5540197543631,46.2625223121461 14.5537572367954,46.2626135095489 14.5536196576714,46.2626546297138 14.5535035781615,46.262683957319 14.5534261543927,46.2627134357993 14.5532969432347,46.262778340974 14.5531977682497,46.2628345460898 14.5531201269943,46.2628907453155 14.5530206138207,46.2629885162036 14.5529341445475,46.2630774307414 14.5528648129722,46.2631485977019 14.5528084048206,46.2632257533462 14.5527259492304,46.2633474333735 14.5526910982344,46.2634217041989 14.5526517400834,46.2635078337335 14.5526211855526,46.2635642168406 14.5525559735739,46.2636710287941 14.5525254995287,46.263733440339 14.5524949930578,46.2637838854207 14.5524901793451,46.2638493664772 14.5524853905111,46.2639117885689 14.5524680009206,46.2639444704504 14.5524506845232,46.2639681553771 14.5524074804779,46.2640007361967 14.5523686779918,46.2640184887894 14.5523083756135,46.2640479435661 14.5522310459746,46.2640655452448 14.5521279750998,46.2640740488004 14.5519220355453,46.2640821491592 14.5517588788929,46.2640934759465 14.5516815739524,46.2641080182894 14.5515698687098,46.2641253947505 14.5514364594689,46.2641635595453 14.5513031070967,46.2642106316732 14.5511956331368,46.2642340525235 14.5509894012471,46.26427786909 14.5508819512698,46.2642983206508 14.5506929641395,46.2643272690062 14.5505511461723,46.2643624306334 14.5504565140345,46.2643859012697 14.5504050388479,46.2643827297747 14.5502890761179,46.2643971191534 14.5501429769009,46.2644322634341 14.550074054396,46.264452775848 14.5500182004487,46.2644615532736 14.5499368088306,46.2644522356718 14.5497867694303,46.2644457067757 14.5496193547794,46.264454044654 14.5495419190548,46.2644685850344 14.5494516975875,46.2644919822439 14.5493397711778,46.2645361674222 14.5491892110344,46.2645773210494 14.5490729547256,46.2646274270701 14.5488965709786,46.2647011384325 14.5487026821346,46.2647896258684 14.5485520075687,46.264860379114 14.5484139959536,46.2649372103254 14.5483020992514,46.2649933609276 14.5481899513795,46.265064265896 14.5480517428162,46.265164938567 14.5479437356772,46.2652686096014 14.5478745176669,46.2653248385477 14.5478226573604,46.2653841951617 14.5477228609306,46.2655147102204 14.5476358579048,46.2656512139834 14.5475663765289,46.2657551270482 14.5474923208064,46.2658946510181 14.5474572167957,46.2659986100938 14.5474132248237,46.2661263766479 14.5473781122279,46.2662155801955 14.5472743093793,46.2663281744861 14.5470972241736,46.266470349233 14.5468944699471,46.2665945174811 14.5467177759429,46.266689007842 14.5466186931855,46.2667480866974 14.5464893830364,46.2668071355435 14.5463731685416,46.2668513007929 14.5462269133337,46.266904253962 14.5460634040818,46.2669571384412 14.5458912827134,46.2670160166276 14.5457280251678,46.26705405619 14.5455603566509,46.2670920779869 14.5454012752354,46.2671270746216 14.5451949718785,46.267161973173 14.5450532413744,46.2671852519657 14.5448942822281,46.2672054029455 14.5447697001827,46.267225780558 14.544662168417,46.2672551332011 14.5445203144943,46.2672932562769 14.5443784111776,46.2673373171539 14.5443096618341,46.2673518886001 14.5442579627962,46.2673754352314 14.5441202596009,46.2674135743553 14.5439784048981,46.2674516967549 14.5438064036669,46.2674956368705 14.543621559004,46.2675395254612 14.5434324075944,46.267586455614 14.5432861165276,46.2676275285249 14.5432086564392,46.2676598790339 14.5430666023657,46.267721842172 14.542937162748,46.2677957319093 14.5428683137305,46.2678221784369 14.5427475655007,46.2678961027084 14.5426183535543,46.2679581166461 14.5425020100353,46.2680171228711 14.5424288292823,46.2680495799457 14.542359830702,46.2680939300602 14.5422692720731,46.2681411629063 14.5421528776041,46.2682061967162 14.5420495000165,46.2682504089666 14.5419591949976,46.2682827071763 14.5418345847079,46.2683060505613 14.5417357359707,46.2683204998371 14.541619811476,46.2683290323684 14.5415038134304,46.2683463817748 14.5413748969283,46.2683726764765 14.5412243458996,46.26841076057 14.5410782062677,46.2684487721998 14.5409619832384,46.2684930218768 14.5408671664182,46.2685372674268 14.5407638673216,46.2685874170008 14.5406774884512,46.2686465417172 14.5406256122764,46.2686909595674 14.5405737905801,46.2687443748443 14.5405043118172,46.2688303790867 14.5404216468713,46.2689728328952 14.5403606107219,46.2690886518177 14.5403127164514,46.2691688045375 14.5403033335034,46.2692669266009 14.5403025625486,46.2693591451159 14.5402849405862,46.2694185459566 14.5402542203756,46.2694928295279 14.5402324164096,46.2695403371988 14.5401717027443,46.2696174692163 14.5400902299729,46.2696171415188 14.5400386511832,46.269625841288 14.5400041219677,46.2696436068606 14.5399910547812,46.2696702760605 14.5399606577015,46.2697058727606 14.539921404806,46.2697919982497 14.5398691783543,46.2698780715132 14.5398043565049,46.2699344031973 14.539726815815,46.2699757482413 14.5396622383191,46.2699873645964 14.539597914829,46.2699841365088 14.5395250288658,46.2699808739002 14.5394219698887,46.2699863969584 14.5393231967412,46.2700068725938 14.5392329067866,46.2700213541876 14.5391642522745,46.2700240465734 14.5391468528218,46.2700567263573 14.5391165801644,46.2700773879313 14.5390690324031,46.2701158843415 14.5390215645284,46.2701603192251 14.539012752352,46.2701900645246 14.5390253215689,46.2702228651173 14.5390847154577,46.2703034498259 14.5391014166904,46.2703540815807 14.5390925547507,46.2703897648559 14.5390575269662,46.2704669098421 14.5390097095366,46.2705530004787 14.538961836904,46.2706301836149 14.538952974828,46.2706658668771 14.5389525757523,46.2707134606072 14.5389736080739,46.2707581716711 14.539020657123,46.2707792349469 14.5390590146179,46.2708001731908 14.5391276746578,46.2708124162897 14.539221794059,46.2708365483235 14.5394146974928,46.2708700754952 14.5395989088028,46.2709035673399 14.5397444595203,46.2709368132918 14.5397915835695,46.2709489692955 14.5398258147453,46.2709669215871 14.5398853852739,46.2710266330106 14.5399192872933,46.2710684266035 14.5399704940968,46.2711043516438 14.5400216016162,46.2711521526023 14.5400810476317,46.2712267988189 14.5401104939973,46.2712894479983 14.5401315578888,46.2713460353116 14.5401352169355,46.2714204570999 14.5401603828596,46.2714829990755 14.5402069108431,46.2715665005213 14.540228248035,46.2715904289786 14.5403262023279,46.2716681989939 14.540419905991,46.2717578281776 14.54045416269,46.271772811296 14.54049249586,46.2717968080143 14.5406451507355,46.2720205526517 14.5407001435105,46.2721159642355 14.540810576712,46.272253255622 14.5408785630364,46.2723309047927 14.5409253662623,46.2723816571364 14.5409636504856,46.2724115916665 14.5410960686907,46.272495437542 14.5412114555073,46.27255240319 14.5412669459788,46.2725883448287 14.5413009490852,46.2726182620678 14.5413560426588,46.2727017973926 14.5414027475818,46.2727644254803 14.5414706610888,46.2728509812523 14.5415175643362,46.2728898574127 14.5417309163649,46.2730395268598 14.5418460568228,46.2731262716875 14.5419356517877,46.2731801641589 14.5420936139454,46.2732819257065 14.5421232869759,46.2733177635232 14.5421916541821,46.2733656326108 14.5423324851241,46.2734524798082 14.5424306742866,46.2735183725975 14.5424944825076,46.2735840377602 14.5425366601552,46.2736764280692 14.5425785345377,46.2737896907064 14.5426163568359,46.2738909708091 14.5426585094739,46.2739864200238 14.5426920936184,46.2740668995596 14.5427217243427,46.2741235206318 14.5427853847142,46.2742070895071 14.5429511725833,46.274398133593 14.5430744353314,46.2745385330753 14.543116812812,46.274607081314 14.5431375285007,46.2746904783698 14.5431455721091,46.2747530412038 14.5431448551189,46.2748393216973 14.5431270856347,46.2749166268007 14.5431180775043,46.2749701242737 14.5431260478563,46.2750415040904 14.5431299833194,46.2750831769518 14.5431380516462,46.2751427707978 14.5431286479643,46.2752438619895 14.5430851326522,46.275312156951 14.5429857581615,46.275403981294 14.5428130383835,46.2755312312557 14.5426835615215,46.2756229349593 14.5426567514638,46.2757418609494 14.5426215570392,46.2758548152253 14.5425995733963,46.2759082607416 14.5425432364745,46.2759735351126 14.5424652684585,46.2760654446392 14.5423789599167,46.2761305090137 14.542326978383,46.2761868934605 14.5422447225791,46.2762638502851 14.5421366818194,46.2763676054809 14.5420977930947,46.2763942614553 14.5420459354368,46.2764357108836 14.5420157653473,46.2764593426963 14.5419852668416,46.2765068158166 14.5419591797869,46.2765543066013 14.5419545509506,46.2765959451824 14.5419584608896,46.2766405870532 14.5419834071063,46.2767300293736 14.5420380845686,46.2768641270108 14.5420803875804,46.276941672526 14.5421270474377,46.2770102382538 14.5421865520461,46.2770789453667 14.5423100180475,46.2771954138195 14.5423783098935,46.2772373442958 14.5424552395999,46.2772704020523 14.5425493769878,46.2773094667694 14.5426006407089,46.277339452654 14.5426475485642,46.2773783283373 14.5426900950589,46.2774111584209 14.5427326710725,46.2774560448783 14.5427750503473,46.2775245932154 14.5428257457305,46.2776229555786 14.5428804006849,46.2777601117549 14.5429225511272,46.2778406254175 14.5429734452836,46.277915145879 14.5430583032105,46.2780404563897 14.543134814216,46.2781240763686 14.5432066974167,46.2782493349187 14.5432662540458,46.2783121034989 14.5433473507945,46.2783748681081 14.5434794345335,46.2784855214982 14.5435389185133,46.2785571069153 14.5435772395879,46.2785989170083 14.5436154867702,46.2786496340368 14.5436578854427,46.278700457594 14.5436961327695,46.2787511745952 14.5437429686699,46.2787989567752 14.5437768537373,46.2788437181784 14.5438021068729,46.2789122877511 14.5438059199028,46.2789688054778 14.543835621733,46.279001673847 14.5438824333308,46.2790524249517 14.5439078598821,46.2791001216512 14.5439074896139,46.2791447463611 14.5438981803392,46.279187625941 14.5439687777726,46.2796402874959 14.544146235211,46.2796471132594 14.5456626263064,46.279223801955 14.5476980558684,46.2786557803846 14.5477321316709,46.2786461981879 14.5489099394965,46.2786325867423 14.5490998619198,46.2786381044146 14.5531885940462,46.279067308004 14.5536358267696,46.2791854788264 14.5548685161933,46.2791900146677 14.5552593841454,46.2793468276469 14.5553697664553,46.2795608508169 14.5564629522838,46.2794872708922 14.5571906284931,46.2795870813838 14.5581693612234,46.2798042816235 14.558979570422,46.2800985594812 14.5593994185553,46.2801389561527 14.5623720481912,46.2797614232315 14.5630141121324,46.2800550287823 14.5641889185105,46.2802923606584 14.565785125879,46.2803758097657 14.5674113532148,46.2802068884017 14.5728433302598,46.2805952971584 14.5812138035626,46.281440420208 14.5816611165748,46.2815584816238 14.5829148009025,46.282514426619 14.5833607843067,46.2828266362445 14.5842266623178,46.2831792397202 14.5850376488418,46.2833955996514 14.5859606471239,46.2835930155025 14.5869688938196,46.2836546941281 14.5881891824459,46.2836999431145 14.589215765381,46.2836876209627 14.5899465361175,46.2835793985371 14.591679634191,46.2836484014248 14.5926835062458,46.2836359670294 14.5940961991891,46.2838462171732 14.5947337664292,46.2840223048049 14.5953271596198,46.2839768113306 14.5963321853118,46.2837903430373 14.5969721807008,46.2836185048391 14.5975202367687,46.2835254248901 14.5981610351583,46.2832428272546 14.5988689438182,46.2831344674475 14.5997146600879,46.2828842499917 14.6002158914454,46.2829649091713 14.6006247638617,46.2832192495445 14.6012175698923,46.2832528088841 14.6018795805667,46.2831917755931 14.6024833300891,46.2830221195944 14.6027723338971,46.282751858247 14.6030491927875,46.2822941421719 14.6034371743839,46.2822795634418 14.6039381775918,46.2823918756889 14.60457631301,46.2824729899125 14.6051011817037,46.2824430437828 14.6056497799438,46.2822708412761 14.6062451842554,46.2819407164 14.6070887179602,46.2820066886938 14.6079096411431,46.2820409070579 14.6085036779228,46.2819005168314 14.6089832173355,46.2818387274893 14.6098743205479,46.2816201702538 14.6105855292361,46.2810214912579 14.6113418388911,46.2805020465709 14.6121667408984,46.2799511593459 14.6127156445588,46.2797473437003 14.6135363151092,46.2798131910119 14.6145640413399,46.2796266390851 14.6147479233948,46.2794215825754 14.614841783618,46.2790265613263 14.6147759313372,46.2786468370704 14.6133970650736,46.2768080110249 14.6126070397137,46.2756036687773 14.6123378221663,46.2749386716504 14.6120432276086,46.2746530904043 14.6108832914423,46.2741908303351 14.6103622974913,46.2736673072633 14.6099306156327,46.2734129234657 14.6085879676379,46.2729974318615 14.6079284376239,46.2727106799825 14.6071126087559,46.2719648888253 14.6065694035661,46.2713621863235 14.6063244725246,46.2705074166304 14.6061921136515,46.2698586207076 14.60589916509,46.269351607268 14.6054412131309,46.2688604886627 14.6038351656494,46.2677319008838 14.6033824548049,46.2672559973642 14.6032026640807,46.2668758703311 14.603046963194,46.2663219101319 14.6029407799577,46.2651987767013 14.6035998365887,46.2655171364101 14.6043715642187,46.2660257238437 14.6056876959615,46.2669630135106 14.6063696220357,46.2672814360138 14.6074634895042,46.2673956827594 14.6089229503363,46.2674003242508 14.6102010024024,46.2672462474401 14.6111816275166,46.2672494065434 14.6117295145531,46.267172092819 14.6123012177354,46.2669366859136 14.6128037701826,46.2668117079227 14.6133985191366,46.2665447932787 14.614152605689,46.266309903677 14.6151335470066,46.2662655245726 14.6163435205242,46.2660637344817 14.6174836896167,46.2660672848181 14.6190132355131,46.2658190298035 14.6200173034786,46.2657114353142 14.620839954089,46.2654609842733 14.6219123777389,46.2653535098299 14.6228473071966,46.265356417766 14.6238709677457,46.2657391132631 14.6243043612214,46.2657246130972 14.625264154804,46.2654112402749 14.6258797241209,46.2654289113723 14.6262892303448,46.2655883319932 14.6266085932491,46.2655734503156 14.6273179112835,46.2651960813935 14.6295814332147,46.2642856293792 14.6315461613162,46.2637380181114 14.6320024497057,46.2636919822484 14.6329845970691,46.2634577021698 14.6342416592942,46.2630027814969 14.6350625264709,46.2630052246067 14.637249176523,46.2633911467815 14.6377733252752,46.2634401340306 14.6382296322842,46.2634098185355 14.6387093668595,46.2632689092567 14.639303226727,46.2631125229251 14.6399651611552,46.2630195984604 14.6407639217994,46.262911175046 14.6411740309915,46.2627433148395 14.6414521936704,46.2623194279568 14.6417491328383,46.2621190006061 14.6422941562456,46.261928975955 14.6429334423502,46.2618649345351 14.6436581485396,46.2619508698326 14.6442186869644,46.2620482561211 14.6445206060647,46.2620790660608 14.6448749150701,46.26203221184 14.6452811356469,46.2619614949651 14.6457473021491,46.2619687885029 14.6459020096506,46.2620770546493 14.6456771738914,46.2621422178703 14.6453318891952,46.2621173046197 14.6448477482486,46.2622416731051 14.6445274009472,46.2623724870819 14.6445094133814,46.2624861562257 14.6446199594309,46.2625427326155 14.6456468506658,46.2624192387855 14.6468085597836,46.2626123151703 14.6479941200233,46.2626472817689 14.6500423831292,46.2632856253499 14.6508858862511,46.2633196044278 14.6517053868519,46.2635591809497 14.652638421151,46.2638780922887 14.6532081515539,46.2639428924018 14.6541888913279,46.2638981775974 14.6545992329934,46.2639151631326 14.6552138353462,46.2641065899033 14.6570834617331,46.2641434330935 14.6581329903677,46.2640514753329 14.6586568702769,46.2641477814453 14.6589754321845,46.2642593080646 14.6594529988806,46.2644820634422 14.6599538904165,46.264625710544 14.6613220895023,46.264629501677 14.6622566226715,46.2646952467472 14.6626901923013,46.2646490213094 14.6631470448066,46.2645078520513 14.6641091081945,46.2637830762219 14.664931627902,46.2635163824109 14.6657081892466,46.2632970537043 14.6663694726815,46.2632830601685 14.6671216010883,46.2633483230534 14.6680890788511,46.2633049799299 14.6696745408651,46.2635448492131 14.6704265820031,46.2636259252305 14.6709511417875,46.2636115109989 14.6710888142441,46.2634537357639 14.6722695445956,46.264326618968 14.6730184392487,46.2649611786085 14.6736530403855,46.2656428224987 14.6738098621078,46.2661492742242 14.6744431759058,46.2670523316964 14.6749646256307,46.2675913996422 14.6752127601808,46.2680822736998 14.6756418119,46.2688266625466 14.6760558875473,46.2694284012496 14.6764315784025,46.270315241737 14.6762706050117,46.2705519528583 14.6762008359269,46.2707890120448 14.6763361276739,46.271058232105 14.6768135452912,46.2713283296055 14.6779049942949,46.2719162289012 14.678359129869,46.2722653398753 14.6790193559901,46.2724726017983 14.6802012334757,46.273203068868 14.6807700833392,46.273441735232 14.6813596656959,46.2740441240509 14.6818826221612,46.2743459073635 14.6825195943581,46.2746321698157 14.6830014147866,46.2748919067221 14.683405815228,46.275235371252 14.6837923624956,46.2754577724227 14.6841803410462,46.2755219152318 14.684929057614,46.2761248148342 14.6850182281577,46.2765045629715 14.6852677204455,46.2767582516375 14.6862435083319,46.2776620942352 14.6863559786511,46.2779628196807 14.6870594566256,46.2786129962493 14.6862834460992,46.2786900451079 14.6872561249054,46.2801948836681 14.6875284827481,46.2804485398002 14.6880962728461,46.280892752646 14.6885041936253,46.2813840324477 14.6882499200558,46.2827448863007 14.6883268969734,46.2831525794609 14.6890676992956,46.2831850969339</coordinates></LinearRing></outerBoundaryIs></Polygon></MultiGeometry>
  </Placemark>
</Folder>
</Document></kml>
