{"type":"FeatureCollection","features":[{"type":"Feature","geometry":{"type":"Polygon","coordinates":[[[15.2223213728726,45.8319523475825],[15.2238476849148,45.8324940112851],[15.2251193160574,45.8328185871214],[15.2259407865832,45.8335781889312],[15.2265821463418,45.8344523254797],[15.2268637919875,45.8359728627762],[15.2281362314999,45.8366290660144],[15.2291378191938,45.8371826824959],[15.2308853111358,45.8374608892447],[15.2333210799798,45.8374468537037],[15.2357078899391,45.8374842452704],[15.2373648338469,45.8376195629835],[15.2389401571383,45.8379321960775],[15.2404504881154,45.8385137115513],[15.2421733705069,45.8387346607234],[15.2435605623572,45.8392876026433],[15.2442760826055,45.8401443849322],[15.2453119931255,45.8413095530212],[15.2459842311251,45.8422069977388],[15.2469775790256,45.8429306252681],[15.2477006696878,45.8436432229568],[15.2480972138288,45.8446306912324],[15.2490905556139,45.8453371141347],[15.2499695407459,45.8460893978418],[15.250570267249,45.8469165177896],[15.2517519683113,45.8475768847931],[15.2528915359844,45.8479117892109],[15.2538433752551,45.8484126605475],[15.2548640839495,45.8475814131661],[15.2564276512024,45.8463177607405],[15.2574990713114,45.8459462578868],[15.259420369584,45.8451918479275],[15.2599103217725,45.8443215381462],[15.2593807913546,45.8439892794625],[15.2602094409867,45.8427014163777],[15.2604440525528,45.8418554395514],[15.2602006505826,45.8407605000248],[15.2597383670141,45.8402376041173],[15.2603128813928,45.8392360901613],[15.2603620997774,45.8388310724665],[15.260428716955,45.8384856711603],[15.26044304257,45.837914001756],[15.2604736004516,45.8371518996405],[15.2609613683425,45.8358052399482],[15.261639957237,45.8352441083363],[15.2620305448253,45.8350050387087],[15.2627619527624,45.8348128734154],[15.2631349806218,45.8344548880217],[15.2642566105664,45.8339521958028],[15.2654089353063,45.8327350770985],[15.2665988288889,45.8322798920845],[15.2680633518259,45.8323004001823],[15.2683173093393,45.8319783087143],[15.2694413573322,45.8320233526348],[15.2696804293281,45.832165675494],[15.2699523461065,45.8320459910309],[15.2706842649095,45.8319728160972],[15.271380452338,45.8315664386427],[15.2717892380455,45.8315893115129],[15.2724684219511,45.8311828778645],[15.2727222325004,45.8308369324164],[15.2745261236266,45.830618372388],[15.2744228256534,45.8303685684592],[15.2746602634583,45.8301775121039],[15.2748446197764,45.8295578322321],[15.2755229931367,45.8289966180481],[15.2760484152905,45.8285072128632],[15.2767941518373,45.8277790968214],[15.2766545947274,45.8270439448203],[15.2769604731877,45.8269808482352],[15.2766673705753,45.8262194343672],[15.2761211009472,45.8259230144977],[15.2756030082216,45.8244238615595],[15.2760546672,45.8227676927689],[15.2758831101783,45.8225060874627],[15.275723039429,45.8210775127553],[15.2758560187728,45.8204341996828],[15.276704064613,45.819753525183],[15.2775184502577,45.8191918787375],[15.2782657048238,45.8187972116257],[15.278450745718,45.8183561320202],[15.2788412627851,45.818140938874],[15.2793163097347,45.8177944378685],[15.2796197838661,45.8172102694749],[15.2797531957465,45.8166383939856],[15.2794949747074,45.8160555096563],[15.279663428935,45.815697879334],[15.279797910189,45.8153403319361],[15.2801528682426,45.8148393567155],[15.2804384451398,45.8140527760494],[15.2807953043591,45.81393285688],[15.2813713309656,45.8133598906079],[15.2813012843379,45.8129670329452],[15.2815894072481,45.8127162704194],[15.2812567558943,45.8120197490778],[15.2805116800383,45.8116471761731],[15.2808834217622,45.811086590749],[15.2812734588883,45.8107879792263],[15.281169439754,45.8104190494886],[15.281368052,45.8099746018672],[15.28304230285,45.8101351292392],[15.2838787352111,45.8100782567283],[15.2848969151175,45.8097831093166],[15.2846332327046,45.8093447565699],[15.2846834558023,45.8089239773356],[15.2849930664064,45.8081001630395],[15.284712752284,45.8075526166998],[15.284728339863,45.8072786802088],[15.2851535340404,45.8066427243571],[15.2851264632723,45.8064307101579],[15.2851704910892,45.8061837864202],[15.2849535886749,45.8054296691298],[15.2850815028849,45.8048806547449],[15.2850779929964,45.8041673055295],[15.2854417647469,45.8037273870236],[15.2859631970332,45.8034517354883],[15.2864589773516,45.8032676551095],[15.2870584066251,45.8029003837224],[15.2877885683204,45.8025144241293],[15.288327483549,45.8020660468537],[15.2888318679114,45.8008621054842],[15.2886942253716,45.8005648007428],[15.2889645318935,45.8001711764214],[15.288485151847,45.7996126244432],[15.2877338191491,45.7991262893808],[15.2886501848658,45.7985881492653],[15.2901792850459,45.7981080138139],[15.2919133842842,45.7977464673928],[15.2926252230881,45.7971969402839],[15.2931225725804,45.7970570067846],[15.2944367499684,45.7963286615067],[15.2956623106766,45.7954387468435],[15.2967481462947,45.7948167815478],[15.2978198329339,45.794730671999],[15.2990621381437,45.7947513617779],[15.3004866090064,45.7938188537753],[15.3010103931801,45.7931030359631],[15.3035232008853,45.7920485742617],[15.3046278072197,45.7917837035172],[15.3050851041817,45.7913895417445],[15.305286365601,45.7908412972677],[15.3056580462914,45.7903401059484],[15.3049725197889,45.7894250436159],[15.3049368773525,45.7891392728965],[15.3056680578379,45.7890421205364],[15.3067573813321,45.7890988577908],[15.3079103517552,45.7883574721488],[15.3091689656934,45.7882588748056],[15.309421894116,45.7878295262392],[15.3100319067816,45.7873634867275],[15.3104839728454,45.7860404552091],[15.310922484051,45.7853366999835],[15.311101855378,45.7839192085535],[15.309815677942,45.7820649781229],[15.3098627706242,45.7813264751305],[15.3101150685258,45.7807899601026],[15.3102304515789,45.7801228054849],[15.3106176037179,45.7793715907292],[15.3107998088362,45.7784660766903],[15.3113865023922,45.7770652904374],[15.3122841786511,45.7761638502136],[15.3126712755579,45.7754125381413],[15.3135396523305,45.7742244015601],[15.3141923374674,45.7741311889045],[15.3151831107352,45.7737260693311],[15.3159918043947,45.7735043743038],[15.3178741081716,45.773682172518],[15.3161403016129,45.7720223516847],[15.314989044193,45.7717328261015],[15.3149530849508,45.7699586076326],[15.3144672759293,45.7690566353092],[15.3151576115245,45.769153261467],[15.3164406866782,45.7696619719708],[15.3168893312383,45.7704655106774],[15.3186146996838,45.7706254659588],[15.3204424091554,45.7704009831352],[15.320542643379,45.7696507177233],[15.3219490656385,45.768860337108],[15.3207079331778,45.7665224540693],[15.3197849067272,45.7650068055896],[15.3204808844029,45.7628402915968],[15.3212544417257,45.7621274553185],[15.3210980984537,45.7612054173168],[15.3207050599962,45.7598732836394],[15.318794265341,45.7599624027093],[15.3179293227086,45.7600219502517],[15.3176670509229,45.7599720208569],[15.3170501956411,45.7598471319973],[15.3164149085794,45.7596903478525],[15.3163408138435,45.7596361149554],[15.3162722931075,45.7595900547859],[15.3162140914455,45.7595501746555],[15.3161127854487,45.7594804503274],[15.316080007627,45.7594581359197],[15.3159808883003,45.7593885853849],[15.3159029430174,45.7593352626528],[15.3158601076425,45.7593074871917],[15.3158197091388,45.7592787151954],[15.3157679624198,45.7592435859481],[15.3157501370319,45.7592284285427],[15.3156809720047,45.7591819198944],[15.3156043208887,45.7591300330656],[15.315533854906,45.7590807385322],[15.3154734507377,45.7590376248133],[15.3153946065953,45.7589843042131],[15.315333951119,45.7589421808967],[15.3152487775248,45.7588833888658],[15.3151982026385,45.758850775573],[15.3151489168268,45.758818788564],[15.3151045249703,45.7587884076819],[15.3150406339738,45.7587423339987],[15.3149984391762,45.7587140165637],[15.3149656536412,45.7586901721898],[15.314925637633,45.7586606789776],[15.3148526003905,45.7586111211665],[15.3148253814391,45.7585941898946],[15.314758775737,45.7585453341433],[15.3146964501134,45.7585032150864],[15.3146012062549,45.7584364420583],[15.3145421106994,45.7583971933918],[15.3144475205483,45.7583323080211],[15.3143206486861,45.7582415970577],[15.3142094226451,45.7581671293606],[15.3140550795274,45.7580601172291],[15.3139152087139,45.7579663822105],[15.3138816482678,45.7579417298288],[15.3138455280504,45.7579190640352],[15.3137804973089,45.7578756921805],[15.3137742842897,45.7578680609172],[15.3136937723316,45.757814743713],[15.3136279609836,45.757769664288],[15.3135620267409,45.7577255749455],[15.3134869251381,45.7576742223127],[15.3134205858398,45.7576266247671],[15.3133453584735,45.757575722287],[15.3132662593145,45.7575220409831],[15.3131589165806,45.7574518806619],[15.3130715406574,45.7573892238761],[15.313017344515,45.7573522104969],[15.3129095961683,45.7572783618578],[15.3128148862838,45.7572143752543],[15.3126703458742,45.7571123732939],[15.312540350977,45.757036875555],[15.3124332922757,45.7569712127854],[15.3122914008336,45.7568829700867],[15.3121777694942,45.7568141757293],[15.312047121205,45.756736519683],[15.3120065040324,45.7567139555654],[15.3120004269468,45.7567075835575],[15.3118399902239,45.7566128223713],[15.3117853040291,45.756579858855],[15.3117116848907,45.7565633233858],[15.3116007501098,45.7565399611585],[15.3114765621057,45.7565142054854],[15.3114661241948,45.7565095549632],[15.3113093697476,45.7564756996718],[15.3110905894542,45.7564295957784],[15.3109409177298,45.7563979702043],[15.3109313996641,45.756396916343],[15.3109091090225,45.7563874390871],[15.3107610371284,45.7563429417369],[15.3106520964292,45.7563081456623],[15.3104925648228,45.7562600799079],[15.3103108964997,45.756207035156],[15.3101552296759,45.7561603981186],[15.3101481340043,45.7561557384029],[15.3101153804411,45.756137021419],[15.3100574886816,45.756105235518],[15.3098535355451,45.7559970925661],[15.3097572289907,45.7559455250305],[15.3096651674306,45.7558944857901],[15.3096044463009,45.7558623474054],[15.309453730924,45.7558042684895],[15.3093584048961,45.7557671847946],[15.3092070349063,45.7557068578164],[15.3090641702254,45.7556503767848],[15.3089721971763,45.7556151732839],[15.3088428579125,45.7555637842776],[15.3086461434369,45.7554854930671],[15.3085824381652,45.7554481433384],[15.3084360503357,45.7553585582682],[15.3082801540675,45.7552695385468],[15.308159055368,45.755197071128],[15.3081277565712,45.7551855480753],[15.3079853421334,45.7551170071092],[15.30789746259,45.7550779225506],[15.3078120130313,45.755036581869],[15.3077742558211,45.7550193173761],[15.3077681838524,45.7550137549507],[15.3076888099039,45.7549786064546],[15.3075416435843,45.7549106176119],[15.3074252708178,45.7548557728388],[15.3072890580162,45.7547927031157],[15.3072364356796,45.7547836666351],[15.3071229986965,45.7547718242671],[15.3070723168098,45.7547650320036],[15.3069873005538,45.7547556325637],[15.3068973984127,45.7547459762434],[15.3067847323092,45.7547340414884],[15.3066660190682,45.754721043089],[15.3066337852675,45.7547499233141],[15.3065523875168,45.7548144776885],[15.3064973787659,45.7548625847933],[15.306476636879,45.7548774871907],[15.3063639527773,45.7549327673907],[15.3063388228066,45.7549444422364],[15.3061941111295,45.7550194238513],[15.3060997597488,45.7550659265641],[15.3059254164669,45.7551522347619],[15.3058445300019,45.7551694575967],[15.3057208764403,45.7551934533625],[15.3056237983826,45.7552115291878],[15.3054555887717,45.7552442819545],[15.305433765631,45.7552495591553],[15.3052525743718,45.7551646520345],[15.3051359604504,45.7551124150067],[15.3050416412598,45.7550706460392],[15.3049607107878,45.7550326204329],[15.3048179331074,45.7549674057599],[15.3047582548358,45.7549372415803],[15.3045149726515,45.7549453586071],[15.3043509808767,45.7549500246387],[15.3042028051435,45.7549557280904],[15.3040272497532,45.7549613242482],[15.3038108167144,45.7549665789375],[15.3036960496075,45.7549701233438],[15.3034863043937,45.7549760794844],[15.3033548272652,45.7549796679321],[15.3032042076554,45.7549851066361],[15.3031498349708,45.7549850709535],[15.3030381852625,45.7549471254871],[15.3029326081563,45.7549149225533],[15.302799860484,45.7548737035171],[15.3026640246902,45.7548318626444],[15.3025756920312,45.7548033028925],[15.3024995943788,45.7547791197169],[15.3024120418613,45.754752177419],[15.3023664505555,45.754735831677],[15.3022458081208,45.7546986290757],[15.3021229748803,45.7546603523756],[15.3019958855097,45.7546193873824],[15.3019590310978,45.7546022985413],[15.3018871160429,45.7545670363194],[15.3009557000593,45.7554957512119],[15.2992605351489,45.7552143362562],[15.2985451533665,45.7549874777234],[15.2973407548221,45.7549191740272],[15.2953790950126,45.7543811408487],[15.2945422969313,45.7543546873657],[15.293748044903,45.7546710335047],[15.2942609898704,45.7551984381025],[15.2948095711721,45.7557785668603],[15.2962884656201,45.7566079591832],[15.29771893035,45.7569758594535],[15.2983318895492,45.7571314562152],[15.2988455107471,45.757773203212],[15.2977327901267,45.7586392891863],[15.2966800297237,45.7591100151267],[15.2958816788305,45.7597800989259],[15.2950813461388,45.7600046898988],[15.2945330062786,45.7604561860204],[15.2937200813509,45.7611012776107],[15.2934981973845,45.7616162648585],[15.2928286500645,45.7615120760655],[15.2922048523608,45.7612565995414],[15.2903564717741,45.7610043281452],[15.2891080444161,45.7609717717622],[15.2864040697392,45.7610024265292],[15.28268087401,45.7618648913871],[15.2795792556465,45.7605625005936],[15.2788929202746,45.7593257795749],[15.2778529911907,45.7588161455076],[15.2764475271012,45.7600578632424],[15.2757733403722,45.7612979806734],[15.2757272205951,45.7623221570329],[15.2758146015552,45.7628101788186],[15.2739433207434,45.7627074243336],[15.2730795522522,45.763447689732],[15.2737852857164,45.7651965655014],[15.2719131636176,45.7649627686694],[15.2674297184811,45.7664020557651],[15.2668768645203,45.7681775769683],[15.2670992957497,45.7684748014585],[15.2637902551388,45.7701374933278],[15.2617154109063,45.770213528993],[15.2600193418143,45.7713129089806],[15.2597450900252,45.7722279102925],[15.2593557921368,45.7730968322736],[15.2584584995365,45.7739212831583],[15.2573016705044,45.775020030864],[15.2563019838132,45.7755407425855],[15.2548760678175,45.7762440667253],[15.2548009227278,45.7776732065775],[15.2544171875771,45.7786028349609],[15.2538063837587,45.7789756306786],[15.2527880585772,45.7795209172099],[15.2520764163328,45.7801797029676],[15.2497946221671,45.7812562852564],[15.2477583574482,45.7825037913212],[15.2472912317867,45.7830478319659],[15.246393563479,45.78322118296],[15.2460075168351,45.7836363721809],[15.2462959824342,45.7842502233328],[15.24513095427,45.7843442382458],[15.2456399185666,45.7857643771121],[15.2477216159822,45.7871294659849],[15.2475881269674,45.7877132744866],[15.2484072598578,45.7882592937042],[15.2480366932502,45.7891532382823],[15.2479922923707,45.7897561092954],[15.2464523930233,45.7908222823089],[15.245929823528,45.7915588128899],[15.2448091199318,45.7921461779449],[15.243807212732,45.7925493599269],[15.2430384439514,45.7930005365106],[15.2424030128029,45.7956681652668],[15.2423223814913,45.7968010005758],[15.2418805082485,45.7971560068532],[15.2418679609137,45.7979427256207],[15.241698982428,45.798252523226],[15.2423342667773,45.799572528687],[15.24340435887,45.8007049871769],[15.2440621159431,45.8016759037394],[15.2433327610005,45.8022844616574],[15.2431985677215,45.8027251074543],[15.2428758689678,45.8028924360275],[15.2421447057777,45.8030605400574],[15.2417374788192,45.8033469975036],[15.2411597602689,45.8035981815395],[15.2408221196768,45.8042416176853],[15.2409267062245,45.8048365219771],[15.2408085476342,45.8050629796413],[15.2410656455113,45.8054909200955],[15.2413203799169,45.8056685418668],[15.2410722185232,45.8062989224303],[15.2403732246682,45.8068087793416],[15.2398632652363,45.806969384688],[15.2395419092446,45.8074580177289],[15.2396965968958,45.8078266992825],[15.2392319859993,45.8083945438199],[15.2387468597968,45.8086499305226],[15.23804924796,45.8087107724881],[15.2379664048846,45.8092584702053],[15.2385474960819,45.8098405954627],[15.2385659027281,45.8101738409799],[15.2382430961063,45.8103291892009],[15.2382278612215,45.8107696704151],[15.2383992051176,45.8110311532577],[15.2391496583767,45.8113748361812],[15.2392378338019,45.811804123476],[15.2392081584005,45.8120256249999],[15.2376088016551,45.8130003799439],[15.2371493048427,45.8130298580156],[15.2378774522304,45.8137210959552],[15.238378877682,45.8139270935823],[15.2383496852672,45.8142628676318],[15.2380552700369,45.8146848549087],[15.2374852468284,45.815143136369],[15.2371119057833,45.8161937910901],[15.2366933557902,45.81626610249],[15.2360504996963,45.8163961028346],[15.2357460025038,45.8168752417203],[15.2342979114417,45.8174210656566],[15.2337069208634,45.8177722956152],[15.2327280191686,45.8181742517687],[15.232331404376,45.8185750170306],[15.2312194383781,45.8189201837898],[15.2309246792336,45.8192779078024],[15.2311298907157,45.8194845353005],[15.2317133168814,45.8197833447045],[15.2326331104714,45.8198885511517],[15.2334619790404,45.8202224834452],[15.2339023010672,45.8204857621721],[15.2341596360171,45.8209351315957],[15.2339362880486,45.8212569951099],[15.2333847072676,45.8212867364608],[15.2330998278031,45.8215444787727],[15.2320176351429,45.821696676796],[15.2317849051702,45.8222113806964],[15.2310713203157,45.8225913687651],[15.2310521981025,45.8228842899406],[15.2306945058177,45.8228421825365],[15.2303792600477,45.823199946253],[15.2302679975695,45.8234643496196],[15.2299620122128,45.8235721311279],[15.2293386862492,45.8235305537749],[15.2289619922924,45.8238456067308],[15.2287792537759,45.8241316568566],[15.2277998268166,45.8244408027842],[15.2274538936506,45.8247914211628],[15.2263613976008,45.8249293693117],[15.2263113745264,45.8251937373887],[15.2265371991575,45.825436053844],[15.2264386012717,45.8263219146864],[15.2255407921304,45.8266165726616],[15.2249933392285,45.827653222485],[15.2255352389794,45.8277592294027],[15.2255280995178,45.8285091299695],[15.2248754695778,45.828810406774],[15.2244371333738,45.8290470140009],[15.2241851284241,45.8298831451412],[15.222795859658,45.8299287824573],[15.2221039021989,45.8306086622784],[15.2211550076791,45.8309301086507],[15.2203934867936,45.8315712416252],[15.2223213728726,45.8319523475825]]]},"properties":{"fill-opacity":0,"stroke-opacity":1,"stroke":"#ff0000","lov":"0119","lov_naziv":"BRUSNICE","luo":"01","luo_naziv":"Novomeško","povrsina":3528.05},"id":"pregledovalniklovisca.1"}]}