<?xml version="1.0" encoding="utf-8" ?>
<kml xmlns="http://www.opengis.net/kml/2.2">
<Document id="root_doc">
<Schema name="pregledovalniklovisca" id="pregledovalniklovisca">
	<SimpleField name="lov" type="string"></SimpleField>
	<SimpleField name="lov_naziv" type="string"></SimpleField>
	<SimpleField name="luo" type="string"></SimpleField>
	<SimpleField name="luo_naziv" type="string"></SimpleField>
	<SimpleField name="povrsina" type="float"></SimpleField>
</Schema>
<Folder><name>pregledovalniklovisca</name>
  <Placemark id="pregledovalniklovisca.1">
	<Style><LineStyle><color>ff0000ff</color></LineStyle><PolyStyle><fill>0</fill></PolyStyle></Style>
	<ExtendedData><SchemaData schemaUrl="#pregledovalniklovisca">
		<SimpleData name="lov">0110</SimpleData>
		<SimpleData name="lov_naziv">MIRNA PEČ</SimpleData>
		<SimpleData name="luo">01</SimpleData>
		<SimpleData name="luo_naziv">Novomeško</SimpleData>
		<SimpleData name="povrsina">4762.72</SimpleData>
	</SchemaData></ExtendedData>
      <MultiGeometry><Polygon><outerBoundaryIs><LinearRing><coordinates>15.1470954750981,45.8487741364179 15.1463933693915,45.8498051157544 15.1457798837136,45.8505134935044 15.1446650663579,45.8516507127683 15.145251799631,45.851982350113 15.1434225778649,45.8536319921346 15.1425957312802,45.8533170215187 15.1424542494153,45.8533801831243 15.1424156425179,45.8533892291244 15.1423385205019,45.8534433124779 15.142274252041,45.8534883818991 15.1422099834763,45.853533451284 15.1421973819976,45.853641441484 15.1421074514787,45.8537225342463 15.1420688442879,45.853731580129 15.14203021418,45.8537316281508 15.1419916298688,45.8537496718552 15.1419015158044,45.8537587816727 15.1418242555501,45.8537588775902 15.1417856254229,45.8537589255293 15.141669757887,45.8537680671163 15.1415795980756,45.8537591809843 15.1414508309822,45.853759340455 15.1413477717174,45.8537414722311 15.141296264896,45.8537415359323 15.1411545528458,45.8537147174464 15.1410385033389,45.8536518756076 15.1408967234743,45.853598063256 15.1408580480257,45.8535801151845 15.140729009005,45.8534722996583 15.1406515223222,45.8533824162945 15.1405869805063,45.8533195105819 15.1405611592872,45.8532925487166 15.1404706606268,45.8531486939699 15.1403804114526,45.8531038154919 15.1402642509913,45.8529959836097 15.1401997552772,45.8529510733725 15.1400062461803,45.8528073445899 15.139812873358,45.8527176025765 15.1396710069545,45.8526277972896 15.1395678603199,45.8525739360516 15.1394776802773,45.8525560504061 15.1394647588644,45.8525380704212 15.1393743152958,45.8524661977464 15.1391035519562,45.8523226516035 15.1389358901719,45.8522148810394 15.1389229690127,45.8521969009919 15.138806902791,45.852125059012 15.1387166342406,45.8520711813566 15.1386907921385,45.8520352212094 15.1386134001461,45.8519813278423 15.1384070445495,45.8518466097894 15.1383296307863,45.8517837183755 15.1382393855405,45.8517388381912 15.1380588064339,45.8516130861967 15.1378911487991,45.8515053140815 15.1377105712329,45.8513795615297 15.1375558576533,45.8512987669582 15.1374397507346,45.8512089278671 15.1372978698454,45.8511101217477 15.1371818522175,45.8510562738061 15.1371045072566,45.8510203751126 15.1370529366379,45.8509934433363 15.1369497955498,45.8509395797133 15.1368465884611,45.8508587224336 15.136717673715,45.8507958915824 15.136575817177,45.8507060824113 15.1364855090591,45.8506342072654 15.1363565072887,45.8505353845834 15.1362533018074,45.8504545267603 15.1361241472163,45.850292718824 15.1359822490596,45.8501849131942 15.1358532492197,45.8500860899341 15.1357629211452,45.8500052163511 15.1356339439796,45.8499153906956 15.1354921788138,45.8498615715864 15.1354018079606,45.8497627020007 15.1353115465185,45.8497088216251 15.1352212634471,45.8496459433208 15.135053617202,45.8495381669923 15.1348860151031,45.8494483861297 15.1347571058213,45.8493855530449 15.134602358637,45.8492867587201 15.1344734066823,45.8492059295972 15.1343702497207,45.8491430657646 15.1342541524165,45.8490532233919 15.1341508878319,45.8489453700675 15.1340477317153,45.8488825059399 15.1339575378012,45.8488556180591 15.1339188894625,45.8488466654766 15.133725734202,45.8488378938019 15.1336999830461,45.8488379239351 15.1335195742543,45.8487751496934 15.1334938016028,45.8487661819212 15.1334551534002,45.8487572291815 15.1333907756028,45.8487573043511 15.1333006251929,45.8487484116686 15.1332233718477,45.8487485017632 15.1330173845875,45.8487578295979 15.132965968105,45.8487938809753 15.1328244011039,45.8488210392714 15.1327600232313,45.8488211140857 15.1327214179074,45.8488301568159 15.132682812571,45.8488391995331 15.1325542063931,45.8489023339792 15.1324512443582,45.8489204491393 15.1322839042469,45.8489386387528 15.1321808141802,45.8489027665148 15.1320004281658,45.848848987733 15.1319102352887,45.848822098235 15.1317941426083,45.8487322533528 15.1316009031934,45.8486874866469 15.1314336058847,45.8487236707348 15.1313820401222,45.848696736383 15.131278993415,45.8486788590485 15.1312275547216,45.8487059117855 15.1311760525264,45.84870597092 15.1310345905111,45.8487781162986 15.1309831093685,45.848787173206 15.1309315859866,45.8487782343706 15.130854311494,45.8487693250038 15.1308414359304,45.8487693397476 15.1307899125876,45.8487604008482 15.1307255137017,45.8487514766563 15.1306868659513,45.8487425229798 15.1306353215944,45.8487245861507 15.1305452137694,45.8487336870137 15.1305323592607,45.8487426995827 15.1305066291881,45.8487517268561 15.1304808780687,45.8487517562638 15.1304294178901,45.8487698107818 15.1303779787002,45.8487968631365 15.1303266025015,45.8488509090478 15.1303137479304,45.848859921592 15.1303010404226,45.8489319191534 15.1303011664807,45.8489859063117 15.1302883959051,45.8490309102915 15.1302884379205,45.8490489060107 15.1302885219515,45.8490848974489 15.1302756463148,45.849084912129 15.1302499370444,45.8491029372038 15.1302499790475,45.8491209329228 15.1301728091337,45.8491570123935 15.1300313237101,45.8492201586676 15.1299927176662,45.849229200476 15.1299541116096,45.8492382422715 15.1298383352354,45.8492833632982 15.1298126048012,45.849292390415 15.1297739777467,45.8492924342902 15.1297482472978,45.8493014613924 15.1297224959239,45.8493014906295 15.1296967445499,45.8493015198607 15.1296710140843,45.8493105469456 15.1295937808456,45.8493196324466 15.1295937599497,45.8493106345872 15.1295294023894,45.8493197054414 15.1294263759902,45.8493108242981 15.1292460954997,45.8493020304685 15.1291945719189,45.8492930908509 15.1291430691776,45.8492931490697 15.1291302143134,45.8493021614803 15.1290915664363,45.8492932072652 15.1290657942548,45.8492842384946 15.1290143123239,45.849293294515 15.1290014574388,45.8493023069112 15.1289756852676,45.8492933381203 15.1288211354988,45.8492755166916 15.1288082598174,45.8492755312064 15.1287309849719,45.8492666204048 15.1287181092925,45.8492666349095 15.1286923579336,45.8492666639144 15.1286150623807,45.8492487551745 15.1284862641922,45.849230904305 15.1284733885209,45.8492309187821 15.1282801086621,45.8491681507432 15.1281511041346,45.849060320893 15.1280995396418,45.8490333850602 15.1280480164916,45.8490244449247 15.1279836383721,45.8490245170483 15.1278419448747,45.8489977719895 15.1278290692569,45.8489977863939 15.1277517743524,45.8489798770686 15.1277131269187,45.8489709223863 15.1276873756953,45.8489709511645 15.1275455588774,45.8488901285946 15.1275197871299,45.8488811594743 15.1274296374454,45.8488722621593 15.1273780940124,45.8488543238604 15.1273394672575,45.8488543669123 15.1273265711425,45.8488453833991 15.1273136955595,45.8488453977454 15.1273007994508,45.8488364142292 15.1271719206113,45.8487825704313 15.1271461489734,45.8487736012264 15.1271332324094,45.84875561983 15.1270559995217,45.8487647036162 15.1270045177418,45.8487737587318 15.1269143683122,45.8487648610099 15.1268886376424,45.8487738874693 15.1268370944736,45.8487559489257 15.1267213574369,45.8488190625222 15.1266956062826,45.8488190910769 15.1266441448137,45.8488371438914 15.126605558897,45.8488551824175 15.1265927037231,45.8488641945438 15.1265798485451,45.8488732066685 15.1265413237929,45.8489182387563 15.1265542606096,45.8489452180803 15.1263742466381,45.8490533919107 15.1263485361202,45.8490714161092 15.1263357215958,45.8490984239281 15.1262971353988,45.8491164623496 15.126207046576,45.8491345576533 15.1260138508662,45.8491077772211 15.1258204930427,45.8490090135725 15.1258076174213,45.8490090277491 15.1256658234863,45.8489372007055 15.1255110531414,45.8488203983199 15.1253691589957,45.8487035815958 15.1253176163789,45.8486856423661 15.1252402621289,45.8486407377538 15.1250339914575,45.8485239911499 15.1249308866605,45.8484791145006 15.1248406977763,45.8484522194167 15.1245958825944,45.8483715056608 15.1245572360863,45.8483625499092 15.1244928587217,45.8483626200653 15.124351188419,45.8483447785555 15.1242481245677,45.8483178970136 15.1240807235449,45.8483090810281 15.123913282616,45.8482822690713 15.1237070867472,45.8482554988319 15.1235397258335,45.8482646777798 15.1233465542945,45.8482468906927 15.1233336788477,45.8482469045903 15.1231920489322,45.848247057369 15.1231405471445,45.8482471128814 15.1229860417804,45.8482472792791 15.12275418477,45.8482025391666 15.1226897482399,45.8481756147159 15.1224706684515,45.8480858708832 15.1223804618502,45.8480500659685 15.1222129831007,45.8480052557894 15.1220197932044,45.847978468593 15.1219811867153,45.8479875076972 15.1218009116493,45.8479787021137 15.1217364954647,45.847960774988 15.1215819320759,45.8479339458935 15.1215046406417,45.8479160323356 15.1214402833651,45.8479250986358 15.1213759064976,45.8479251670353 15.1212342578413,45.8479163195221 15.1210925701811,45.8478894761041 15.1209895672574,45.8478895852124 15.1207706665704,45.8478808188946 15.1206547882978,45.8478809413085 15.1203972033745,45.8478452214592 15.1201910620332,45.8477824532742 15.1199978158292,45.8477286690611 15.1198948518601,45.8477467729128 15.1197531652715,45.8477199278321 15.1197145392906,45.8477199683057 15.1196114595336,45.84768408471 15.1195470636649,45.8476751542135 15.1194310895335,45.8476302860586 15.1192893072965,45.8475584510734 15.1192377484621,45.8475315112289 15.119070139399,45.8474237113739 15.1189799934031,45.8474148073869 15.1189155787728,45.8473968786676 15.1188898282671,45.8473969054625 15.118799682343,45.8473880013331 15.1187481813397,45.847388054865 15.118580803078,45.8473882286834 15.1185036088913,45.8474153024232 15.1183748944898,45.8474334316083 15.1181046472915,45.8474966964506 15.117898775934,45.8475598942498 15.117808705881,45.8475869808036 15.1177701369544,45.8476140142183 15.1176673052724,45.847695101126 15.1176415925632,45.8477131233718 15.1175002481461,45.8478482370832 15.1174616788894,45.8478752703928 15.1174102720863,45.847920312651 15.1173074771452,45.8480193949629 15.117178987868,45.8481455871657 15.117011758256,45.8482177416114 15.1169088489604,45.8482628363689 15.1168187961269,45.8482989200059 15.1167802073996,45.8483169552187 15.1167158677067,45.8483350167239 15.1165742939212,45.8483621548963 15.116471327667,45.8483802556633 15.1163683425831,45.8483893584722 15.1163297348907,45.8483983956675 15.1161751916061,45.8483805571258 15.1160592935636,45.8483716770149 15.1158532672184,45.8483628882008 15.1157115809993,45.8483360381113 15.1155956831221,45.84832715753 15.1153380993546,45.848291426278 15.1152350956677,45.8482915301999 15.1152093447458,45.8482915561658 15.1151063781767,45.8483096557034 15.1150806458016,45.8483186795062 15.1150420379487,45.8483277162667 15.1150291624794,45.8483277292286 15.1150163055548,45.848336740055 15.1150034300834,45.8483367530141 15.1149648222055,45.8483457897484 15.1149262328453,45.8483638243356 15.1149004818899,45.8483638502319 15.1148232660506,45.848381923618 15.1148104090803,45.8483909344212 15.1147332116734,45.8484180056121 15.1147074791878,45.8484270293309 15.1146431756644,45.848463085401 15.1145017297746,45.8485532060661 15.1144245504429,45.8485892749138 15.1143089284444,45.8486523758241 15.1142188917142,45.8486974552775 15.1140774261512,45.8487785775495 15.1138072042506,45.8488598279547 15.1136785033118,45.8488869497151 15.1136527704391,45.8488959731959 15.1134597644812,45.8489591501845 15.1131379652967,45.8490044586716 15.1129318824378,45.8489686709965 15.1129061312015,45.8489686964437 15.1128546469253,45.8489777451863 15.1127644994009,45.8489688362996 15.1125197175111,45.8488970945299 15.1123779952917,45.8488522445776 15.1123393322901,45.8488342868272 15.1122749181467,45.8488163543685 15.1121718411342,45.8487804640659 15.1121331784294,45.8487625962241 15.1121074272874,45.8487626214912 15.1120171899215,45.8487087226835 15.111991420747,45.8486997500582 15.1119267878807,45.8486368281973 15.1118880890922,45.8486008745605 15.1117720110478,45.8485020114362 15.1116687368829,45.8483671441428 15.1115914120328,45.8483312281447 15.1115398382091,45.8482952869607 15.1114108680137,45.8481874381633 15.1111876444445,45.8479475020391 15.1111280978522,45.8477869477137 15.1110167054545,45.8476472288508 15.1109201716946,45.8475334093647 15.1108429189738,45.847468159677 15.1106899471462,45.8473316300736 15.1104819303761,45.8472255663522 15.1102628739081,45.8471357990778 15.1102152405768,45.8470731297633 15.1101483221262,45.8469591910661 15.109962671182,45.8467678048632 15.109746857466,45.8466234162969 15.109754723508,45.8464986980241 15.1097617057042,45.8463173838839 15.1098618475437,45.8461734114215 15.1098575112928,45.8460635513783 15.1098226029106,45.8458585230612 15.1097966229855,45.8457415754773 15.10984775058,45.8455525706755 15.1098191336731,45.8453386283804 15.1096703785801,45.8451160734852 15.1095811157637,45.8448985901481 15.1093210518886,45.8445725757527 15.1090838582326,45.8444847130845 15.1087428583909,45.8444435578307 15.1083058468474,45.8444853631744 15.1079354464201,45.8445530178705 15.1076836391747,45.8445636030205 15.1073648930198,45.8445120751075 15.106972068946,45.8444347017523 15.1067794157471,45.8444762722398 15.106349839738,45.8445698910029 15.1061275845112,45.8445493125149 15.1059865790024,45.8444665728173 15.1059047783065,45.8443061262907 15.1058009123865,45.8441870904323 15.1056376451009,45.844109499707 15.1052968669208,45.8441150330173 15.1047559700855,45.8440947450421 15.1042150155085,45.8440433218556 15.1038740316412,45.8440073708316 15.10384918323,45.8440070335015 15.1039577792281,45.8441105004827 15.1032817057097,45.8434668645185 15.1027935040064,45.8429745801479 15.1026655354427,45.8425554833498 15.102354552066,45.841533151641 15.1019450850007,45.8412095034724 15.102012295166,45.8407211276706 15.1016070052527,45.8402125677299 15.1012591409049,45.8388536540028 15.0995274687945,45.8359909633743 15.0994080995019,45.8353179340526 15.098007004852,45.8343348634615 15.0967443945405,45.8345010510182 15.0960857082165,45.8337470423339 15.0949275618507,45.8333446341387 15.0932145251599,45.8334064203809 15.091467708643,45.8332797917927 15.0914805461411,45.832237373762 15.0914148992481,45.8307430532455 15.091477120689,45.8300678900612 15.0912866903801,45.8297137944999 15.0909853858403,45.8294041466556 15.090288213876,45.8289619122824 15.0894639907866,45.8283426941839 15.0894944337523,45.8275014551215 15.0892564744791,45.8271917529681 15.0887331476551,45.8265390916501 15.0886373731165,45.8260410411784 15.0873237975241,45.8260237868135 15.0862199603484,45.8257246344102 15.0841759724268,45.8249175153097 15.0842386965217,45.8260577755398 15.0826109724682,45.8270084243253 15.0819310722093,45.8269564559913 15.0776201098671,45.8270737392954 15.0775412304844,45.8273643356113 15.0771758405099,45.8280221507491 15.0761914275047,45.8283605031804 15.0752111859817,45.828746893232 15.0740876302149,45.8289048208247 15.0726169028262,45.829334335624 15.0720030045139,45.8285775495777 15.0708994725236,45.828392522648 15.0704291600045,45.8280785162941 15.0689375610796,45.8280794259269 15.0658041942352,45.8270175396047 15.0650737987722,45.8262529548669 15.0637796822759,45.8247902627856 15.0629157070437,45.8248978170307 15.0621732366609,45.8252494122862 15.0616012066055,45.8247105666718 15.0601459606571,45.8246832684245 15.0581261337354,45.8252994116374 15.0563897646596,45.8257574660529 15.0560410900392,45.8252260404624 15.0546290369937,45.8259471877389 15.0521558798438,45.8265053145569 15.0506373534114,45.8267129497161 15.048899685351,45.826542746111 15.0483784470111,45.8265609638225 15.0481723409571,45.8263540987691 15.0459454252872,45.8261075731255 15.0452829562205,45.8263867730701 15.0449039259751,45.8271922363259 15.0444640953213,45.8277867207455 15.0437894774132,45.8282007954367 15.0430856918775,45.8288587206153 15.0409418524841,45.8314311123651 15.0389837009125,45.8316222829674 15.0387454916516,45.8318724159156 15.0391715011255,45.8323604072721 15.0396315779321,45.8327769417934 15.0401768141011,45.8332887323662 15.040109473258,45.8345149907767 15.0378787514814,45.8347776810601 15.0380838411953,45.8361468240068 15.0383226518532,45.8367419554395 15.0384931260943,45.8371705581933 15.0387318959966,45.8376943353238 15.0385618076899,45.8380157978615 15.0377960278812,45.8392185330054 15.0377626141083,45.8402543820323 15.0377290622675,45.8410877782606 15.0372030442829,45.8422565073043 15.036880540579,45.842439808962 15.0369411721679,45.8428204002543 15.036606040604,45.8429930876876 15.0371172396232,45.8435166900787 15.0377647248754,45.8439451374671 15.0380206412008,45.8446593951244 15.0379868646057,45.8453499043857 15.0371525337192,45.8456716732597 15.0363689374493,45.8456242365399 15.0343929733181,45.8451129584705 15.0298901792369,45.8434717501091 15.0295033521685,45.8469721194293 15.02895324543,45.8512869248946 15.0286480598058,45.854758652555 15.0282806311973,45.8561874263172 15.0275264574654,45.8620309152892 15.0279353834266,45.8620879524773 15.0283444481716,45.8624164536632 15.0281197662168,45.8630308831428 15.0281203865241,45.86451669955 15.0278546591013,45.8647167870228 15.0271389020417,45.8646025964769 15.0275480581892,45.8650882929204 15.0275482840087,45.8655454739894 15.0279572787467,45.8656882606217 15.0296747449705,45.8656592143377 15.0309219238858,45.8655303042805 15.0315353166737,45.8656587160212 15.033150526924,45.8654297132911 15.0334779476813,45.865901015545 15.0342755225383,45.8662293807969 15.0342963028912,45.8669294976753 15.0336219102301,45.8677726170531 15.0330087073013,45.8682299767391 15.0328454667663,45.8688014773659 15.0330500959827,45.8691728496705 15.0336840048253,45.8692869372773 15.0343179778352,45.8695010774453 15.0349519233343,45.8694580555307 15.0352995351871,45.8696150511486 15.0352973638572,45.8696440248975 15.0351748658552,45.8700441070833 15.0349094773207,45.8707871408702 15.0347462802333,45.8716158024223 15.035380165907,45.8716441310953 15.0363411320108,45.8713295347132 15.0371591582128,45.8714721574519 15.0377726047002,45.8713719902361 15.038897397842,45.8716144647999 15.0403902651612,45.871756832696 15.0412902587316,45.8722851345293 15.0414542619391,45.8728422217609 15.0428242683126,45.872798886807 15.0432943437162,45.8723558357075 15.0437847410622,45.8718841617018 15.0447456523491,45.8715551880979 15.0455836466632,45.8710405399095 15.0460741183163,45.8705403327584 15.046953045108,45.870025657924 15.0477914304248,45.8701681062371 15.0484050666482,45.8703250403791 15.0494073856657,45.8708532350258 15.0505323483237,45.8712384808405 15.0509412608731,45.8711811629475 15.0524347572253,45.8721090652344 15.0531513641872,45.8730945381433 15.0532535258573,45.8735134302251 15.052927529787,45.8744947965191 15.0527032322177,45.8752806817404 15.0528475734731,45.8767092921724 15.0536065759144,45.8793804864584 15.0535256848349,45.8804663830038 15.0542421785241,45.8813374852383 15.0544063100151,45.881866029813 15.0559822620321,45.8832225013017 15.0563709731289,45.8832366167589 15.0566775270756,45.8830364433833 15.0572694766406,45.8817360517542 15.0596819452177,45.8807347981812 15.0616041868366,45.8804766199992 15.0618704369812,45.8809050429391 15.0625665509119,45.8816333083643 15.0630782242336,45.8820472872146 15.0634670265425,45.8821471278135 15.064653075642,45.8820464070484 15.0650418640655,45.8821319357461 15.066513291708,45.8810738435538 15.0671067112432,45.8814164039909 15.0678436079545,45.8819302849179 15.0686618876973,45.8820869882823 15.070930761489,45.8809712210243 15.0717694278808,45.881056446717 15.0721782609483,45.8808989970806 15.0731800736147,45.8806268952915 15.0733126725825,45.8803584049289 15.0747879874417,45.8806211753976 15.0758907710607,45.8812856581045 15.0775273512219,45.8814990678121 15.0782833762219,45.8810698956683 15.078958319023,45.8810695212778 15.0798807110634,45.8824836092413 15.0803334404849,45.8844552560084 15.0809693885195,45.8856980368107 15.0819519564025,45.886240355102 15.0830565425193,45.8863397033843 15.0823835638228,45.8877119086701 15.0824461859003,45.8884977332263 15.0819562404698,45.8892411256522 15.0818546715934,45.8896555480283 15.0819782831048,45.8902985335006 15.0816512717484,45.8904844825844 15.0815495904345,45.8909132112079 15.0815297090308,45.8913275748491 15.0809584263428,45.8923424847027 15.081143207481,45.8927854060208 15.0817578784447,45.8934137351111 15.08192205455,45.8937708306971 15.0823524313039,45.8943706754108 15.0827619689237,45.8946419334853 15.0833362564423,45.8955560535626 15.0849118829651,45.8958979801227 15.0848717076564,45.8963409720917 15.0852416019347,45.8973838126024 15.0860188905024,45.897354707104 15.0866734515377,45.8972971664212 15.0867762845204,45.8976256882773 15.0866146652961,45.8989404802261 15.0878611493494,45.8979822521765 15.0885154432032,45.8977531129938 15.0885147166642,45.8972958450286 15.0900079133297,45.8971376669422 15.090743902611,45.8968370079968 15.0910102574491,45.8970655204432 15.091460262349,45.8970651611657 15.0918487849951,45.8969791004452 15.0923196685712,45.8971360026716 15.0929332404871,45.8970783692589 15.0937931058025,45.8974206631461 15.0945090976364,45.8974201632173 15.0947343931304,45.897591474862 15.0951435021767,45.8975626119294 15.0956143752361,45.8977051040828 15.0959619214796,45.8975476210819 15.0959817221139,45.8975214208356 15.095570487985,45.896235978793 15.0954142084511,45.8944502240513 15.0955842826595,45.8939861547429 15.0961637522263,45.8939023488368 15.0963336371437,45.8935569596803 15.0969126453753,45.8932111340384 15.0973550405902,45.8927821021517 15.0978659949014,45.8925078622154 15.0989056793265,45.8923998930902 15.0995356876766,45.8919825672797 15.1003022078505,45.8916723721913 15.1010004691964,45.8913145438677 15.1016310795977,45.8912426320803 15.1023300924004,45.8913015738106 15.103079182511,45.8907770476591 15.1035727314711,45.8903836666979 15.1047488915881,45.8903826846026 15.1054816594187,45.8902391252112 15.1059069795137,45.8898220428474 15.106144408647,45.889190715506 15.1068256847889,45.8888805556518 15.1072507092997,45.8883204930848 15.1073864471424,45.8879512749691 15.107283432512,45.8875821910878 15.1073675898883,45.8870581688246 15.1078615501747,45.8868433754937 15.1088486561763,45.8860685366499 15.1091048146664,45.8863421861445 15.1099740916578,45.8863294757484 15.1104167908539,45.8860671221717 15.1105694275538,45.8857216380568 15.1110453976108,45.8850901589931 15.1115736020546,45.8850063246138 15.1126312900126,45.8854101891946 15.1131926383045,45.884897658216 15.1142313941619,45.8844203695712 15.1144864773078,45.8840986219115 15.1144346198676,45.8837533372061 15.1149111676531,45.8834314565457 15.1162399533476,45.8831086201694 15.1164948900673,45.8827868681002 15.1166947955539,45.8817804367069 15.116850220633,45.8815601009365 15.1177355969518,45.881154379681 15.1180419667943,45.8809158909799 15.1182794734633,45.8804036686686 15.1185346898974,45.8802247972127 15.1189434658418,45.8801053311111 15.1202896679919,45.8800206020028 15.1206472941187,45.8799011836335 15.1215332905923,45.8797455719936 15.1233560376557,45.8791483220972 15.1243087755143,45.8786591570326 15.1251271016411,45.8787297967023 15.1263708932793,45.8786093866108 15.1272904275945,45.878263119011 15.1283639353557,45.8782144095799 15.128857791146,45.8780232795552 15.1297943880333,45.8777126939451 15.1304758659406,45.8776048435884 15.1309874970485,45.8777471439336 15.1321124161752,45.8778173817384 15.1328788721974,45.8776379759398 15.1340024747455,45.8771604082504 15.1352614675047,45.8762659793116 15.1362890582691,45.8756327499922 15.1364516925282,45.8751333556338 15.1372176580632,45.8747753140517 15.1385980762148,45.8747856152331 15.1396704925669,45.8743318979222 15.1403332788269,45.8736285342188 15.1416794811285,45.8735674872811 15.1420888867553,45.873733709009 15.14239756776,45.8745073193112 15.1433701559959,45.8749705718556 15.1437450430335,45.8754822580741 15.1444374061617,45.8760169365607 15.1450607612318,45.8763141554385 15.1458718286974,45.875829219072 15.1464337027238,45.8751303578826 15.1468792400724,45.8744305636955 15.1479256760327,45.8736800533549 15.1491243697941,45.8727964365481 15.1502480883361,45.8724497171954 15.151715505371,45.8731146987213 15.1535225210935,45.8733625153814 15.1543232452704,45.8732781167603 15.156131574934,45.8739431204455 15.1561296371689,45.8732051198414 15.1569297186856,45.8728945879623 15.1577977241901,45.8724650051534 15.1591426216431,45.8719633096464 15.1601309734907,45.8719620188957 15.16065735909,45.8712709651307 15.1615596350442,45.8709960684405 15.1619855550648,45.8709359896845 15.162377652244,45.8709830318141 15.1632806121741,45.8709462036458 15.1642343798133,45.8707544423407 15.1650525460293,45.8708366735776 15.1670292805764,45.8708578255473 15.1678579474903,45.8708749668961 15.1684429492459,45.8706059701405 15.1696054254038,45.8703937009662 15.1703839261633,45.8700557532855 15.1705865743053,45.8694364887557 15.1714534688928,45.8686972774678 15.1731216976403,45.8681117013477 15.1716379821024,45.8676734046264 15.1706830735371,45.8674247845574 15.1687227046384,45.8671537112114 15.1676467481068,45.8662624375633 15.16713520082,45.8661441452673 15.1662149433938,45.8660977989173 15.1654482943843,45.8661225758602 15.1638270637103,45.865220177103 15.1629395980253,45.8647094678382 15.1616003849252,45.8646116733174 15.1608948143766,45.8646407422761 15.1588835975944,45.8633779173992 15.1582328786539,45.8632158690532 15.1576864981664,45.8627404574886 15.1579744223765,45.8621329740098 15.1577344905815,45.8615857854567 15.1574607045269,45.8611338404127 15.1576921317897,45.8604510331957 15.1582071093272,45.8599425717739 15.1591355241983,45.8594554877621 15.1602506924229,45.8582199616253 15.1603483369512,45.8571106571809 15.1596669497641,45.8562876761896 15.1590446121749,45.8551216098887 15.1599121601979,45.8545895244947 15.1608411176126,45.8529865987013 15.1591253584843,45.8518732639392 15.1566902259744,45.8513817456705 15.1555330278156,45.8519772766534 15.1546803990394,45.8509706714463 15.153560130926,45.8510472247425 15.1532397671237,45.850201134144 15.1518612088015,45.8493269406961 15.1496623485663,45.8484358120506 15.1475455994399,45.848187253931 15.1470954750981,45.8487741364179</coordinates></LinearRing></outerBoundaryIs></Polygon></MultiGeometry>
  </Placemark>
</Folder>
</Document></kml>
