{"type":"FeatureCollection","features":[{"type":"Feature","geometry":{"type":"Polygon","coordinates":[[[15.0343929733181,45.8451129584705],[15.0363689374493,45.8456242365399],[15.0371525337192,45.8456716732597],[15.0379868646057,45.8453499043857],[15.0380206412008,45.8446593951244],[15.0377647248754,45.8439451374671],[15.0371172396232,45.8435166900787],[15.036606040604,45.8429930876876],[15.0369411721679,45.8428204002543],[15.036880540579,45.842439808962],[15.0372030442829,45.8422565073043],[15.0377290622675,45.8410877782606],[15.0377626141083,45.8402543820323],[15.0377960278812,45.8392185330054],[15.0385618076899,45.8380157978615],[15.0387318959966,45.8376943353238],[15.0384931260943,45.8371705581933],[15.0383226518532,45.8367419554395],[15.0380838411953,45.8361468240068],[15.0378787514814,45.8347776810601],[15.040109473258,45.8345149907767],[15.0401768141011,45.8332887323662],[15.0396315779321,45.8327769417934],[15.0391715011255,45.8323604072721],[15.0387454916516,45.8318724159156],[15.0389837009125,45.8316222829674],[15.0409418524841,45.8314311123651],[15.0430856918775,45.8288587206153],[15.0437894774132,45.8282007954367],[15.0444640953213,45.8277867207455],[15.0449039259751,45.8271922363259],[15.0452829562205,45.8263867730701],[15.0459454252872,45.8261075731255],[15.0481723409571,45.8263540987691],[15.0483784470111,45.8265609638225],[15.048899685351,45.826542746111],[15.0506373534114,45.8267129497161],[15.0521558798438,45.8265053145569],[15.0546290369937,45.8259471877389],[15.0560410900392,45.8252260404624],[15.0563897646596,45.8257574660529],[15.0581261337354,45.8252994116374],[15.0601459606571,45.8246832684245],[15.0616012066055,45.8247105666718],[15.0621732366609,45.8252494122862],[15.0629157070437,45.8248978170307],[15.0637796822759,45.8247902627856],[15.0650737987722,45.8262529548669],[15.0658041942352,45.8270175396047],[15.0689375610796,45.8280794259269],[15.0704291600045,45.8280785162941],[15.0708994725236,45.828392522648],[15.0720030045139,45.8285775495777],[15.0726169028262,45.829334335624],[15.0740876302149,45.8289048208247],[15.0752111859817,45.828746893232],[15.0761914275047,45.8283605031804],[15.0771758405099,45.8280221507491],[15.0775412304844,45.8273643356113],[15.0776201098671,45.8270737392954],[15.0819310722093,45.8269564559913],[15.0826109724682,45.8270084243253],[15.0842386965217,45.8260577755398],[15.0841759724268,45.8249175153097],[15.0862199603484,45.8257246344102],[15.0873237975241,45.8260237868135],[15.0886373731165,45.8260410411784],[15.0887331476551,45.8265390916501],[15.0892564744791,45.8271917529681],[15.0894944337523,45.8275014551215],[15.0894639907866,45.8283426941839],[15.090288213876,45.8289619122824],[15.0909853858403,45.8294041466556],[15.0912866903801,45.8297137944999],[15.091477120689,45.8300678900612],[15.0914148992481,45.8307430532455],[15.0914805461411,45.832237373762],[15.091467708643,45.8332797917927],[15.0932145251599,45.8334064203809],[15.0949275618507,45.8333446341387],[15.0960857082165,45.8337470423339],[15.0967443945405,45.8345010510182],[15.098007004852,45.8343348634615],[15.0994080995019,45.8353179340526],[15.0995274687945,45.8359909633743],[15.1012591409049,45.8388536540028],[15.1016070052527,45.8402125677299],[15.102012295166,45.8407211276706],[15.1019450850007,45.8412095034724],[15.102354552066,45.841533151641],[15.1026655354427,45.8425554833498],[15.1027935040064,45.8429745801479],[15.1032817057097,45.8434668645185],[15.1039577792281,45.8441105004827],[15.10384918323,45.8440070335015],[15.1038740316412,45.8440073708316],[15.1042150155085,45.8440433218556],[15.1047559700855,45.8440947450421],[15.1052968669208,45.8441150330173],[15.1056376451009,45.844109499707],[15.1058009123865,45.8441870904323],[15.1059047783065,45.8443061262907],[15.1059865790024,45.8444665728173],[15.1061275845112,45.8445493125149],[15.106349839738,45.8445698910029],[15.1067794157471,45.8444762722398],[15.106972068946,45.8444347017523],[15.1073648930198,45.8445120751075],[15.1076836391747,45.8445636030205],[15.1079354464201,45.8445530178705],[15.1083058468474,45.8444853631744],[15.1087428583909,45.8444435578307],[15.1090838582326,45.8444847130845],[15.1093210518886,45.8445725757527],[15.1095811157637,45.8448985901481],[15.1096703785801,45.8451160734852],[15.1098191336731,45.8453386283804],[15.10984775058,45.8455525706755],[15.1097966229855,45.8457415754773],[15.1098226029106,45.8458585230612],[15.1098575112928,45.8460635513783],[15.1098618475437,45.8461734114215],[15.1097617057042,45.8463173838839],[15.109754723508,45.8464986980241],[15.109746857466,45.8466234162969],[15.109962671182,45.8467678048632],[15.1101483221262,45.8469591910661],[15.1102152405768,45.8470731297633],[15.1102628739081,45.8471357990778],[15.1104819303761,45.8472255663522],[15.1106899471462,45.8473316300736],[15.1108429189738,45.847468159677],[15.1109201716946,45.8475334093647],[15.1110167054545,45.8476472288508],[15.1111280978522,45.8477869477137],[15.1111876444445,45.8479475020391],[15.1114108680137,45.8481874381633],[15.1115398382091,45.8482952869607],[15.1115914120328,45.8483312281447],[15.1116687368829,45.8483671441428],[15.1117720110478,45.8485020114362],[15.1118880890922,45.8486008745605],[15.1119267878807,45.8486368281973],[15.111991420747,45.8486997500582],[15.1120171899215,45.8487087226835],[15.1121074272874,45.8487626214912],[15.1121331784294,45.8487625962241],[15.1121718411342,45.8487804640659],[15.1122749181467,45.8488163543685],[15.1123393322901,45.8488342868272],[15.1123779952917,45.8488522445776],[15.1125197175111,45.8488970945299],[15.1127644994009,45.8489688362996],[15.1128546469253,45.8489777451863],[15.1129061312015,45.8489686964437],[15.1129318824378,45.8489686709965],[15.1131379652967,45.8490044586716],[15.1134597644812,45.8489591501845],[15.1136527704391,45.8488959731959],[15.1136785033118,45.8488869497151],[15.1138072042506,45.8488598279547],[15.1140774261512,45.8487785775495],[15.1142188917142,45.8486974552775],[15.1143089284444,45.8486523758241],[15.1144245504429,45.8485892749138],[15.1145017297746,45.8485532060661],[15.1146431756644,45.848463085401],[15.1147074791878,45.8484270293309],[15.1147332116734,45.8484180056121],[15.1148104090803,45.8483909344212],[15.1148232660506,45.848381923618],[15.1149004818899,45.8483638502319],[15.1149262328453,45.8483638243356],[15.1149648222055,45.8483457897484],[15.1150034300834,45.8483367530141],[15.1150163055548,45.848336740055],[15.1150291624794,45.8483277292286],[15.1150420379487,45.8483277162667],[15.1150806458016,45.8483186795062],[15.1151063781767,45.8483096557034],[15.1152093447458,45.8482915561658],[15.1152350956677,45.8482915301999],[15.1153380993546,45.848291426278],[15.1155956831221,45.84832715753],[15.1157115809993,45.8483360381113],[15.1158532672184,45.8483628882008],[15.1160592935636,45.8483716770149],[15.1161751916061,45.8483805571258],[15.1163297348907,45.8483983956675],[15.1163683425831,45.8483893584722],[15.116471327667,45.8483802556633],[15.1165742939212,45.8483621548963],[15.1167158677067,45.8483350167239],[15.1167802073996,45.8483169552187],[15.1168187961269,45.8482989200059],[15.1169088489604,45.8482628363689],[15.117011758256,45.8482177416114],[15.117178987868,45.8481455871657],[15.1173074771452,45.8480193949629],[15.1174102720863,45.847920312651],[15.1174616788894,45.8478752703928],[15.1175002481461,45.8478482370832],[15.1176415925632,45.8477131233718],[15.1176673052724,45.847695101126],[15.1177701369544,45.8476140142183],[15.117808705881,45.8475869808036],[15.117898775934,45.8475598942498],[15.1181046472915,45.8474966964506],[15.1183748944898,45.8474334316083],[15.1185036088913,45.8474153024232],[15.118580803078,45.8473882286834],[15.1187481813397,45.847388054865],[15.118799682343,45.8473880013331],[15.1188898282671,45.8473969054625],[15.1189155787728,45.8473968786676],[15.1189799934031,45.8474148073869],[15.119070139399,45.8474237113739],[15.1192377484621,45.8475315112289],[15.1192893072965,45.8475584510734],[15.1194310895335,45.8476302860586],[15.1195470636649,45.8476751542135],[15.1196114595336,45.84768408471],[15.1197145392906,45.8477199683057],[15.1197531652715,45.8477199278321],[15.1198948518601,45.8477467729128],[15.1199978158292,45.8477286690611],[15.1201910620332,45.8477824532742],[15.1203972033745,45.8478452214592],[15.1206547882978,45.8478809413085],[15.1207706665704,45.8478808188946],[15.1209895672574,45.8478895852124],[15.1210925701811,45.8478894761041],[15.1212342578413,45.8479163195221],[15.1213759064976,45.8479251670353],[15.1214402833651,45.8479250986358],[15.1215046406417,45.8479160323356],[15.1215819320759,45.8479339458935],[15.1217364954647,45.847960774988],[15.1218009116493,45.8479787021137],[15.1219811867153,45.8479875076972],[15.1220197932044,45.847978468593],[15.1222129831007,45.8480052557894],[15.1223804618502,45.8480500659685],[15.1224706684515,45.8480858708832],[15.1226897482399,45.8481756147159],[15.12275418477,45.8482025391666],[15.1229860417804,45.8482472792791],[15.1231405471445,45.8482471128814],[15.1231920489322,45.848247057369],[15.1233336788477,45.8482469045903],[15.1233465542945,45.8482468906927],[15.1235397258335,45.8482646777798],[15.1237070867472,45.8482554988319],[15.123913282616,45.8482822690713],[15.1240807235449,45.8483090810281],[15.1242481245677,45.8483178970136],[15.124351188419,45.8483447785555],[15.1244928587217,45.8483626200653],[15.1245572360863,45.8483625499092],[15.1245958825944,45.8483715056608],[15.1248406977763,45.8484522194167],[15.1249308866605,45.8484791145006],[15.1250339914575,45.8485239911499],[15.1252402621289,45.8486407377538],[15.1253176163789,45.8486856423661],[15.1253691589957,45.8487035815958],[15.1255110531414,45.8488203983199],[15.1256658234863,45.8489372007055],[15.1258076174213,45.8490090277491],[15.1258204930427,45.8490090135725],[15.1260138508662,45.8491077772211],[15.126207046576,45.8491345576533],[15.1262971353988,45.8491164623496],[15.1263357215958,45.8490984239281],[15.1263485361202,45.8490714161092],[15.1263742466381,45.8490533919107],[15.1265542606096,45.8489452180803],[15.1265413237929,45.8489182387563],[15.1265798485451,45.8488732066685],[15.1265927037231,45.8488641945438],[15.126605558897,45.8488551824175],[15.1266441448137,45.8488371438914],[15.1266956062826,45.8488190910769],[15.1267213574369,45.8488190625222],[15.1268370944736,45.8487559489257],[15.1268886376424,45.8487738874693],[15.1269143683122,45.8487648610099],[15.1270045177418,45.8487737587318],[15.1270559995217,45.8487647036162],[15.1271332324094,45.84875561983],[15.1271461489734,45.8487736012264],[15.1271719206113,45.8487825704313],[15.1273007994508,45.8488364142292],[15.1273136955595,45.8488453977454],[15.1273265711425,45.8488453833991],[15.1273394672575,45.8488543669123],[15.1273780940124,45.8488543238604],[15.1274296374454,45.8488722621593],[15.1275197871299,45.8488811594743],[15.1275455588774,45.8488901285946],[15.1276873756953,45.8489709511645],[15.1277131269187,45.8489709223863],[15.1277517743524,45.8489798770686],[15.1278290692569,45.8489977863939],[15.1278419448747,45.8489977719895],[15.1279836383721,45.8490245170483],[15.1280480164916,45.8490244449247],[15.1280995396418,45.8490333850602],[15.1281511041346,45.849060320893],[15.1282801086621,45.8491681507432],[15.1284733885209,45.8492309187821],[15.1284862641922,45.849230904305],[15.1286150623807,45.8492487551745],[15.1286923579336,45.8492666639144],[15.1287181092925,45.8492666349095],[15.1287309849719,45.8492666204048],[15.1288082598174,45.8492755312064],[15.1288211354988,45.8492755166916],[15.1289756852676,45.8492933381203],[15.1290014574388,45.8493023069112],[15.1290143123239,45.849293294515],[15.1290657942548,45.8492842384946],[15.1290915664363,45.8492932072652],[15.1291302143134,45.8493021614803],[15.1291430691776,45.8492931490697],[15.1291945719189,45.8492930908509],[15.1292460954997,45.8493020304685],[15.1294263759902,45.8493108242981],[15.1295294023894,45.8493197054414],[15.1295937599497,45.8493106345872],[15.1295937808456,45.8493196324466],[15.1296710140843,45.8493105469456],[15.1296967445499,45.8493015198607],[15.1297224959239,45.8493014906295],[15.1297482472978,45.8493014613924],[15.1297739777467,45.8492924342902],[15.1298126048012,45.849292390415],[15.1298383352354,45.8492833632982],[15.1299541116096,45.8492382422715],[15.1299927176662,45.849229200476],[15.1300313237101,45.8492201586676],[15.1301728091337,45.8491570123935],[15.1302499790475,45.8491209329228],[15.1302499370444,45.8491029372038],[15.1302756463148,45.849084912129],[15.1302885219515,45.8490848974489],[15.1302884379205,45.8490489060107],[15.1302883959051,45.8490309102915],[15.1303011664807,45.8489859063117],[15.1303010404226,45.8489319191534],[15.1303137479304,45.848859921592],[15.1303266025015,45.8488509090478],[15.1303779787002,45.8487968631365],[15.1304294178901,45.8487698107818],[15.1304808780687,45.8487517562638],[15.1305066291881,45.8487517268561],[15.1305323592607,45.8487426995827],[15.1305452137694,45.8487336870137],[15.1306353215944,45.8487245861507],[15.1306868659513,45.8487425229798],[15.1307255137017,45.8487514766563],[15.1307899125876,45.8487604008482],[15.1308414359304,45.8487693397476],[15.130854311494,45.8487693250038],[15.1309315859866,45.8487782343706],[15.1309831093685,45.848787173206],[15.1310345905111,45.8487781162986],[15.1311760525264,45.84870597092],[15.1312275547216,45.8487059117855],[15.131278993415,45.8486788590485],[15.1313820401222,45.848696736383],[15.1314336058847,45.8487236707348],[15.1316009031934,45.8486874866469],[15.1317941426083,45.8487322533528],[15.1319102352887,45.848822098235],[15.1320004281658,45.848848987733],[15.1321808141802,45.8489027665148],[15.1322839042469,45.8489386387528],[15.1324512443582,45.8489204491393],[15.1325542063931,45.8489023339792],[15.132682812571,45.8488391995331],[15.1327214179074,45.8488301568159],[15.1327600232313,45.8488211140857],[15.1328244011039,45.8488210392714],[15.132965968105,45.8487938809753],[15.1330173845875,45.8487578295979],[15.1332233718477,45.8487485017632],[15.1333006251929,45.8487484116686],[15.1333907756028,45.8487573043511],[15.1334551534002,45.8487572291815],[15.1334938016028,45.8487661819212],[15.1335195742543,45.8487751496934],[15.1336999830461,45.8488379239351],[15.133725734202,45.8488378938019],[15.1339188894625,45.8488466654766],[15.1339575378012,45.8488556180591],[15.1340477317153,45.8488825059399],[15.1341508878319,45.8489453700675],[15.1342541524165,45.8490532233919],[15.1343702497207,45.8491430657646],[15.1344734066823,45.8492059295972],[15.134602358637,45.8492867587201],[15.1347571058213,45.8493855530449],[15.1348860151031,45.8494483861297],[15.135053617202,45.8495381669923],[15.1352212634471,45.8496459433208],[15.1353115465185,45.8497088216251],[15.1354018079606,45.8497627020007],[15.1354921788138,45.8498615715864],[15.1356339439796,45.8499153906956],[15.1357629211452,45.8500052163511],[15.1358532492197,45.8500860899341],[15.1359822490596,45.8501849131942],[15.1361241472163,45.850292718824],[15.1362533018074,45.8504545267603],[15.1363565072887,45.8505353845834],[15.1364855090591,45.8506342072654],[15.136575817177,45.8507060824113],[15.136717673715,45.8507958915824],[15.1368465884611,45.8508587224336],[15.1369497955498,45.8509395797133],[15.1370529366379,45.8509934433363],[15.1371045072566,45.8510203751126],[15.1371818522175,45.8510562738061],[15.1372978698454,45.8511101217477],[15.1374397507346,45.8512089278671],[15.1375558576533,45.8512987669582],[15.1377105712329,45.8513795615297],[15.1378911487991,45.8515053140815],[15.1380588064339,45.8516130861967],[15.1382393855405,45.8517388381912],[15.1383296307863,45.8517837183755],[15.1384070445495,45.8518466097894],[15.1386134001461,45.8519813278423],[15.1386907921385,45.8520352212094],[15.1387166342406,45.8520711813566],[15.138806902791,45.852125059012],[15.1389229690127,45.8521969009919],[15.1389358901719,45.8522148810394],[15.1391035519562,45.8523226516035],[15.1393743152958,45.8524661977464],[15.1394647588644,45.8525380704212],[15.1394776802773,45.8525560504061],[15.1395678603199,45.8525739360516],[15.1396710069545,45.8526277972896],[15.139812873358,45.8527176025765],[15.1400062461803,45.8528073445899],[15.1401997552772,45.8529510733725],[15.1402642509913,45.8529959836097],[15.1403804114526,45.8531038154919],[15.1404706606268,45.8531486939699],[15.1405611592872,45.8532925487166],[15.1405869805063,45.8533195105819],[15.1406515223222,45.8533824162945],[15.140729009005,45.8534722996583],[15.1408580480257,45.8535801151845],[15.1408967234743,45.853598063256],[15.1410385033389,45.8536518756076],[15.1411545528458,45.8537147174464],[15.141296264896,45.8537415359323],[15.1413477717174,45.8537414722311],[15.1414508309822,45.853759340455],[15.1415795980756,45.8537591809843],[15.141669757887,45.8537680671163],[15.1417856254229,45.8537589255293],[15.1418242555501,45.8537588775902],[15.1419015158044,45.8537587816727],[15.1419916298688,45.8537496718552],[15.14203021418,45.8537316281508],[15.1420688442879,45.853731580129],[15.1421074514787,45.8537225342463],[15.1421973819976,45.853641441484],[15.1422099834763,45.853533451284],[15.142274252041,45.8534883818991],[15.1423385205019,45.8534433124779],[15.1424156425179,45.8533892291244],[15.1424542494153,45.8533801831243],[15.1425957312802,45.8533170215187],[15.1434225778649,45.8536319921346],[15.145251799631,45.851982350113],[15.1446650663579,45.8516507127683],[15.1457798837136,45.8505134935044],[15.1463933693915,45.8498051157544],[15.1470954750981,45.8487741364179],[15.1475455994399,45.848187253931],[15.1484231874908,45.8470240404185],[15.1491757707229,45.8462156799518],[15.1502852038526,45.8454961047019],[15.1516460195046,45.8447176089827],[15.1532163124896,45.8439094831332],[15.1546611512073,45.8431895048528],[15.1565031264736,45.8420585710009],[15.1579676520573,45.8409574627959],[15.1595987719926,45.8394750420291],[15.1614612536065,45.8382560893624],[15.1635759621348,45.8373005637854],[15.165817276294,45.836608543813],[15.169021666155,45.8355340879742],[15.1710940373783,45.8344904858728],[15.1731862292272,45.8331390874635],[15.1744206669936,45.8323605102534],[15.175927192132,45.8314642582167],[15.1779364826207,45.8304646281495],[15.1794984266292,45.8298246829767],[15.1815584483653,45.8290667731961],[15.1837156762831,45.8284917775309],[15.1849097328502,45.8282260325635],[15.1862086435723,45.8279894374917],[15.188031113939,45.827634724418],[15.1899167971125,45.8273677868703],[15.1901124571384,45.8269217046001],[15.1901909445542,45.826234672791],[15.1905590454989,45.8257087608906],[15.1895762951517,45.8248817769759],[15.19104269696,45.8235224477917],[15.1910629335217,45.8234938905346],[15.1890655196184,45.8232962893133],[15.1874518033484,45.8228416734595],[15.1862439777386,45.8221434299089],[15.185402062125,45.8207877316095],[15.1843980873546,45.8198751665777],[15.1834568070829,45.819390883452],[15.1825767868808,45.818863754488],[15.1820024380634,45.8181075847319],[15.1814885689362,45.8171084616938],[15.180973135145,45.8155808898318],[15.1797028554487,45.8143544061956],[15.1779130707933,45.8133779612081],[15.1762971346354,45.8123040421497],[15.1738614870949,45.811264912576],[15.1716232075411,45.8109060391711],[15.169475366092,45.8107871429406],[15.1674755162652,45.8102865666332],[15.1661039609319,45.809217183258],[15.1659782496383,45.8080889333037],[15.1668004240861,45.8073637610553],[15.1680784615012,45.8065682689973],[15.1698157007318,45.8058354265758],[15.1716512045536,45.8051082587369],[15.1724701341586,45.8043701831028],[15.1723711330818,45.80347260649],[15.1718212134678,45.8026152096411],[15.170763287062,45.8018439609863],[15.168992536489,45.8014047038725],[15.1674762639022,45.8015198607575],[15.1653455723203,45.8018983587353],[15.1636658253673,45.8025167773098],[15.1619860693459,45.8032780586801],[15.1606754970716,45.8047538641416],[15.1595699379629,45.8062752576147],[15.1591361059135,45.8072703161554],[15.1585381229519,45.8078252411419],[15.1564319693193,45.8088496810506],[15.1537845619983,45.8094511883938],[15.1510961715208,45.8101441076563],[15.1496373738433,45.8107793027424],[15.1477682178993,45.8105398705302],[15.1467759720033,45.809722606345],[15.1463165040733,45.8084934462339],[15.1462912244947,45.8069954100736],[15.1470693003511,45.8053599333613],[15.1482327123208,45.8038957225951],[15.1494697695913,45.8026202704117],[15.1506823421826,45.8014933931411],[15.1512475514186,45.8008985111167],[15.1505588638948,45.8003555839318],[15.1496078101785,45.7997842028968],[15.1481569191901,45.7990357533329],[15.1474352793834,45.7982698803266],[15.1469925874419,45.7977153662635],[15.1461563325142,45.7970352930308],[15.1449186317604,45.7965553883443],[15.1434678414069,45.7961900121534],[15.1408780751902,45.7958991809709],[15.1380670347514,45.7959000028465],[15.1356986655665,45.7959177767351],[15.1339038110747,45.7955866095103],[15.1315599022671,45.7950611515685],[15.1287079014361,45.7946844155209],[15.1259543024713,45.7942904036904],[15.1242005827453,45.7937818685598],[15.1221764855136,45.7927872555087],[15.1201792701245,45.7915193996641],[15.1184365980794,45.7905133561148],[15.1164241967005,45.7895938515715],[15.1146995311202,45.78883913587],[15.1131896695079,45.7883865135612],[15.1120335587,45.7882070635424],[15.1086018267775,45.7882798412604],[15.1061124573028,45.788418319657],[15.1044397729097,45.7881316555381],[15.1027557880411,45.787285302694],[15.1011138856245,45.7866386428778],[15.0979981734994,45.7860874418331],[15.0944649849419,45.7855716838055],[15.0905136250582,45.784976876265],[15.0868505887507,45.784649673224],[15.0841408720869,45.7845185306065],[15.0818750496556,45.7847773390995],[15.0799562341786,45.7850643839585],[15.0779824231496,45.7851243250096],[15.0768324470326,45.784504603056],[15.0763607218498,45.7835690387709],[15.0760106253707,45.7824102414266],[15.0753158163824,45.7810981647992],[15.0742641713426,45.780455316845],[15.0724275653155,45.7800887478786],[15.0695532274053,45.7801531597547],[15.0671852352612,45.7799477128457],[15.0646598345671,45.779388414978],[15.0628948128343,45.7785530366479],[15.0611298251186,45.7777005347211],[15.0595760749385,45.7765218080289],[15.0581619663062,45.7749053262512],[15.0564336346122,45.7736217282801],[15.0541109300526,45.772576204158],[15.0525015175338,45.7716489008116],[15.0516619954925,45.7707768368148],[15.0508550900442,45.7698305184361],[15.0492533056779,45.7688003182438],[15.0467656850731,45.7674008230911],[15.0443120765388,45.7662583335137],[15.0418109944608,45.7654529640399],[15.0395822203281,45.7651094938196],[15.037946844117,45.7656044896],[15.0368800929502,45.7668921847547],[15.0364941186853,45.7684468951609],[15.0361737180845,45.7700356855465],[15.0350914342427,45.7715632547446],[15.0336734969619,45.7730973012766],[15.0319346146793,45.7743235983402],[15.0301384379055,45.7755556425213],[15.0287478233007,45.7759185302403],[15.0270694101252,45.7760192678887],[15.0250803824055,45.7762577188553],[15.0229950952475,45.776981956473],[15.0207799820052,45.777991955963],[15.0188518537289,45.7791213586944],[15.0193118425546,45.7795009971875],[15.0209258838654,45.779574046628],[15.0227216188317,45.7811862337],[15.0237220309298,45.781257474421],[15.0241471611619,45.782097977543],[15.0245843319989,45.7827997274005],[15.0248609879621,45.7837323088882],[15.0256783178602,45.7857752105131],[15.0257652404941,45.7860146272678],[15.0260311576493,45.7872860717762],[15.0248682001862,45.789829429495],[15.024644224827,45.7914725083082],[15.0243992794948,45.7919582714909],[15.0246859523847,45.7942155310065],[15.02642221556,45.7956010098136],[15.0260210716987,45.7968439009999],[15.0255340075248,45.7978675293637],[15.0260469098879,45.7990146538717],[15.0257182245313,45.8006776414488],[15.0251689563462,45.8024954412503],[15.0248227548455,45.8039300610155],[15.0247473889496,45.8054383142587],[15.0253235229464,45.8063164780413],[15.026385790813,45.8070019714444],[15.0286327287678,45.8073014221105],[15.0307773136238,45.8072008973671],[15.0341270394266,45.8070856720453],[15.0364762831158,45.8077421564229],[15.0374161798498,45.8083561424083],[15.0381315938915,45.8093703343901],[15.0378460937882,45.8101419131216],[15.0373163210801,45.8121850702905],[15.0388285016553,45.8131560740681],[15.0389515677043,45.8141561530933],[15.0418524212014,45.8142980146496],[15.0430783510056,45.8146689939059],[15.0448762256991,45.8149825998913],[15.0472457835725,45.8149245077972],[15.0482472994916,45.8155383784237],[15.0476198055132,45.8165325535773],[15.0474921415241,45.8172755661051],[15.0465523156794,45.8178318451516],[15.0458798879778,45.8185539312129],[15.0453899289104,45.8191255854744],[15.0424085433895,45.8210554369218],[15.0407946895545,45.8211560814458],[15.0401410093975,45.8214419971296],[15.0383230793854,45.8219855561697],[15.0358512857059,45.8226434769245],[15.0336244039516,45.8227585175443],[15.0313569805454,45.8235734743853],[15.0299269282083,45.8236453013864],[15.0283948185919,45.8242314571503],[15.0274345409958,45.8243887954627],[15.0268014083979,45.8248033000102],[15.0244114860325,45.8263896290053],[15.0230424990762,45.8264899701287],[15.0223432046701,45.8276709957196],[15.0214045158657,45.8286097480281],[15.0200788838306,45.8291781169984],[15.0210607026336,45.8295535131859],[15.0213049885105,45.8298676750386],[15.02050899144,45.8304605131949],[15.021460864788,45.8325614404973],[15.0215471594679,45.8333664671169],[15.0212985198629,45.8338305358138],[15.0209668936171,45.8344106021995],[15.0204812638103,45.8348747122727],[15.0197583336823,45.8351916558022],[15.0190862170532,45.8358125354637],[15.0186111729069,45.8364502052539],[15.0185601542696,45.8370967128334],[15.0198602157229,45.8382575834013],[15.0195309077633,45.8385906524304],[15.0195718711694,45.8390333420567],[15.0199807576312,45.8398331844321],[15.0206404073173,45.8398594310211],[15.0221095484972,45.8402161927604],[15.0247053819652,45.8413703609966],[15.0273592877775,45.8425883411818],[15.0298901792369,45.8434717501091],[15.0343929733181,45.8451129584705]]]},"properties":{"fill-opacity":0,"stroke-opacity":1,"stroke":"#ff0000","lov":"0109","lov_naziv":"NOVO MESTO","luo":"01","luo_naziv":"Novomeško","povrsina":6506.31},"id":"pregledovalniklovisca.1"}]}