{"type":"FeatureCollection","features":[{"type":"Feature","geometry":{"type":"Polygon","coordinates":[[[15.0894948435226,46.0408459919077],[15.0909333309549,46.0405059176595],[15.0913974495114,46.0404457135559],[15.0932554220044,46.0404102918361],[15.094796496468,46.0403939981056],[15.0952331293086,46.0402061255454],[15.0962777036327,46.0398301412518],[15.0971764328412,46.0395471265268],[15.0982273647216,46.0391278405915],[15.098757824095,46.038823625075],[15.0991632091344,46.0386600579189],[15.0999095041787,46.0385483778134],[15.1007170137252,46.0385671938469],[15.1012017103843,46.0386829245092],[15.1018123763369,46.0390099841754],[15.1021213731422,46.0392673093033],[15.1027367467991,46.0393396382384],[15.1031102464417,46.039472376144],[15.1038740966701,46.0394885999497],[15.1042771091577,46.0395115367118],[15.1048712802311,46.0394369429767],[15.1055122997413,46.0396082068354],[15.1064726305927,46.0396745282076],[15.1072791143176,46.0398212444457],[15.1079419768471,46.0399906746465],[15.1083016005836,46.0400884080859],[15.1089723575857,46.0401956515374],[15.1100435517352,46.0403897827477],[15.1110416763259,46.0406091681505],[15.111492410545,46.0405212728775],[15.1118169460138,46.0405771007446],[15.112142712011,46.0407938032191],[15.1126791893151,46.040937416823],[15.1129678179882,46.0410603987575],[15.1133259047386,46.0412833641977],[15.1139398131309,46.0413791179265],[15.1145673083791,46.0417963382332],[15.1149798839224,46.0419345766197],[15.115589990501,46.042123090331],[15.1159504794019,46.0421272239818],[15.1164219306422,46.042058273164],[15.1169982600824,46.0420954744909],[15.1174156665156,46.0420705730413],[15.118058964804,46.0419446640836],[15.1185185601712,46.0417712549723],[15.119056123611,46.0418670603529],[15.1193883947073,46.0420279503674],[15.1197098702163,46.0423940854719],[15.1199986817216,46.0426504835043],[15.1204660017516,46.043058931791],[15.1207800990818,46.0432350427843],[15.1211760055473,46.0433606797781],[15.1215801432604,46.0433503532662],[15.1220802837394,46.0432822483602],[15.122630652703,46.0432581755095],[15.1236485631831,46.043265986442],[15.1241954709888,46.0433698553368],[15.1249836009143,46.0433545101319],[15.1253413889823,46.0433603266564],[15.1257385158491,46.0434494163468],[15.126081442689,46.0436810860604],[15.1262849854558,46.0440956495797],[15.1263609336166,46.0443672924039],[15.1262682738111,46.0446436203447],[15.1260350913004,46.0449461962022],[15.1264628086215,46.0455251674822],[15.1268178022551,46.0458846770559],[15.1273117104516,46.0460775757757],[15.1277010936655,46.0461608188096],[15.128044778429,46.046150446997],[15.1285420268998,46.0460536148351],[15.1293121869108,46.0461292254543],[15.1297685658029,46.0461826936403],[15.1304342208015,46.0462692123872],[15.1308965602119,46.0462740823784],[15.1312998439417,46.046222333653],[15.1319314785587,46.0462378019386],[15.1322494328974,46.046166353667],[15.1329680065375,46.0462267034565],[15.1333349298657,46.0462082808605],[15.134246414498,46.0458922089148],[15.1352115491849,46.0459621520691],[15.1355334539021,46.0459761669222],[15.1361471272414,46.0459394472891],[15.1366418712653,46.0458290865082],[15.1373424994903,46.0455304270984],[15.1379569055859,46.0452714568042],[15.138565164557,46.0450367840969],[15.1391225255903,46.0447570922601],[15.1397055620902,46.0444135735055],[15.1400168740503,46.0442782289377],[15.1404066643175,46.044162581805],[15.1408790960657,46.0440270368424],[15.1420132191055,46.043797184875],[15.1425814666912,46.0436926453882],[15.1435356752366,46.0434459072009],[15.1446759210243,46.0432934902335],[15.1457259416931,46.0430304167841],[15.1465720689843,46.0429641024178],[15.1477153456601,46.0428892103443],[15.1481933895643,46.0428821132691],[15.1487687259744,46.0425863352847],[15.1494259518192,46.042378893553],[15.1498582187508,46.042168144177],[15.1505057032209,46.0418976359642],[15.1508456901963,46.041869115315],[15.1515062805414,46.0420004160056],[15.1518294153445,46.0420458748658],[15.152425430719,46.0418096149311],[15.1528023954289,46.0416034269253],[15.1530303503679,46.041430908271],[15.1533378807705,46.0413475384201],[15.1537124289083,46.0412972787005],[15.1544353303232,46.0410702849966],[15.1548445002859,46.0410195248996],[15.155132501709,46.0408848004839],[15.1556119519191,46.0405567267564],[15.1558985707795,46.0403913205288],[15.1562063388139,46.0399832198917],[15.1564931397391,46.0395636302002],[15.1567932406529,46.0393256827196],[15.1574170167317,46.0392832564729],[15.1578963807324,46.039161307826],[15.1584710657932,46.0387596701133],[15.1590396006995,46.039324468529],[15.1593149991614,46.0400707943645],[15.1598454032781,46.0403085797051],[15.160280788242,46.0403464796282],[15.1609436302989,46.0403173857495],[15.1615232099005,46.0402244329177],[15.1621521968605,46.0400619457284],[15.1628658207831,46.0398606448962],[15.1637466189455,46.0396581104852],[15.1640682790906,46.0396430731191],[15.1645994752494,46.0397070019862],[15.1652300066604,46.0398075849368],[15.1657132220252,46.0398112941764],[15.1664859752717,46.0397729211842],[15.1668914267704,46.039695490518],[15.1672347945059,46.0395957452875],[15.167952568024,46.0394501916201],[15.1685289699588,46.0391687985195],[15.1692638686322,46.0390917729411],[15.1696444194295,46.0389018095976],[15.1700184926461,46.0387069059449],[15.1705983105275,46.0385758469278],[15.171124922027,46.0383691949517],[15.1714903116953,46.0379594371257],[15.1718774989691,46.037831449716],[15.1724224464052,46.0376670528125],[15.1728699149624,46.0375236751829],[15.1731868337605,46.0376498814209],[15.1744542480787,46.0376566815915],[15.1747848911482,46.0375450562482],[15.1753256254941,46.037441025741],[15.1759777158421,46.0373349317821],[15.1764580389022,46.0371671060448],[15.1769652999903,46.0371018090704],[15.1778247798574,46.0372104256016],[15.1783123699086,46.0372956828794],[15.1786354140807,46.0373147032032],[15.1790098821595,46.0372551831291],[15.1798368453482,46.0369360901681],[15.1801879291216,46.0368775927561],[15.1805137372328,46.0368731197118],[15.1809660766649,46.0369242305103],[15.1815025267655,46.0370165049053],[15.1821637018628,46.0370067253761],[15.1826352205178,46.0369964354537],[15.1832688775193,46.0367913558773],[15.1837576800823,46.0365784079322],[15.1841472975807,46.0363378151864],[15.1846609827542,46.0358790091411],[15.1858701972936,46.0358011993961],[15.1870081781384,46.0357477869216],[15.1874125411661,46.035824143955],[15.18773292717,46.0357846585988],[15.1880661760471,46.0357287755671],[15.1890400194594,46.0357325675637],[15.1894145178364,46.0356883092334],[15.1899221073139,46.0356141365521],[15.1906151601216,46.0354500364657],[15.1909469792338,46.0353555477542],[15.1913768485108,46.0353351240612],[15.1918984833491,46.0352521914163],[15.1923285102004,46.0351285615186],[15.1926768798386,46.0350024583848],[15.1930520470969,46.0348186343692],[15.193393048816,46.0347664117121],[15.1938904309912,46.034769617947],[15.1942788801342,46.0346910391804],[15.1949901219856,46.0345631419096],[15.1954591872799,46.0345231112092],[15.1959586510188,46.0344579231891],[15.196515375623,46.0344383423119],[15.1970996378412,46.0344610898939],[15.1977942421951,46.0344159816999],[15.1982372027676,46.034338194885],[15.1985244277501,46.034061830181],[15.1989210326512,46.0338111874927],[15.1990181468335,46.0330822133884],[15.1993016863573,46.0328975385698],[15.1989931915263,46.0326438940579],[15.1986578545658,46.0324692942421],[15.1983514296896,46.0323233455935],[15.1976544654842,46.0324962271191],[15.1976749319761,46.0321495143931],[15.1980404300609,46.0317279741531],[15.1985500495876,46.0312600247675],[15.1989028537445,46.0305802727066],[15.1989913346141,46.030038733215],[15.1991406553838,46.029461277169],[15.1993074112177,46.0291712637903],[15.1997214677744,46.0290066947051],[15.2000318410203,46.0287831014128],[15.2002904458012,46.0285326951736],[15.2004434192653,46.0282916511921],[15.2006028955092,46.0280631922246],[15.2010414953743,46.0279021742846],[15.2012721138505,46.0277373822063],[15.2017325450858,46.0275780327018],[15.2021855548294,46.0275095702531],[15.2026379522631,46.0272738416573],[15.2029503029633,46.0271376035905],[15.2034390685686,46.0269231315433],[15.2038230662988,46.0267415055833],[15.2041327750672,46.0266611441037],[15.2044346992089,46.0265366174718],[15.2047738538308,46.0263506596796],[15.2052428892413,46.0261138111992],[15.2055662813001,46.0258235971014],[15.2052966264334,46.0255914037036],[15.2053511975935,46.0253293853618],[15.205263395754,46.025058445205],[15.2055055291635,46.0248008584923],[15.2053630109017,46.024577974004],[15.2053077970187,46.0244916961694],[15.2048667990522,46.0239928503362],[15.2047730185306,46.0237455841667],[15.2050233856106,46.0233403328984],[15.2050257445267,46.0232097733559],[15.205029601677,46.0229953534004],[15.2048521717863,46.0227952048053],[15.204830630074,46.0226278878639],[15.2048013807341,46.0224019203038],[15.2047307256487,46.0221555123512],[15.2046516701414,46.0217324962707],[15.2046765013309,46.0214614437336],[15.2046190012281,46.0212094335927],[15.204426416743,46.0208553622468],[15.2044793271427,46.0205633850208],[15.2043184881245,46.0203065208613],[15.2042785719754,46.0199887964772],[15.2043226672431,46.0196879273957],[15.2045115950253,46.0194718266786],[15.2044450282463,46.0192470053851],[15.2044127455716,46.0189329563565],[15.2043610770262,46.0186151629671],[15.2040722041138,46.018519314649],[15.2039291904836,46.0184718825457],[15.2038830123307,46.0182063552751],[15.2037763614121,46.0179672988289],[15.203789521907,46.0177177714204],[15.2038419255563,46.0175689473411],[15.2038958628044,46.017415801641],[15.2039066383258,46.0171851734492],[15.2039232084304,46.0170202175287],[15.2039463846206,46.0167903769766],[15.2037945023907,46.0165423135956],[15.2036797108343,46.0164065641851],[15.2035205590623,46.0162180776259],[15.2034577521092,46.0159598677615],[15.2031893846317,46.0157462917807],[15.202743030406,46.0154890326638],[15.2026732758661,46.015448847036],[15.2025313700698,46.0152778738475],[15.2024735183534,46.0152081548032],[15.2021553177168,46.0150676353548],[15.2017880918718,46.0149399782083],[15.2014306791813,46.0146691504072],[15.2009450992995,46.0147372174179],[15.2008319381536,46.0146208071281],[15.2006420413539,46.0144255323302],[15.2004724920957,46.0139640718121],[15.2003213389615,46.0136611169077],[15.2001361717638,46.0134509868664],[15.2002523392263,46.0129702202288],[15.200274859778,46.012876965367],[15.2005118718947,46.0123539676788],[15.2005657903183,46.0119801116561],[15.2010517602374,46.0116698294064],[15.20164876595,46.011178316942],[15.2017535102109,46.0107925837011],[15.2019074896649,46.0105237325524],[15.2019382420239,46.0101032189841],[15.2019757657924,46.0099822245288],[15.2020503018978,46.0097417660747],[15.2016969548143,46.0094437588296],[15.2015605934692,46.0092299457474],[15.2012706331465,46.0090686793323],[15.2011493854946,46.0089982613812],[15.2008784240903,46.0088410994361],[15.2007202288894,46.0086228248863],[15.2000400304125,46.0083113497126],[15.1996578012718,46.0081630172785],[15.1995034105327,46.0081031826952],[15.199262804878,46.0080545653378],[15.1987345592024,46.0079477834304],[15.1985992089038,46.007867939767],[15.1983410611413,46.0077156982085],[15.1981519876063,46.0075249164287],[15.1980836395702,46.0072600545783],[15.1978586140188,46.0070891293995],[15.1975446736624,46.006750641573],[15.1976701266265,46.0063730638298],[15.197495917668,46.00607590315],[15.1983451182663,46.0059606124573],[15.198696089518,46.0059308504822],[15.1989325932617,46.0055942873576],[15.1988953528076,46.0053630229171],[15.1985766421412,46.0050255358647],[15.1983212506336,46.0047014345051],[15.1982235697313,46.0044654159479],[15.1983937742446,46.0041122332116],[15.1989647215142,46.0038592168016],[15.1991209610215,46.0037900227791],[15.199158613656,46.0037763707364],[15.1993787257256,46.0036963578481],[15.1999824515103,46.0034770202994],[15.2001914415456,46.0033926164581],[15.2003354523943,46.0033345092866],[15.2004348811318,46.003194511619],[15.2005671269246,46.0025248550924],[15.2010493317835,46.0023385664481],[15.201797339798,46.0020009162835],[15.2023290360258,46.0016868582681],[15.202927513913,46.0014538379529],[15.2033927062905,46.0011747139027],[15.2035585737671,46.0010236180814],[15.2037419280038,46.0009235074882],[15.2041076723095,46.0009531769583],[15.2043395744346,46.0008893291782],[15.2046175785806,46.0005832717719],[15.2046446321638,46.0006372991804],[15.2049677262685,46.0004105193954],[15.2052620510463,46.0002600903963],[15.2053326271635,45.9998987981125],[15.2050768084421,45.9996380557556],[15.2058984824603,45.9988152731708],[15.2063647579301,45.9986638115679],[15.2064438147967,45.9985025209108],[15.206172442883,45.9983640870825],[15.2058216169534,45.9983146025158],[15.2056778554348,45.998225874577],[15.2057245840576,45.9978757819211],[15.20600270453,45.9976419719],[15.2065043873476,45.9975023227668],[15.2067032210505,45.9973687081298],[15.2064790002405,45.9970633732729],[15.2066130909546,45.9966353826083],[15.2066638479424,45.9958781384213],[15.2070342199672,45.9954609667365],[15.2070308401117,45.9952123676937],[15.2074924879322,45.9950060240839],[15.2081249949188,45.9947841615501],[15.2083278822897,45.9945991600313],[15.2082792008335,45.9943547824766],[15.2089803720996,45.9943037454778],[15.2092070749124,45.9938624455998],[15.2092862252928,45.9935587197699],[15.2090798635106,45.9932991551794],[15.2092133392159,45.9930925046707],[15.2092746751214,45.9926520470209],[15.2093351095076,45.9922124007445],[15.2094562201918,45.9918086338528],[15.2094687417843,45.9913980477049],[15.2096513381593,45.9911426292342],[15.2096011775246,45.9905755087151],[15.2097577568806,45.9902679513122],[15.2099259508859,45.9900283946688],[15.2102460563332,45.9898865429506],[15.2106633575878,45.9895060731572],[15.2107989439016,45.9891112756289],[15.2106194082012,45.9888091951608],[15.2107266248796,45.9884561091348],[15.2110896829403,45.9879355540674],[15.2114677433831,45.9875601023918],[15.2116761235732,45.9873021134537],[15.2119919978448,45.9872067825471],[15.212284364263,45.9870737942102],[15.2124875293958,45.9868374078574],[15.2128974483928,45.9864267112604],[15.2132213540734,45.9863407195536],[15.2136345280785,45.9862416934296],[15.2139679017152,45.9861680986873],[15.2139402766711,45.9857987061402],[15.2142469530475,45.9855974836292],[15.2142919462654,45.9853829848183],[15.2142912071439,45.985191425821],[15.2146304333157,45.9849307566006],[15.2148194554382,45.9847798704394],[15.2151045845279,45.9843828967736],[15.2141713764947,45.9842407766387],[15.2100393412269,45.983456290287],[15.2083732894143,45.9827221607253],[15.2071967893606,45.9820827655771],[15.2059412445977,45.9812115406365],[15.2045481030609,45.9801494374606],[15.2039790540066,45.979686354302],[15.2034097358072,45.9791824192903],[15.2024689951086,45.9787472524492],[15.2019880771153,45.978661995637],[15.2001046068329,45.9779767164782],[15.1987004574339,45.9778241363533],[15.1981831036293,45.9781572290386],[15.1976032080603,45.9783248702025],[15.1969204193427,45.9783379256587],[15.1952614076885,45.9775309809099],[15.1939809274958,45.9769750352798],[15.1935618568322,45.9768164868358],[15.1929911284141,45.9767996366223],[15.1925218657648,45.9767915203836],[15.1923913495695,45.9773377195199],[15.1918729742304,45.9784309094331],[15.1909188033348,45.9795028712899],[15.189744011829,45.9807583841631],[15.1882482915804,45.9819695153552],[15.1870639241457,45.9830593687475],[15.1863783639882,45.9837646466181],[15.1859706542023,45.9841554497989],[15.1855021651875,45.9845518387452],[15.1820825379853,45.9845015525161],[15.181687084275,45.9844280410681],[15.1803944239774,45.9845798999645],[15.1792011260036,45.9844070425226],[15.1784289650465,45.9847085928811],[15.1776710188159,45.9845338692541],[15.1771861979706,45.9843213771468],[15.1753063280491,45.9838001618451],[15.1740782981495,45.9842305979994],[15.1730901772357,45.9849463338358],[15.1728355460399,45.9854110888896],[15.1729172009761,45.9865564584436],[15.1729081428567,45.9867564002999],[15.1729938691842,45.9868871866154],[15.1730633744519,45.9872800094567],[15.1730470785398,45.9875182023358],[15.1721078791305,45.9875075636834],[15.1714928114439,45.9873774822643],[15.1698536866775,45.9874274377539],[15.1681281006509,45.9871440434771],[15.1670832271475,45.9875302260097],[15.1668958492226,45.9878449681815],[15.1667702541,45.9893915799292],[15.1667119532498,45.9897502218141],[15.1663501198971,45.9901329697006],[15.1663142629678,45.9911767504662],[15.1658747482713,45.9914435399687],[15.1650147116926,45.9918133290641],[15.1645446621785,45.9917117933781],[15.1641527600564,45.9915828806346],[15.1638900674433,45.9917574523089],[15.1632841316501,45.9923278713664],[15.1616164446085,45.994148578136],[15.1607650124813,45.9941704735879],[15.1594050504554,45.9943158910872],[15.158690691684,45.9943307416009],[15.1563343358418,45.9950575804366],[15.1540644920216,45.9953476879173],[15.1531649999867,45.9957384952614],[15.1514022947183,45.9963454861479],[15.1504147950163,45.9974777946674],[15.1499686170336,45.9973318992771],[15.1485386194563,45.9972519781219],[15.1473735392871,45.9976099732701],[15.1467259708444,45.9979034099971],[15.1453202514681,45.9978793827828],[15.1442682131321,45.9978827850813],[15.1437107632243,45.9981359614052],[15.1438369950677,45.9986725122876],[15.1431887575367,45.9988687551719],[15.1423361125132,45.9992542896752],[15.1418413034311,45.9989702193057],[15.1411185307555,45.9990525427352],[15.1406682985521,45.9993909593893],[15.1401572733018,45.9991241771753],[15.1397039186088,45.9988913332889],[15.1385711097533,45.9991805471001],[15.1375782521651,45.9994750698479],[15.1370786910674,45.9998193801734],[15.136796237963,46.0008271848516],[15.136365372623,46.0018655778579],[15.1357620512239,46.0029264881834],[15.1350030286233,46.0038957132582],[15.1344884744875,46.0053222655275],[15.1343197493909,46.0065096119896],[15.1340598815157,46.0078681098957],[15.1337198323903,46.008752525585],[15.1328712323278,46.0095160644791],[15.1317111935571,46.0101360842158],[15.1303046211383,46.0108127885771],[15.1285619362188,46.0113460720421],[15.1267705182133,46.0117592646375],[15.1247820653362,46.0121378236009],[15.1229167022605,46.0125393395254],[15.1215258373328,46.0133301884777],[15.1202555254898,46.0143486234318],[15.1191348069556,46.0146287234134],[15.1179308588697,46.0148238707797],[15.1160620199565,46.0149888207388],[15.1145250840986,46.0154764226129],[15.1131697514739,46.0160540702226],[15.1123915124527,46.0168732615666],[15.1115876140794,46.0175958381423],[15.1105017944333,46.0180750264498],[15.1090679560708,46.0189777848508],[15.1072013798801,46.02006547287],[15.105447975076,46.0210042053442],[15.1041198768273,46.0218323033781],[15.1022434478258,46.0227945821586],[15.1008162290554,46.023571893684],[15.0993019188926,46.0246402455536],[15.0983310902111,46.0258591806384],[15.0961430334747,46.027586512358],[15.0947317133432,46.0283408799595],[15.0921597954411,46.0291369308806],[15.0916828038762,46.0297131607745],[15.0913995228753,46.0302622410855],[15.0902573206588,46.0308839829173],[15.0899869376503,46.0314331394029],[15.0898969330609,46.0316131621238],[15.0895547084945,46.0316764139453],[15.0886649211868,46.0326488477831],[15.0878062446018,46.0328924456845],[15.0883852116575,46.0335215609423],[15.0881159473624,46.0340627940008],[15.0876780345369,46.0346513032416],[15.0874424938845,46.0351219676333],[15.0869712159735,46.0359456065474],[15.0864331462776,46.0371928103014],[15.08464902079,46.0405111045672],[15.0894948435226,46.0408459919077]]]},"properties":{"fill-opacity":0,"stroke-opacity":1,"stroke":"#ff0000","lov":"0108","lov_naziv":"ŠENTJANŽ","luo":"01","luo_naziv":"Novomeško","povrsina":3933.11},"id":"pregledovalniklovisca.1"}]}