{"type":"FeatureCollection","features":[{"type":"Feature","geometry":{"type":"GeometryCollection","geometries":[{"type":"Polygon","coordinates":[[[15.4011094954284,45.8014837445168],[15.4011933801231,45.8013233762289],[15.4012319587285,45.8012495405131],[15.4011094954284,45.8014837445168]]]},{"type":"Polygon","coordinates":[[[15.3011046266069,45.8702639472463],[15.301299492759,45.8704295108691],[15.301951675115,45.8709817202569],[15.3029685226608,45.8711792309758],[15.3040158653538,45.8708969760431],[15.3053571080228,45.8703512791823],[15.306648716183,45.8697085229082],[15.3083412939851,45.8689791010987],[15.3099274381245,45.8682728873753],[15.3112850761348,45.8677555994023],[15.312528154933,45.8672785591151],[15.3136824679686,45.8670986782966],[15.3148297239492,45.8671530195064],[15.3159289157703,45.8674531236144],[15.3171103930706,45.8678386484137],[15.3184316726255,45.8683208583478],[15.3195641127086,45.8687064943635],[15.3209016932896,45.8691715341568],[15.3219775137275,45.8696944324939],[15.3231596093384,45.870171221082],[15.3245290657453,45.8704362858384],[15.3259373057912,45.870238553943],[15.3270588582939,45.8700700588084],[15.3281083533525,45.8702216332903],[15.3292241690196,45.8705443261989],[15.3301452594982,45.8712616768894],[15.3307144910203,45.8720484226095],[15.3307010384605,45.8726253137301],[15.3303526828621,45.8734429661498],[15.3302665125763,45.8742485226285],[15.3307847874091,45.8746699223352],[15.3318169920254,45.8751250100527],[15.3334814509974,45.8753430413396],[15.3349258867787,45.8757729628795],[15.3359698873475,45.8763808518037],[15.3365462180943,45.8768701682002],[15.3368535026245,45.8775601171568],[15.336989836608,45.8784617488031],[15.3374762543603,45.878968511332],[15.338067453138,45.8791837917154],[15.3392205583486,45.8788208207772],[15.3400609166046,45.878213308208],[15.3410958103426,45.8772740882638],[15.3419746379115,45.8762668523525],[15.3429110369687,45.8753050558282],[15.3436497718535,45.874881827358],[15.3447444022636,45.8742278058749],[15.3459628527649,45.8737904271273],[15.3474530100205,45.8735693276116],[15.3485412744424,45.8733093947644],[15.3492358995237,45.8729704844291],[15.3495368184715,45.8725412666835],[15.3493129131592,45.8720221455109],[15.3481626882576,45.8714312577667],[15.3472659791692,45.8707368327493],[15.3462723188906,45.8702940045155],[15.3453111300381,45.8697882644625],[15.344611303113,45.8691161678277],[15.3445919785799,45.868573565394],[15.3451707111011,45.8679951460329],[15.3465041002298,45.867608881512],[15.3478959885914,45.8674566375771],[15.3492402926466,45.8675843555256],[15.3504464933686,45.8679522741983],[15.3516132956121,45.8686059833166],[15.3525516846314,45.8694316145875],[15.3531536233441,45.8701495842619],[15.354511353836,45.8712424883801],[15.3563685481582,45.8722768632034],[15.3578877128768,45.8728952165141],[15.3599135397018,45.873295016717],[15.3610866053105,45.8735487443921],[15.3620636541014,45.8739058366947],[15.3627158277305,45.8747950052799],[15.3633852239092,45.8753587531202],[15.3641450179858,45.8763098361281],[15.3647788235542,45.8767646351994],[15.3653697667535,45.8769283975498],[15.3660247077946,45.8768521593197],[15.3668906081054,45.8764555467773],[15.3680643354991,45.8758970550672],[15.3686109633985,45.8750668613473],[15.3694631754329,45.8740500516519],[15.3703336546288,45.8727045747086],[15.371551738384,45.8713580510682],[15.373491980114,45.8707817118069],[15.3756341290062,45.8703171491768],[15.3774289265317,45.8704529513159],[15.3786045320874,45.8710778323262],[15.3797140919866,45.871873969843],[15.3808387991596,45.8735629926883],[15.3813353699247,45.8743345218246],[15.3815650900467,45.874736048784],[15.3821245818714,45.8748928112439],[15.3827163850019,45.8747081743785],[15.3829235688697,45.874415050213],[15.3826920378539,45.8737696903066],[15.3826328223912,45.8728556170354],[15.3833371860857,45.8713785982996],[15.3844605843697,45.8699490241105],[15.3843450136552,45.8684866313103],[15.3837139222816,45.8657214603698],[15.3836915366656,45.8650511047797],[15.3846101480985,45.8642560245825],[15.3861950212299,45.8639342242455],[15.3882707463841,45.8639156727635],[15.3893387966537,45.8644487613042],[15.39115694381,45.8649794545514],[15.3925366339522,45.8652067782557],[15.3946124029491,45.8651880214555],[15.3969842590285,45.8651318473147],[15.3984822835024,45.8648467096115],[15.3988281299907,45.8644556255704],[15.3986316197762,45.863846705907],[15.3971580304334,45.8627665144466],[15.3957699546072,45.8614422553667],[15.3955144412742,45.8604428468295],[15.3956088576033,45.8596283025865],[15.395722691142,45.8592821201834],[15.3960046705014,45.8588216219253],[15.3962375244176,45.8583169337722],[15.3964493165634,45.8579659119012],[15.3961430811513,45.8577841371483],[15.3960015002722,45.8575042540965],[15.3961221501243,45.8573209990777],[15.3960691340822,45.8572358829878],[15.3958419329717,45.8571756646769],[15.3955287189993,45.8572619591598],[15.3954432237267,45.8574816232753],[15.3953210181423,45.8574820461242],[15.3952152025383,45.8573238695853],[15.3950056876907,45.8572879726838],[15.3946388116217,45.85721599762],[15.3940614752991,45.8569739676707],[15.3937623754729,45.8566336193115],[15.3933769608432,45.8564153985889],[15.3930268326724,45.8562336765565],[15.3928330332525,45.8559782633726],[15.3926762347604,45.8560031865624],[15.3921183172422,45.8560293067575],[15.3916995144522,45.8560061789412],[15.3910181976448,45.8558620269571],[15.3905996966554,45.8558633683049],[15.390269310319,45.8559984755874],[15.3899208983984,45.8560604906771],[15.3897281796957,45.8559392268952],[15.3894477298006,45.8557571662338],[15.3890792557024,45.8554535733588],[15.3884855531095,45.855370113521],[15.388031735203,45.855310559911],[15.3879083475124,45.8551402890836],[15.3876807397516,45.8550190502857],[15.3874720850468,45.8551050579038],[15.3872269660107,45.8549838775795],[15.3869485187091,45.8550701207326],[15.3866689717725,45.8549978242962],[15.3865462245114,45.8549007025825],[15.3863535565931,45.8548037271895],[15.3861091609898,45.8547679318937],[15.3859353160139,45.8548415819656],[15.3854131448466,45.8549894699552],[15.3852555038739,45.8548924645432],[15.3849594176722,45.85494214095],[15.3848367123019,45.8548693115328],[15.3841732749514,45.8547738270025],[15.3838595083141,45.854799175748],[15.3833715577229,45.8548494024333],[15.3829001537092,45.8547777403022],[15.3826379969391,45.8547053757273],[15.382462598282,45.85457180455],[15.3823371266996,45.8544517428336],[15.3821954772162,45.8542820667904],[15.3820360090591,45.8542368008497],[15.3817735341149,45.8542114942635],[15.381726165495,45.8541200540922],[15.3816321498884,45.8540614320086],[15.3815016541587,45.8541666030956],[15.3812675583514,45.8541673844267],[15.3810798415581,45.8540960275703],[15.3810322556934,45.8539914509285],[15.3805066745438,45.8538100054546],[15.3801868567206,45.8536081677728],[15.3800363463398,45.8534974546346],[15.3799885350705,45.8533405106261],[15.3798099601387,45.8532495058907],[15.379368600365,45.8530676852089],[15.3791427080041,45.852891716545],[15.3790855893799,45.852747939933],[15.3790374754191,45.8525649026505],[15.3788215190317,45.8524674518967],[15.3787560678952,45.8524807157939],[15.3786337708461,45.8524091380369],[15.3784932876932,45.8523899880685],[15.3783529864269,45.8524166365502],[15.3782596469215,45.8524757917263],[15.3780531404617,45.8524044920764],[15.3779309732386,45.8523329131368],[15.3776032800836,45.8523537018555],[15.3774149538831,45.8521906525403],[15.3772467596929,45.8522435756298],[15.3771336432791,45.8521392136591],[15.377189027434,45.8520082016251],[15.3772350556236,45.8518836989253],[15.3771776771677,45.8517006014394],[15.3771668141976,45.8514650726832],[15.3770909033185,45.8513213570664],[15.3768000174852,45.8512241497216],[15.3766493028255,45.8511002958395],[15.376592148152,45.8509499496],[15.3763864882282,45.8510029949059],[15.3762547060225,45.8508986935254],[15.3761973318138,45.8507155955024],[15.3761871792716,45.8505847996673],[15.3758779409295,45.850553065013],[15.3756529986076,45.8505341893426],[15.375624488584,45.8504687784557],[15.3757924147938,45.8503766278345],[15.3761102132357,45.8502839837572],[15.3763068211745,45.8502637210588],[15.3763814923229,45.8502241543613],[15.3762964505146,45.8501196990479],[15.3762280861208,45.8496814571282],[15.3760019973241,45.84947282047],[15.3755329637624,45.8493434436265],[15.3753919641589,45.8492653553679],[15.3753538805284,45.8491738819748],[15.3754314883227,45.8490350595365],[15.3760616543622,45.84892501268],[15.3761111545524,45.8486279194309],[15.3763388441966,45.8480243111636],[15.3766460866158,45.847762360027],[15.3769673559727,45.8476713216999],[15.3768752253095,45.847374695209],[15.3769323613787,45.8472939756228],[15.3770410197203,45.8471402030925],[15.3771296850223,45.8469239610953],[15.3773342840558,45.8467163341313],[15.3774865841772,45.8464099027614],[15.3778581859101,45.8461477356553],[15.3779074304561,45.845814650753],[15.3780724844966,45.8454721847956],[15.3781596190409,45.8450309996364],[15.3782216138816,45.8446799665241],[15.3782964816382,45.8443288007604],[15.3783458440186,45.8440137109649],[15.3783041110539,45.8435549564087],[15.3783661027953,45.8432038331582],[15.3784028271305,45.8429427725115],[15.3784394968522,45.8426547183266],[15.3786301029484,45.8422851730456],[15.3788477975417,45.8421134914022],[15.3791423054149,45.8418785691944],[15.3794239983019,45.841652686671],[15.3798856746474,45.8413902136132],[15.3802188562987,45.8411641579195],[15.3804799713334,45.8409801814746],[15.3807440944956,45.8407844971316],[15.3809729921122,45.8403698307093],[15.3809840231645,45.8400998568597],[15.3809175076227,45.8397851520185],[15.3807865656275,45.8394616639357],[15.380616447714,45.8390753208574],[15.3815290831734,45.8388743233375],[15.3820071092595,45.83912466754],[15.3823129822045,45.8386737493238],[15.3821293113319,45.8381704810163],[15.381841861735,45.8375505864319],[15.3814180603073,45.837170580599],[15.381117128912,45.8369686819052],[15.3809003810261,45.8367468863797],[15.3807116968904,45.8365249969344],[15.3809056652581,45.8361252032784],[15.3811284510754,45.8358364373289],[15.3813236653206,45.8356198362014],[15.3815843528047,45.8353964476302],[15.3816020281905,45.8352328065965],[15.381787841221,45.8350161460695],[15.3821793826509,45.8347661349036],[15.3822725597703,45.8347069768793],[15.3823744603715,45.8345495323955],[15.3826071227639,45.8343328037024],[15.3828151435345,45.8342020871446],[15.3828489102409,45.8340767230777],[15.3829316057235,45.833840880629],[15.3830605307249,45.8335328098577],[15.383113290199,45.8333803882853],[15.3828366670632,45.8329857671525],[15.3827212434204,45.8327471692188],[15.3825982075786,45.8325246129353],[15.3827789229292,45.8322797143076],[15.3828230321832,45.8320672157394],[15.3826615370383,45.8317545392484],[15.382370124398,45.8313413407168],[15.3822006032405,45.8309648951622],[15.3817649334656,45.830536341129],[15.3812092339617,45.8303417718656],[15.3803867386167,45.829999352782],[15.3798184622576,45.8298465689488],[15.3794308824385,45.8294827210718],[15.3792331525787,45.8293457993058],[15.3786261555182,45.8294794518279],[15.3783095253774,45.8294984964156],[15.3779330856278,45.8295236765907],[15.3774030592189,45.8296391621421],[15.3773828058844,45.8292515086953],[15.3772522133613,45.8289730044197],[15.3770828885679,45.8286766319676],[15.3769776757039,45.8283440560668],[15.3768474516579,45.8281195375975],[15.3767043581588,45.8278950613997],[15.3766253146748,45.8276253843065],[15.3765846330527,45.8273375848763],[15.3765058335963,45.8271038985618],[15.3762972408287,45.826708677076],[15.376025693709,45.8265206146251],[15.3758202300007,45.8262261586844],[15.3757772248727,45.8259365669544],[15.3756074330971,45.8255682102952],[15.3753220564669,45.8252362247844],[15.3749871371425,45.8251923347759],[15.3746142122346,45.8252385476519],[15.3746507014084,45.8249414964574],[15.3746362623482,45.8247075977124],[15.3751346782784,45.8241840826975],[15.3755815462542,45.8236517369794],[15.3758858049355,45.8233290605348],[15.3760016971755,45.8229754205348],[15.3761788384188,45.8225249409982],[15.3759707422202,45.8222196962747],[15.3764830236119,45.8218490943524],[15.3770214613841,45.8215413893277],[15.3773797276524,45.8212342769478],[15.377866009426,45.8208277628935],[15.3781726694364,45.8205028227703],[15.3783385621588,45.8202953211287],[15.379110259733,45.8202297777998],[15.3797654641067,45.8200656392216],[15.3800982746905,45.8198035925087],[15.3803268409221,45.8193709310758],[15.3801042799281,45.8188137996517],[15.3799995570792,45.8185531178422],[15.3784438284221,45.8187563256649],[15.3781727393184,45.8186312520977],[15.3785923945909,45.8178919415989],[15.3785263465325,45.817640218166],[15.3787546722062,45.8171715687575],[15.378521035813,45.81687541099],[15.3786087943968,45.8165331985407],[15.3791208231308,45.8161355914274],[15.3794159268524,45.8160086407313],[15.3797344407273,45.8155396897167],[15.3799895294968,45.815205917846],[15.3799861025175,45.8147020444834],[15.3799049758011,45.814144441783],[15.3798513654445,45.8138296919895],[15.3802474336683,45.8134144691835],[15.380760403318,45.813160818489],[15.3820208257512,45.8130756298664],[15.3830245198235,45.8130812676739],[15.3840282758836,45.8130958944015],[15.3854437791672,45.8131091240911],[15.3862416006191,45.8131154279308],[15.3877471119062,45.8131193268491],[15.3891369448544,45.8131415958403],[15.3895873556366,45.8131490589522],[15.3895690306291,45.8123663001419],[15.3897081191497,45.8120149059192],[15.3900909203136,45.8115547043547],[15.3902173852672,45.8112573402473],[15.3907673792417,45.8107875672982],[15.3908551793139,45.8104633408205],[15.3914073659888,45.8103084854731],[15.3920108889251,45.8101354554382],[15.3927309641039,45.8100699970672],[15.3929477310292,45.8097903153437],[15.3935501029261,45.8094553180005],[15.3939099768518,45.8094000902135],[15.394398067581,45.8092814331359],[15.3945755258782,45.8089029064872],[15.3947148286141,45.8085874970203],[15.3951625295993,45.8082350294008],[15.3955073629851,45.8078739181662],[15.3955821378949,45.8075317370617],[15.3959024439418,45.8073416706417],[15.3962480964191,45.8070975276909],[15.3971095218165,45.8070135554938],[15.3976622331528,45.8069396495895],[15.3982271674854,45.8067757188563],[15.3985990501317,45.8066033710126],[15.3990872348889,45.8065026894233],[15.3994741665545,45.8066363966224],[15.3998976996872,45.8064908578251],[15.4003057878001,45.805985543283],[15.4005229523909,45.8057688312858],[15.4007531741797,45.8055790669443],[15.4011234923142,45.8052088512378],[15.4012744513187,45.8047314293835],[15.4013480884128,45.8042362829948],[15.4013536400379,45.8041673391231],[15.4013650749219,45.8040218919252],[15.4013716861374,45.8039392674287],[15.4012407112625,45.8036158008669],[15.4010061739566,45.8032027180326],[15.4007979501883,45.8028705240455],[15.4007057044395,45.8025829128009],[15.4006779756581,45.802304073206],[15.4007662212954,45.8020518207607],[15.4008555586497,45.8018980921047],[15.4009441301023,45.8017452658585],[15.4011094954284,45.8014837445168],[15.4012560703035,45.8012033931877],[15.4012319587285,45.8012495405131],[15.4012744716547,45.8011682365036],[15.4013877306288,45.8008169180652],[15.4014370551485,45.8005198119284],[15.4015502478081,45.8001774914877],[15.4015470807165,45.7997366022664],[15.4014923935508,45.7992868960891],[15.4015411991705,45.7989178079074],[15.4016811492209,45.7987013647623],[15.4020140535971,45.7984842427065],[15.4023334441737,45.7981771875666],[15.4026920700394,45.7979599729405],[15.4029482389295,45.7978061043393],[15.403296203498,45.797894856376],[15.40372102572,45.7979383459641],[15.4037347110784,45.7979095940849],[15.4037710829457,45.7978337926347],[15.4038725929723,45.7976220715599],[15.403911118754,45.7975417634626],[15.4039982384395,45.7971545427262],[15.4040992593948,45.7968932443324],[15.4041820578582,45.7967804768294],[15.4042648559888,45.7966677092653],[15.4045204286838,45.7964328574645],[15.4048149144821,45.7962428570835],[15.404363076424,45.7960195077139],[15.4041415414553,45.795624380699],[15.4041132789362,45.7952735596939],[15.4041573561318,45.7951429331714],[15.4042014331235,45.7950123066296],[15.4045078655912,45.7947142890334],[15.4046734541392,45.7944887533152],[15.404807587778,45.7943426909358],[15.4048784477149,45.7941273882519],[15.4048439050658,45.7940111668227],[15.4048338864357,45.7939776398704],[15.4048363050325,45.7938853120679],[15.4047183920381,45.793588796573],[15.4046375327544,45.7932933194624],[15.4045598739471,45.7930133974483],[15.4046995371612,45.7927609594824],[15.4047602835825,45.7926413411395],[15.4044252484222,45.7927176606177],[15.4040189420798,45.7926322675475],[15.4037579241102,45.7925740734903],[15.4036637543143,45.7925541607689],[15.4034275942043,45.7925539150926],[15.4032119245229,45.7926660713455],[15.4031747463219,45.7926832087166],[15.4028767666037,45.7926721125088],[15.4025950207732,45.7926647374752],[15.4023615204883,45.7926588114973],[15.4022916397178,45.7926537487528],[15.4021361291058,45.7924747865182],[15.4020813118229,45.7924001162563],[15.4019225689565,45.7923618035007],[15.4016964240859,45.7923052816511],[15.4014890714905,45.7922504929175],[15.4013867455581,45.7922230486757],[15.4012552558709,45.7922182916894],[15.4009975507287,45.7922088487325],[15.4007371181579,45.792195725589],[15.4005169561364,45.7921840803331],[15.400337167477,45.7921703136461],[15.400143732051,45.7921547948733],[15.4000067471451,45.7921370086256],[15.3996201282709,45.7920871629767],[15.3995541109772,45.7920826249238],[15.3994503373146,45.7920684110385],[15.3993464030483,45.7920317026734],[15.3991598855275,45.7919581210922],[15.3989430993615,45.7918786162487],[15.3987260392431,45.7917966824945],[15.3985236945447,45.7917219853652],[15.3983440757457,45.7916234539836],[15.3980216829943,45.7913981883286],[15.3976736667043,45.7911325200295],[15.3975266706177,45.7911172850833],[15.3974774547933,45.7910515011081],[15.3976507718286,45.7906984471538],[15.3977793922786,45.7904088943178],[15.3972572152155,45.7901953893286],[15.3967419970478,45.7899832074796],[15.3966721357514,45.7899622148008],[15.3964081783266,45.7896498211361],[15.3963585133634,45.7896110321682],[15.3954315385607,45.7890636574659],[15.3952665735248,45.7890528908056],[15.3950036680983,45.7890333745752],[15.3945206080788,45.7889465933622],[15.3940409384585,45.788847921075],[15.3937924709311,45.7887963194429],[15.3937056895697,45.788764855619],[15.3925243552539,45.7883646406569],[15.3923686111641,45.7883295435757],[15.392138313528,45.788282374937],[15.3915738683707,45.7875552939838],[15.3903835362348,45.7870762652855],[15.3901014214356,45.7863479419926],[15.3898629549003,45.7858839198657],[15.3893637659992,45.78550743661],[15.3886733637513,45.7853192098357],[15.3881087130566,45.7849223383284],[15.3870345435965,45.7843794440647],[15.3864015615678,45.7840294050954],[15.3859444601522,45.7835028579029],[15.3859279786034,45.7834813183931],[15.3855383032347,45.7830521699826],[15.3853219013869,45.7822178862105],[15.3852018691072,45.7812588347802],[15.3847251010398,45.7809904112849],[15.3841120932361,45.7806199567031],[15.3836864247197,45.7803004283857],[15.3829602089846,45.7799968428865],[15.3824545480524,45.7795244321072],[15.3819533037208,45.7791514321731],[15.3812925919894,45.7789646809906],[15.3792974863211,45.7791807049235],[15.3786431544364,45.7793272930861],[15.3781620624916,45.7795344906372],[15.3770446255131,45.7800214660271],[15.3768981606122,45.7800798963601],[15.3762430956798,45.7802920685656],[15.3757444326418,45.7804705201698],[15.375617699409,45.7804993705381],[15.3744513524901,45.7807749383772],[15.3730080972289,45.7796781244151],[15.3730303380119,45.7796771520056],[15.3729974971176,45.7796312794528],[15.3726483576204,45.778994370651],[15.3725220846364,45.7787058566757],[15.3723770143238,45.7783751132126],[15.3722749318837,45.7781077553714],[15.3717176910276,45.7774234720813],[15.3706587775155,45.7776817355524],[15.3703705222116,45.7774560106678],[15.3698610612017,45.7766420821088],[15.3691685520457,45.7763613345445],[15.368366195383,45.7760745483894],[15.3680979039578,45.7761051964364],[15.3678067364942,45.7763334236571],[15.366818985059,45.7764030943011],[15.3653810524383,45.7761203954505],[15.3653357642936,45.7761165811461],[15.3651687423703,45.7762370584504],[15.3645787175106,45.7764056756433],[15.3638791624433,45.7766187288704],[15.3627515274231,45.7766537175432],[15.3622742687858,45.776902406884],[15.3616471946944,45.7767926382338],[15.3613851886052,45.7765830939483],[15.3611768525541,45.7764006433592],[15.3611171680862,45.776337935974],[15.3610523854481,45.7762025408061],[15.3609218545175,45.7759812424178],[15.3607223731135,45.7757355970271],[15.3603669015802,45.7753078738763],[15.3604113902769,45.7747485975509],[15.3599550864945,45.773896395205],[15.3599026719217,45.7738638075765],[15.3597058504855,45.7737100215908],[15.3587351761441,45.7737902762505],[15.3576898004589,45.7737109519506],[15.3565598348442,45.7733111031498],[15.3558562400147,45.7734133545135],[15.3552234282132,45.7734245916122],[15.3551241461746,45.7734220208728],[15.3539266961027,45.7732859073769],[15.3535698067554,45.7732538996648],[15.3529173646526,45.7731086194105],[15.351719645409,45.7728663970996],[15.3511349652285,45.7724737227633],[15.3505863956734,45.7715224281732],[15.3503154087801,45.7713670538965],[15.3502289546774,45.7713180098395],[15.3492839566684,45.7711815234306],[15.3486595373303,45.7709262674365],[15.3486207417111,45.7709111791781],[15.3483707418076,45.7716884699738],[15.3480083369428,45.7725040741323],[15.3486877059499,45.7734451740086],[15.3484448071822,45.7737745222183],[15.3480498805238,45.7737876032918],[15.3472249645464,45.7740068751305],[15.3466953932021,45.7743909884683],[15.3463439317792,45.7740522896949],[15.3450419487631,45.7747706705311],[15.345292768055,45.775741607243],[15.3447675148622,45.776643443508],[15.3441614694187,45.7776884088405],[15.3432242624279,45.7785015878142],[15.3422712848142,45.779263787579],[15.3413033414884,45.7803173791031],[15.3405555291886,45.7812446943242],[15.3395322651562,45.7819031535171],[15.3387435233282,45.7820263376803],[15.3386640911614,45.7835204197387],[15.3384058739637,45.7847358234251],[15.3381472137337,45.7858797835635],[15.3382587074244,45.787451311653],[15.3373340812419,45.7879819569421],[15.3370355001985,45.7887823988293],[15.3363605151725,45.7895951959895],[15.3351645620536,45.7909178142674],[15.3342605424555,45.7917256015951],[15.3327743290565,45.7922949227473],[15.3324006523237,45.7928327397255],[15.3325442921786,45.7937349086401],[15.3325135963482,45.7940887983136],[15.3320350268829,45.7945109352581],[15.3315202653158,45.7951216827003],[15.3294241460733,45.7968371797418],[15.3290276470207,45.7969393693961],[15.3283053944995,45.7969246207321],[15.3277874535447,45.7968502548825],[15.3274919058775,45.7977606170255],[15.3273369823802,45.7980389182013],[15.3274228179576,45.7983081613827],[15.3273520332393,45.7985442009105],[15.3275604857331,45.7992341974096],[15.3273126884022,45.8000853951617],[15.3274946033743,45.8003290786444],[15.3281910643713,45.8000408550858],[15.328577553745,45.8002671228721],[15.3289685764336,45.801285017073],[15.328973949355,45.8022197998355],[15.3274786233803,45.8038156544011],[15.3276561681232,45.8042333704983],[15.3268450252539,45.8051602337299],[15.3263615692942,45.8063333293671],[15.3255135492725,45.8080504882867],[15.3244292068236,45.8080100221749],[15.3238338572242,45.8081380422697],[15.322699832761,45.8088743136789],[15.3222102531577,45.8085596872865],[15.3210548453608,45.8087145550797],[15.3193068220945,45.8095029947996],[15.3204060394536,45.8119986476764],[15.3191849790926,45.8118462207478],[15.316923888153,45.8128973559253],[15.3154666560004,45.8141040535139],[15.3148126331725,45.8158920384755],[15.3132355175118,45.8169917817825],[15.3121493038699,45.8175901477905],[15.3102491658176,45.8187740523989],[15.3082951010576,45.8194818100812],[15.3075141408449,45.8198649769857],[15.3072440013154,45.8202823979268],[15.3071111791007,45.8205841857066],[15.3071792899692,45.8207774581435],[15.3063699597741,45.8215067537974],[15.3062236984958,45.8223632988363],[15.305242188901,45.8222779252985],[15.3039786859256,45.8243159948584],[15.3032636722301,45.8254613510351],[15.3041155652017,45.8264090875853],[15.3047727998805,45.8269878823662],[15.3040508381673,45.8284205650219],[15.3026075187924,45.8297789430467],[15.3030905636512,45.8305829762743],[15.3018082296659,45.8328058858925],[15.3017163762421,45.8334825014733],[15.3014195465814,45.8340071432147],[15.3019126747584,45.8345297896129],[15.3014798332535,45.8351120174019],[15.3007195618124,45.8356093556192],[15.2991201702204,45.8371756801551],[15.2965721696669,45.8371155573462],[15.2941090486837,45.8376742151178],[15.2930983244464,45.8398201125148],[15.2911137219169,45.8407300147101],[15.2906120721434,45.8412075504398],[15.289867254476,45.8407735840796],[15.2896119909434,45.8408028446591],[15.2892339671177,45.84081801883],[15.2890913487147,45.8408970213783],[15.2885836637803,45.8415555111848],[15.2880795440903,45.8429070976224],[15.2878392299445,45.843865079259],[15.288245604618,45.8454215901563],[15.2881848914414,45.8469035159223],[15.2883081589669,45.8476862012588],[15.2884534179031,45.848114494042],[15.2889713947524,45.8495064180404],[15.2893288887876,45.8502138269056],[15.2899002463066,45.851686142057],[15.2906840756807,45.8530552478616],[15.2912473553226,45.8534609676026],[15.2906066053527,45.85556117393],[15.2914785837823,45.856115921478],[15.292235502708,45.8580563591509],[15.2915030915357,45.8586868212052],[15.2910548550006,45.8589665378706],[15.2900847248503,45.8591333958734],[15.2892527696396,45.8613118193109],[15.2885736902034,45.8631795135683],[15.2881313234291,45.8645304892232],[15.2865935594725,45.8660126148557],[15.2852001890126,45.8678147727793],[15.2863894132798,45.8681435494238],[15.2881277149247,45.8684938750447],[15.2900551769753,45.8690036760652],[15.2918828993489,45.8694256228327],[15.2918882560801,45.8694281340817],[15.2930382885992,45.8694516194011],[15.2945956084205,45.8693706004671],[15.2959789946787,45.8691104068229],[15.2977888492693,45.8690040580962],[15.2977973797458,45.8690035567687],[15.2991337884598,45.8692346402261],[15.3002625633684,45.8696363566095],[15.300266207187,45.8696376533698],[15.3011046266069,45.8702639472463]]]}]},"properties":{"fill-opacity":0,"stroke-opacity":1,"stroke":"#ff0000","lov":"0121","lov_naziv":"ŠENTJERNEJ","luo":"01","luo_naziv":"Novomeško","povrsina":6338.51},"id":"pregledovalniklovisca.1"}]}