<?xml version="1.0" encoding="utf-8" ?>
<kml xmlns="http://www.opengis.net/kml/2.2">
<Document id="root_doc">
<Schema name="pregledovalniklovisca" id="pregledovalniklovisca">
	<SimpleField name="lov" type="string"></SimpleField>
	<SimpleField name="lov_naziv" type="string"></SimpleField>
	<SimpleField name="luo" type="string"></SimpleField>
	<SimpleField name="luo_naziv" type="string"></SimpleField>
	<SimpleField name="povrsina" type="float"></SimpleField>
</Schema>
<Folder><name>pregledovalniklovisca</name>
  <Placemark id="pregledovalniklovisca.1">
	<Style><LineStyle><color>ff0000ff</color></LineStyle><PolyStyle><fill>0</fill></PolyStyle></Style>
	<ExtendedData><SchemaData schemaUrl="#pregledovalniklovisca">
		<SimpleData name="lov">0113</SimpleData>
		<SimpleData name="lov_naziv">TRŽIŠČE</SimpleData>
		<SimpleData name="luo">01</SimpleData>
		<SimpleData name="luo_naziv">Novomeško</SimpleData>
		<SimpleData name="povrsina">4697.68</SimpleData>
	</SchemaData></ExtendedData>
      <MultiGeometry><Polygon><outerBoundaryIs><LinearRing><coordinates>15.1385628158271,45.9679713255731 15.1378275486294,45.9686821328132 15.1372399785928,45.9693810609633 15.1368821385061,45.9699992717133 15.1369024532445,45.97065050032 15.1367245727383,45.9711481056232 15.1356609731435,45.9719171459928 15.134449572918,45.9727324184947 15.1336152191818,45.9733921177182 15.1334039165905,45.9737984301646 15.1332920467804,45.9743415710404 15.1330379439918,45.9754152908994 15.1323569618847,45.9761780054023 15.1323779469335,45.9768068290991 15.1327523942112,45.9773206122426 15.1331847064592,45.9784438295043 15.1332390154001,45.9792948565974 15.1327512442911,45.980187723842 15.1322218926311,45.9810235017414 15.1318073445469,45.9818936058092 15.1315876274916,45.9827987549558 15.1321152014296,45.9838632906274 15.13247974766,45.984536074296 15.1333006568905,45.9850828978504 15.1341583027484,45.9866178860943 15.1340669781774,45.9872846303043 15.1343328415865,45.9881774262839 15.134848045455,45.9893675702407 15.1348495622223,45.989939009922 15.1356833054263,45.9909413522159 15.1365478981977,45.9911955860867 15.1373068286808,45.9916272842452 15.1375246304667,45.9923178625266 15.1375709439221,45.9931917491595 15.1378618533481,45.9937392658504 15.1384327972821,45.9943489765934 15.1391570779625,45.9955607107043 15.1402915524576,45.9944795154211 15.1416358811008,45.9938523403993 15.1432618038357,45.993555550676 15.1454665631411,45.993805149947 15.1464945798638,45.9938759980547 15.1475051491139,45.9937925496542 15.1480580702529,45.9941391441662 15.1482512674185,45.9947955425016 15.1484373716894,45.9956461189818 15.1488025175253,45.9961989997234 15.1495863306399,45.9966533476297 15.1499686170336,45.9973318992771 15.1504147950163,45.9974777946674 15.1514022947183,45.9963454861479 15.1531649999867,45.9957384952614 15.1540644920216,45.9953476879173 15.1563343358418,45.9950575804366 15.158690691684,45.9943307416009 15.1594050504554,45.9943158910872 15.1607650124813,45.9941704735879 15.1616164446085,45.994148578136 15.1632841316501,45.9923278713664 15.1638900674433,45.9917574523089 15.1641527600564,45.9915828806346 15.1645446621785,45.9917117933781 15.1650147116926,45.9918133290641 15.1658747482713,45.9914435399687 15.1663142629678,45.9911767504662 15.1663501198971,45.9901329697006 15.1667119532498,45.9897502218141 15.1667702541,45.9893915799292 15.1668958492226,45.9878449681815 15.1670832271475,45.9875302260097 15.1681281006509,45.9871440434771 15.1698536866775,45.9874274377539 15.1714928114439,45.9873774822643 15.1721078791305,45.9875075636834 15.1730470785398,45.9875182023358 15.1730633744519,45.9872800094567 15.1729938691842,45.9868871866154 15.1729081428567,45.9867564002999 15.1729172009761,45.9865564584436 15.1728355460399,45.9854110888896 15.1730901772357,45.9849463338358 15.1740782981495,45.9842305979994 15.1753063280491,45.9838001618451 15.1771861979706,45.9843213771468 15.1776710188159,45.9845338692541 15.1784289650465,45.9847085928811 15.1792011260036,45.9844070425226 15.1803944239774,45.9845798999645 15.181687084275,45.9844280410681 15.1820825379853,45.9845015525161 15.1855021651875,45.9845518387452 15.1859706542023,45.9841554497989 15.1863783639882,45.9837646466181 15.1870639241457,45.9830593687475 15.1882482915804,45.9819695153552 15.189744011829,45.9807583841631 15.1909188033348,45.9795028712899 15.1918729742304,45.9784309094331 15.1923913495695,45.9773377195199 15.1925218657648,45.9767915203836 15.1929911284141,45.9767996366223 15.1935618568322,45.9768164868358 15.1939809274958,45.9769750352798 15.1952614076885,45.9775309809099 15.1969204193427,45.9783379256587 15.1976032080603,45.9783248702025 15.1981831036293,45.9781572290386 15.1987004574339,45.9778241363533 15.2001046068329,45.9779767164782 15.2019880771153,45.978661995637 15.2024689951086,45.9787472524492 15.2034097358072,45.9791824192903 15.2039790540066,45.979686354302 15.2045481030609,45.9801494374606 15.2059412445977,45.9812115406365 15.2071967893606,45.9820827655771 15.2083732894143,45.9827221607253 15.2100393412269,45.983456290287 15.2141713764947,45.9842407766387 15.2151045845279,45.9843828967736 15.2152229485125,45.9842181065303 15.2155684407226,45.9839118044844 15.2157311726867,45.9837062605278 15.2158213572185,45.9833320570196 15.2159246118645,45.9829670063492 15.2157992049475,45.9826798575267 15.2156024241883,45.9825251990058 15.215352642608,45.9822154301447 15.2153708508533,45.9818185983804 15.2155327985272,45.9814123179685 15.2158456369107,45.9811106653236 15.2162301457932,45.9807541703536 15.2164113814823,45.9802657933073 15.2168018399174,45.9797496662834 15.2171671308576,45.9794661757039 15.2176633452642,45.9792644935006 15.218192752137,45.979135716949 15.2184664704257,45.9789026040293 15.218589638877,45.9786195714387 15.2189027686647,45.9784000585393 15.2190446537834,45.9781187891178 15.2195367212793,45.9783420671467 15.2200545172091,45.9778266738962 15.2205549332683,45.9771943419242 15.2207036485903,45.9766211723623 15.2205673830193,45.9760719468868 15.2204317231261,45.9756746909259 15.2203469965848,45.9754293074907 15.2202616783762,45.9750670451861 15.2201755636136,45.9744709344577 15.2201240214912,45.9741320009003 15.2200488613991,45.9737270697486 15.2199432494271,45.9734855051715 15.2197330956211,45.9732396426901 15.2195487219431,45.9729207590313 15.2194232829339,45.972624436098 15.2193372933574,45.9723509814162 15.2193364110891,45.9721274804854 15.2193228559115,45.97199524045 15.219152007202,45.9717994185384 15.2188696797079,45.9715080744799 15.2185674900459,45.9711528840852 15.2183118471443,45.9709845760093 15.2176365183469,45.9705388586944 15.2178518387422,45.9704289465263 15.2182826063647,45.9702092107011 15.2189616953362,45.9699387906149 15.2193469712541,45.9698011968781 15.2197653087009,45.9697365095674 15.2201838776452,45.9697630568976 15.22053030303,45.9697213594545 15.2208767482027,45.9696523079321 15.221883644593,45.9696275033335 15.2222499909484,45.9696632321465 15.2229951150959,45.9695523687054 15.2239354122353,45.9692038489237 15.2241903092267,45.969185083859 15.2244249297931,45.9689702082879 15.2243850224879,45.9688015798565 15.2246452996536,45.9684863291296 15.2249190489806,45.9682486114239 15.2251538476087,45.968079352293 15.2255780985436,45.9678869547106 15.2259171488244,45.9676536945022 15.2263865487991,45.9673014955046 15.2274627457326,45.9665969082525 15.228276062623,45.9665145772287 15.2286507619727,45.9663578980406 15.2289977410616,45.9662693857554 15.2292941929259,45.9661936605587 15.2300688573399,45.9660333842531 15.2305552046026,45.9659504350872 15.2309006427532,45.9659271534542 15.2311312522449,45.965874230702 15.232203276545,45.9655816118013 15.2329018212268,45.9653959174372 15.2338801542494,45.9652258424193 15.2345554266148,45.9650617800432 15.2351146452879,45.9650063747958 15.2360066857734,45.964663073332 15.2367427147031,45.9645897493267 15.2369361033191,45.9645551572818 15.2371264660906,45.9645976814997 15.2376746967186,45.9647200811208 15.2385736784615,45.9649766219908 15.2389169160671,45.9651039422467 15.2391435882493,45.9651880465473 15.2394628107075,45.965071397739 15.2396618408532,45.9649986390071 15.2401796357169,45.9648534087903 15.2406965242713,45.9647378705503 15.2411740663667,45.9647728545962 15.2419302987041,45.9647477722066 15.2424123591451,45.9646943840746 15.2427266678275,45.9645774666297 15.2431954151255,45.9643422598902 15.2437852608886,45.9640662133167 15.2441801601904,45.9638222522947 15.2446197680916,45.9634770600109 15.2450367215137,45.9632329588176 15.2452910801141,45.962924601667 15.2456324602797,45.9628061784512 15.246045007425,45.9627346590183 15.2462904488183,45.9626576498355 15.2470833297256,45.9624089513276 15.2472866929013,45.9629085139865 15.2474211577599,45.9632041574781 15.2474576444364,45.9634301008251 15.247509785381,45.9637524656389 15.2475304075325,45.9638925152266 15.2475473045766,45.9640072893287 15.247675975265,45.9642178267406 15.2485198510457,45.9642898659186 15.2493897839387,45.9648489776384 15.2498665647061,45.9650001773374 15.2503009253885,45.9652432445185 15.2506138336477,45.9655054716104 15.2508097243021,45.9657406016919 15.2510190574834,45.9660663087487 15.2512674414419,45.9664101049066 15.2515288131139,45.9667719572962 15.2509608969933,45.9683018247752 15.250871526042,45.9685412697528 15.250800131468,45.9687327174807 15.2508679726018,45.9690975151344 15.2509889053781,45.9693035667693 15.2512286160861,45.9696380242632 15.2514543424082,45.9698185614513 15.2515333579475,45.9698856003488 15.2517163806497,45.9700388780013 15.2519162936336,45.970302789763 15.2520219901409,45.9704198866558 15.2522736164808,45.970562664748 15.2525024356438,45.9707123309226 15.2527552923076,45.9710399178415 15.2528462566118,45.9711799006777 15.252983355263,45.9713345375386 15.2530646853821,45.9715122418496 15.2531938794439,45.9717159333723 15.2533569266044,45.9718442390207 15.2535331883173,45.9719838522099 15.2537195435514,45.9721577239191 15.2538271070119,45.9723146747308 15.2539803033925,45.9724327439878 15.2542852566721,45.9726922790759 15.25482247531,45.9730046519902 15.2552453030562,45.9731346248077 15.255702680241,45.9732566907722 15.256292779309,45.9734202066194 15.2565173775526,45.9734892548562 15.2566469429454,45.9735460992926 15.2568510093163,45.9735840609751 15.2571212528943,45.973617014673 15.2573724058168,45.9736516303099 15.2576299885866,45.9737091750064 15.2579104774029,45.9737528109908 15.2580803519509,45.9737637645911 15.2584194564429,45.9737857624684 15.2590943320644,45.9740833176181 15.2595490310303,45.9744020636975 15.2598260718338,45.9746455414436 15.2601738983023,45.9750131154384 15.2603517411336,45.9752640158184 15.2603740080988,45.9753616799622 15.2604044410109,45.975494506446 15.2603272369783,45.9758180591556 15.2601811929441,45.976047202867 15.2600392045094,45.976315926967 15.2599950242478,45.9764994002934 15.2599419865413,45.9767205940394 15.259924832464,45.9769709486176 15.2598570570841,45.9770764656159 15.2597723927813,45.9771580871246 15.2599658179644,45.9772077643986 15.2600583312287,45.977231487758 15.2604365014672,45.9773509256231 15.2608620667046,45.9775043552809 15.2610969558765,45.9775890269491 15.2618178512404,45.9779720286366 15.2621449363757,45.978121360181 15.2623028534208,45.9781934291846 15.2628542483126,45.9785353338898 15.2631388862874,45.9786860198704 15.2636358481543,45.9789503961111 15.2637729948607,45.9790232307992 15.2643934340029,45.9792255046149 15.264598566225,45.979264979569 15.2647163757217,45.9792877408124 15.2652313766819,45.9793000432923 15.2655740013542,45.9794298039602 15.2660060684776,45.9795871582814 15.2662240956784,45.9797854093427 15.2663203112958,45.980041529049 15.2664011133166,45.9802320915166 15.2665619560762,45.9804542290651 15.2666312493701,45.9806129664189 15.2666896436725,45.9808671045433 15.2667947329009,45.9813038764499 15.2669454213277,45.9817485496587 15.2671863376009,45.9820341127774 15.2674611276339,45.9822241307696 15.268349095545,45.9823311010567 15.2687888725332,45.9823417645725 15.2691447486217,45.9822707451682 15.2697013412213,45.9821243905035 15.2698237822166,45.9820892804872 15.2699310141562,45.9820584351701 15.2701952277209,45.981982590252 15.2707183732885,45.9815950819936 15.2710237994046,45.9811845139175 15.2713055474912,45.9807362109601 15.2714242494675,45.980570641764 15.2715001365026,45.9804648287676 15.2718266473043,45.9801719879883 15.2721186692702,45.9800054658238 15.2725737680771,45.979644114229 15.2729363221511,45.9793869950328 15.2730946144198,45.9791642842118 15.2746823153934,45.9778654429501 15.2755573568812,45.9782396195313 15.2758665510687,45.9783648411516 15.2765056666197,45.9785264246129 15.2767613069923,45.9786000366957 15.2771242864706,45.9788214898085 15.2773478938029,45.9790185364508 15.2779883023926,45.9795392958612 15.27838159267,45.9798579361297 15.2786973423998,45.9803092099771 15.279001477677,45.9806825913793 15.2793493706853,45.980876631259 15.2798765091351,45.9811170191805 15.2805597596318,45.9812946676265 15.2808060373045,45.981325284716 15.2809512527789,45.9812781399007 15.2813188073857,45.9810200821206 15.2816864876375,45.9807620228365 15.2818983272717,45.9806446206677 15.2821333848201,45.9806518686114 15.2827269603636,45.9807830275084 15.283230453762,45.9808130027715 15.2835882180319,45.9807887216145 15.2838224705962,45.9806635222582 15.2842344722373,45.9803429907659 15.2846796646037,45.9799521931986 15.2849023939596,45.9797957983639 15.2850242664316,45.9795773007459 15.2851339006875,45.9791873377322 15.2851988311031,45.9788130521418 15.2852524132443,45.9784154908192 15.285372501637,45.9779007935216 15.285505787134,45.9777446207609 15.2855378498803,45.977479558888 15.2855924788027,45.97726122856 15.2859046260971,45.9768535728218 15.2861874368852,45.9765639493177 15.2862811387761,45.9763655856116 15.2863033523739,45.976068336416 15.2862792458782,45.9757478092559 15.2864815783248,45.9753939630966 15.2870229593519,45.975048083284 15.2875092379605,45.9747286127687 15.2878579007451,45.9745247472577 15.2880900073117,45.9742663786274 15.2883458597405,45.9740584266389 15.2887371694045,45.9738678573691 15.2891429385301,45.9737286269775 15.2894576815776,45.9734564599182 15.2896509698921,45.9733287428629 15.2897454924912,45.9732664191976 15.2900017802619,45.973143940419 15.2904823083657,45.9728664009725 15.2909373847724,45.9723868361381 15.2911508618068,45.9721977008658 15.29153794424,45.9721649522281 15.2919943809288,45.9722908343631 15.2925580432477,45.9721696335502 15.2931078985016,45.9717798842492 15.2934253316159,45.9714852950099 15.293753360846,45.9710477042858 15.2940358351088,45.9706102298007 15.2941471650611,45.9701414333422 15.2942716172445,45.9699823036343 15.2939052878096,45.9696417837609 15.2938350099932,45.969284575978 15.2940042985857,45.9689665218991 15.2941487258768,45.9682911429854 15.2942602212832,45.9678302637745 15.2941664333771,45.9673461590738 15.2938239252083,45.9671881407993 15.2930247745655,45.9668328039758 15.2923973812609,45.9666756014835 15.2923956680505,45.9663499790722 15.2929269391205,45.9655784153061 15.2935059628761,45.9652275489152 15.2937098909103,45.9650206176907 15.2936167833585,45.9646634681558 15.2935698323679,45.9644218204659 15.2936699505431,45.9641035843642 15.293885941001,45.9638607209438 15.2941945690186,45.963715693658 15.2949360259908,45.9634177580376 15.2956274775841,45.9630345587211 15.2959423003208,45.9628188786705 15.296118082908,45.9625390445339 15.2962406362309,45.9624151883994 15.2964330588755,45.9623771690059 15.2969881201173,45.9624295342032 15.2972651915725,45.9623697888788 15.2977056864192,45.9618684596606 15.2978889628997,45.9616169460124 15.2971619258284,45.9611054295064 15.296342200954,45.96079884662 15.2952670592413,45.9603994318204 15.2941116772168,45.9600470015087 15.2931665620948,45.9598829722389 15.2928596269391,45.95970911362 15.2925195873261,45.9592750351006 15.2925462753348,45.9590020661661 15.2927635031963,45.9583600629123 15.2926940975193,45.9581153229183 15.2924966917296,45.9579149993502 15.2921566961474,45.9577321357044 15.2910556505886,45.9576903164981 15.2909073017647,45.9576430063298 15.2902415440716,45.9574306434462 15.2898840432797,45.9573523709337 15.2890539018702,45.9572818620596 15.2887297412779,45.9571891052577 15.2874071626001,45.9569645269097 15.2852107142213,45.9577468023697 15.2841915165082,45.9577403436866 15.2838131497176,45.9579705457233 15.2829218808403,45.9585891890162 15.2825800684886,45.9587287794421 15.2824441814898,45.9588480651246 15.2822906522455,45.9588721984233 15.2820758873859,45.9590322581576 15.2805811480208,45.9593869384918 15.279499247609,45.9597449992022 15.2791072993488,45.9600518792836 15.2784356182142,45.9592976199965 15.2779833817241,45.9584620236295 15.2776154609893,45.9584134305525 15.2774914659988,45.958125804862 15.2770635902955,45.9579800003037 15.2767080648248,45.9575698460898 15.2758643773665,45.957054607132 15.2761676381652,45.9565544114903 15.2758168502203,45.9560558853754 15.2762534251746,45.955645434744 15.2767149653676,45.9550684641775 15.276723225276,45.9547322894028 15.276937802894,45.9544830726613 15.2760774174941,45.9539992775103 15.2755543960976,45.9538835694423 15.2743088913498,45.953095666119 15.2727927467091,45.9523516745074 15.2730434899937,45.9521891166916 15.2731247528181,45.9517418256354 15.2727937039962,45.951258448806 15.2723757593848,45.9515203796915 15.2721296613347,45.9513140183138 15.2721083091527,45.9509046726834 15.2722817332413,45.9503634063476 15.2722781951551,45.9500359875241 15.272112996482,45.9492265855641 15.2729904088804,45.9487078434597 15.2744285441618,45.9479613665804 15.2757118601875,45.9469286673817 15.2765287042957,45.9464865247248 15.2768678540878,45.9460573215305 15.2770685896354,45.9458584350217 15.2801136655171,45.9434201836934 15.28074013066,45.9424303349229 15.2811988253796,45.9420611096783 15.2813472437992,45.9413671086275 15.2813360852533,45.9404358699049 15.280842424069,45.9397262625009 15.2811312988588,45.9394691165498 15.2812509863838,45.9388838787336 15.2811698494361,45.9381913420225 15.2816393051991,45.937942748024 15.2813542493449,45.9376780166785 15.2804758910741,45.9374221204426 15.2796574164545,45.937507265468 15.2781167895358,45.9375734695633 15.2780832227721,45.93730811773 15.2776827306212,45.9371651276228 15.2769218059778,45.9371534774065 15.2763612097959,45.9367889860704 15.2757792096615,45.9363976403498 15.2754356325918,45.9359224880668 15.2748703661848,45.9356783904819 15.2745420625417,45.9357871526508 15.2740581239739,45.9357163322375 15.2734268894008,45.9353510960242 15.2727736646881,45.9357857187454 15.2725191322076,45.9361339090341 15.2719834346494,45.9360272122622 15.2718015575311,45.9358592971064 15.2710217019491,45.9358225489088 15.2706870077438,45.935944811777 15.2703473415772,45.9358668855196 15.2698067303681,45.9361017446997 15.2684507560164,45.9362659977198 15.2679807704746,45.9363335941411 15.2679706268179,45.9369049748897 15.2678563842128,45.9372832380551 15.268219573691,45.9377186869157 15.2678205769831,45.9378816720806 15.267395017923,45.9383679169995 15.2674522354472,45.939029747143 15.2671488002978,45.9404032424563 15.2672533153508,45.9408433475368 15.2673756923781,45.9418867091382 15.267294109919,45.9422473494009 15.2669209147065,45.9425266116941 15.2653883717566,45.9433462757123 15.264823435328,45.9435302402954 15.2643004247541,45.9442053814969 15.2636366982639,45.9448286580711 15.2630885651846,45.9456517742554 15.2627152268714,45.9463468981576 15.2601185743267,45.9475343300375 15.258930326292,45.9478852406066 15.25767565116,45.9485179174996 15.2572263663809,45.9489868114998 15.2573376343517,45.9492550531895 15.2569731453789,45.9502948408318 15.2562264693849,45.9509220392149 15.2548798561777,45.9512461792518 15.2539364686755,45.9516565060988 15.2535813540923,45.9513466931994 15.252334468481,45.9506565383746 15.2510671381534,45.9496595923183 15.2490924654693,45.9487439858289 15.2488791460799,45.9488073447072 15.2467249039761,45.9486277423916 15.2457527072762,45.9479807410218 15.2456594300302,45.946866482744 15.2458632151842,45.9462811919735 15.2461741221679,45.9465864455379 15.2467361478004,45.9468011790358 15.2475029629995,45.9463113039864 15.2480224520402,45.9460110931177 15.2487810169088,45.9454694903622 15.2478627440637,45.9449047184535 15.2473583281643,45.9445028928253 15.2479859533581,45.9436687022484 15.2482917891361,45.9433586960155 15.2485267668466,45.9424895437135 15.2482506005649,45.9417880504421 15.2481631748933,45.9413003829018 15.2477861030299,45.9409322037898 15.2468467285197,45.940708033519 15.2447326637301,45.9410573737767 15.2438099582476,45.9407499137537 15.2425993438044,45.9409308253254 15.241711396959,45.9407541017068 15.2407702469461,45.9401133798078 15.2402575064836,45.9399120997149 15.2392150133294,45.9395095682193 15.2382905284702,45.9387735947552 15.2372076319122,45.9368718348293 15.2360942216704,45.935814925685 15.2354581461678,45.9346737938263 15.2350291832665,45.9340796556189 15.2350593843584,45.9331395984048 15.2355323306092,45.9320319909734 15.2354609453647,45.9312825351442 15.234939301825,45.9305673873955 15.2340031439226,45.9294290223889 15.2339853231006,45.9292386663145 15.2334375189537,45.9287637152152 15.2329591286732,45.928574298839 15.2322058904414,45.9279331218593 15.2321533616899,45.9276119185493 15.2311781798436,45.9262410169228 15.2301083898106,45.9259254650173 15.2289156349841,45.9262744543407 15.2288119862168,45.9271248604745 15.2286201107817,45.927811233796 15.2273418151756,45.9281592079595 15.2257677788425,45.9284912865468 15.2245339312071,45.9281993107711 15.2231094450111,45.9276623250812 15.2220077284392,45.9274839756057 15.2209709353015,45.927191038462 15.2195247048179,45.9270426633777 15.2176448606016,45.9270901681058 15.2163331542694,45.9273811269651 15.2150638274716,45.9278317912284 15.213350065266,45.9281585630008 15.2120717310876,45.9285235521135 15.2108673693541,45.9288824519104 15.210349649884,45.9293887201292 15.2104549954672,45.9298318456782 15.2108201542067,45.930374007275 15.2106670197309,45.9310348149125 15.2104619500957,45.9317047156798 15.2106192326279,45.9321386575055 15.2103868633836,45.9324105477433 15.2098305943281,45.9327916355451 15.2091964584626,45.93314568997 15.2086012240055,45.9334906720994 15.2082130969583,45.9337367485818 15.2077990834734,45.93402713974 15.2068927061294,45.9344178469589 15.2063360858798,45.9346813176658 15.2077119826518,45.9350134514349 15.2051565394136,45.9363604415496 15.2041627361182,45.9363471950799 15.2032256851736,45.9362308148589 15.2024874384954,45.9363479263103 15.2017850165738,45.9366365567599 15.2014615184403,45.93768599467 15.2015161662046,45.938638399465 15.2012491653754,45.9393030833131 15.2003773778441,45.9396662344519 15.1994242239748,45.9401437922382 15.1996426396533,45.9405237453634 15.1977343222278,45.9402043142346 15.1951959532483,45.9403791852485 15.192700227246,45.9401732335951 15.190857623212,45.9403099421913 15.1887445476616,45.9405938212372 15.1867107494209,45.9404115387708 15.1857300604304,45.9408700420185 15.1846146773993,45.9418237200503 15.1842911350696,45.9429665949104 15.1841995279489,45.94377365949 15.1840152569527,45.9447978984481 15.1832647144023,45.9448704565273 15.1833524922592,45.9455967026511 15.1813414801624,45.9463616593251 15.1790187269657,45.9477085024895 15.1760604314518,45.9487590840878 15.1734241618812,45.9492467428493 15.1711584864023,45.9502965040052 15.1700422266737,45.9504319665144 15.1694986216302,45.950547045152 15.1687619988985,45.9506051808754 15.1682734513124,45.9514816496364 15.1672121784738,45.9524541514751 15.1665195153444,45.9531582446858 15.1656770159558,45.9537154382315 15.1646462418059,45.9543875278331 15.163542495127,45.9552141133166 15.1626175476446,45.955742969277 15.1609847408318,45.9560515632179 15.1590144386017,45.9562698169672 15.1566916172185,45.9566036013763 15.1570324315883,45.9572365726024 15.1567405059527,45.9578374806782 15.1561601288318,45.9583079557389 15.1546487956808,45.9583588684497 15.1525116108438,45.9581663102324 15.1513281636373,45.9581018402211 15.1505407563616,45.9583158559791 15.1496185100018,45.9592902594397 15.149452980459,45.9604391235083 15.149334257688,45.9614846322878 15.1503734810463,45.9622450153548 15.1503205029058,45.9628354244347 15.1506489608767,45.9631587293112 15.1520426795483,45.9637853731638 15.1514992800641,45.9647000813457 15.1517740105182,45.9653281162247 15.1517964890994,45.9660470025538 15.151651643104,45.9665388290956 15.1503532769252,45.966508962689 15.1487035546053,45.9668117342515 15.1471042321389,45.9672970703681 15.1459301836935,45.967443888345 15.1447387398415,45.9674535913952 15.1433729696162,45.9671610882664 15.1421411065358,45.9672566529645 15.1410894916106,45.9673001552672 15.1403735049938,45.9670968792 15.1396983968439,45.9668820316262 15.1386240592122,45.9672284015022 15.1385628158271,45.9679713255731</coordinates></LinearRing></outerBoundaryIs></Polygon></MultiGeometry>
  </Placemark>
</Folder>
</Document></kml>
