{"type":"FeatureCollection","features":[{"type":"Feature","geometry":{"type":"Polygon","coordinates":[[[15.0207799820052,45.777991955963],[15.0229950952475,45.776981956473],[15.0250803824055,45.7762577188553],[15.0270694101252,45.7760192678887],[15.0287478233007,45.7759185302403],[15.0301384379055,45.7755556425213],[15.0319346146793,45.7743235983402],[15.0336734969619,45.7730973012766],[15.0350914342427,45.7715632547446],[15.0361737180845,45.7700356855465],[15.0364941186853,45.7684468951609],[15.0368800929502,45.7668921847547],[15.037946844117,45.7656044896],[15.0395822203281,45.7651094938196],[15.0418109944608,45.7654529640399],[15.0443120765388,45.7662583335137],[15.0467656850731,45.7674008230911],[15.0492533056779,45.7688003182438],[15.0508550900442,45.7698305184361],[15.0516619954925,45.7707768368148],[15.0525015175338,45.7716489008116],[15.0541109300526,45.772576204158],[15.0564336346122,45.7736217282801],[15.0581619663062,45.7749053262512],[15.0595760749385,45.7765218080289],[15.0611298251186,45.7777005347211],[15.0628948128343,45.7785530366479],[15.0646598345671,45.779388414978],[15.0671852352612,45.7799477128457],[15.0695532274053,45.7801531597547],[15.0724275653155,45.7800887478786],[15.0742641713426,45.780455316845],[15.0753158163824,45.7810981647992],[15.0760106253707,45.7824102414266],[15.0763607218498,45.7835690387709],[15.0768324470326,45.784504603056],[15.0779824231496,45.7851243250096],[15.0799562341786,45.7850643839585],[15.0818750496556,45.7847773390995],[15.0841408720869,45.7845185306065],[15.0868505887507,45.784649673224],[15.0905136250582,45.784976876265],[15.0944649849419,45.7855716838055],[15.0979981734994,45.7860874418331],[15.1011138856245,45.7866386428778],[15.1027557880411,45.787285302694],[15.1044397729097,45.7881316555381],[15.1061124573028,45.788418319657],[15.1086018267775,45.7882798412604],[15.1120335587,45.7882070635424],[15.1127299155967,45.7868169104592],[15.1134726754519,45.7865723299215],[15.1142063452407,45.785784365438],[15.115631398062,45.7843749275472],[15.1169180428883,45.783108681248],[15.1177109254419,45.7822694346141],[15.1172993264289,45.7806415815823],[15.1165823013746,45.7794283062827],[15.1160066315903,45.7785870398741],[15.115762633809,45.7778150793761],[15.1173326034333,45.7764580196754],[15.1172266486608,45.7757843582872],[15.1169362235674,45.7751339205439],[15.1160665800823,45.7748794440032],[15.1148281872108,45.7745745832886],[15.1142246781489,45.7737898426182],[15.1146206943981,45.7727128349459],[15.1147917511657,45.7714182102032],[15.1153773535949,45.7705113411153],[15.1159451756618,45.769595668876],[15.1160723928876,45.7686317628808],[15.11584502035,45.7671751255631],[15.1162313373798,45.7664177303543],[15.1177601690637,45.7654021785901],[15.1177178520519,45.7646594359543],[15.1187975496203,45.7636443318459],[15.1193052288587,45.7623154252443],[15.118691316175,45.7615021936133],[15.1202182087537,45.7597866537986],[15.1207677604866,45.7591291284402],[15.120113687792,45.7586441944504],[15.1201522918028,45.7576443830623],[15.119987262874,45.7568161079932],[15.120802469687,45.7563296253295],[15.1210443745475,45.7550153868301],[15.1213072671885,45.7539010615499],[15.1216733500044,45.7533722177336],[15.1212637630421,45.752687092869],[15.1222766502955,45.7518779896946],[15.1240595356102,45.7511836687436],[15.1230303709072,45.7507094152024],[15.121806870214,45.7499908829536],[15.1212638670749,45.7500049576135],[15.1205850090974,45.750019173154],[15.1204434454698,45.7495162420323],[15.1219922064111,45.7485149164741],[15.1225418410263,45.7477790082261],[15.1250278980586,45.7468116344847],[15.1258817619436,45.7454822253848],[15.1263486932771,45.7444675399897],[15.1259765435807,45.742367895918],[15.127421902444,45.7410092967231],[15.1277841954121,45.7389375396207],[15.1274147889116,45.7379948656796],[15.126879420784,45.7358244993313],[15.1258968161335,45.7343401859388],[15.1273235189782,45.7337957516621],[15.1295847364714,45.7328060315249],[15.1301966298039,45.7327625950667],[15.1300716594541,45.7316769405124],[15.1315003383682,45.7320754492239],[15.1320503216551,45.7317177715274],[15.1327029988714,45.7317027983723],[15.1346257003476,45.732088095842],[15.1358655737553,45.7321279292985],[15.1369263763737,45.7321838906272],[15.1376658403304,45.7319814452942],[15.1385778091671,45.732279258644],[15.1394151349525,45.7322669024202],[15.1403419222779,45.7321143302812],[15.1419481384142,45.730944576564],[15.1423352495701,45.7306861202792],[15.1429940852383,45.7305224325282],[15.1438471118977,45.7304806904551],[15.1446224982327,45.7304254532293],[15.1471583283532,45.7288880438687],[15.1488059584438,45.7287909801598],[15.1505892220868,45.7285851072455],[15.1517466100141,45.7289809308522],[15.1518246992945,45.7277380130542],[15.1532698354096,45.7266647725762],[15.1544300020533,45.7257919264398],[15.1545100752514,45.7252917949292],[15.1536317968445,45.7248071729679],[15.1531816830274,45.7243077539971],[15.1516917306531,45.7238952902788],[15.151262568935,45.7235815562665],[15.1511799901275,45.7232102247245],[15.1522183503406,45.7225803299276],[15.1518468696661,45.7212681836481],[15.1514785602885,45.7205526948273],[15.1515779593378,45.7199715564985],[15.1521895342413,45.7195374855428],[15.1525959002199,45.7190370097013],[15.1532122929786,45.7185393102671],[15.1527619724601,45.7178969996885],[15.1528619395703,45.7171538935523],[15.1536937244571,45.7168907531942],[15.1543701066754,45.7165460241772],[15.154566282816,45.7162773458195],[15.153993032076,45.7154924063148],[15.1542981222336,45.7152205221645],[15.1548879995136,45.7146769588685],[15.1553327774525,45.7133192619961],[15.1572263540731,45.7123739410089],[15.1582654944845,45.7121155205368],[15.1604064832527,45.7121127146533],[15.1628909354407,45.711052282554],[15.1637061888132,45.7109369314004],[15.1642348771744,45.7104219310744],[15.16523340062,45.7102634744419],[15.1655177775588,45.709877314112],[15.1663933386301,45.7094904735478],[15.1667993359453,45.7088898878965],[15.1661015628447,45.7074193541143],[15.1659756595484,45.7062338563005],[15.1660142992229,45.705533837167],[15.1658087127917,45.7049340516754],[15.1651212604841,45.7047189126418],[15.1650724497724,45.7041921436906],[15.1653357467444,45.7035918587499],[15.1647352860117,45.7029939915952],[15.1640545962341,45.7025787182375],[15.1638043893045,45.7017278554596],[15.1631051782628,45.7008090682348],[15.1618631741901,45.7013106800335],[15.1611493989499,45.7012544610145],[15.1613099408705,45.7003685496846],[15.1612842005911,45.6997233308826],[15.1606036882427,45.6993023676637],[15.1602656359147,45.6987832008857],[15.1605966731327,45.6981078768945],[15.160771283529,45.6974263834256],[15.1606394383346,45.6970332608881],[15.1592400619717,45.6966283247091],[15.1564472026258,45.6965747752015],[15.153899313908,45.6966494109007],[15.1522474823227,45.6964085846989],[15.1515146950363,45.6958472659899],[15.1498759367303,45.6938543626875],[15.1495696699203,45.6936975667309],[15.1484269157942,45.6932132480333],[15.1472231607664,45.6928146586932],[15.1460816721226,45.6928017269211],[15.1448379416555,45.6926746371444],[15.1439820292115,45.6927184601323],[15.1429212020479,45.6923625663064],[15.1400677526271,45.6924801065503],[15.138927709549,45.6929957417101],[15.1379296762854,45.6933110756862],[15.1369514197734,45.6933693006607],[15.1367250188678,45.6925124099228],[15.135969951993,45.6921561752031],[15.1346061050741,45.6919323870003],[15.1334609819511,45.6916781834702],[15.13154694532,45.6922037346881],[15.1304668877745,45.6923191594536],[15.1286507800864,45.6914496598587],[15.1272041022846,45.6916511282623],[15.1253064726471,45.6908101902282],[15.1244508265188,45.6909681429135],[15.12210594493,45.6905990501951],[15.1213526076023,45.6909283747183],[15.1202102386572,45.6905437424289],[15.1192734476793,45.6908874631747],[15.1187701073165,45.6905657643722],[15.1170706711933,45.6903036931249],[15.1164988237302,45.6896900649766],[15.1159073317766,45.6895050350499],[15.1155824169627,45.6901480110323],[15.1147883938832,45.6905629956864],[15.1112208060667,45.6902663466593],[15.1102620907737,45.689867308852],[15.1078150322617,45.6891695893622],[15.107039036548,45.6883561676069],[15.1054285568252,45.6881576365072],[15.1046322229998,45.6873584340875],[15.1039807987777,45.6878445683823],[15.1025953935225,45.688131421776],[15.1001250039069,45.6887247011146],[15.096054035992,45.6893807411274],[15.095892949035,45.6894805757898],[15.0951817637577,45.6895367789755],[15.0941186272019,45.6894972581087],[15.0917062890328,45.6904291771631],[15.0904117143168,45.6912282534203],[15.0888916305878,45.691859495457],[15.0877944113719,45.6928750631093],[15.085892178926,45.6949592158599],[15.0853686768871,45.6959686580825],[15.0842850394323,45.697316931747],[15.0829836131235,45.6990450738998],[15.0813955768781,45.7011037261393],[15.078869136311,45.7022193749306],[15.0775254269655,45.7036627823022],[15.0761811171749,45.7046204558627],[15.0755308424635,45.7062919266543],[15.0736569150581,45.7078356057472],[15.0724390563099,45.7094744894411],[15.0720481769919,45.7094361347374],[15.0712135849258,45.7106363750578],[15.0704390931047,45.7109366719288],[15.068667098609,45.7126801427786],[15.0671795306621,45.7134807781074],[15.0666500233016,45.7140809013745],[15.0655900838643,45.7144099452988],[15.0647342918774,45.7150102464373],[15.0635519278205,45.7153536476683],[15.062777617628,45.7159109677908],[15.0614729651369,45.716397214315],[15.060515507944,45.7173688895369],[15.0600385650309,45.7180943872742],[15.0598031680974,45.7187546105856],[15.0596403317029,45.719040385025],[15.0588661782802,45.7199548122858],[15.0573997150079,45.7218693612826],[15.0543583251101,45.7231932070683],[15.053954576332,45.7234846663563],[15.0526908119118,45.7244135881675],[15.0522837059261,45.7252564453312],[15.0518713017339,45.7266345089466],[15.0514109901532,45.7274907939462],[15.0498185256348,45.7286565700795],[15.0487385658828,45.7298852727626],[15.0473776572474,45.7309235027025],[15.0464815917613,45.7326132581162],[15.0446430225828,45.7359708992162],[15.0443788241468,45.7372564651079],[15.0437674562704,45.7382849091388],[15.0432171752065,45.7390706490322],[15.042585319435,45.7397421412923],[15.0413619389649,45.7407707984725],[15.0410972416318,45.741684916264],[15.0406078272905,45.7419707794253],[15.0393633241551,45.7419568180779],[15.0394435415993,45.7425427435509],[15.0394253897173,45.7432279513893],[15.0386941163968,45.7442955500147],[15.0386310052942,45.7453990919481],[15.0380601282221,45.7461561991954],[15.0373466768117,45.7472560856859],[15.0363676517491,45.7477419359355],[15.0359803736007,45.7484847569852],[15.0352461757465,45.7489990439493],[15.0353077480458,45.7498273845497],[15.0348194019134,45.7521997771541],[15.0342672275497,45.7538906748297],[15.0327598736875,45.7550005743801],[15.0330258104653,45.7562863164033],[15.0330876199034,45.7575578099487],[15.032455756979,45.7592295545318],[15.0313540837327,45.7596870517926],[15.031027926854,45.7605729062701],[15.0297220417762,45.7612160721536],[15.0276414591317,45.7637024773891],[15.0276417342879,45.7642596345643],[15.0270228345392,45.7653142601329],[15.0257244721098,45.7675602840582],[15.024867434359,45.7681462443388],[15.0246636927887,45.7691177136712],[15.0240726521358,45.7697329436093],[15.023643576881,45.7705894635755],[15.022847743983,45.771032507374],[15.0228480062504,45.771989715152],[15.0225628584496,45.7740041547927],[15.0219305737371,45.7755471650275],[15.0181955912181,45.7786051601969],[15.0188518537289,45.7791213586944],[15.0207799820052,45.777991955963]]]},"properties":{"fill-opacity":0,"stroke-opacity":1,"stroke":"#ff0000","lov":"0116","lov_naziv":"TOPLICE","luo":"01","luo_naziv":"Novomeško","povrsina":6710.21},"id":"pregledovalniklovisca.1"}]}