{"type":"FeatureCollection","features":[{"type":"Feature","geometry":{"type":"Polygon","coordinates":[[[14.8969597676505,45.9920566929789],[14.898995330466,45.9927791323928],[14.900932785094,45.9933859205677],[14.9029541770643,45.9935581604273],[14.9037877872437,45.994115190196],[14.904164722459,45.9935257106501],[14.9046352683237,45.993220273957],[14.9050738801355,45.9932424134277],[14.9056159342865,45.9936204939407],[14.9063897217321,45.9939955227422],[14.906712455823,45.9945314169473],[14.9068030460931,45.9952434751073],[14.9065779294906,45.9962256548815],[14.9074931377073,45.9964365844378],[14.9085045347112,45.9966454242666],[14.9093702972656,45.9973400127955],[14.9096114117207,45.9980017108371],[14.910130821617,45.9990972240379],[14.9102193607106,45.9997521422583],[14.9103746851274,46.0006253955628],[14.9095237763137,46.0011550462025],[14.9097687449254,46.0019192296561],[14.9097223019736,46.0031666258585],[14.9103258196324,46.0035412228216],[14.9105486736653,46.0041806796684],[14.9109726267434,46.004945000079],[14.9116451207209,46.0041035230419],[14.9123174653223,46.0032619518334],[14.9131374064302,46.0032185794884],[14.9133465396668,46.0022460933401],[14.9147413936422,46.0022056632672],[14.9150982739415,46.0016885645572],[14.9157221481894,46.001254440192],[14.9169687530144,46.0011311851781],[14.9179183550703,46.001214559452],[14.9191049911148,46.0014844350251],[14.9196095515377,46.0014847910421],[14.9196397935233,46.0013746811697],[14.9199064036717,46.0012858816367],[14.9200476274803,46.0009424505209],[14.9200302577403,46.0007216362063],[14.9199778771737,46.0004271066704],[14.9200662463506,46.000206276351],[14.919943126365,46.0000835522845],[14.9196970043601,45.9999361781548],[14.9196094206468,45.9997030775842],[14.919574654837,45.9993717598296],[14.9194343535832,45.9989913305286],[14.9194171694064,45.9987337158019],[14.9195053022829,45.9985864864342],[14.9199104470547,45.9983045148788],[14.9202274169576,45.998108407896],[14.9204037169449,45.9978754017657],[14.9206684591669,45.9972742730041],[14.9210209787628,45.9968573861439],[14.9213559458342,45.9963422317499],[14.9217434822765,45.9959866406857],[14.922395118127,45.9955575371555],[14.9228908985409,45.9950554438481],[14.9238249516043,45.9942647266553],[14.9236427929751,45.9928628604908],[14.9239238691317,45.9915089005917],[14.9240341813,45.9907012541669],[14.9239889696061,45.9896873677874],[14.9246178668706,45.9889206437221],[14.9249436566972,45.9883546352497],[14.9249895404884,45.9876407907613],[14.924868804379,45.9864363740085],[14.9252911534829,45.9854646329508],[14.9261758343795,45.9849656573213],[14.9274644302437,45.9848082134429],[14.9298960988447,45.9849332688839],[14.9310024607896,45.9842358130542],[14.931356960191,45.9835492343849],[14.9317619598118,45.9827217811604],[14.9321923085088,45.9819471577636],[14.932420040572,45.9815774882845],[14.9329001748661,45.9813487803937],[14.9342136439359,45.9812436413849],[14.9352239873348,45.9812088576389],[14.9364363607706,45.9812445393149],[14.9377819404265,45.9811544032654],[14.9379121696345,45.9811497952978],[14.9390082348157,45.9808540920773],[14.9402834135212,45.9804491503072],[14.9413572868969,45.9801221909902],[14.9422072608257,45.9800133921832],[14.9432357112463,45.9804191629328],[14.9439288995618,45.9805442129032],[14.9451145350005,45.9802016171103],[14.945293836256,45.9796403380703],[14.9455628373281,45.9789388276632],[14.945920994061,45.9785179063735],[14.9463463659718,45.9778475998406],[14.9472632367015,45.9780506543373],[14.9483588273447,45.9782849143347],[14.9490775833024,45.9783776430083],[14.9497614986844,45.9784679224768],[14.950110039316,45.978369100696],[14.9504842695572,45.9784052541614],[14.9510004461697,45.9784594627045],[14.9513876068495,45.9784686257196],[14.9519039251573,45.9783608720317],[14.9525234860297,45.9782531589445],[14.9529107065427,45.9781903353957],[14.9533882121258,45.9781905311443],[14.9537495751965,45.9781816802764],[14.9541239551617,45.9780378683089],[14.9546014448098,45.9780559643631],[14.9549628578764,45.9779841259257],[14.9553371827351,45.9779032937118],[14.9557373389548,45.9777954772402],[14.9562794747064,45.9776607207297],[14.9565764192471,45.9775078733863],[14.9569378471216,45.9774090356623],[14.9573250291217,45.9773821878536],[14.9579444527933,45.9774274058701],[14.9582671548832,45.9773375473639],[14.958757672085,45.9771847648657],[14.959054587372,45.9770589041019],[14.9594805736546,45.9769060953559],[14.9600613555934,45.9768433160271],[14.9604356718287,45.9767533794374],[14.9609390894286,45.9765915943451],[14.961210242833,45.9763847400266],[14.9615716676123,45.9762678922646],[14.9621782568413,45.9761961131641],[14.9626687894936,45.9759893277615],[14.9629269804879,45.9758544465729],[14.9634562104031,45.9756656656901],[14.9640111649794,45.9756028580143],[14.9646435708618,45.9755040808987],[14.9650954018384,45.9752522846597],[14.9653407460309,45.9750094218728],[14.9654570236661,45.9747935126636],[14.9655217094952,45.9745325093761],[14.9655605965187,45.9742535928756],[14.9661802330249,45.9739028681975],[14.9664384166701,45.9737499836534],[14.966503188834,45.9733361090987],[14.9666582309818,45.9730212354046],[14.9668647058089,45.9727963532793],[14.9672002974256,45.9726614847762],[14.9675100999727,45.9724906172053],[14.9677941339466,45.9722477600266],[14.9679362149048,45.9720138600821],[14.9681428150146,45.9717799779543],[14.9684655699485,45.9715101367959],[14.9685947574966,45.9712492393752],[14.9686465052848,45.9710153136478],[14.9687756857757,45.9707634136884],[14.9688403563102,45.9704935006199],[14.9689308688478,45.9701606106909],[14.9691503915381,45.9698726540504],[14.9692705711097,45.9695547079898],[14.9695376277966,45.9694048779288],[14.9698861225698,45.9694589564429],[14.9702989778488,45.9695670367924],[14.9708667154464,45.9696031736979],[14.9712021008755,45.9698102056195],[14.9716665575254,45.9699542847798],[14.9721052453596,45.9700263742298],[14.9725826720085,45.9700444851461],[14.9729568958717,45.9700085835444],[14.9732795393059,45.9699005971584],[14.9735892564527,45.9698376853094],[14.9741183718945,45.9696938432887],[14.97445388581,45.9696489303178],[14.9748539292238,45.9695770375014],[14.9754216977529,45.9695501679398],[14.9758604849905,45.969397300692],[14.9762218373739,45.969271408749],[14.9766864271153,45.9691185436882],[14.9770348464006,45.9690555404045],[14.9776026230568,45.9689926692347],[14.9780026469912,45.9689477584644],[14.9786607314215,45.9689208901565],[14.9790478404115,45.9689029663951],[14.9795768071724,45.9691010113978],[14.9799638976577,45.9691370706889],[14.9804025580836,45.9692991052227],[14.980738143676,45.9693981368947],[14.9810994207829,45.9694610910847],[14.9814478221672,45.9694431527877],[14.9817316583784,45.9695691662044],[14.9821187390486,45.9696502066532],[14.9825574069862,45.9698212305945],[14.9829703034021,45.9698842767091],[14.9833058221326,45.9698033469858],[14.9836154637217,45.9699563525576],[14.9839638855771,45.9698754227525],[14.984338126318,45.9697495069654],[14.9847510415068,45.9697495628062],[14.9852413591774,45.9698216087125],[14.9855768392158,45.9698755477177],[14.9857039177157,45.9699620315022],[14.9860569163681,45.9696279008362],[14.9865860918577,45.9696278741949],[14.986823087436,45.9692652047824],[14.9875909467408,45.9688093776258],[14.9881271335095,45.9679655408533],[14.988558042553,45.9676174639845],[14.9891932102893,45.9672219871093],[14.9896654839743,45.9670961530235],[14.9921709667209,45.9663129226641],[14.9923485560285,45.965973361581],[14.9928404259208,45.9658330293638],[14.99322055822,45.9656770324571],[14.9936453260947,45.9655678248053],[14.9940478781016,45.9656614225445],[14.9945064397185,45.9656472291435],[14.9947258077818,45.9654043016139],[14.9951903189816,45.9651972850525],[14.9955774031514,45.9650983259955],[14.996003212199,45.9647384336953],[14.9962601153935,45.9645054019586],[14.9966483638733,45.9642435809202],[14.9968161162197,45.9638566845739],[14.9971515876227,45.9635957600838],[14.9975257574018,45.9634428078658],[14.9978225128719,45.9632808552677],[14.9983116390597,45.963029287781],[14.9989784224082,45.9627068180157],[14.9993667727716,45.9626001080673],[15.0002082359083,45.96222436553],[15.0005952881358,45.9619102543181],[15.0011472186,45.9615376551598],[15.0013199634109,45.9611642485266],[15.0015045745105,45.9607616888842],[15.0015477748587,45.9600533888313],[15.001359911118,45.9592319004837],[15.001328025341,45.9583982630942],[15.0011502523961,45.9585119960742],[15.0002217686461,45.9586632531466],[14.998653917393,45.9582295558192],[14.9973944231819,45.9577349298926],[14.9963117940706,45.9576300767475],[14.9950492233849,45.9573008927435],[14.9947451774987,45.9570484933497],[14.994640974701,45.956690919422],[14.9944744844832,45.9561262150204],[14.9944745493611,45.9554734308695],[14.9939004097119,45.954998592251],[14.9929861948366,45.9548352312649],[14.9921994466441,45.9546125767847],[14.9914745066543,45.9543199192741],[14.9922544389433,45.9543403096346],[14.993575794102,45.9542904542251],[14.9951987540958,45.9541804018826],[14.9964941872847,45.9539177156332],[14.997714151288,45.9534783880069],[14.9987433141484,45.9528170716673],[14.9994341002252,45.9519575250373],[14.9998182503098,45.9507795446536],[14.9995727852882,45.9499070348318],[14.9983800214955,45.9496918885788],[14.9975526930388,45.9494674706229],[14.9963577511363,45.9492912633467],[14.9956454802814,45.9492432805556],[14.9938531455711,45.9496120149187],[14.9927960723054,45.9496601809731],[14.9916011413415,45.9494839239681],[14.9891422934861,45.9491313659257],[14.9881082743403,45.9487626262191],[14.9866147326428,45.9482176487618],[14.9864538205459,45.9479611946037],[14.9864078471884,45.9476566160966],[14.9857415187376,45.9471275585131],[14.9848913901264,45.9466467006689],[14.9835357322003,45.9463901681119],[14.9823639459854,45.9459412765284],[14.9810312316568,45.9458129354201],[14.9797676022698,45.9447709614352],[14.9796240258608,45.9434278443859],[14.9793084359205,45.9427030201914],[14.9786653573291,45.941741223973],[14.9780450170202,45.9413884851841],[14.9774477060977,45.9408754978472],[14.9769423669122,45.9403464199836],[14.9766208887395,45.939641111881],[14.9767130011887,45.9389518138136],[14.9766901099679,45.9381824122862],[14.9765295905325,45.9371724727882],[14.9755725771019,45.9362871641338],[14.9752835841814,45.9357003590189],[14.9759408459277,45.9345818094284],[14.9764929777583,45.9334815896703],[14.9773603485199,45.9327481782413],[14.9775181182573,45.9322714185675],[14.9777023523118,45.9313912945647],[14.9779390175446,45.930621132816],[14.9784121442874,45.9298876362494],[14.9779061611244,45.929584855059],[14.9778504285409,45.9290105175063],[14.9779117193682,45.9282509387203],[14.9781841034904,45.9271025171427],[14.9782203965263,45.9262858873588],[14.9780747356754,45.9252128764357],[14.9779825951716,45.9234660328524],[14.9782213377925,45.9228920211513],[14.9789414756709,45.9213207860327],[14.9794130053965,45.920124168602],[14.9783135278981,45.9198956918019],[14.9781395483849,45.9190786610016],[14.9772031103668,45.9190153136708],[14.9767219342166,45.9182168442823],[14.9747673492358,45.9178287153492],[14.972218916257,45.916854205081],[14.9693735890094,45.9155950489085],[14.9675637267283,45.914641054952],[14.9658841012859,45.9135097248652],[14.9641490314187,45.9127096508367],[14.9622495671053,45.911858658686],[14.9606426168841,45.9113973400272],[14.9605568136465,45.9113343259533],[14.9600045894416,45.9115335249156],[14.9603279946947,45.9119057859848],[14.9588428806672,45.9124767999483],[14.9577383709522,45.9130745693768],[14.956690523949,45.914376605812],[14.9562516714145,45.9159180280268],[14.9541767332037,45.9155851968606],[14.9532249199084,45.9153589670101],[14.9524823991597,45.9153587506528],[14.9513019495103,45.9155311010282],[14.949893221006,45.9153844580945],[14.9485602189362,45.9157427871991],[14.9467531615014,45.9161327329629],[14.9458874625395,45.916854577823],[14.9452201056992,45.9163025162317],[14.9445267486838,45.9154650285611],[14.9441450187594,45.9145925079808],[14.9439287697475,45.914022122797],[14.9433925983223,45.9134354730919],[14.9420263866259,45.912514135123],[14.9405367812276,45.9115474576754],[14.9394581443008,45.9107109971102],[14.9390361603364,45.9099755636694],[14.9389405288423,45.9089081050791],[14.9387625949458,45.9077894946867],[14.938192641555,45.9069687692797],[14.9375266537487,45.9066336892816],[14.9366160778639,45.9066075441456],[14.9350018104923,45.9068744116645],[14.9340174997087,45.9068541424032],[14.9331385576119,45.9065652522963],[14.932113056973,45.9065050823035],[14.9314423590083,45.9068894274812],[14.9308227617015,45.9076332613808],[14.930072314435,45.9085873801386],[14.930173979252,45.9092302443077],[14.9313596936293,45.9102736262259],[14.9325459119091,45.9108312955131],[14.9330364772887,45.9113886368901],[14.933321862182,45.9121431779626],[14.9338119304204,45.9134602882859],[14.9345684440279,45.914146264854],[14.9353080088421,45.9156780179016],[14.9352168437516,45.9171399249858],[14.934689996955,45.9184374640762],[14.93383296733,45.9192961683772],[14.9334774953828,45.9203024526882],[14.9341218177889,45.9213051774699],[14.9374149950442,45.9237563105535],[14.9349903783551,45.9243943381202],[14.9333466710824,45.9250138770083],[14.9321878235466,45.9256524862517],[14.9305164430602,45.9270051053876],[14.9293028708785,45.9283390886026],[14.9279548600932,45.9293910742551],[14.926472423716,45.9301609677743],[14.9267731692263,45.9307126332452],[14.9265882249823,45.9313267012403],[14.9249501517931,45.9317543801356],[14.9236400032856,45.9317822150526],[14.922616157175,45.9319673299283],[14.9216745568972,45.9319810848525],[14.9208955294568,45.932923422616],[14.9210776869692,45.9345947904909],[14.9219365724581,45.9352952251979],[14.9213422004211,45.9358520480716],[14.9203944186362,45.9361742309057],[14.9176666184185,45.9369242397436],[14.9167572417178,45.9373229908146],[14.9171268819979,45.937816425769],[14.9166889628666,45.9380510384218],[14.9173259659966,45.9387065366346],[14.9169334220286,45.9390370089454],[14.916837968014,45.9398268511379],[14.9163330298978,45.9400209237287],[14.9156658420582,45.9400482363353],[14.9156650831033,45.9406338985936],[14.9160742989949,45.9408055167821],[14.9162088929446,45.9414377066096],[14.9163643418667,45.9425263666048],[14.9164971615485,45.9438298755222],[14.9167815313739,45.9450513451574],[14.9176557091847,45.9458622240293],[14.9187477234482,45.9474952836238],[14.9186621486409,45.9485051275906],[14.9183362684361,45.9494241927654],[14.9175606095006,45.9503273672318],[14.9174933545341,45.9507092720249],[14.9171921513793,45.9511472432365],[14.9167147791787,45.9515576423214],[14.9162718327857,45.9517168482505],[14.9157610474821,45.9520366117834],[14.9155728364801,45.9524662939787],[14.9154117533054,45.952783974312],[14.9146474484124,45.9532880880864],[14.9147672017702,45.9538488252637],[14.9155301387212,45.9544193071145],[14.9159173186438,45.9554100611849],[14.9156475256986,45.9568022585902],[14.9159550707827,45.9572323058983],[14.9162622569724,45.9579894188832],[14.9164729079203,45.9582604941057],[14.9170212004938,45.959036406136],[14.9169119876241,45.960550191163],[14.9169869730529,45.9614817781675],[14.9165672310622,45.9628045849264],[14.9167906814403,45.9641053656964],[14.9167244684453,45.9655854391255],[14.9174026848086,45.9670250230833],[14.9169861613236,45.9692813431481],[14.914801671243,45.9695716206652],[14.9095754039006,45.9714370553291],[14.9095744092624,45.972127537206],[14.9075411286811,45.9733522051822],[14.9053523951223,45.9757075369963],[14.9035418271355,45.9763013998571],[14.9033685554094,45.9779083292452],[14.9024428264152,45.9799761089152],[14.9013658549921,45.981120858519],[14.9008169231292,45.9827274578551],[14.9009170052773,45.9842154894743],[14.9019738950516,45.985347137892],[14.9015795280125,45.9863229558475],[14.9002714382535,45.9867813326753],[14.8988267540956,45.9869616357848],[14.8969320673565,45.9875769126783],[14.8957201432244,45.9877230150904],[14.8942183517889,45.9872337815732],[14.8931601585038,45.9871115986915],[14.8923747537988,45.9868989667548],[14.8923739325214,45.9876557595665],[14.8931338288921,45.9886533237706],[14.8937473299434,45.9900108331195],[14.8952310138477,45.9912407432807],[14.8957795303893,45.9914996575399],[14.8969597676505,45.9920566929789]]]},"properties":{"fill-opacity":0,"stroke-opacity":1,"stroke":"#ff0000","lov":"0102","lov_naziv":"VELIKA LOKA","luo":"01","luo_naziv":"Novomeško","povrsina":3955.05},"id":"pregledovalniklovisca.1"}]}