<?xml version="1.0" encoding="utf-8" ?>
<kml xmlns="http://www.opengis.net/kml/2.2">
<Document id="root_doc">
<Schema name="pregledovalniklovisca" id="pregledovalniklovisca">
	<SimpleField name="lov" type="string"></SimpleField>
	<SimpleField name="lov_naziv" type="string"></SimpleField>
	<SimpleField name="luo" type="string"></SimpleField>
	<SimpleField name="luo_naziv" type="string"></SimpleField>
	<SimpleField name="povrsina" type="float"></SimpleField>
</Schema>
<Folder><name>pregledovalniklovisca</name>
  <Placemark id="pregledovalniklovisca.1">
	<Style><LineStyle><color>ff0000ff</color></LineStyle><PolyStyle><fill>0</fill></PolyStyle></Style>
	<ExtendedData><SchemaData schemaUrl="#pregledovalniklovisca">
		<SimpleData name="lov">0101</SimpleData>
		<SimpleData name="lov_naziv">VELIKI GABER</SimpleData>
		<SimpleData name="luo">01</SimpleData>
		<SimpleData name="luo_naziv">Novomeško</SimpleData>
		<SimpleData name="povrsina">4140.37</SimpleData>
	</SchemaData></ExtendedData>
      <MultiGeometry><Polygon><outerBoundaryIs><LinearRing><coordinates>14.8609249831761,45.8860677797646 14.8612988358452,45.886138507161 14.8619615017307,45.8863344723842 14.8622177441314,45.8864491439807 14.8629771473124,45.8867625515269 14.8636397474333,45.8871488108842 14.8642662983064,45.8874746481681 14.864656292144,45.8876955573926 14.8654138989181,45.8881252883842 14.8659569959398,45.888497176845 14.8662132956152,45.8885955534483 14.8665532832774,45.8892050134609 14.8668244698251,45.889491910389 14.8672677102537,45.8901426084956 14.8674828733455,45.8904756875117 14.8679448015854,45.8908050025146 14.8680579409616,45.8909655642875 14.8680721586164,45.8914368863527 14.8681492514046,45.8915298327954 14.868201288713,45.8918651514541 14.8683058806594,45.8924267357205 14.868465344717,45.892561616671 14.8685659879744,45.8929415302202 14.8686855275955,45.8931227936442 14.8690107350191,45.8935745871876 14.8690855453161,45.8939279270496 14.8693840885535,45.8943787891347 14.8705023331682,45.8949392758022 14.8707750937376,45.8950683432476 14.8708380730317,45.8951944737767 14.8713530167148,45.8955266239568 14.8720699668552,45.8957163828386 14.8722543262069,45.8957362942832 14.8729899445863,45.8957665370904 14.8734524464782,45.8958769134561 14.8736587324172,45.8960023012394 14.8739676186929,45.8961746804357 14.8746466258343,45.8965689914415 14.8753067955597,45.897035350271 14.8753431801385,45.8976492203696 14.8752182251223,45.8981456729211 14.8752683764773,45.898769455541 14.8751812984434,45.898982068565 14.8752580254556,45.8992483073978 14.8755778596019,45.8997799763882 14.8757722111574,45.8998333648493 14.8760215374996,45.8997955749113 14.8761716178576,45.8998795071846 14.876265732721,45.9000950165312 14.8761282205818,45.9003861264218 14.8756876290656,45.9007756127195 14.8755350933835,45.901097657954 14.8755032383624,45.9014536662362 14.8757164591212,45.9017746699134 14.8763373113088,45.9025672397869 14.8762728165574,45.9025918239448 14.8766232773318,45.903157804461 14.877115341325,45.9033942569119 14.8772166849509,45.903608963313 14.877519075382,45.9038290140199 14.8779328226522,45.903931941632 14.8780483366948,45.9040339200214 14.8785387958962,45.9042442709843 14.8786258294276,45.9042865631213 14.8788208824919,45.9043815169166 14.8793876655037,45.9047026180173 14.8795808703389,45.9047595078833 14.8800094213189,45.9047561795957 14.8803076063243,45.9047221207255 14.8807718299458,45.9046115732143 14.8812825556211,45.9043911190691 14.8816826026574,45.9041533623025 14.8820119408111,45.904438842972 14.8820622638124,45.9044114516414 14.8820074568395,45.9046694518452 14.8821133037615,45.9052631456229 14.8823837356249,45.905921253001 14.8825097673646,45.9061754803301 14.8825246146475,45.9064079985629 14.8827003417431,45.9069344599472 14.8826306529523,45.9075266230251 14.8826671239893,45.9079573847145 14.8825687299447,45.9082250578786 14.8823268055181,45.9085260550151 14.8822066867672,45.9087648225657 14.8821452897379,45.9090288443638 14.8820589496998,45.9091412276438 14.8818458563061,45.9095194544861 14.8818053594285,45.9095912149541 14.8817878538144,45.9098833550062 14.8815585330801,45.9105558820699 14.8811565243083,45.9109058384855 14.8809641066683,45.9112538525094 14.8807782777909,45.9118948409193 14.8809406983896,45.9123751319906 14.8807105721589,45.9128123642096 14.8805300538848,45.913017145115 14.8803103150726,45.9131768957463 14.8799854935382,45.9137662696828 14.8793491056886,45.9141130038901 14.8792323973858,45.914432031881 14.879155404378,45.9148639338942 14.8790401469895,45.9150479065183 14.8783534088571,45.9155377364533 14.8783582038699,45.9157621461447 14.8783075621644,45.9159298108073 14.878225873389,45.9160289692761 14.878035430233,45.9161653524424 14.8778445180462,45.9165150720787 14.8777363706862,45.9166277885445 14.8776286061484,45.9169180314422 14.8775751470587,45.9171929462171 14.8778350785599,45.917350685458 14.8778902520181,45.9175866660944 14.8779154459659,45.9178552765928 14.8779858619202,45.9180777767833 14.8781668301581,45.9183860536444 14.8781945880316,45.9186031095349 14.8781683583933,45.9188069711182 14.8782672682793,45.9190880769726 14.8777844158041,45.9194056328576 14.8779234693813,45.9195461467305 14.8779819857804,45.919846194936 14.8783405714093,45.9204093878279 14.8783686854376,45.9204642141774 14.8784962824824,45.920480455923 14.8785885742974,45.9206651882613 14.8786345461446,45.9208670570763 14.8787863721855,45.92106525913 14.8788169914545,45.9212725102335 14.8787403320656,45.9214862159102 14.8787934467256,45.9219016092561 14.8790375074037,45.9223143255358 14.8792650790374,45.9227224349834 14.8795532460497,45.9230728421705 14.8799160521531,45.9233700602904 14.8802660021517,45.9236519675723 14.8802851825837,45.923725859321 14.8798054934467,45.9238190225419 14.8792751291273,45.9240924454349 14.8790398930148,45.9242421894242 14.8788929719571,45.9243332711504 14.878750786695,45.9244992191095 14.8786230328045,45.9245506406799 14.8785182776876,45.9246976428107 14.8782147122492,45.9249610441601 14.8778079268038,45.9253154817087 14.8772921464806,45.9258637925578 14.8773564678558,45.9261054515106 14.8774847936472,45.9263820903659 14.8772456476492,45.9264857578745 14.877050846456,45.9265931616806 14.8773360714496,45.9269941384674 14.8777435442574,45.9275076273773 14.8782210919671,45.9279967155793 14.8784656045947,45.9282127421255 14.8786624725346,45.9283415292875 14.878152979485,45.9289538244605 14.8787046494089,45.9291635192041 14.8794503566418,45.9295633587611 14.8798117099812,45.929597301001 14.8802455151906,45.9296979014384 14.8802491580286,45.9300423393425 14.8803700475587,45.9300701790427 14.8806197054851,45.9301799427987 14.8807319228141,45.9302835341535 14.8810820921508,45.9304247139368 14.8819886761972,45.9306197352904 14.8821753852588,45.9306214575626 14.8823611124919,45.9313315716827 14.8823744354086,45.9315559893601 14.8825097105832,45.9316126344045 14.8828718959457,45.9316873276304 14.8836506008258,45.9318156212481 14.8843543389693,45.9319065830234 14.8844807166092,45.9319646563671 14.8844675802372,45.9320809840236 14.8843717721538,45.9322667806808 14.8842167068919,45.9324236344476 14.8841609007129,45.9325336203943 14.8839761954188,45.9327428106907 14.8839063174834,45.9328601603753 14.8834481799898,45.9335877020261 14.8833298133554,45.9341357241334 14.8832788545606,45.9344536525341 14.8836684257318,45.9345149645197 14.8843268395834,45.9347138532487 14.8855953808909,45.9349580694045 14.8855220223631,45.9353258238509 14.8852834975832,45.9353044399585 14.8853164134497,45.9357893615616 14.8855034186263,45.9357810012151 14.8855051497884,45.9361303854263 14.8855137068094,45.9362961324727 14.8860617158488,45.9363274524457 14.8862514266124,45.9363842372498 14.8860238733822,45.9366703187769 14.8856252106963,45.936882627164 14.885229805116,45.9371399261445 14.884782329518,45.9376299428854 14.8841058956815,45.9381399707913 14.8835671962144,45.9384587530897 14.8830326821841,45.9386854002409 14.8828276969506,45.9388370721303 14.8825182093856,45.9393740095095 14.8825431832399,45.9403727843007 14.8825827544548,45.9405053616592 14.8829340642158,45.9411179281874 14.8832129391835,45.9414047014844 14.8833528038596,45.9418061434044 14.8833019443255,45.9420119596939 14.8833234160379,45.9423511062938 14.8833473538954,45.9424984236657 14.883171382627,45.9427689857669 14.8824988043488,45.9431267659773 14.8825824497512,45.9432157495669 14.8827694609555,45.943216571399 14.8828391372314,45.943263521049 14.8836646705671,45.9433408451454 14.883887138096,45.943409274221 14.8837928447221,45.943600560181 14.8836864751086,45.9445705875579 14.8835261087951,45.9453321722003 14.883498529752,45.9455677046864 14.8835697196889,45.9460639120924 14.8836227343623,45.9460622565229 14.8835905953633,45.9460731110433 14.8834528467828,45.9467486101535 14.883185645225,45.9476456807799 14.8835821331704,45.9482671084866 14.8844562282728,45.9492815893801 14.8857502223504,45.9506090648561 14.8872754457916,45.9522501442818 14.8875515137283,45.9535170251857 14.8876755441113,45.9557206879196 14.8880559181135,45.9603618105689 14.8888839942771,45.962072902653 14.8894627153208,45.9630085952353 14.8903434184863,45.9633958050327 14.8914108330551,45.9636488498843 14.8927840265672,45.9646448422836 14.8939419525757,45.9661668038484 14.8949083850861,45.9675234696221 14.8971070926417,45.9697416024001 14.89879417503,45.9699888358342 14.8998253676124,45.9708852845797 14.8995971278233,45.9718687117474 14.9000491869351,45.9726418294851 14.8999454079128,45.9745209054739 14.8986409100486,45.9762678259237 14.8974217719575,45.9773817308424 14.8967402855556,45.9782593806536 14.8961338166753,45.9793829110165 14.895427125054,45.9801199860829 14.8933705491012,45.9824748466117 14.8932083632061,45.9830532454815 14.8924149433183,45.9839430008183 14.8923367140668,45.9848155211251 14.8915444474259,45.9850285566355 14.891335946038,45.9856482978988 14.8912943870933,45.9856469987037 14.891214584938,45.9860602755954 14.8913146443382,45.986376188887 14.8915158000086,45.9868093476874 14.8918986089179,45.987023404969 14.8923747537988,45.9868989667548 14.8931601585038,45.9871115986915 14.8942183517889,45.9872337815732 14.8957201432244,45.9877230150904 14.8969320673565,45.9875769126783 14.8988267540956,45.9869616357848 14.9002714382535,45.9867813326753 14.9015795280125,45.9863229558475 14.9019738950516,45.985347137892 14.9009170052773,45.9842154894743 14.9008169231292,45.9827274578551 14.9013658549921,45.981120858519 14.9024428264152,45.9799761089152 14.9033685554094,45.9779083292452 14.9035418271355,45.9763013998571 14.9053523951223,45.9757075369963 14.9075411286811,45.9733522051822 14.9095744092624,45.972127537206 14.9095754039006,45.9714370553291 14.914801671243,45.9695716206652 14.9169861613236,45.9692813431481 14.9174026848086,45.9670250230833 14.9167244684453,45.9655854391255 14.9167906814403,45.9641053656964 14.9165672310622,45.9628045849264 14.9169869730529,45.9614817781675 14.9169119876241,45.960550191163 14.9170212004938,45.959036406136 14.9164729079203,45.9582604941057 14.9162622569724,45.9579894188832 14.9159550707827,45.9572323058983 14.9156475256986,45.9568022585902 14.9159173186438,45.9554100611849 14.9155301387212,45.9544193071145 14.9147672017702,45.9538488252637 14.9146474484124,45.9532880880864 14.9154117533054,45.952783974312 14.9155728364801,45.9524662939787 14.9157610474821,45.9520366117834 14.9162718327857,45.9517168482505 14.9167147791787,45.9515576423214 14.9171921513793,45.9511472432365 14.9174933545341,45.9507092720249 14.9175606095006,45.9503273672318 14.9183362684361,45.9494241927654 14.9186621486409,45.9485051275906 14.9187477234482,45.9474952836238 14.9176557091847,45.9458622240293 14.9167815313739,45.9450513451574 14.9164971615485,45.9438298755222 14.9163643418667,45.9425263666048 14.9162088929446,45.9414377066096 14.9160742989949,45.9408055167821 14.9156650831033,45.9406338985936 14.9156658420582,45.9400482363353 14.9163330298978,45.9400209237287 14.916837968014,45.9398268511379 14.9169334220286,45.9390370089454 14.9173259659966,45.9387065366346 14.9166889628666,45.9380510384218 14.9171268819979,45.937816425769 14.9167572417178,45.9373229908146 14.9176666184185,45.9369242397436 14.9203944186362,45.9361742309057 14.9213422004211,45.9358520480716 14.9219365724581,45.9352952251979 14.9210776869692,45.9345947904909 14.9208955294568,45.932923422616 14.9216745568972,45.9319810848525 14.922616157175,45.9319673299283 14.9236400032856,45.9317822150526 14.9249501517931,45.9317543801356 14.9265882249823,45.9313267012403 14.9267731692263,45.9307126332452 14.926472423716,45.9301609677743 14.9279548600932,45.9293910742551 14.9293028708785,45.9283390886026 14.9305164430602,45.9270051053876 14.9321878235466,45.9256524862517 14.9333466710824,45.9250138770083 14.9349903783551,45.9243943381202 14.9374149950442,45.9237563105535 14.9341218177889,45.9213051774699 14.9334774953828,45.9203024526882 14.93383296733,45.9192961683772 14.934689996955,45.9184374640762 14.9352168437516,45.9171399249858 14.9353080088421,45.9156780179016 14.9345684440279,45.914146264854 14.9338119304204,45.9134602882859 14.933321862182,45.9121431779626 14.9330364772887,45.9113886368901 14.9325459119091,45.9108312955131 14.9313596936293,45.9102736262259 14.930173979252,45.9092302443077 14.930072314435,45.9085873801386 14.9300314729772,45.9085730486553 14.9285377193207,45.9085723042601 14.9261033725919,45.9080281893206 14.9243046658548,45.9070844034909 14.9231797750593,45.9067551434667 14.9231437530808,45.9065196470281 14.923398480427,45.9054584383909 14.9233520975876,45.9050718620508 14.9231832546845,45.9049799711736 14.9227234540316,45.9049337724153 14.9224983899474,45.9047697701543 14.9224516945827,45.9046125469953 14.9225092844265,45.9037018291537 14.9226880857139,45.9033939556708 14.92266008793,45.9032301768148 14.9220039575213,45.90258098964 14.9216386475568,45.9020762331398 14.921291938258,45.9017286798047 14.9210768377967,45.9011847044031 14.9213837702537,45.8999436692324 14.9205455130387,45.8994431715369 14.9204436570988,45.899114590859 14.9167626912332,45.8978981650593 14.9164371838404,45.8965122652192 14.9167874454086,45.8946983824525 14.9172601855796,45.8929130198725 14.9195944911031,45.8911860259346 14.9209455191663,45.8903725761316 14.9217652247331,45.8892160207803 14.9223178910309,45.8889163205227 14.9224822344679,45.8883164574498 14.9231372799461,45.8878597206205 14.9235883157967,45.8869600609058 14.9244180475694,45.8867883043984 14.9249383056195,45.886989388757 14.9254089068002,45.8868468114751 14.9257990445785,45.8855899794338 14.9253493668007,45.8853183121418 14.9266201108632,45.8829762808628 14.928441170441,45.8822915311618 14.9297503327849,45.882120844823 14.932306945176,45.8820792883042 14.9335952151336,45.8822369663577 14.9338812554273,45.8825371198832 14.9345976598814,45.8820232161617 14.9352740486358,45.8805664923596 14.9363179519208,45.8795527530505 14.9374855963209,45.8776391081198 14.9371793526401,45.8769818280398 14.9388770747181,45.8766397511185 14.9398793985904,45.8764259543176 14.9399962794043,45.8760285811565 14.9399852757701,45.8754804269172 14.939949575454,45.8747793863094 14.9400669089753,45.8735976711744 14.9405992889688,45.8729981528311 14.941193024939,45.8724699264771 14.9419577414292,45.8712637961668 14.9374762997097,45.8711106280799 14.936126524136,45.8712241542459 14.9356565438488,45.8709667320764 14.9347873324702,45.8709840550773 14.9337144043468,45.8709534749026 14.9332895996357,45.8706293051431 14.9331484412244,45.8701883280345 14.9326113440189,45.8698508631206 14.9322994621434,45.8692520517671 14.9308576811193,45.8685943453093 14.929668859103,45.8684779074197 14.9292595886547,45.8687347234257 14.9285030242725,45.8687199459784 14.9281275708257,45.8684166627853 14.9266425399421,45.8674006712748 14.926256333682,45.8670616534764 14.9261954605406,45.8667331024949 14.9240218265483,45.8659177318905 14.9232490117863,45.8658542304389 14.9221939448278,45.865097696921 14.9221717554122,45.8640165891003 14.9212523858658,45.8636016977644 14.9204748454292,45.8639868075596 14.9196773511344,45.8640005563654 14.9189843909459,45.8627145428385 14.9183109288476,45.8619427666373 14.9177171096199,45.8624565684191 14.9164069166243,45.863512506238 14.9130864198716,45.8662609440861 14.912467717963,45.8665663989239 14.9120171273933,45.8664401728793 14.9117462700681,45.8666829061092 14.9108830989949,45.8668262018854 14.9101446269229,45.8667928713896 14.9099397737595,45.8669926424595 14.9077922988541,45.8673194414588 14.902842413058,45.8681436824808 14.897462925243,45.8690530738203 14.892430989007,45.869919619725 14.8905082496281,45.8702176919207 14.8898330720199,45.8704027586051 14.8899566131086,45.8700029232143 14.8898343577042,45.8698171797633 14.8892182584896,45.8689878820437 14.8882846402513,45.8678588223421 14.887386977242,45.8669295426127 14.8868769222397,45.8664291179659 14.8851579394377,45.8670844267142 14.8828155769488,45.8678990537947 14.8828051152972,45.8676676182662 14.8805454866182,45.8680737810267 14.8791155580165,45.8687798684276 14.8782827272207,45.8691910859782 14.8775696896323,45.8695942377953 14.8760896755937,45.8701408815514 14.8760864647503,45.8701391713925 14.8757628787126,45.8711894959917 14.8756918142609,45.8718660568724 14.8738254400066,45.8725170750513 14.8719959379633,45.8731913184255 14.8714609079458,45.8733902900511 14.8707298831827,45.873562134057 14.8707338612561,45.8736242236858 14.8711293098922,45.874742472475 14.87146202544,45.8751964284561 14.8714814951268,45.8756914216318 14.8716548904527,45.8764162126353 14.8727082645723,45.8773690023892 14.8726572241203,45.8775499820345 14.8723026523143,45.8776853637358 14.8715434343631,45.8778255988995 14.8711144959457,45.8779186934264 14.8706486700984,45.8781411334978 14.8704680324965,45.8782634794264 14.8698661837121,45.8784216074482 14.869297284552,45.8788106544771 14.8691345559004,45.8789847563248 14.8683624363517,45.8796677049899 14.8680110526373,45.8801332075528 14.8678574838303,45.8802441533255 14.8677423634897,45.8803849262267 14.8676463812596,45.8806581692884 14.8674731918731,45.8808385550813 14.8674035231882,45.8810432649445 14.8672420463987,45.8812274430549 14.8673092106797,45.881588064209 14.8670217280197,45.8817747949552 14.8666296317563,45.8819075059116 14.8661741853767,45.8821319192269 14.8658688108312,45.8823628054504 14.8654677140549,45.8824318871782 14.865328201062,45.8825327684844 14.8649269756472,45.8827604799111 14.8647822376293,45.8828901474251 14.8646999973748,45.8829081357198 14.864285728715,45.8830934496581 14.8639785451705,45.8834267239414 14.8638030619942,45.8835356585926 14.8637620476964,45.8838700589991 14.8635399683455,45.8841185839705 14.8631504420386,45.8843489124374 14.8625633380181,45.8847100104762 14.8622942180828,45.8847521562315 14.8617946808467,45.884919362641 14.8616139343704,45.8850688677353 14.8612201343765,45.8854056286936 14.8609609615159,45.885538751405 14.8609067853433,45.8856156168858 14.8607327685855,45.8857512721082 14.8604356826971,45.8859481419903 14.8609249831761,45.8860677797646</coordinates></LinearRing></outerBoundaryIs></Polygon></MultiGeometry>
  </Placemark>
</Folder>
</Document></kml>
