{"type":"FeatureCollection","features":[{"type":"Feature","geometry":{"type":"Polygon","coordinates":[[[13.6828919861989,46.0711264715612],[13.6822588844269,46.0711177335635],[13.6767420746814,46.0673185351682],[13.6763242828363,46.0662915666114],[13.6759490878294,46.0653433692297],[13.6756427442517,46.0645704323874],[13.6754487063789,46.0641012066553],[13.6751792269788,46.0635330318368],[13.674809539754,46.0626046888855],[13.6744265358596,46.0616446084294],[13.6740866568251,46.0607894894163],[13.6739452329989,46.0607581562747],[13.6737048538361,46.0606977818804],[13.6725603145653,46.060402866908],[13.6706144740013,46.05989167622],[13.6687814010796,46.0594276539385],[13.6670638266219,46.0589829446852],[13.6666259320201,46.0588653657946],[13.6653186097633,46.0581042905099],[13.6638076343909,46.0572362665292],[13.6622315818456,46.0562874715689],[13.6613426809849,46.0557632969817],[13.6612751460662,46.0556005482763],[13.6605945299779,46.0548384805153],[13.659800818048,46.0539923939352],[13.6590650783916,46.0532028573559],[13.6582306211532,46.0523229002067],[13.6575845359517,46.0516323908761],[13.6565151914356,46.0504807216538],[13.655550946991,46.04944094984],[13.6550778820369,46.0489504097739],[13.6546329626962,46.0489667670031],[13.6544045296495,46.0486941478204],[13.6539643562817,46.0485099106305],[13.6529661336883,46.0482120229759],[13.6530989719632,46.0481110154636],[13.6535967823905,46.0476301085844],[13.6525256964959,46.0467744035464],[13.6516960751944,46.0460861946959],[13.6506492042284,46.0452307574991],[13.6505358951314,46.0452356278892],[13.6503914891087,46.0449999833594],[13.6496272662727,46.0443450131439],[13.6495513623636,46.0442784332452],[13.6489144481788,46.0433683492205],[13.64848311345,46.0427658938111],[13.6479995386148,46.0420807599529],[13.6472477426304,46.0410200357325],[13.646497532963,46.03994312934],[13.6457784773922,46.0389142746564],[13.6448967848382,46.0376531463565],[13.6438782467119,46.0361942377512],[13.6436938896174,46.0358563465381],[13.6434355338228,46.0354435257088],[13.6429304525084,46.0346498720968],[13.6427199677467,46.0340762896854],[13.6424331892676,46.0333740334466],[13.6420751048158,46.0323871422513],[13.6416582041265,46.0312599965917],[13.6412130560035,46.0300685397747],[13.640839801314,46.029069856731],[13.6404280803755,46.0279968436297],[13.6400876957529,46.0270810576392],[13.63989242423,46.0270269969095],[13.6393174038435,46.0257828790695],[13.6386876886988,46.0244316637928],[13.6381170022415,46.0231762538663],[13.637663029875,46.0222339125255],[13.6372451753457,46.0213203427011],[13.6369174485863,46.0206131738084],[13.6366130595114,46.0204963514524],[13.6367624568127,46.0201510026062],[13.6364268960641,46.019185144784],[13.6361844821948,46.0184391316911],[13.635876857321,46.0175564742208],[13.6355204110024,46.016558872002],[13.6352510647513,46.0157431626738],[13.6350952519657,46.0152524562784],[13.6311379800847,46.0119792610731],[13.6294515224342,46.0124998986494],[13.6288021257317,46.0126240144082],[13.6281707785919,46.0126604355229],[13.6272145135746,46.0128067712429],[13.6269285797865,46.0130946816968],[13.6265766550188,46.0133772994331],[13.6256528542433,46.0139535629534],[13.6251684900782,46.0142281050172],[13.6247302275341,46.0146223295435],[13.6244442714174,46.014910233441],[13.6240156911784,46.0149501520062],[13.6236216664599,46.0149454066683],[13.6232633551945,46.0147505187802],[13.6232717872729,46.0144107768875],[13.6230681503919,46.0143788107918],[13.6225700675823,46.0145966709081],[13.6222217480255,46.0145924716682],[13.6214781814839,46.0136610586324],[13.6213025184335,46.0131168272282],[13.6212272004145,46.0125413245642],[13.6212161496073,46.0121494308022],[13.6211232350471,46.0114454982252],[13.6209881671329,46.0109361272521],[13.6203655377219,46.0102175221311],[13.619779913147,46.0096834537892],[13.6191289884032,46.0091690181138],[13.6186452394951,46.0093622007939],[13.6176456099458,46.0096332704414],[13.6174032337644,46.0096487833886],[13.6170440161795,46.0096168134775],[13.6159529566262,46.0094528018079],[13.6152685971965,46.0094517088335],[13.6145820259675,46.0095857306675],[13.6140865803631,46.0097759629377],[13.6137402833524,46.0099866278338],[13.6134106097801,46.0102605673894],[13.6131267818013,46.0105755521423],[13.6128771505096,46.0109378293998],[13.6127451823892,46.0111183411212],[13.6125643554782,46.0114245873867],[13.6122893790587,46.0122370711467],[13.6121248442599,46.0126867581214],[13.6118458380816,46.013303671415],[13.611523947835,46.0139929443628],[13.6113518976531,46.0143038840537],[13.6110976863861,46.0145642474763],[13.6108507675279,46.0147705327582],[13.6104598961871,46.0149699384055],[13.6099584764025,46.0151383955217],[13.6090036515231,46.0154245107103],[13.6085022244548,46.0156289521785],[13.6076841490247,46.0160282031059],[13.6070073903628,46.0164308805178],[13.6065053615308,46.0168128306495],[13.6061307963556,46.0171998425432],[13.6059255597718,46.0174832860148],[13.605848043114,46.0176950460937],[13.6058174866521,46.0178317083606],[13.605971740829,46.0182613412451],[13.6062105040728,46.0186893053944],[13.6065338481912,46.0191488026835],[13.606641106895,46.0194958923825],[13.6067305313369,46.0199977049676],[13.6067688416531,46.0203235290179],[13.6067650073171,46.020779485837],[13.6067750964864,46.0214112475157],[13.6064423479422,46.0218959451634],[13.606390033429,46.0223433026625],[13.6061578234567,46.0228461411826],[13.6061364701841,46.022971128692],[13.606166052094,46.0232381813214],[13.6061197504616,46.0235900563891],[13.6061097852271,46.0237295791064],[13.6059692014995,46.0239732313797],[13.6057278368118,46.0242335592569],[13.605255439322,46.0246718306823],[13.6045523609624,46.02526339337],[13.6042924318849,46.0254704950365],[13.6039655063768,46.0256912639278],[13.6035571391418,46.0258940310083],[13.6029212003155,46.0261880404686],[13.6024256082484,46.0263150561835],[13.6016723180941,46.0264780565726],[13.6009328035945,46.0266068494627],[13.600512870924,46.0266581228255],[13.6001959166678,46.0267235228654],[13.6000368896448,46.0267242740038],[13.5995563725562,46.0267807400777],[13.599199957119,46.0268741764233],[13.5990262290263,46.0269608538731],[13.5982775816523,46.0273993082001],[13.5977682178281,46.0276716274675],[13.5970870804334,46.0280550266861],[13.5964237576917,46.0282701138643],[13.5959597472505,46.0284341100261],[13.5957569519809,46.0285358113935],[13.5955895377311,46.0287705732232],[13.5955134551823,46.0289234986609],[13.5954973168792,46.0291475227789],[13.5955717947161,46.0294251171602],[13.5955882343336,46.029592046417],[13.5955949662812,46.0298362364961],[13.5955806362241,46.0304019250937],[13.5956566601126,46.030970433641],[13.5957093790535,46.0314900681756],[13.5959142879861,46.031907199569],[13.5961630525076,46.0322862692659],[13.5964697167905,46.03274100028],[13.596773136084,46.033257774612],[13.596819882207,46.0335494237357],[13.5969611070574,46.0340486397516],[13.5970291222467,46.0343115773503],[13.5970288887633,46.0346883074779],[13.5970109067364,46.0349393919809],[13.5969722736918,46.0351386662017],[13.5967830602479,46.0356113305207],[13.5966962053205,46.0360925396572],[13.5965222661425,46.036380128809],[13.5962783409436,46.0367784292292],[13.5960216710008,46.0371135887654],[13.5958401246606,46.0372473130357],[13.5955250970172,46.037443100099],[13.5949609974118,46.0377349785138],[13.5943513554856,46.0380190058146],[13.5941593474375,46.0380606424401],[13.593926795979,46.0380605705149],[13.5933019234758,46.0379466174452],[13.593003503876,46.0379304367288],[13.5925349573349,46.0379336644017],[13.5920939114135,46.0380037218257],[13.5917937657494,46.0381215820938],[13.5910953854536,46.0384395893839],[13.5903737497622,46.0388283871798],[13.5900342467963,46.0390608376049],[13.5892981405058,46.0395556226167],[13.5889927271746,46.0395753358016],[13.5885043039618,46.0396178013198],[13.5881372365267,46.0396740010311],[13.587772461214,46.0396452898218],[13.5873921022681,46.0395436835781],[13.5864538316319,46.0394837635428],[13.5858643170376,46.0393917116333],[13.5853056569181,46.0394575879942],[13.5846745948923,46.039631616759],[13.5841187161997,46.0395884699164],[13.583652059173,46.0394615781595],[13.5832058111451,46.0392136488336],[13.582847546128,46.0389305482648],[13.5825034952842,46.038768731635],[13.582260832529,46.0387294606095],[13.5818572937195,46.0388577989227],[13.5816087403275,46.0390487040053],[13.5811950767504,46.0388860193544],[13.5807977371785,46.0387721234028],[13.5803642874511,46.0387061849789],[13.5799805359807,46.0387377675071],[13.579824488853,46.0387116245025],[13.5793919722843,46.0386093433594],[13.5791148808476,46.0385574907645],[13.5787711525372,46.0383836099914],[13.578375067596,46.0382211337274],[13.5780093729908,46.0382288204898],[13.5777665891565,46.0381894484252],[13.577527044426,46.038028917409],[13.5771962251862,46.0380369457183],[13.5768627869641,46.0381419354495],[13.5763911805158,46.0382088523519],[13.5760968409152,46.0381446306794],[13.5755447205665,46.0379560863927],[13.5750944724322,46.0378656248117],[13.5741540637989,46.037890425169],[13.5738123336185,46.0390605379117],[13.5738373927511,46.039964487551],[13.573728512852,46.0404651090813],[13.5737620529534,46.0410344508209],[13.5746252014011,46.0411120732838],[13.5755305094191,46.0414245142537],[13.5760934700165,46.0419668921601],[13.5761286229959,46.0424694004212],[13.5760164481194,46.043103868235],[13.5760567598192,46.0434056126549],[13.5767201439846,46.0437818818985],[13.5772469826324,46.0438553851877],[13.5778673503483,46.0440303740961],[13.5781978280207,46.0442686958137],[13.5776522177803,46.0449313326543],[13.5771160460351,46.0452258997095],[13.5758942369875,46.0460140816069],[13.5748647374918,46.0468045588948],[13.5744229179264,46.0471672325452],[13.5746597423563,46.0473040720082],[13.5749327067971,46.0479097801954],[13.5753448055793,46.0487181402072],[13.5750943336842,46.0491166730414],[13.5747973949258,46.0494476831662],[13.5741659137235,46.0497075761732],[13.5735866586,46.0498008510383],[13.5748216099963,46.0503850918014],[13.5752608191933,46.0508986665796],[13.5756882806089,46.051593036154],[13.5763202547063,46.0519430923475],[13.5776073659071,46.0523963167866],[13.5786086619315,46.0524256013285],[13.5794554785193,46.0527592371643],[13.5799388410659,46.0529694016815],[13.579345161016,46.0532512973243],[13.5790178806706,46.0536216206513],[13.5782788650138,46.0538506867051],[13.5775550862569,46.0544373245532],[13.5766576175495,46.0551238279301],[13.5763509204634,46.0556475399807],[13.5754564799724,46.0562149426031],[13.5752034150319,46.0565521688678],[13.5748762187568,46.0569223912388],[13.5737976465675,46.0570452497076],[13.5729669830507,46.0573475480683],[13.5726179351465,46.0574465717518],[13.5718276387183,46.0576163807274],[13.5712324208587,46.057949321512],[13.5707624107998,46.0583882879575],[13.5698593651583,46.0588595340271],[13.56932984423,46.0596952659111],[13.5688193322184,46.0599548439254],[13.5682273090408,46.0603525020649],[13.5677317328687,46.0607737701192],[13.5672700673039,46.0611279788033],[13.566901808771,46.0616184117209],[13.5665307647741,46.0622211890784],[13.5660719907294,46.0624629585515],[13.5650540228975,46.0630802856909],[13.5642617032001,46.0637229330499],[13.5646101788874,46.0639971500456],[13.564920975275,46.0644735197168],[13.5650797107952,46.0645879835485],[13.5653352324333,46.0647035723128],[13.5657682638557,46.0648327255244],[13.566000413955,46.0650223399889],[13.5662988444238,46.06558258861],[13.5665377806019,46.0657549216452],[13.5669838967728,46.0659782596935],[13.5674301481104,46.0662015077063],[13.5674251399674,46.0663950741372],[13.5673177309852,46.0665146558792],[13.5672432013598,46.0667073506803],[13.5670606344702,46.06704382269],[13.5672300575829,46.0672152825655],[13.5675764140284,46.067268031871],[13.5681305840142,46.0673474978635],[13.5686171102414,46.0673535029648],[13.569066503591,46.0674558556201],[13.5695145191491,46.067606596549],[13.5698956438545,46.067659684054],[13.5705205931693,46.0676916168909],[13.5710033783236,46.0678426969188],[13.5715531895984,46.0680915172888],[13.5719628427802,46.0683869009319],[13.5721670470134,46.0685587880606],[13.57240713062,46.06868280574],[13.5730674787197,46.0686909631973],[13.5740760712788,46.0686791690782],[13.5751920602896,46.0685477769064],[13.5758909035937,46.0684111761582],[13.5767646664996,46.0682283424846],[13.5766226390539,46.0683475917485],[13.5763389460429,46.0685618906103],[13.5759871008267,46.0687269322552],[13.5758387195148,46.0690880477629],[13.5760087985635,46.0692352990693],[13.5763538053214,46.0693363222034],[13.5767330829404,46.0694619747609],[13.5772860454561,46.0695897885098],[13.5774877840002,46.0698584499129],[13.5777254012749,46.0700791502274],[13.5779308727927,46.070202635492],[13.5785155045331,46.0704517655327],[13.5788240263057,46.0706249382269],[13.5793274740126,46.0713328333926],[13.5796023518958,46.0714571784419],[13.5799115010387,46.0716062423109],[13.5800437339493,46.0718739453729],[13.5801064352516,46.0721409643157],[13.5799959386509,46.072381537602],[13.5799915963296,46.0725508190242],[13.5805476972409,46.0725577277527],[13.581144766656,46.0723230162446],[13.5815302734088,46.072206783879],[13.5820863735391,46.0722135951343],[13.5828498203304,46.0722713824068],[13.5838274254461,46.0721139861098],[13.5845950742281,46.0720023884372],[13.5853609966537,46.0719632851271],[13.5859824264526,46.0721403114639],[13.5859774844272,46.0723337893047],[13.5856900972363,46.0726932872419],[13.5854034561193,46.0730285000791],[13.5845556203524,46.0735504815226],[13.5839797068135,46.0743176825433],[13.58404304858,46.0745605035225],[13.5845246940061,46.0747599192511],[13.5850771095543,46.0749118919488],[13.5855955096605,46.07503923736],[13.5860442530336,46.0751656286019],[13.5863888268496,46.0752908195335],[13.5864466213491,46.0757513129997],[13.5864745932165,46.0760178086826],[13.5862213406744,46.0764018435902],[13.5860005084213,46.0768830934748],[13.5860303306542,46.0770770912851],[13.5862301573621,46.0774182340262],[13.5864642632407,46.0777840939821],[13.5867368471811,46.0780052077067],[13.5871142281602,46.0782033229041],[13.5876705191078,46.0782101092749],[13.5882614490667,46.0782173208533],[13.5891683758246,46.0781074129748],[13.5900714716349,46.078142672209],[13.5907307076975,46.0781990309428],[13.5914576318372,46.0783289209384],[13.5919394664439,46.0785283075604],[13.5926340905859,46.0785609777038],[13.5933653288671,46.0785214835248],[13.5938476554023,46.0786967545236],[13.5940476654855,46.0790378857082],[13.594206148514,46.0796447451644],[13.5943030831779,46.0799362906292],[13.5944360172763,46.0801798716009],[13.5946371334851,46.0804726980736],[13.5949433069207,46.0807425223346],[13.5953873325002,46.0810625373283],[13.5958355314544,46.0812131767864],[13.5961429424148,46.0814346058358],[13.5963440721308,46.0817274293968],[13.5966154879551,46.0819969121629],[13.596890587325,46.0821212180339],[13.5974431112494,46.0822731319855],[13.5979968665527,46.0823765612374],[13.5981658194689,46.0825721724803],[13.5985769455503,46.0828191606576],[13.5989531747839,46.0830657195199],[13.6001637971109,46.0833223208488],[13.6008506657845,46.0836694023872],[13.6020533663256,46.0842404430604],[13.6023577633733,46.0845828361989],[13.6021405723697,46.0849190296661],[13.6019941489717,46.0852075913321],[13.601949726413,46.0855942149174],[13.6023912597919,46.0860108961373],[13.6025571837205,46.0863274814945],[13.6028542656643,46.086960136428],[13.6031884402683,46.0874965196554],[13.6037686141353,46.0879390934159],[13.6044511633889,46.0884554350692],[13.6050019438195,46.0886798116075],[13.6057607692128,46.088930927379],[13.6062761750606,46.0891790697151],[13.6065458472636,46.0895211178505],[13.6068490820948,46.0899118915873],[13.6071797894278,46.0905933518233],[13.6074115252435,46.0910558631769],[13.6077806741952,46.0915926587255],[13.6083123131853,46.0917726077609],[13.608899636385,46.0914096873434],[13.6092463394294,46.0911475782079],[13.6099056338665,46.0902975886846],[13.6111098851779,46.0897499706348],[13.612314242093,46.0892023411436],[13.6139928331581,46.0883941224585],[13.6142941266769,46.0882498556006],[13.6149376336028,46.0880208397046],[13.6157057662471,46.087911738276],[13.6163559195464,46.0874165558632],[13.6170419366181,46.0871881327515],[13.618411132015,46.0868494683349],[13.6194430225848,46.0863883947651],[13.620219975247,46.0859243241072],[13.6206897545618,46.0858411887023],[13.621849932065,46.0853520395106],[13.6223637045835,46.0852103134796],[13.6232680754084,46.0847476679904],[13.623737104369,46.0846941131307],[13.6245528501696,46.0843784007273],[13.6253200524042,46.0842987355936],[13.6265571383287,46.0841359070265],[13.6272841358003,46.0839670291235],[13.6277128281716,46.0838241670562],[13.6281847776934,46.0836523104936],[13.6289051693429,46.0837495821278],[13.6297626696781,46.0834638456026],[13.6304500486796,46.0831761539945],[13.6319405121194,46.0829144504416],[13.6357307647095,46.0830276026624],[13.6366112956807,46.0830804896194],[13.6376134654177,46.0831348199504],[13.6388928031238,46.0830442523798],[13.6402639139664,46.0829337080557],[13.6412105285506,46.0827756321668],[13.6430493413506,46.0821838439136],[13.6437162885295,46.0819666410491],[13.6450311707226,46.0815476540492],[13.6569024247046,46.0786794381585],[13.657913777563,46.0786138502668],[13.6592888485005,46.0783336991705],[13.6603618204739,46.077965413093],[13.6610382507428,46.0776559047307],[13.6618382160647,46.0772631714242],[13.6624182662242,46.0771641500847],[13.662605699088,46.0773688799198],[13.6630703463377,46.0774925451893],[13.6634536459075,46.0774674264784],[13.6638836238134,46.0772653293786],[13.6643171671459,46.076915351606],[13.6649171034697,46.0767151469248],[13.6656828496218,46.0766943980338],[13.6665349384146,46.0766154472334],[13.6670889066756,46.0765627054723],[13.6675131694823,46.0765971652134],[13.6683264183507,46.076369827457],[13.6687556606706,46.0761972155987],[13.6692231541286,46.0762026604073],[13.6695652129076,46.0761178366657],[13.6699519267699,46.0759447251953],[13.6706765576725,46.0758643500087],[13.6713643445376,46.0755468147144],[13.6715810867041,46.0753718114731],[13.6713792527889,46.0749257028938],[13.6716817462591,46.0747220942034],[13.6720641841609,46.0747265387421],[13.6726188406097,46.0746440860422],[13.672878677165,46.0744399787068],[13.6728418274005,46.0742029135322],[13.6729764818351,46.0739086356612],[13.6733171023503,46.0738829882708],[13.6740806830169,46.0739508744513],[13.674502098427,46.0741035938513],[13.6751389547792,46.0741404908859],[13.6756467045315,46.0742350026018],[13.6762403340473,46.0743009946963],[13.6766248922351,46.074216642087],[13.6771356013564,46.0741928628374],[13.6777271137953,46.0743475391641],[13.6781067253654,46.0744702493841],[13.6784884581631,46.0745041764317],[13.6786110826701,46.0747126294212],[13.6786918902563,46.0748910866281],[13.6789425308349,46.0750714171418],[13.6791899029358,46.0753996300538],[13.6791424393603,46.0756062064891],[13.6794767202775,46.0758466167868],[13.6796843973468,46.0760560513241],[13.6799323525387,46.0763547571445],[13.6802673448487,46.0765656611511],[13.6808205978343,46.0765423567135],[13.6812866885088,46.0766068502529],[13.681669847913,46.0765815788386],[13.6820127225752,46.0764672150998],[13.6824369951693,46.0765016195248],[13.6830291224425,46.0766266732635],[13.6835015493628,46.076424901557],[13.6842381214441,46.0758416115542],[13.6845384635429,46.075726750529],[13.684964138398,46.0757019574437],[13.6856901517823,46.075562298678],[13.6861158228147,46.0755375912344],[13.6868042211309,46.0751903679346],[13.687284206568,46.0746633137973],[13.6875691615849,46.0743735344282],[13.687852580213,46.0740939039981],[13.6882954565046,46.0734516998838],[13.6890090191265,46.0727607732697],[13.6894588682414,46.0725875102008],[13.6898887150479,46.0723853136647],[13.6903110976552,46.0722143416644],[13.6828919861989,46.0711264715612]]]},"properties":{"fill-opacity":0,"stroke-opacity":1,"stroke":"#ff0000","lov":"1205","lov_naziv":"ANHOVO","luo":"12","luo_naziv":"Zahodno visoko Kraško","povrsina":4238.4},"id":"pregledovalniklovisca.1"}]}