{"type":"FeatureCollection","features":[{"type":"Feature","geometry":{"type":"Polygon","coordinates":[[[14.0556293919384,45.8387018005884],[14.0629402476859,45.840314136625],[14.070152443283,45.8418926287865],[14.0722080342933,45.8423424093026],[14.0745362023161,45.8428545570502],[14.0783655215068,45.8436969424589],[14.0795440613247,45.8439617139058],[14.0865496044365,45.8455352550194],[14.0897414843369,45.8462496090383],[14.0934705794989,45.8470841204555],[14.0981019400611,45.8481195406391],[14.1013218474946,45.848814806289],[14.1027726601135,45.8491280881464],[14.0998948302693,45.8511300737813],[14.1002368574651,45.8514791872336],[14.1004902163777,45.8517376225309],[14.1037917439878,45.8550298964886],[14.1075557272308,45.8588204804714],[14.1108257516359,45.8621212986196],[14.1109839043157,45.862040378485],[14.1115528899054,45.8617490433533],[14.1121831345722,45.861807929514],[14.1122025694595,45.8619704924995],[14.1122058813569,45.8619970620178],[14.1126447221797,45.8621306704347],[14.1131158639402,45.8622740656503],[14.1140052607295,45.8630367885569],[14.1147417098614,45.8632944376635],[14.115330098108,45.8643207952104],[14.1156692301806,45.8649123322785],[14.1163678810544,45.8648588911955],[14.1166264253673,45.8648391154486],[14.1165553747742,45.8648445047285],[14.1179130832278,45.8647407209998],[14.1181955437659,45.8649269980189],[14.1182444909586,45.8649592282798],[14.1183387507008,45.864944029382],[14.1183774879367,45.8649377598206],[14.1183897545604,45.864935784953],[14.1186705960477,45.8648905326356],[14.1186220707891,45.8647012026782],[14.1195296210078,45.864321290428],[14.1205831779239,45.8644823681446],[14.1208936043078,45.8643983771994],[14.1211005547169,45.8643423827628],[14.1212770081864,45.8643582265104],[14.1215378288235,45.8643817370005],[14.1216286811128,45.864337446009],[14.1219012371182,45.8642045725926],[14.1219013658946,45.8642045735822],[14.1223376484452,45.8643069023628],[14.1224059953155,45.8648742943056],[14.1228145472387,45.8651023786894],[14.1230890733139,45.8653521077618],[14.123093899017,45.8653564637829],[14.1233576882597,45.8657813886313],[14.1233766962373,45.8658667444494],[14.1234779839153,45.8663221846783],[14.123508724613,45.8664477610395],[14.1235263856164,45.8665205094505],[14.1234712030275,45.8667372051176],[14.123469967623,45.8667420544984],[14.1234593020685,45.8668060376217],[14.1234798320185,45.8670240339051],[14.123589166364,45.8671561517107],[14.1236821963485,45.8672685289774],[14.1239979641056,45.8674191454397],[14.1241807785442,45.8675062966975],[14.1242875232298,45.8677624747879],[14.1243049003629,45.8678041781881],[14.1243245949931,45.8678213351245],[14.1244827978088,45.8679585054604],[14.1247516934191,45.8680595422374],[14.1251338138317,45.8683324951113],[14.1255944811581,45.8685249768925],[14.1256178336592,45.868547110431],[14.1258038759694,45.8687245325294],[14.1262614352496,45.8691239390998],[14.1265425139034,45.8692700542037],[14.1268259890816,45.8692632229504],[14.1273116837077,45.8692483079118],[14.1277667067946,45.869234416381],[14.1282558209523,45.8692561448076],[14.128869473347,45.8692211442667],[14.1289519807636,45.869216464521],[14.1293246238777,45.8692732919484],[14.1295762778144,45.8694979068158],[14.1294083350715,45.8697689931776],[14.1295106003901,45.8698353668616],[14.129754586183,45.8702956673347],[14.1300264248967,45.8705148562131],[14.1305301566574,45.8706159574994],[14.1308770540776,45.870969963811],[14.1310715130052,45.8714106291866],[14.1318140656639,45.8722066471363],[14.1320846858224,45.8726127976346],[14.1324325714079,45.8728964432158],[14.1327537048213,45.873285339767],[14.1331792588179,45.8734290257174],[14.134164009808,45.8731902201786],[14.1355760724755,45.8729897313673],[14.1361170947899,45.8727147089674],[14.1367152910177,45.8725237062351],[14.1375175532842,45.8727052232848],[14.1386488668544,45.8727661247398],[14.1393491915696,45.8730347696637],[14.139873454715,45.8733021750705],[14.1400470127966,45.8735079131072],[14.1402690353024,45.8737618842214],[14.1403911048361,45.8740489349836],[14.1406524414617,45.8741677831044],[14.1412197040112,45.874120130232],[14.1420180762778,45.8745652240248],[14.1426946753599,45.874745760984],[14.1431025638164,45.8751192629588],[14.143926259332,45.8752342214117],[14.1442220035156,45.8754453673313],[14.1444809153002,45.8757231808608],[14.1463043020875,45.8761716855082],[14.1469384066462,45.8761681432926],[14.1472316087743,45.8765465327775],[14.1477078225862,45.8767005302094],[14.1491041082969,45.8769117689921],[14.1497968405286,45.8769838696537],[14.1501778703317,45.877103766409],[14.150464402186,45.8772369060431],[14.15047911085,45.8772438537782],[14.1506529485248,45.8773246872289],[14.1510344922359,45.8774111128742],[14.1514300221914,45.8771458245173],[14.1516609082966,45.8768471001507],[14.1517353975205,45.8764048680837],[14.1516045599412,45.8760718753533],[14.1515946263803,45.8752179037856],[14.1524575490678,45.8750501089602],[14.1528921867623,45.8747528031605],[14.15395369175,45.8734162958393],[14.1544347390787,45.8733359965029],[14.1550001962265,45.8730916583229],[14.1568833030433,45.8728363524044],[14.1575856023131,45.8728096798495],[14.1582438856604,45.8727036773992],[14.1586242519088,45.8727387812218],[14.159033516312,45.8728990769291],[14.1594606043591,45.8731076409001],[14.1598417713961,45.8733633743922],[14.160134778529,45.8734602760433],[14.1604530536803,45.8733676874531],[14.1616161712829,45.8728066621688],[14.1623397106474,45.8728750437947],[14.1627080648124,45.8724665407831],[14.1631624496359,45.872359015693],[14.1639161122955,45.8719215675204],[14.1646893511469,45.8716898589004],[14.1654169040162,45.8714893938983],[14.1658977269495,45.8711291207444],[14.1661519966016,45.8707671924725],[14.1665391946294,45.8706118347772],[14.1679218977539,45.8705107883927],[14.169412856598,45.8707427138308],[14.1698896465826,45.8706511610888],[14.1702784816226,45.870385038758],[14.1710734003393,45.8702166993873],[14.171665505577,45.8699836293199],[14.1716987579278,45.8699128771244],[14.1717781174163,45.869773085497],[14.1718182379812,45.8696734998613],[14.1718212178601,45.869472868791],[14.1718493543797,45.8693129104966],[14.1718769028224,45.8691925385926],[14.171969139748,45.8690528401445],[14.1721128918102,45.8689135148812],[14.1723728467505,45.8687552358387],[14.1726582642043,45.8686169359035],[14.1729574530861,45.8684184491415],[14.1732689183427,45.8682605408721],[14.1733028820909,45.8682458501266],[14.1733169005123,45.8682385732886],[14.1735282802528,45.868141845565],[14.1737618836624,45.8680229634094],[14.1739056285857,45.867883635817],[14.1740493727884,45.8677443080353],[14.1741943020576,45.8675249074985],[14.1743509231619,45.8673856723935],[14.1744042089378,45.8672663856028],[14.1745473643188,45.8671666436033],[14.1746899213342,45.8671072975874],[14.1748980525339,45.8669685237437],[14.1749898445788,45.8668494247441],[14.1750953830641,45.8666891246329],[14.1751627292894,45.866489857832],[14.1752561376659,45.8662700839739],[14.1753113804748,45.866009544106],[14.1754311424363,45.8657494698167],[14.1754853155108,45.8655699030739],[14.1755775373186,45.8654302015225],[14.1756946238332,45.8653509650954],[14.17583688114,45.8653115007934],[14.1760177591722,45.865273214615],[14.176237284443,45.8652343069911],[14.1764960281312,45.8651560909144],[14.1767550765626,45.8650571813129],[14.1769883547973,45.8649589852961],[14.1772217609944,45.8648607897231],[14.1774805015926,45.8647825713907],[14.1777143743543,45.8646438876862],[14.1778575170751,45.864544141408],[14.1780009510167,45.8644246016967],[14.1781840557979,45.8642261657461],[14.1783539704065,45.8640662355771],[14.1785613573646,45.8639678501507],[14.1787576071793,45.8637686079776],[14.1789654124813,45.8636504294706],[14.1792499136708,45.8635714924296],[14.1794817121073,45.8635731572103],[14.179764717005,45.8635958842574],[14.1799453090412,45.863576485361],[14.1801135919878,45.8635183069451],[14.1802570184641,45.8633987643297],[14.1803483388202,45.8633193382549],[14.1804657182172,45.8632194038752],[14.1806094339608,45.8630800675352],[14.1808043552452,45.8629617932781],[14.1810115719351,45.8628831975199],[14.1812702981237,45.8628049704805],[14.181529036796,45.862725843155],[14.1819285297236,45.8627089087082],[14.1823666549197,45.8626922493143],[14.1823938870723,45.8625916678371],[14.1824471509738,45.8624723770489],[14.1825393501907,45.8623326696507],[14.182630665555,45.8622532417032],[14.1827088132407,45.8621935148514],[14.1828648181265,45.8620938542627],[14.1830843130798,45.86205583304],[14.1833427427596,45.8619973945337],[14.1835233152755,45.8619788896281],[14.1837170678545,45.8619397834517],[14.1839239870909,45.8618809756305],[14.1839512028604,45.8617812934412],[14.1840173530703,45.861661194149],[14.1840191036452,45.8615415347258],[14.1840466217898,45.8614211595219],[14.1840744293578,45.8612809910187],[14.1841920872937,45.8611612594113],[14.1842582362331,45.8610411599582],[14.1843381316397,45.8608616825408],[14.1844572482916,45.8606420844813],[14.1844859357425,45.8604416362716],[14.1845269080131,45.8602817662336],[14.1845547137681,45.8601415975737],[14.1847241650987,45.8600024396535],[14.184905322341,45.85994344622],[14.1850993560611,45.8598845443329],[14.1853580626763,45.859806307864],[14.1856817437443,45.8596880433713],[14.1858503110664,45.8596091633485],[14.185942496965,45.8594694530453],[14.1859448341315,45.8593093072121],[14.1859462915681,45.859209440988],[14.1859998465345,45.8590694553984],[14.1861432489253,45.8589499051398],[14.1863507319566,45.8588515061843],[14.1864941330347,45.858731955472],[14.186701916344,45.8586128628584],[14.1869863679435,45.8585348059344],[14.1871929696132,45.8584966850603],[14.1874127489802,45.8584379623724],[14.1875303937165,45.8583182271798],[14.1876219836338,45.8582190017786],[14.1877393392425,45.8581190596784],[14.1879722811316,45.8580406341122],[14.1882055117263,45.8579423247747],[14.1883995350485,45.8578834171926],[14.1886326038032,45.8578049911788],[14.1887755807038,45.8577052299408],[14.1888932078854,45.8575863929963],[14.1889853827839,45.8574466801154],[14.189013175839,45.8573065102168],[14.1890155040146,45.8571463642007],[14.188991504252,45.8570256220542],[14.1889291638213,45.8568848123791],[14.1889057399223,45.8567244835531],[14.1888826170251,45.8565434616923],[14.1889361619903,45.8564034745949],[14.1890028704633,45.8562437855273],[14.1890818791088,45.8561237744599],[14.1890842069911,45.8559636284079],[14.1890092792825,45.8558029340426],[14.188894860991,45.8557013454259],[14.1888714376408,45.8555410165638],[14.1888992299667,45.855400846642],[14.188953650095,45.8552005798009],[14.1890261769232,45.8546405254709],[14.1890557207949,45.8543797960632],[14.1891484783046,45.8541995965599],[14.1891519709074,45.8539592874252],[14.1891542984129,45.8537991413095],[14.1890407601138,45.8536372731101],[14.1889266208186,45.8535167908731],[14.1888379580638,45.8534153849782],[14.1888399986523,45.8532750322004],[14.1889836545841,45.8531365844714],[14.1891273228766,45.8529972368563],[14.1893107927552,45.8527771903378],[14.1894287088998,45.8526376596198],[14.1895085740078,45.8524582681022],[14.1896001506649,45.8523590409261],[14.189666277307,45.8522389380102],[14.1897212663452,45.8519990839556],[14.1896975545704,45.851858548504],[14.1896355184906,45.8516970460664],[14.1894950568554,45.8516159684476],[14.1893291333235,45.8515149146182],[14.1890467607871,45.8514526249021],[14.1887772637991,45.8513904259009],[14.1888945897437,45.8512913820826],[14.1893367149548,45.8509930899322],[14.1894508369834,45.8511144714815],[14.189590709259,45.8512360355538],[14.1897305952083,45.8513566997585],[14.1899605932317,45.8514789024542],[14.1901911798794,45.8515606182867],[14.1904735542772,45.8516229051856],[14.1907570906753,45.8516051182692],[14.1910151770088,45.851566455282],[14.1913367510452,45.8515894268016],[14.1915679268178,45.8516306534542],[14.1919398547591,45.8517331610888],[14.1922725598773,45.851876780602],[14.1924768285648,45.8519978965405],[14.1927577629183,45.8521600443357],[14.1929617343837,45.8523018524775],[14.1931522462363,45.8524840557697],[14.1932918438431,45.8526254087232],[14.1934444461488,45.8527668533018],[14.1936090948379,45.8529479734584],[14.1936970231877,45.8531096564145],[14.1937719609298,45.8532703478469],[14.1937441819651,45.8534105190947],[14.1936514535985,45.853589822763],[14.193571587098,45.8537701169175],[14.1934788575652,45.8539494204269],[14.1934507783501,45.8541102846382],[14.1934999655073,45.8542707944497],[14.1935626007885,45.8543918083926],[14.1936384110718,45.8544922201086],[14.1937531346629,45.8545731109792],[14.1939319379998,45.854675148976],[14.1941245014354,45.8547160980269],[14.1943302267029,45.8547373441812],[14.1944976107996,45.8547385243019],[14.1946770004656,45.8548000747174],[14.1948163220054,45.8549612191794],[14.1949562155917,45.855082776744],[14.195096407043,45.8551837310457],[14.1952626244943,45.8552658829108],[14.1955576151481,45.8553479514462],[14.1958142631113,45.8554100439683],[14.1960068305011,45.8554509898677],[14.1962643479003,45.8554528015798],[14.1966760907741,45.8554754924834],[14.1971268752694,45.8554786608654],[14.1976163146498,45.8554623035479],[14.1978739609615,45.8554641125371],[14.1980539387358,45.8554851712293],[14.1982210278302,45.8555070389879],[14.1983615120122,45.8555881059736],[14.1983855315062,45.8557088463124],[14.1983065563174,45.8558279642594],[14.1981511783372,45.8558871598866],[14.1980724856254,45.8559865742566],[14.1982392930526,45.8560281454032],[14.1984713456199,45.8560099780798],[14.1987034109652,45.8559909105851],[14.1989357474586,45.8559529489365],[14.1990779646554,45.8559134553662],[14.1993105846665,45.855855699569],[14.199479134245,45.8557758994833],[14.1997375051618,45.8557183232246],[14.200021937047,45.8556393338909],[14.2002551353526,45.855541089679],[14.2006565830086,45.8553837362263],[14.2007990811118,45.8553244471008],[14.2010331400351,45.8551659214],[14.2012672105096,45.8550064955069],[14.2014371713537,45.8548277255057],[14.2016715224887,45.8546485053602],[14.2018154464338,45.854489348245],[14.2019073020254,45.8543693280473],[14.2020509286058,45.8542308637199],[14.2021945802024,45.8540905998036],[14.2023765489991,45.8539721981498],[14.2026357830117,45.853853435629],[14.2028051702868,45.8537142503183],[14.2028970083217,45.8535952189566],[14.2029247644186,45.8534550453372],[14.2028369374539,45.8532933702106],[14.2026973138578,45.853152028765],[14.2025834416203,45.8530108668637],[14.202468991224,45.852910191366],[14.202445246947,45.8527696583679],[14.2024478320035,45.8525888185868],[14.2025662808654,45.8524096872666],[14.2026841632547,45.8522701426361],[14.2028541111327,45.8520913703571],[14.2029728532175,45.8518915454699],[14.2031167791039,45.8517314868671],[14.2033522434705,45.8514729994195],[14.2035347791506,45.8513141092571],[14.2037044517266,45.8511542293654],[14.2039121574413,45.8510360045705],[14.2040803906973,45.8509768906143],[14.2042875304181,45.8508982519708],[14.2044051230544,45.8507784989033],[14.2044325916536,45.8506581182401],[14.2044852324336,45.8505784033978],[14.2044869512682,45.8504578434382],[14.2044371584006,45.8503378246187],[14.2043753634123,45.8501565364449],[14.204352179885,45.8499764168969],[14.2043799304079,45.8498362427998],[14.2044729143157,45.8496361469388],[14.204616817195,45.8494769860184],[14.2047598717036,45.8493772951718],[14.204852276538,45.8492176855384],[14.204854558602,45.8490575386731],[14.2049080561559,45.8489175435977],[14.2050656890121,45.8486981916518],[14.2052359129991,45.8484987224592],[14.205638730354,45.8482405842872],[14.2060155011992,45.8480029588841],[14.2063024442623,45.847744013097],[14.2066022472078,45.847485965687],[14.2066820624571,45.8473056618916],[14.2066325617705,45.8471649508001],[14.2065189729802,45.8470039992402],[14.2065206872073,45.8468834391454],[14.2066126713755,45.8467437104843],[14.2067303661285,45.846624855443],[14.2068098983635,45.8464643449718],[14.2068379221768,45.8463043766879],[14.2068404796299,45.8461244362108],[14.2069751499698,45.8448017780165],[14.2070153558812,45.8446813950351],[14.2070940152506,45.8445820640715],[14.2072364788838,45.8445227665803],[14.2073919443195,45.8444635591033],[14.2076508295791,45.844365477813],[14.2077297811274,45.8442454532296],[14.2077699709492,45.8441260596308],[14.2077067539937,45.8440446400623],[14.2076183399799,45.8439243546873],[14.2074775902618,45.8438630924867],[14.2073374030929,45.8437622431875],[14.2071457364745,45.8436601367173],[14.2070827893784,45.8435598230462],[14.2070590371309,45.843419290728],[14.2070867773814,45.8432791157474],[14.2071534178575,45.8431194152746],[14.2072069037664,45.8429794189029],[14.2072609644557,45.8427989358653],[14.2072635202325,45.842618995259],[14.2072403429588,45.842437976317],[14.2071273369839,45.8422365386422],[14.2069617028559,45.8421148170566],[14.2067951999953,45.8420542750397],[14.2066155561314,45.8420125371611],[14.2064482097062,45.8420113750391],[14.2063309344056,45.842110437375],[14.2061621545061,45.8422100415568],[14.2059805139357,45.8423086563249],[14.2058125905549,45.8423479798921],[14.2056712706055,45.8423272021131],[14.2055311033575,45.8422254509147],[14.2054418515589,45.8421645442478],[14.2053794855908,45.8420237430204],[14.2053048108075,45.8418432653057],[14.2052447258811,45.8415423169084],[14.2051337276656,45.8412005236517],[14.2050596313579,45.840979559136],[14.2049466361644,45.8407781193245],[14.2048093195849,45.8404766332149],[14.2046973384705,45.8401951187],[14.2045863474641,45.8398532349008],[14.2044999597893,45.8395916937543],[14.2043906754024,45.8391302392196],[14.2043434701957,45.8388293798876],[14.2043717918861,45.8386487188473],[14.2044001005623,45.8384689574962],[14.2044676018472,45.8382489783602],[14.2046126287021,45.8380088436506],[14.204783103151,45.837789581086],[14.2050170766607,45.8376310461818],[14.2051598064556,45.8375519576317],[14.2054464173542,45.837312806672],[14.2057052739193,45.8372146395018],[14.2059392424036,45.8370561026603],[14.206237861902,45.8368773192563],[14.2064317802822,45.8368192799351],[14.2066008245881,45.836699881667],[14.2068079075653,45.8366212378875],[14.207067626266,45.8364619776844],[14.2072498207067,45.8363228742685],[14.2074457287184,45.8361244793649],[14.2075386768893,45.8359244702798],[14.2077354506976,45.8356648949626],[14.2079199143191,45.8353655530945],[14.2081572887275,45.8349658907872],[14.2083285819099,45.8346872421666],[14.2086160189447,45.8343878027427],[14.2088250795031,45.8341688012695],[14.2089697836615,45.8339493538762],[14.2090241099491,45.83374907612],[14.2090661257914,45.8335091222186],[14.2090040404584,45.8333485292533],[14.2090071633689,45.8331281015507],[14.2090108598284,45.8328671871159],[14.2090148379266,45.8325863891882],[14.2089933539677,45.8322857095041],[14.2089973307987,45.8320050015194],[14.2090261944928,45.8317847519634],[14.2090945230253,45.8315044894179],[14.2091488463697,45.8313042114985],[14.2092417802016,45.8311042007676],[14.2092700690617,45.830924437846],[14.2093624285233,45.8307649137384],[14.2094808207826,45.8305848744158],[14.2095603089296,45.8304252610859],[14.209562588733,45.8302642138038],[14.2095399689988,45.8300436078804],[14.2095427964968,45.8298438732492],[14.2096617477718,45.8296241566764],[14.2097812697841,45.8293640431799],[14.2098741980352,45.829164031831],[14.2100709367929,45.828904451959],[14.2103325821887,45.8286057294116],[14.2104243622306,45.8284866911044],[14.2105167270015,45.828326266242],[14.21057046965,45.8281664742545],[14.2105464348156,45.8280457358036],[14.2104324642868,45.8279045804235],[14.2103187517216,45.8277634267091],[14.2101149758436,45.827601854823],[14.2099241992911,45.8274403724573],[14.2098109331458,45.827258730579],[14.2097236738464,45.8270583727878],[14.2097013474522,45.8268170735378],[14.2097302066892,45.8265967335987],[14.2097979521134,45.826356957092],[14.2094484967709,45.8264949076403],[14.2090484151564,45.8265723104371],[14.2086483337251,45.8266496218539],[14.2082353819197,45.8267268426831],[14.2078347239749,45.8268446379914],[14.2076016593477,45.8269428990377],[14.2072647705924,45.8271016253109],[14.2071715555381,45.8273214280903],[14.2071052156185,45.8274613356181],[14.2070774838068,45.8276015110412],[14.2070494707869,45.8277614799709],[14.2070217386763,45.8279016553712],[14.206929951118,45.8280207808864],[14.2068384340852,45.8281208325716],[14.2067220453151,45.8281596154947],[14.2065547404024,45.8281584537988],[14.2063879968266,45.8281177948019],[14.206209254861,45.8280157762355],[14.2060436517305,45.8278949530133],[14.2059289644637,45.8278140743511],[14.2056721498404,45.827771798522],[14.205466519211,45.8277505733148],[14.2052731948607,45.8277690242719],[14.2048736634572,45.8278067353481],[14.2040102642279,45.8278808053273],[14.2033527756142,45.8279563046471],[14.2027473415697,45.8279916726828],[14.2020513954628,45.8280471006955],[14.2012534810437,45.8280416154635],[14.2008548078276,45.8280190322861],[14.2004175262975,45.8279961775413],[14.2000826344384,45.8280136289323],[14.1998246761023,45.8280514136189],[14.1995541186818,45.8280702137853],[14.1990759317152,45.8282072306638],[14.198843130177,45.8282856802035],[14.1984436039498,45.8283224690346],[14.1980066054322,45.8282798115812],[14.1976983165168,45.8282371565123],[14.1970287999112,45.8282531485741],[14.1966301387448,45.8282297409248],[14.196141379168,45.8282065078498],[14.1956523349181,45.8282030661478],[14.1951123830286,45.8281596728091],[14.1945720308035,45.8281351697705],[14.1938514639394,45.828130088074],[14.1930794476638,45.8281048430256],[14.1926165470331,45.8280736793426],[14.1921662952163,45.8280578997137],[14.1916517988935,45.8280345554401],[14.1910989955114,45.8279901524138],[14.1907523789987,45.8279283115698],[14.1906116881582,45.8278670288163],[14.1904192327639,45.82782517459],[14.1902133210808,45.827823715405],[14.1899810831763,45.8278625599497],[14.1895812542534,45.8279200109098],[14.1891814375898,45.8279765607634],[14.1888983083489,45.8279745512163],[14.1886020089512,45.827993142705],[14.1880614894343,45.8279893029463],[14.1874823615021,45.827985186082],[14.1870834067776,45.8279823483126],[14.186684624806,45.8279588151154],[14.1862606369175,45.8279162053368],[14.1858878833339,45.8278730592573],[14.1856819717054,45.8278715919055],[14.1854766375159,45.8278305373574],[14.1852201277382,45.8277684222493],[14.1848483714826,45.827665893474],[14.1845658353233,45.8276233866827],[14.1842827081972,45.827621365711],[14.1839992918686,45.827639137444],[14.1836769646085,45.8276773257442],[14.1832774334824,45.827714061508],[14.1829553936112,45.8277325443343],[14.1826471210886,45.8276897587776],[14.1824163540101,45.8276278215212],[14.1821343984464,45.8275458119051],[14.1819036338617,45.8274837836494],[14.1815842465773,45.827321332986],[14.1814179889636,45.8272401502705],[14.1811873551463,45.8271781215008],[14.1808154816995,45.8270755787475],[14.180328218789,45.8269515117789],[14.1799561851753,45.8268688505287],[14.17959732853,45.8267654074521],[14.1792258804194,45.8266430670933],[14.1787909878975,45.8264590835258],[14.1782282812031,45.8262147926597],[14.1777044911878,45.825950083822],[14.1774503576967,45.8257278049235],[14.1772587946319,45.8256265484906],[14.1770298187821,45.8254440407552],[14.1768669523375,45.8251423361589],[14.1767151791379,45.8249612837291],[14.1766415212885,45.8247196079948],[14.1763872689057,45.8244973258238],[14.1761574112995,45.8243750961923],[14.1760451375812,45.8241340413992],[14.1759577124658,45.823953451952],[14.1759086146241,45.8237920345692],[14.1758229695618,45.8234908853362],[14.1757355461449,45.8233102957106],[14.1755706342853,45.8231480426083],[14.1754308490052,45.8230273611666],[14.1752264438265,45.8229251087992],[14.1750612289382,45.8227835480469],[14.174896307294,45.8226221936796],[14.1746930744952,45.8224407668537],[14.174529059118,45.8222182324277],[14.1744691599398,45.8219172680978],[14.1744454983216,45.8217767290951],[14.1743969931642,45.8215756343153],[14.174335020585,45.8214150229511],[14.1743382790063,45.8211945966709],[14.1743155090916,45.8209937777853],[14.1742933245365,45.8207533721254],[14.174232536926,45.8205126874617],[14.1742103661915,45.8202713820701],[14.1742130264256,45.8200914422197],[14.1742177748806,45.8197702495722],[14.1741975374521,45.8193894898178],[14.1742013947245,45.8191285769932],[14.1741127993025,45.8190280593206],[14.1740248028595,45.8188870551062],[14.1739110721848,45.8187458647614],[14.1736944036597,45.8186039298963],[14.1734648689674,45.8184619015427],[14.173209001732,45.8183601729828],[14.1728636643813,45.8182173053749],[14.1725820783275,45.8181144894207],[14.172351948634,45.8180129453164],[14.1721212330943,45.8179509875145],[14.1719171459187,45.8178289359246],[14.1717782754719,45.8176479702075],[14.1714990694723,45.8173850051678],[14.1712958666089,45.8172035723404],[14.1710406099097,45.8170613525115],[14.17076009302,45.8168784579633],[14.1704788128747,45.8167557535271],[14.1702229589425,45.816654018341],[14.1699677075001,45.8165117961376],[14.1694814439472,45.8163283033587],[14.1691379218321,45.8160648649546],[14.1691403036344,45.8159047185749],[14.1692073262962,45.8157243469237],[14.1692866130758,45.8155845552224],[14.1694308208014,45.8154056443856],[14.1695879074824,45.8152259271704],[14.169667486772,45.8150663418028],[14.169669278611,45.8149457821317],[14.1695941661319,45.8148048680296],[14.1694176076912,45.8145633390712],[14.1692546847491,45.8142616226189],[14.1691164337949,45.8140401672161],[14.1688875317386,45.8138576433054],[14.1686583232617,45.8136958120179],[14.1681987315449,45.8134513215852],[14.167775637933,45.8133483631954],[14.1673525459001,45.8132454032476],[14.1670063564767,45.8131627979475],[14.1663516926916,45.8130572459558],[14.1658638515059,45.8129736035609],[14.1653507042397,45.8128699786954],[14.1646565480989,45.81282441485],[14.1642843374671,45.8127614065688],[14.1638603543687,45.8127187135283],[14.1634232231368,45.8126948183728],[14.1629992412465,45.8126521221443],[14.1626524688249,45.812609090419],[14.162486890838,45.8124873040718],[14.1623088596755,45.8123465304489],[14.1621188810861,45.8121444827544],[14.1619423768653,45.8119020427177],[14.161726657603,45.8117006153618],[14.1614732584643,45.8114379048381],[14.1611043716212,45.8111543703622],[14.1607866517987,45.810891096029],[14.16048178687,45.8106288150515],[14.1601886001869,45.8104458012216],[14.1599977294766,45.8103040297703],[14.1596526450092,45.8101413283212],[14.1593962457146,45.8100791558112],[14.1592559323169,45.8099980414655],[14.1590515909474,45.8098966601649],[14.1589376183738,45.8097752484291],[14.158798823385,45.8095933674179],[14.1585681443528,45.8095322822017],[14.1583748687739,45.8095506541945],[14.1579616785203,45.8096474872839],[14.1576517069158,45.8097252843711],[14.1573034373009,45.8097830026166],[14.1570458343636,45.8098008978907],[14.1566990708717,45.8097587479273],[14.1563273590126,45.8096561262844],[14.1561349926733,45.809614214794],[14.1557879320213,45.8095918554051],[14.1554148421623,45.8095890980908],[14.1550674826872,45.8095865298412],[14.1547581199323,45.8096238327106],[14.1543580878002,45.809700954572],[14.1540621884735,45.8096987641297],[14.1538054842323,45.8096572721403],[14.1535876893315,45.8095953724905],[14.1534097035309,45.8094536854558],[14.1532188535363,45.8093119027997],[14.1530665996967,45.8091704059282],[14.1529658067438,45.80902929037],[14.1527639222481,45.808766852302],[14.1526247074743,45.8086056559747],[14.1524467272537,45.8084639674547],[14.1523073425283,45.8083225650128],[14.1520904555265,45.8082012826011],[14.1518855330456,45.8081394752162],[14.1516803105397,45.8080974607779],[14.1515133685465,45.8080764255991],[14.1513455112155,45.8081156698031],[14.1511648024961,45.8081539184864],[14.1509326205421,45.8081926841763],[14.1507390464613,45.808230836578],[14.150506863904,45.8082696013978],[14.1502250549769,45.8081874238084],[14.150021051555,45.8080653334872],[14.1497652751016,45.8079635528782],[14.1495338954739,45.8079411354721],[14.1492772027978,45.8078996333764],[14.1490214421784,45.8077969514186],[14.1487145114949,45.8076749918934],[14.1485111301749,45.8075124126107],[14.1483074346549,45.8073705259619],[14.1481423339662,45.8072289267078],[14.1479778376794,45.807047740625],[14.1477471949822,45.8069857339963],[14.1474656986224,45.8068837563618],[14.1472093281782,45.8068215566688],[14.1467979663404,45.8067986899892],[14.1463754532975,45.8066551656308],[14.1459141752986,45.8065311454809],[14.1456587297928,45.8064086627719],[14.1454676072764,45.8062866605925],[14.1452905608411,45.80608558119],[14.1450372659625,45.8058227447155],[14.1448479778328,45.8055810821026],[14.1446458409474,45.8053384231771],[14.1444433903969,45.8051163669063],[14.1442553332875,45.8047946304809],[14.1441175202546,45.804552542323],[14.1438896499855,45.804310499059],[14.1436867728349,45.8041083237462],[14.1434573743061,45.8039662357143],[14.1432019321142,45.803844647274],[14.1430108237084,45.8037226410309],[14.1428059278572,45.8036608175007],[14.1426141998548,45.803579296858],[14.1422941389657,45.803477017007],[14.1420898662927,45.8033747059492],[14.1419241715597,45.8032735840591],[14.1418356731065,45.8031721419786],[14.1418121009255,45.8030315964007],[14.1418145599385,45.8028714507818],[14.1417912918549,45.802711111914],[14.1417686455821,45.8025102867835],[14.1417067874019,45.8023496580075],[14.1415934759026,45.8021886426277],[14.1414792529561,45.802087006976],[14.1413141851254,45.8019453979591],[14.1412005714378,45.8018041754721],[14.1411123669266,45.8016838392462],[14.1410382704466,45.8014826271519],[14.1410162495167,45.8012413155966],[14.1409294663808,45.8010202124659],[14.140764531697,45.8008786036282],[14.1405859836351,45.8007773830867],[14.1404455924026,45.8006962449023],[14.1402400877519,45.8006749030902],[14.1400477646876,45.8006329647546],[14.1398422604316,45.8006116222294],[14.1395341705543,45.8005688114185],[14.1392392489957,45.800506303414],[14.1388426577102,45.8003629463001],[14.1385354851726,45.8002607529942],[14.138330912151,45.8001791282566],[14.1381649285032,45.800097794245],[14.1380249902577,45.7999959611205],[14.1379628402898,45.7998551236137],[14.137939279136,45.7997145772355],[14.1379157180957,45.7995740308498],[14.1378792805219,45.7994342870928],[14.1378039634842,45.7993131457047],[14.1376897532838,45.799211506305],[14.1374597653627,45.7991098925972],[14.1373195115041,45.7990287515815],[14.1372315118358,45.7988876284887],[14.1371568065932,45.7987269901084],[14.1370955907131,45.7985258726215],[14.1370083460523,45.7983442640916],[14.1368947504929,45.7982030373648],[14.1367557362637,45.7980418228932],[14.1365913037323,45.7978606205852],[14.1363901615959,45.7975576676814],[14.1362533190374,45.7972561003258],[14.1360913792199,45.7969138520583],[14.1360038190624,45.7967530256857],[14.1358390867436,45.7965916155694],[14.1356618132431,45.7964094149517],[14.135523113055,45.7962284057179],[14.1353577713869,45.7961065814529],[14.1351286044121,45.7959446826458],[14.1349006288079,45.7957225058342],[14.1347088109688,45.7956409711172],[14.1344788570783,45.7955384517962],[14.1342746137799,45.7954370266291],[14.1340838601327,45.7952952123563],[14.133905035366,45.7952137747559],[14.1338303458629,45.7950530442326],[14.1337164582402,45.7949316076355],[14.1336035052819,45.7947498914388],[14.1335171966363,45.794508990422],[14.1333803768475,45.7942074196308],[14.1333320408,45.7940063976583],[14.1332203323426,45.7937446083173],[14.1330207577155,45.7933426831692],[14.1329727306138,45.7931218677621],[14.1327452743826,45.792859199481],[14.1324868071534,45.7929373194303],[14.132419694699,45.7931176695976],[14.1323011504066,45.7932967293286],[14.1321825913831,45.7934766886192],[14.1320129071652,45.7936355639954],[14.1318943464836,45.7938155229644],[14.1317757990039,45.7939945821058],[14.1316330788223,45.794073579634],[14.1314648140486,45.7941325872056],[14.1311689988963,45.7941303380666],[14.1307712287758,45.7940670259577],[14.1303474147021,45.7940242096208],[14.1299490302518,45.7940004811585],[14.1296271707848,45.7940187250853],[14.1292792938681,45.7940556656223],[14.1289687395011,45.7941738716165],[14.1285935675381,45.7943113795353],[14.1283090561347,45.7944090869673],[14.1279834469961,45.7946675441581],[14.1272580666275,45.7949823341441],[14.1267401551835,45.7951988276857],[14.1264032329407,45.7953573161263],[14.1261958833313,45.7954556082493],[14.1258206960344,45.7955931069199],[14.1254448876221,45.795770190778],[14.1251600395466,45.795888583158],[14.124836914318,45.7959868860455],[14.124578421778,45.7960649878754],[14.1242044809058,45.7961224086291],[14.1238572079556,45.7961197461029],[14.1235736242308,45.7961571622706],[14.1232639916572,45.7962150732335],[14.122967220446,45.7962730820847],[14.1227098519909,45.7962711061663],[14.1224535584237,45.7962088513634],[14.1220570399681,45.7960655263799],[14.1217122849819,45.7959026223982],[14.1213781866125,45.7958802580222],[14.121082688341,45.7958572898175],[14.1206582445831,45.7958541138626],[14.1206296776346,45.7960346637076],[14.1206525696989,45.7962148897677],[14.1206236897596,45.7964153227578],[14.1206205337289,45.7966159537286],[14.1205530671188,45.7968160896867],[14.1205248234288,45.79697603656],[14.1203032221002,45.797161488792],[14.1202123513766,45.7972138772472],[14.1201204184037,45.7973337423939],[14.120053586404,45.7974933919552],[14.1200253409156,45.7976533386733],[14.1199974068513,45.7977934921966],[14.119880059365,45.797893365805],[14.119737000872,45.7979921414039],[14.1195945653496,45.7980513304601],[14.1192453813252,45.7981692122786],[14.119013857851,45.7981674272689],[14.1187829726342,45.7981251557514],[14.1185900365803,45.7981236674962],[14.1184102751015,45.7981024849915],[14.1182427517215,45.7981209878159],[14.1180098364908,45.7981992721541],[14.1178414900412,45.798278054578],[14.1176987252013,45.7983579341055],[14.1174667599229,45.7983759381294],[14.117260008704,45.7984346274541],[14.1171178962999,45.7984731205364],[14.1169236941656,45.7985517018035],[14.1167680648129,45.7986314807325],[14.1167150367231,45.7987309484829],[14.1167388568239,45.7988517057064],[14.1168530421028,45.7989524660821],[14.1170193035591,45.7990140376578],[14.1171730295826,45.7990548167533],[14.1172754197627,45.799096098828],[14.1174290175767,45.7991368765877],[14.1174529680088,45.79925763466],[14.1173605845548,45.7993972896447],[14.117307046061,45.7995372446659],[14.117240074694,45.7996968914484],[14.1171168357848,45.8001773315909],[14.1170612628949,45.8004378437983],[14.1169947296047,45.8005777882052],[14.1169413887338,45.8006969592035],[14.1167976766988,45.8008363069509],[14.1166541495468,45.8009557703921],[14.1164718483096,45.8010947293856],[14.1163030493758,45.8011933015795],[14.1161593358893,45.801332558522],[14.1160921604143,45.8015128983742],[14.1160118082362,45.8017129318022],[14.1159174542807,45.8019929388959],[14.1157727983478,45.8021915747453],[14.115590034791,45.8023512240924],[14.1154212304933,45.8024497949227],[14.1151363273078,45.8025681617679],[14.1148511094544,45.802706321029],[14.1145272997704,45.8028441804916],[14.1140353073852,45.8030410214961],[14.1137500986871,45.8031782782717],[14.1133996001833,45.8033762139944],[14.1130880042188,45.8035546550672],[14.1127105024294,45.8038324610929],[14.112412407015,45.8039706042124],[14.1121902221152,45.8041893285072],[14.1119815425973,45.8043676664119],[14.1118108098886,45.8045867898487],[14.1116532543721,45.8047862199196],[14.1115976511481,45.8050467290392],[14.1115687337303,45.8052471591597],[14.1115018675746,45.8054068032491],[14.1114218222257,45.8055861403548],[14.111276811831,45.8058054629961],[14.1111205245292,45.805924820137],[14.1108610080489,45.806063169318],[14.1106018052984,45.8061817247939],[14.1104593392698,45.8062409021514],[14.1102004643311,45.8063387639136],[14.1099920856186,45.8064973049128],[14.1098235742289,45.8065760741384],[14.1096544173283,45.8066953289891],[14.1096763188756,45.8069357456885],[14.1096734377366,45.8071165826008],[14.1096705709044,45.8072965198212],[14.1097580567091,45.8074582653284],[14.1098326927879,45.8076190108529],[14.109779312548,45.8077392578224],[14.1096879847101,45.8078186281911],[14.1095194688856,45.8078973969175],[14.1092354863596,45.8079554696823],[14.1089380073666,45.8080530275809],[14.1086276483165,45.8081513840157],[14.1083935289238,45.8083097212305],[14.1081594082047,45.8084680579514],[14.1080146933727,45.8086675831118],[14.1079603617077,45.8088471184433],[14.1079832045754,45.8090281560939],[14.1079800017743,45.8092287859345],[14.1079485123822,45.8095893588679],[14.1079038414528,45.8099696243922],[14.1078424548185,45.8105909050293],[14.1077753840141,45.8107703407398],[14.1077202728092,45.8109904506612],[14.1076271398905,45.8111903780704],[14.1075081468055,45.8113901033943],[14.1073103645239,45.8116890905015],[14.1072171002857,45.8118890165275],[14.107072373061,45.8120885402852],[14.1069791072857,45.8122884660918],[14.106857880266,45.8126276417761],[14.106658478858,45.8130273922935],[14.1063950761136,45.8134059465602],[14.106250025323,45.8136252622266],[14.1061310220186,45.8138249859568],[14.1059724551879,45.8140846863669],[14.1058273995037,45.814304091414],[14.1055929307784,45.8144821255497],[14.105306330246,45.8147013215887],[14.1049554122081,45.8149190232941],[14.104734120128,45.8150774533268],[14.1043828801875,45.8153149462638],[14.1041490359677,45.8154534812351],[14.103940923336,45.8155922175317],[14.103655611247,45.8157303478311],[14.1035118285377,45.815869588],[14.1033429475563,45.815969039974],[14.1032004633036,45.8160273082532],[14.1030200004708,45.8160465869531],[14.102849846617,45.8162252102912],[14.1024487297057,45.8163624281827],[14.1017525202042,45.8164370387242],[14.101300251188,45.8165540548995],[14.100860209756,45.816710756551],[14.1003661057497,45.8170280943802],[14.0999881303883,45.8173256495747],[14.0995840983039,45.8176427936786],[14.0993225549563,45.8179016731243],[14.0989976452612,45.8180998559125],[14.0986595483628,45.8183176392755],[14.098397997555,45.8185765165188],[14.0980968842731,45.8188944674031],[14.0980148293182,45.8191943515309],[14.0979447959264,45.8195546168274],[14.0978891131302,45.8198151180187],[14.0976777276862,45.820154471459],[14.0974152041108,45.8204727252191],[14.0968020095343,45.8209888612662],[14.0964239736857,45.8212873038025],[14.0959671241523,45.8216841889986],[14.0954630183766,45.8220822278869],[14.0886558508418,45.8186027009301],[14.0785361151794,45.8134105083433],[14.0693814805597,45.8087247567318],[14.0702786454914,45.8128082335598],[14.0580155693789,45.8273433310182],[14.0495014108586,45.8373346784164],[14.0556293919384,45.8387018005884]]]},"properties":{"fill-opacity":0,"stroke-opacity":1,"stroke":"#ff0000","lov":"1226","lov_naziv":"BUKOVJE","luo":"12","luo_naziv":"Zahodno visoko Kraško","povrsina":5894.87},"id":"pregledovalniklovisca.1"}]}