{"type":"FeatureCollection","features":[{"type":"Feature","geometry":{"type":"Polygon","coordinates":[[[13.7356045042202,46.1135210712405],[13.7357647594727,46.1136245163257],[13.7361174614901,46.113719292486],[13.736250691474,46.1129676710796],[13.7361091391302,46.1129346143657],[13.7359822299533,46.1128269498076],[13.7360731273735,46.1126876833113],[13.7367432141644,46.1122370266799],[13.7368122564514,46.1118877851516],[13.7369571887521,46.1118803893849],[13.7372437956267,46.1118439671885],[13.7375315425555,46.1118822365226],[13.7381226111559,46.1120246270832],[13.7382741151929,46.1119957080884],[13.7384370520438,46.1119930079834],[13.7384963326057,46.1118443030194],[13.7386183618472,46.1118257653093],[13.7386780796007,46.1117599324984],[13.7390265537024,46.1116711030568],[13.7390755420639,46.1114574118995],[13.7397502449514,46.1112111228533],[13.7401157837339,46.1109920137828],[13.7403718344366,46.1109507481195],[13.7403800431847,46.1108743594169],[13.7402696893929,46.1106077153838],[13.7401715685709,46.1104230837903],[13.7402792178925,46.1102974049124],[13.7404136229332,46.1101954144434],[13.7410227619998,46.1100266739407],[13.7414661980436,46.1098686122055],[13.741648572222,46.1095799994247],[13.7417826061082,46.1095509733954],[13.7418167217331,46.109472980296],[13.7427229605417,46.1098347575728],[13.7431725494411,46.1098666952095],[13.7435249671058,46.1100190297703],[13.7438573817568,46.110135153186],[13.7441686979994,46.1101151807863],[13.7455907638896,46.1105329883843],[13.7460002320327,46.1108568948813],[13.7464170274514,46.1113599314766],[13.7469899590333,46.1112473566303],[13.7475492626779,46.1109367734696],[13.7478086644172,46.1109072246806],[13.748516014084,46.1109311680402],[13.7488717711882,46.1106453419997],[13.7493062702878,46.1100237782194],[13.7493376714657,46.1097793884775],[13.7494979353424,46.1095571031174],[13.7496772198938,46.1094546930419],[13.750417928464,46.1095014834653],[13.7507457821166,46.1096310332988],[13.7510588626576,46.1099106798374],[13.7515526507943,46.1096640534596],[13.751803121909,46.1096056958611],[13.7518807342776,46.1094454873154],[13.75231086422,46.1093538200664],[13.752459624367,46.1091763927154],[13.7529633382428,46.1089938411557],[13.7531019341218,46.1088711871184],[13.753362208835,46.1084466427255],[13.753564299099,46.1082158103006],[13.7533699466882,46.1081723017862],[13.7534022915226,46.1074204591623],[13.7536857762195,46.1067118443783],[13.7549367977469,46.1072913360427],[13.7562376786706,46.1078867423583],[13.7564084638694,46.107879603267],[13.7565050894805,46.1079661313682],[13.7565643778935,46.1079757739789],[13.7578329408552,46.1081686198677],[13.7598518655468,46.1084739678688],[13.7598722391495,46.1082519494237],[13.7596734796909,46.1080644429897],[13.7595110242941,46.1078098486108],[13.7594617206615,46.1074647072025],[13.7595198148488,46.1071297290408],[13.759690449652,46.106742796681],[13.7596979214398,46.1061040514176],[13.7595165218054,46.1056504953715],[13.7595499992553,46.1045675529594],[13.7596627540711,46.1042636695409],[13.7597468279925,46.1039235745001],[13.7598468406113,46.1037321120455],[13.7600892868002,46.103522400215],[13.7602672140734,46.1032652906882],[13.7604082749391,46.1033198163686],[13.7606682944676,46.1035089757307],[13.761475436532,46.1036588971376],[13.7615957527354,46.1037214742916],[13.761843452672,46.103744762453],[13.7621627780848,46.1035268815246],[13.7623250491007,46.1035007465069],[13.7623520198611,46.10345155201],[13.7621450123079,46.1034133198698],[13.7619591463203,46.1033205212425],[13.7617309047212,46.102988647932],[13.7613727992419,46.10266265481],[13.7612153257375,46.1024054173421],[13.7611552152189,46.1020169709276],[13.7605971804332,46.1019956248026],[13.7604573873599,46.1019366143106],[13.7604339829419,46.101838197079],[13.7603457858151,46.1017220716782],[13.7601705863982,46.1016211980246],[13.7600348778573,46.1014550703624],[13.7600451291647,46.1013382132804],[13.7598483320729,46.101121936006],[13.7598906847175,46.1006752167139],[13.7600068189187,46.1005028238327],[13.7599968929626,46.1003686524463],[13.7612807551281,46.0999866821243],[13.7632758237742,46.0993855670497],[13.7634950729207,46.0992863568634],[13.7637477176119,46.0993421756343],[13.7642272620139,46.0992978752624],[13.7645697651614,46.0993609620975],[13.764771042404,46.0993424432929],[13.7650771868369,46.0992845682723],[13.768772410822,46.0995106863764],[13.7708001033516,46.0984788980339],[13.7717496388902,46.0993492737501],[13.7728964010741,46.1003792165346],[13.7739369845714,46.1015096810114],[13.7753074608552,46.1028146248996],[13.7764408514842,46.1038704810297],[13.7772523428031,46.1046565546245],[13.7786486583014,46.1055658417455],[13.7798770181371,46.1063564405057],[13.779829536597,46.106755424882],[13.7798108604162,46.1080589705168],[13.7800473909563,46.1080210065679],[13.7806978263734,46.1078560044371],[13.7812620691473,46.1077865332425],[13.7827199780309,46.1074852667624],[13.7841141841117,46.1072094868539],[13.7850907856851,46.1070291243271],[13.7861504968934,46.1067218709597],[13.7871246027534,46.1064127995644],[13.7873473998704,46.1063575794114],[13.7871677452471,46.1062917904602],[13.7867043601054,46.1057038307769],[13.787245444511,46.1056213976321],[13.7875985172604,46.1055180727618],[13.7897906521549,46.1054657268236],[13.7901402889789,46.105578298962],[13.7903968701972,46.105675489113],[13.7907162226039,46.1058066338166],[13.7908987767289,46.1059588243567],[13.7910891140802,46.1063171408377],[13.791277345344,46.1065233761092],[13.7915559016172,46.106745861985],[13.7921046361437,46.1069055208142],[13.7923391009005,46.1075360274779],[13.792449283117,46.1079520686253],[13.7932005310903,46.1074218602413],[13.793426712097,46.1073774610339],[13.7936404037716,46.1074193060173],[13.7941606597073,46.1074202974923],[13.794695983928,46.1071929077775],[13.7957091065973,46.1074663161086],[13.7971355443801,46.1074957338667],[13.7974842465637,46.1075335939894],[13.797950637063,46.1075429989904],[13.7992891538951,46.1074454994474],[13.8009510477813,46.1073306829602],[13.8013787146947,46.1072406946782],[13.8017753811744,46.1073276314797],[13.8023278839816,46.1072731390456],[13.8023418994071,46.1072650981472],[13.8025229638098,46.1072130101096],[13.8028293699395,46.1070416676465],[13.8033346490383,46.106933590141],[13.8042615521256,46.1056386468541],[13.8047916391073,46.1048847983145],[13.8059161835259,46.1033651695817],[13.8069459540405,46.1019129215639],[13.8074296993076,46.1012593492307],[13.8076097357781,46.1007618633249],[13.8079327412121,46.0998779836726],[13.808565654486,46.0981103546457],[13.8091614947298,46.0965069007692],[13.8095309989306,46.0954912362937],[13.8096697518739,46.09457852888],[13.8096739722928,46.0945506803818],[13.8097363923029,46.0941320438873],[13.809886035858,46.0931816596425],[13.8087124343825,46.092730351224],[13.8085644852671,46.0925623539446],[13.808965705459,46.09184475087],[13.809013974691,46.0915549022947],[13.8091596622686,46.0910408595871],[13.8092754382364,46.0905885882634],[13.8088837872597,46.0903878201814],[13.8084903166703,46.0902656705628],[13.8077568733096,46.0901794728514],[13.8072453182273,46.0902922733121],[13.8068485864291,46.0903275415237],[13.8065142951846,46.0900879547491],[13.8061566256571,46.0897213469657],[13.8059622429883,46.0894526281914],[13.8055156841408,46.0891725460601],[13.8051026616774,46.0886092092282],[13.8046369000811,46.0879435566508],[13.8045887747557,46.0875494992698],[13.8048260667941,46.0870403787758],[13.8049418198986,46.086686184886],[13.805189810433,46.0859028392419],[13.8051639898929,46.0857512300072],[13.8062195061167,46.0853624977856],[13.807021381228,46.0848984979743],[13.8075936194282,46.0845895545023],[13.8080518871983,46.0843188289662],[13.808392930502,46.0842435665432],[13.8086790432148,46.084089091654],[13.8087979581051,46.0838148251945],[13.8088064275854,46.0834213592067],[13.8095009343473,46.0826808067006],[13.8096764624677,46.0824071289827],[13.8099110176968,46.082016017349],[13.8099194787336,46.0816225510777],[13.8103819392346,46.0811550825403],[13.8105608412723,46.0807239807527],[13.8109068011979,46.0804126652848],[13.8113757866404,46.0803087630714],[13.8120309942256,46.0807390920563],[13.812423434698,46.0809004484935],[13.8129323591509,46.0809057357269],[13.8132151974897,46.0809085831881],[13.8140367058509,46.0803310982379],[13.8145889736648,46.0801355518461],[13.81504140443,46.0801401537305],[13.8153873337809,46.079828914345],[13.8158463671351,46.0795187558858],[13.8167645476773,46.0788984345759],[13.8173982024733,46.0783538908974],[13.8181424253981,46.0779286254899],[13.8184891644645,46.0775779755465],[13.8190540254864,46.0771537289636],[13.8186214519908,46.0766741854027],[13.8185208199198,46.0760828130766],[13.8180751424281,46.0757634689992],[13.8174042456214,46.0754023834098],[13.8170142238267,46.0751229305349],[13.8165685627624,46.0748035806872],[13.8160116238745,46.0744043473396],[13.8155866754345,46.074350097423],[13.8148765823764,46.0745895400967],[13.8144217985714,46.074702961566],[13.8137357620124,46.0750500779837],[13.813280842904,46.0751634935027],[13.8128268942862,46.0752375978015],[13.812148439036,46.075230638096],[13.8118656298135,46.0752277882729],[13.8114091466506,46.0754198190581],[13.810842940491,46.0754534284274],[13.8104429362837,46.0756460430082],[13.8099306742886,46.0757982577707],[13.809768575543,46.0754424243719],[13.8101761928346,46.0748956560739],[13.8102419798295,46.0744633766456],[13.8104781876363,46.0739935515832],[13.8104317221876,46.0735207840576],[13.8105506027446,46.073246604928],[13.810217372981,46.072967629802],[13.8098797860811,46.0728854757789],[13.8096586770634,46.0726470760177],[13.809268714035,46.0723675971426],[13.8087624063489,46.0722443622681],[13.8083168163762,46.0719249807686],[13.8079278428506,46.0716060981003],[13.80787885754,46.0712514415536],[13.8076053919676,46.0708157140337],[13.8074426046746,46.070499189355],[13.8080779449101,46.0698760751341],[13.8087098855732,46.0694102899869],[13.8096902445972,46.0685151659946],[13.8097977089163,46.0682605732743],[13.8099586124116,46.0678170473308],[13.81018672477,46.0673858277765],[13.8100764129854,46.0670332327212],[13.8092126914166,46.0664854596059],[13.8083927980765,46.0654695413753],[13.8080137158921,46.0650054503409],[13.8079724516582,46.0649528338002],[13.8083781243515,46.064361422558],[13.8091216488749,46.0632597671752],[13.8079399428835,46.0619535002419],[13.8089243035708,46.0604098752745],[13.808016081465,46.0593107044013],[13.8079230446518,46.0589975165693],[13.8083518427905,46.0586627782663],[13.8085025324796,46.0582666546062],[13.8086089067485,46.0578817656515],[13.8085194081306,46.0574821479672],[13.8081762686658,46.0571339610134],[13.8078450650618,46.0567418091627],[13.8076418370732,46.0564445669141],[13.8074777113282,46.0558499109491],[13.8075855715389,46.0556962772624],[13.8075028517958,46.0552824231328],[13.8075472886881,46.0550732421287],[13.80747348201,46.054845731803],[13.8073784815419,46.0539098869861],[13.8079597013394,46.0522495001549],[13.8077393910519,46.0520321585738],[13.8078855827247,46.0513038857944],[13.8075868461867,46.050413602609],[13.8075953388137,46.0503192160736],[13.8077180575088,46.0497868468051],[13.8082332725193,46.0493001402148],[13.8095499695064,46.048954858047],[13.8087108402009,46.0472283750868],[13.8078112417769,46.0463930106941],[13.8068811354011,46.0459856082436],[13.8062066004764,46.0461072301641],[13.805154127809,46.0463058759935],[13.8041758530151,46.0464908923306],[13.8034414683854,46.0458470722579],[13.8031789525791,46.045378245519],[13.8030180896405,46.0452164027216],[13.803014534191,46.0446153230047],[13.8031304943788,46.0441998567004],[13.8030980287634,46.0437946227327],[13.8032228801335,46.0435835858954],[13.8032551789679,46.043511942984],[13.8032582309191,46.043215052686],[13.8034877823233,46.0429062277989],[13.8034468405707,46.0425404047613],[13.8032712141027,46.0420095041726],[13.8031505310285,46.0419020680962],[13.8028072247276,46.0412146509641],[13.8022753156408,46.0401913534366],[13.8018441312148,46.0393266581937],[13.8007724502618,46.0386567890991],[13.7995612529605,46.037909864114],[13.7993214559891,46.0378029721469],[13.7990797552378,46.0375156567175],[13.7984687224267,46.0367977894144],[13.7975544435064,46.0357070146815],[13.7970067423417,46.0356980112614],[13.7969493941975,46.0356081507975],[13.7965862652536,46.0356129651783],[13.7962801033572,46.0355050079906],[13.7949184606974,46.035302066487],[13.7945686498564,46.0351935544339],[13.7953770167435,46.0347819777607],[13.7952832299392,46.0346926320989],[13.7953038142073,46.0346549689545],[13.7948687784431,46.0343130598516],[13.7952439347608,46.0340694898857],[13.7941638242109,46.0339914252531],[13.7934310198724,46.0338279410281],[13.7928258431328,46.0336887443926],[13.792384007054,46.033594819418],[13.7917629929827,46.0326769721469],[13.7912012215028,46.0317505703958],[13.7909228876855,46.0309485433944],[13.7907491094468,46.0301682266811],[13.7906910323742,46.0293662799604],[13.7906507684968,46.0290979933246],[13.790495035885,46.0287047666726],[13.7902474557994,46.0284480518797],[13.7896619843441,46.0278648320021],[13.7894895610448,46.0276271767758],[13.7883154252757,46.0273537109729],[13.7880829456713,46.0273169646169],[13.7867354878997,46.0271492564646],[13.7856777641603,46.0271173271814],[13.785099324779,46.0269646970468],[13.7836883600419,46.0263835545531],[13.7832847391423,46.0262172997676],[13.7872409943473,46.0246245667421],[13.7881330244213,46.0242631457927],[13.7869376795496,46.0233094863376],[13.7862089232909,46.0228209122824],[13.7858641375278,46.022652412147],[13.7843372112579,46.0216859341614],[13.7827519630528,46.020831105406],[13.7817291825827,46.0202547020546],[13.7802529828349,46.0193780567637],[13.7792952515642,46.0188411957404],[13.7788471723839,46.0185914014731],[13.7769335934142,46.0177283935533],[13.7754871432212,46.0173007192639],[13.7747471345901,46.0172127078899],[13.7731311545419,46.0170006599999],[13.7705701735005,46.0168607551491],[13.7679943353754,46.0166518903603],[13.7678676624837,46.017581245455],[13.7677363380134,46.018545371152],[13.7656011503422,46.0186298491117],[13.7641126312573,46.0185976545438],[13.7626231861344,46.0184623170662],[13.7612809928591,46.0182049282241],[13.7597644052022,46.0181059697933],[13.758234784488,46.0180067596238],[13.7557897034861,46.0181288957392],[13.7544219361216,46.0181436877903],[13.7536805113218,46.0180736998454],[13.7531555304837,46.0178778518462],[13.752454834118,46.018202219116],[13.7525627448487,46.0173262124649],[13.7508991355854,46.017191160118],[13.74735064925,46.0166665321202],[13.7456792804916,46.015990827317],[13.7454547155419,46.0161899104733],[13.7446559029853,46.0157413307862],[13.7438245149917,46.0152832997128],[13.742783170863,46.0149556688272],[13.7412135266157,46.0138481383906],[13.7399176575707,46.0129932914723],[13.7396026016726,46.0125879797587],[13.7394086841936,46.0128189710962],[13.7384164383978,46.0137369431934],[13.7381993040697,46.0139890006622],[13.7380862818396,46.0144158629851],[13.7379860819849,46.014562858506],[13.7380036697062,46.0146980181673],[13.7376038714518,46.01591701871],[13.7371900748522,46.0171998365126],[13.7369539419353,46.0178599967369],[13.737754132378,46.0185871238516],[13.7386312504695,46.0194251361416],[13.7394440307438,46.0201912601696],[13.7393730880044,46.0202383452732],[13.7404152099284,46.021450757861],[13.7408595334848,46.0219674428035],[13.7412228340295,46.0222870840069],[13.7408656019475,46.0230540698614],[13.7407868743732,46.0231822291366],[13.7401668368726,46.0240378229177],[13.738885146907,46.0249523362066],[13.738749513445,46.0251799202203],[13.7384783891487,46.0253674983505],[13.7382854815925,46.0253702273619],[13.7378342302473,46.0256174491285],[13.7375264530034,46.0256956582666],[13.7375138999881,46.0257874758584],[13.7372658299479,46.0260797688354],[13.736584866064,46.0264194625801],[13.7361603303749,46.0262362542402],[13.7358936890295,46.0262662364783],[13.7354600015364,46.0262522605929],[13.7350958451678,46.0264687634332],[13.7352239093484,46.0267493788266],[13.7346797238342,46.0271226966526],[13.7344471426013,46.0274485363378],[13.7339906163032,46.0276424182011],[13.7338298146439,46.0277887383783],[13.7332262092684,46.0279859361711],[13.7330679665493,46.0285006484564],[13.7339391603122,46.0301278155283],[13.7323551189838,46.0307126490914],[13.7322258411242,46.0308751525319],[13.7324354393048,46.0326349025319],[13.7333693735845,46.0338192737156],[13.7345322797338,46.0352239162904],[13.7356005800218,46.0366383871109],[13.7360374030827,46.0372039537291],[13.736290482343,46.0376521368606],[13.7366471525669,46.0382319307266],[13.7368938524473,46.0385692807275],[13.7374142297514,46.0392057671535],[13.7377779378581,46.0396930491852],[13.7380964080823,46.0408509656601],[13.7383550085,46.0418696561844],[13.7385927781369,46.0428332303321],[13.7388379097901,46.0436610205363],[13.7389828801545,46.0439109554967],[13.7394299391711,46.0446042080124],[13.7399295748027,46.0453610219704],[13.7399952344614,46.0461841309671],[13.7400037115574,46.0468114504013],[13.7400616030521,46.0476182777472],[13.7380171905418,46.0500656626771],[13.7381274146147,46.050122575231],[13.7380485669162,46.0513148817148],[13.7379590383295,46.0523405236709],[13.7375215424132,46.0527171912163],[13.7367454112347,46.0530901142655],[13.7363779362184,46.0532292039841],[13.7360124851931,46.0533871199668],[13.7355948991144,46.0536209378726],[13.7347786297294,46.0538206488018],[13.7340292658573,46.0539878038307],[13.7333604261432,46.0541316428355],[13.7323448661954,46.0545683744591],[13.7315245567647,46.0549038816064],[13.731378184902,46.0550201258422],[13.7311787273011,46.0550503929447],[13.7304083856591,46.0554493402982],[13.7301765548449,46.0555161362968],[13.7296966844352,46.0557816319822],[13.7290645069222,46.056162401136],[13.7285406537034,46.0564067082354],[13.7281382090242,46.056676657801],[13.7281207842197,46.0568051300243],[13.7280183289569,46.0568318823621],[13.7280504497472,46.0571102667244],[13.7280313707813,46.0578172682398],[13.727060364828,46.0579639150847],[13.7260992029936,46.0580981567045],[13.7251692293261,46.0587077230847],[13.7247607710319,46.0588669227397],[13.7239087223101,46.0588250201646],[13.7230778203845,46.0588806119074],[13.7225434835924,46.0592353551691],[13.7219830949993,46.0596097793137],[13.721171031025,46.0600747800324],[13.7205348235183,46.0604798402718],[13.7203878653493,46.0606869398267],[13.7201516654705,46.0611314769144],[13.7198221295487,46.0613473280019],[13.719474901072,46.0616574549678],[13.7189653033866,46.0621754055782],[13.7184404202651,46.0627390703543],[13.7179344970057,46.0629746220551],[13.7172122684649,46.0633075273637],[13.7167934865862,46.063586250975],[13.7161287838283,46.0639962751298],[13.715559286966,46.0644640505146],[13.715159919665,46.0648077691851],[13.7151621022499,46.0649922449816],[13.7150893755076,46.0651183837526],[13.7141804182934,46.0659035500582],[13.7137987970389,46.0664229171662],[13.7135437093335,46.0667089595165],[13.7127477444415,46.0675358754299],[13.7122048633444,46.0680903107946],[13.7115975827108,46.0686342101139],[13.7110860706882,46.0690729244745],[13.710862078461,46.0692548491102],[13.7104679041325,46.069633700434],[13.709659170437,46.0701671281659],[13.709441828135,46.070900768818],[13.7086534361498,46.0717746188043],[13.7083258010912,46.0721370290177],[13.7083120474613,46.072227839426],[13.7086409451138,46.072365530818],[13.7085873052159,46.0725701602115],[13.7083099086718,46.0728846409076],[13.70802122609,46.0733834443443],[13.7078783340855,46.0734682058931],[13.7080630689544,46.0738616904775],[13.707873979533,46.0741033879197],[13.7077228150847,46.074265525149],[13.707531181469,46.0746160643071],[13.7073263550795,46.0748062064944],[13.7070803908882,46.074870096344],[13.7065481190043,46.0755181993955],[13.7064228266266,46.0759559544674],[13.706332704858,46.0760449103984],[13.7057921245712,46.0762844244468],[13.7057152418796,46.0763600334048],[13.7052596936119,46.0765401339732],[13.7048746166003,46.0768964846851],[13.7043473651136,46.0772839735794],[13.7038148617522,46.0779009293443],[13.7033346401636,46.0782890368898],[13.7027998092638,46.0790043952031],[13.7025513664461,46.0795590663483],[13.7022139417977,46.0798831076838],[13.7014451059123,46.0805302094004],[13.7009193327277,46.0808521965539],[13.700717916206,46.0814073081359],[13.7002393115899,46.0817298283721],[13.6990755276166,46.0823501974203],[13.7005254820165,46.0827580890664],[13.7010179110513,46.0826897269964],[13.7016263978659,46.0828605778708],[13.702797991939,46.0831363422634],[13.7040134527168,46.0835436870532],[13.7040544927613,46.0838065223317],[13.7042308137054,46.0843331713935],[13.7044532924799,46.0848932745929],[13.7049145108969,46.0853248081166],[13.7048613165433,46.0855865751015],[13.7049455815957,46.0860138359395],[13.7053611620475,46.086379257954],[13.7057220222818,46.0870720209051],[13.7058002899674,46.0877615827862],[13.7059325178193,46.0881566346502],[13.706207585741,46.0884876210978],[13.706430229684,46.0890477218998],[13.7065638707698,46.0893771065559],[13.7070714340862,46.0898419967027],[13.7078114979822,46.090440698406],[13.7086047605935,46.0907776268369],[13.7093077385287,46.0909495041717],[13.7106139764209,46.091521829141],[13.7123441799946,46.0920988267547],[13.71375450917,46.0922459830203],[13.7166124965913,46.0929668778735],[13.717782734483,46.0933079750528],[13.7188087623759,46.0937786283433],[13.7201607150016,46.0944168585965],[13.7210415455573,46.0950498014601],[13.7216435403073,46.0955156830208],[13.7224796135383,46.0960496805425],[13.7230816312658,46.0965155546864],[13.7242475769955,46.0970533143195],[13.724568350043,46.0974504484119],[13.7249310330982,46.0980775772094],[13.725155417488,46.0985719775954],[13.7253288321764,46.0992297447462],[13.7254521606231,46.1000181375443],[13.7257685559007,46.1006119960286],[13.7262308271041,46.1010106127494],[13.7267789388157,46.1017709862968],[13.7267221860776,46.1021966586623],[13.7266173475896,46.1026546363202],[13.7265052173987,46.1034404038014],[13.7263876694025,46.1044556384939],[13.7263195832475,46.1053730808043],[13.7267153238156,46.1066236523903],[13.7279172768658,46.1076536710518],[13.7279045853423,46.108210928385],[13.7278934001378,46.1087027002323],[13.7282554369977,46.1093626510876],[13.728428296036,46.1100531572007],[13.7283279803766,46.1103144096805],[13.7282718532162,46.1107073380776],[13.7284042955918,46.1111022746593],[13.7288651623007,46.1115665464294],[13.729330429062,46.1118340888034],[13.7299865329129,46.1120053168745],[13.7304555725858,46.112108961217],[13.731017394967,46.1122792259943],[13.732473118797,46.1125249074995],[13.7331756967339,46.1127294736864],[13.7337375340437,46.112899725224],[13.7347955063949,46.113471629382],[13.7356045042202,46.1135210712405]]]},"properties":{"fill-opacity":0,"stroke-opacity":1,"stroke":"#ff0000","lov":"1207","lov_naziv":"ČEPOVAN","luo":"12","luo_naziv":"Zahodno visoko Kraško","povrsina":6132.57},"id":"pregledovalniklovisca.1"}]}