<?xml version="1.0" encoding="utf-8" ?>
<kml xmlns="http://www.opengis.net/kml/2.2">
<Document id="root_doc">
<Schema name="pregledovalniklovisca" id="pregledovalniklovisca">
	<SimpleField name="lov" type="string"></SimpleField>
	<SimpleField name="lov_naziv" type="string"></SimpleField>
	<SimpleField name="luo" type="string"></SimpleField>
	<SimpleField name="luo_naziv" type="string"></SimpleField>
	<SimpleField name="povrsina" type="float"></SimpleField>
</Schema>
<Folder><name>pregledovalniklovisca</name>
  <Placemark id="pregledovalniklovisca.1">
	<Style><LineStyle><color>ff0000ff</color></LineStyle><PolyStyle><fill>0</fill></PolyStyle></Style>
	<ExtendedData><SchemaData schemaUrl="#pregledovalniklovisca">
		<SimpleData name="lov">1212</SimpleData>
		<SimpleData name="lov_naziv">ČAVEN</SimpleData>
		<SimpleData name="luo">12</SimpleData>
		<SimpleData name="luo_naziv">Zahodno visoko Kraško</SimpleData>
		<SimpleData name="povrsina">3862.61</SimpleData>
	</SchemaData></ExtendedData>
      <MultiGeometry><Polygon><outerBoundaryIs><LinearRing><coordinates>13.8475968887426,45.9254469116801 13.8481537297071,45.9237849604873 13.8486846145733,45.9220984504805 13.8479644257888,45.921332675021 13.8468807449076,45.9201786601041 13.8455630437208,45.9187672720412 13.8439035022197,45.9169659533471 13.8429307175032,45.9159300838048 13.8420481965454,45.9149752012922 13.8408659585614,45.9136877709112 13.8409408076501,45.9131327338039 13.8410344313801,45.9123506916096 13.8411807701462,45.9111972131668 13.8413276953282,45.9103311313333 13.8414180506106,45.9101888019112 13.8415108554323,45.9098915544071 13.8415897685525,45.9095680722319 13.8417324789405,45.9093254075023 13.841848182149,45.9087823007744 13.8419328099442,45.9083697975669 13.8418974756075,45.908035979306 13.8417152947817,45.9074189499402 13.8412233266808,45.9071581529187 13.8412420044792,45.9070843800398 13.8413668251154,45.9070136630507 13.8415028882022,45.9063591896042 13.8416045343176,45.9062375794934 13.8416597025708,45.9060081537911 13.8417150175759,45.9056477208647 13.8418196367977,45.9053830748881 13.8419901751053,45.9051217962582 13.8421228769102,45.9049383252614 13.8421737047359,45.9047253213437 13.8423115664798,45.9046159547114 13.8425331021423,45.9044866505324 13.8425625240315,45.9043670972062 13.8425424765347,45.9042092517812 13.8428442164202,45.9036438237714 13.8432829662471,45.9035554984672 13.8441222905538,45.9033674792392 13.8446921677297,45.9032328763188 13.8446660068571,45.9029966881095 13.8447708887091,45.9024823515553 13.8444961285959,45.90205928351 13.8445203641712,45.9018974772487 13.8446426202603,45.9015768602742 13.8446048442395,45.9012855776407 13.8449133494386,45.9007028464569 13.8446874641986,45.9002910702493 13.8446451915321,45.8999618611203 13.8445552371794,45.8998313823524 13.8443081497878,45.8995473404617 13.8438398525047,45.8991360796208 13.8437473471199,45.8988182389633 13.8436177454005,45.8983505683322 13.8437525598794,45.8979463091404 13.8437641615366,45.8977536923729 13.8437197390797,45.8975470118679 13.8436303564337,45.8974327342504 13.8436820446758,45.8973638838448 13.8434382559768,45.8969465250178 13.8435333281203,45.8968239466804 13.8437839587822,45.8966819774836 13.8437578902102,45.8964043995675 13.843400472284,45.896085047117 13.843310468991,45.8959635646461 13.8427725638539,45.8954310230908 13.8427026492144,45.8950746293843 13.8423882222467,45.8947025317386 13.8416094138347,45.8944094062541 13.8414894170741,45.894292926964 13.8415074647746,45.8941624609388 13.8414791593993,45.8940488008258 13.8412543133309,45.8940170077858 13.8411957498212,45.8938526526814 13.8410013673309,45.8937068951884 13.8407719279241,45.8933571599523 13.8405510186785,45.8931363602631 13.8402925291309,45.8928638908599 13.839988173617,45.8928015953149 13.8392331465533,45.8923708475968 13.8390493846754,45.8922971775901 13.8389961251448,45.8921693165692 13.8396533991852,45.8920529925062 13.8394448447098,45.8916601868369 13.8392717835642,45.8912523549756 13.8389651137289,45.8910109755363 13.8386438651114,45.8902698852259 13.83830755099,45.8896028731965 13.8379378314255,45.8890984718559 13.8379257748038,45.889003151723 13.8380164851433,45.8889228234618 13.8381898497221,45.8886973900842 13.8379483849814,45.8885368418756 13.8379884503371,45.8884074100118 13.8385438272863,45.8881087487445 13.8387000582439,45.8879633114706 13.8387267180646,45.8876052870058 13.8390734886394,45.8873495821032 13.8391063252823,45.8872453604094 13.8390705150823,45.8871830911673 13.8386011322029,45.8870037621608 13.8382262739305,45.8868886474653 13.8379163874728,45.8866854732906 13.8377738825103,45.8865744296673 13.837664150659,45.8863499860855 13.8377385086401,45.8861083396516 13.8376363120972,45.8856956470626 13.8376244546384,45.8855290656619 13.8377080629609,45.88517126071 13.8376988817281,45.8849937291123 13.8370536115224,45.8852177788487 13.8366314286512,45.885327484103 13.8364095456588,45.8854147535807 13.8355813226236,45.885521038971 13.8349213189521,45.8855801753202 13.8344538385304,45.8852803669901 13.8324813730088,45.8849316260995 13.831981040633,45.8848170082235 13.8310444967304,45.8845224674467 13.8297965546864,45.8840931810594 13.8288609573403,45.8837547223546 13.8279946872174,45.8831098693335 13.8273067296136,45.8829493965099 13.8267796140716,45.882615112464 13.8263804021697,45.8821723656271 13.8261101446846,45.881577348404 13.8258067457957,45.8810697192992 13.825373813593,45.8807363065324 13.8246928303922,45.8802468367929 13.8245062436522,45.880157187883 13.8240414358673,45.8798453969094 13.8238955346485,45.8793174286152 13.8238470278481,45.8786368687015 13.8239870796839,45.8779582496385 13.8239926331476,45.8776950284604 13.8237205711259,45.8771877159971 13.8234489772771,45.8766584527982 13.8234258836687,45.8762633873668 13.8235298804446,45.875803766005 13.8235728787606,45.8752556969929 13.8245369753197,45.8742343706908 13.8247010339102,45.8739069152926 13.8248429131189,45.87314049395 13.8247315522578,45.8724592872135 13.8242373620741,45.8720594648175 13.8231899467034,45.8713420761648 13.8225518322604,45.8714150433587 13.8219576282105,45.8715678212394 13.8213378143139,45.871847292235 13.8202323252346,45.8725188233242 13.819520354615,45.8728608579805 13.8187669494026,45.8730119742694 13.8175156926452,45.8730469900441 13.816602892444,45.8732123685726 13.8156227130212,45.8733294424749 13.8148699645639,45.8734488672574 13.8142064498351,45.8736484847217 13.8136093678591,45.8739282396179 13.8128769097763,45.8741588960261 13.8122618833117,45.8742162093088 13.8112412936918,45.8740946511234 13.8107908662116,45.8738995682395 13.8100227576064,45.8736695927036 13.8095502210239,45.873442512049 13.8089161350464,45.8733249594802 13.8077118153736,45.8732968319834 13.8064830036493,45.8733477974323 13.8053440922202,45.8734472885977 13.8043864711594,45.8735803382658 13.8031132113783,45.8735832034365 13.8023183823404,45.8735433817136 13.8013420527027,45.8734857241771 13.7998149667095,45.8734736522368 13.7995152827899,45.8734705938026 13.7993243695346,45.8734830743216 13.7983791719434,45.8738159575973 13.7973910648032,45.8743221308561 13.7962900749251,45.8746682034228 13.7946859808064,45.8752076326711 13.7929312021668,45.8760236625466 13.7917640616051,45.8764412456635 13.7906324170831,45.8768844766515 13.7896456489384,45.8773291412594 13.7888034989868,45.8777754204607 13.7880019242692,45.8780198511559 13.7869475526616,45.8782363084533 13.7862556409793,45.8784312329793 13.7855961877347,45.8788035768855 13.7846827036731,45.8791984092581 13.7834063055324,45.8796401186781 13.7826392189764,45.8799606411826 13.781865070227,45.8806097762516 13.7814213369638,45.8812833955942 13.780711682067,45.8819863880892 13.7800244632884,45.8827936312715 13.7794928657771,45.8831888098011 13.7789658575615,45.8835623499695 13.7784924021574,45.8836613048187 13.7776766134401,45.8834728924618 13.7772834613873,45.8832412191522 13.7765606786071,45.8831830037702 13.775796150118,45.8833771772143 13.7749226053357,45.8835954607549 13.7741945741397,45.8839280424076 13.7732430082331,45.8842601990757 13.7722940785755,45.8846183800267 13.7712012850725,45.8849211085959 13.7705756223318,45.8853947751555 13.7697678520619,45.8859170457002 13.7692243491736,45.885936566347 13.7684204048627,45.8859117071305 13.7678242663582,45.8859401015153 13.766941876544,45.8860133626229 13.7659056692653,45.8863182707814 13.7649326502545,45.886567885749 13.7638365996505,45.8867641535996 13.7627239848434,45.8868530667491 13.7614537279858,45.8869910983568 13.760401337302,45.887106195699 13.7598552438419,45.8872935441925 13.7593271130906,45.8876172231144 13.7586474940003,45.8880604552977 13.7579713391997,45.8883477877565 13.7571160723534,45.8883349780995 13.7559621325494,45.888120327124 13.7553183536508,45.8877594289273 13.7549319154906,45.8872243432703 13.7547614069182,45.886742087959 13.7550943883801,45.8864170237726 13.7554673851586,45.8859154060402 13.7553358924055,45.8853072461107 13.7550239965097,45.8847119668678 13.7552835681769,45.884396539648 13.7558325723313,45.8841243945248 13.7569968823813,45.8838588524739 13.7577596611405,45.8837406380225 13.7603056270954,45.8837114240808 13.7612414012835,45.883449387451 13.761694012788,45.8826199193768 13.761453878365,45.8820105886701 13.7609581492574,45.8814996221878 13.759991836487,45.8810395141184 13.758749115294,45.8798831974292 13.7582573719009,45.879195273686 13.7585255291385,45.8785155172882 13.7585679114302,45.8782379427488 13.7584703416238,45.8777312006494 13.7581891326275,45.8773489730939 13.7574374548563,45.8769616292326 13.7566450848974,45.8767762003637 13.7555248843519,45.8766882420951 13.7546558868261,45.8767041475844 13.7539556846551,45.8768681033484 13.7533414310356,45.8772208688248 13.7525346245757,45.8776924605575 13.7515837338653,45.8781372781736 13.750371367598,45.8785451262801 13.7494680326978,45.8788728438303 13.7479302110986,45.8796651826846 13.7474546048787,45.8798875265144 13.7470135493999,45.8800684970286 13.7462457947094,45.8800082468539 13.7452503053127,45.8797119053238 13.7444954001116,45.8794761455246 13.7437715652694,45.8794682791921 13.7434017990898,45.8798181902919 13.7431427709472,45.8800960755284 13.7429084910516,45.8805960306139 13.7426840048344,45.8811756343523 13.742757225145,45.8818247384235 13.7425494900717,45.8822383350102 13.7419242770716,45.8827853627103 13.7411931081496,45.8831060023648 13.7407871281166,45.883397559391 13.7404814939122,45.8837581552837 13.740690485768,45.8844016487168 13.7409677971136,45.8851008716713 13.7416732562473,45.8859428376185 13.7426710305572,45.8866615959461 13.7435335298248,45.8871009132018 13.7436437727058,45.8877259489336 13.7433958893089,45.8882621962456 13.7433156417731,45.8886152904142 13.743266018229,45.8892215618824 13.7432587369378,45.8895500844841 13.7432441699162,45.8902073095408 13.7434784388744,45.8910693637623 13.7437151216428,45.8918303977306 13.743735048888,45.8925638539827 13.7434687944765,45.8931423690191 13.742618312307,45.8939421017452 13.741883001238,45.8944397779188 13.7407089804568,45.8948767380521 13.7387523302756,45.8951892468481 13.7363348345864,45.8955302781739 13.7368038810389,45.8957471848269 13.7372167150754,45.8959370145358 13.7376875684565,45.8960744862878 13.7380645009013,45.8961712381729 13.7384594748894,45.896307868637 13.738835210683,45.8964576022322 13.7392684943156,45.896581425874 13.7397777055123,45.8966928584867 13.7400404125458,45.8968148876195 13.7397730434632,45.8969046169794 13.7393726730278,45.8970061052131 13.7392345405806,45.8972559816076 13.7391317574432,45.8976122428493 13.7391484307342,45.897718241809 13.7390690798277,45.8978761785421 13.738833120266,45.898257423408 13.7388099870005,45.8984424342046 13.7387698415823,45.8985478060121 13.7384823226264,45.8986903073555 13.7382498254768,45.8989126868286 13.7379774766123,45.899227303695 13.737896020578,45.8994778943706 13.7376435058915,45.899753048907 13.7375244694776,45.8999899072422 13.7373705498597,45.9000941113095 13.7370806205172,45.9003423973781 13.7370226009489,45.9003946635115 13.7374013599375,45.9004120764999 13.7377982702997,45.9004929437582 13.7380021380227,45.9005959718272 13.736897933901,45.9013228549786 13.7363439109142,45.9014183148452 13.7355642530552,45.901756377087 13.7354161045235,45.9019295660082 13.7348934751681,45.9022425747489 13.7347784129759,45.9023094145017 13.7347643062669,45.9024992032078 13.7345493987856,45.9026380896713 13.7342180328744,45.9027576898876 13.7341675206659,45.9028876892867 13.733404143036,45.9033527869586 13.7331403598441,45.9036342849306 13.7333069210819,45.9036777017346 13.733406716821,45.9037552898937 13.7336038495827,45.9041546406716 13.7339422817,45.9042972282733 13.7344064268288,45.9046248537722 13.7344833280508,45.90464379126 13.7347600567179,45.9046603527746 13.7347988731,45.904954382803 13.7349294328263,45.9051530615519 13.7350805807377,45.9053078785602 13.7353281599716,45.9055241384062 13.7354516028031,45.9057128401175 13.7359139412888,45.9060187545646 13.7363097372082,45.9061844643723 13.7366482904122,45.9061918974014 13.7371477950759,45.9061723153404 13.7376346731263,45.9063003364257 13.7380123576633,45.9063441891767 13.7383325975343,45.9065000595518 13.7386504590669,45.9065675438059 13.7396871085605,45.9062721562755 13.7402959791988,45.9064204970593 13.7404305247756,45.9063471181853 13.7406635982052,45.9060147870593 13.7408950249157,45.9059147620047 13.7410859907806,45.9059168662679 13.7414582616875,45.9062173568719 13.7415961516619,45.9062639549086 13.7422092912817,45.9060637554947 13.7425640770176,45.9061514306186 13.7429187565834,45.9061068349596 13.7431791832068,45.9061322845441 13.7434426149325,45.9059560346072 13.7440155254798,45.905858948413 13.7450932705858,45.9055053874894 13.7453470080015,45.9055244601652 13.7456033621664,45.90579928014 13.7458852512512,45.9060563840888 13.7460687276875,45.9063853799558 13.7464554623024,45.9063825152471 13.7469001558391,45.9064387709683 13.7471755578955,45.9065148536541 13.7475618391929,45.9068702748785 13.7477774136757,45.9072626947552 13.748196531964,45.9075510797234 13.7485946521619,45.9078391431798 13.748791748719,45.9080620190737 13.7487065175099,45.908361704007 13.7496633928875,45.9085700419921 13.7496601508362,45.9086570157573 13.7494521139482,45.9088463932717 13.7492722872421,45.9091570103502 13.7494080173156,45.9093233366985 13.7502212628131,45.9094997750389 13.7505077543069,45.9096569516037 13.7509587099827,45.9099582714512 13.7512137934905,45.9101826767436 13.7513809516627,45.9104366233535 13.7514124054388,45.9105802128561 13.751360937167,45.910754298685 13.7513790870192,45.9108588720888 13.7516134964792,45.9109362955942 13.7518490468434,45.9109398587341 13.7518978477991,45.9110629425338 13.7518564519797,45.9113110109395 13.7520467573954,45.9117344589111 13.7522950456495,45.9118715083669 13.7526679659829,45.9119115714426 13.7532744655009,45.9124578817359 13.7532680444476,45.9126179733531 13.7535852046225,45.9126845984841 13.7540334617115,45.9126878678932 13.7541853871967,45.9127075201989 13.754383490261,45.9127834623762 13.7546241398002,45.9126862095145 13.7550259029938,45.9126415496017 13.7556995681639,45.9126180253137 13.7562907305465,45.9126985139316 13.7579306476318,45.9126815310092 13.7588191663906,45.9126824584226 13.7598835952047,45.912737475818 13.7607020771532,45.912792425297 13.7614896763763,45.9128102329709 13.7621937344673,45.9128053554287 13.7628220414754,45.9128158494747 13.7636385615315,45.9127619727113 13.7646445181726,45.9128846966387 13.7655768932253,45.912983312352 13.7659634783359,45.9131171471989 13.7661403466025,45.9132272113922 13.7663679720047,45.9134260022108 13.7670991126567,45.9138807267708 13.7674765171079,45.914121081852 13.7674147373264,45.914239006987 13.7673072172423,45.9143792031672 13.7673595342546,45.9144324949391 13.7675417058772,45.9146177461327 13.7677248280902,45.9146611113068 13.7676987649042,45.9147437003443 13.7678010439035,45.9148402704955 13.7678950667967,45.9148322865774 13.7683047984479,45.9147423167733 13.768802801161,45.91488103208 13.7690189412707,45.9148537579803 13.7691760111928,45.9149094371251 13.7692160563412,45.9149756427158 13.769216741227,45.9151079183674 13.7696561614084,45.9152028092474 13.7700757995907,45.9152129057882 13.770371908023,45.9151720033793 13.7705507803751,45.9151920138713 13.7708291532777,45.9154814101461 13.7712878484867,45.9154333464447 13.7717241523953,45.9157632194453 13.7724369567075,45.9162869958636 13.7732658651117,45.9168778785505 13.7740755611456,45.9174521729553 13.7749989777729,45.9180909356187 13.7758493879597,45.9186972362082 13.7766401473528,45.9192498045171 13.7768781231343,45.9194614618944 13.7779401650145,45.9206476728741 13.7787626137256,45.9215796438311 13.7791943473098,45.9220691505379 13.7799777180269,45.9226095593427 13.780791028221,45.9229316349533 13.7816055871146,45.9233443261932 13.7819902560217,45.9235118279174 13.7828763674193,45.9241377114527 13.7842059159321,45.925081431593 13.7853239476042,45.9258942188346 13.7858166830847,45.9262335450586 13.7863098435029,45.9265241054489 13.7870310552836,45.927141996195 13.7879748900393,45.9279644250134 13.7889290316588,45.9288003618957 13.7901380627764,45.9298347823526 13.7909418100179,45.9305273039953 13.7917731518704,45.9312504343182 13.7925730820963,45.9319543311541 13.7933603389396,45.9326310950211 13.7944449264118,45.9335721072965 13.7950051730262,45.9350272042035 13.7963775705942,45.9339404270535 13.7964460737574,45.9339331405793 13.7975483343087,45.9340959087875 13.7986950825573,45.9343068224719 13.7992290950134,45.9343839681452 13.7997192701852,45.9343891182545 13.80139718213,45.934469176395 13.8029906726416,45.9343915836952 13.8041302067917,45.9344114337135 13.8049038141351,45.9344831421071 13.8051994023493,45.934518085565 13.8053471985332,45.9345354670506 13.8055085167578,45.9344576129314 13.805649063835,45.9342840747206 13.8060925352069,45.9338035474198 13.8062547463565,45.9336779231993 13.8066215206696,45.9335862876572 13.8069203464595,45.9334700972761 13.8076891163307,45.9332315817994 13.8080567373245,45.9331001801582 13.8085635287234,45.9328588356665 13.8094503353785,45.9324306054911 13.8099798047956,45.9321894909848 13.8104970725959,45.9319881073038 13.8107659695508,45.9316726536442 13.8110005268361,45.9313649400416 13.8111060779361,45.9312227931554 13.8114619927282,45.9311071848515 13.812094059667,45.9308671276551 13.8130827881758,45.9304637729399 13.8133206600679,45.9305378662063 13.8135922292121,45.9306281450159 13.8139449134239,45.9306636586965 13.8143424293524,45.9307313987771 13.8144777270513,45.930796417162 13.8146145090507,45.9307978362443 13.8149675738916,45.9308095065091 13.8157120288647,45.9306982737972 13.8162455040461,45.93039409705 13.8167970933122,45.9301716255694 13.8177527484575,45.9299450548992 13.8182577021691,45.9299022300664 13.8189305282392,45.9297263510617 13.8198704712283,45.9293096563872 13.8206905513308,45.929054037506 13.8216257432613,45.9288605151286 13.8227327734529,45.9287904961401 13.8237530833509,45.928699328656 13.8250740301654,45.9286838561669 13.8264299319552,45.9288328475729 13.8273747221522,45.9287456409165 13.8283811369095,45.9286036318003 13.8289654874158,45.9284877916343 13.8298812467793,45.928425550581 13.830180498456,45.9282854594492 13.8307874649169,45.9281484266984 13.8313157993969,45.9279549799977 13.831637528046,45.9278310410686 13.8328577793673,45.9277957334504 13.8347258451396,45.9274021597018 13.8348383887685,45.9273784734109 13.835900730913,45.92712494551 13.8362405337828,45.927036179253 13.8365357358393,45.9269776404092 13.8369628538621,45.9269307910856 13.8374498273259,45.9268331716342 13.8380224887508,45.9268492541516 13.8394612980845,45.9269049968084 13.8405725618715,45.9275137331821 13.8406816862949,45.9275735961491 13.8411564378136,45.927524155173 13.8416684030701,45.9274708605066 13.8423597068708,45.9274368363873 13.8436261507695,45.9273061449719 13.8442156436215,45.9272198816531 13.8449025051003,45.9271014876781 13.8453955220873,45.9270164924015 13.8464140350119,45.9267909469326 13.8471652681204,45.9267327547616 13.8475968887426,45.9254469116801</coordinates></LinearRing></outerBoundaryIs></Polygon></MultiGeometry>
  </Placemark>
</Folder>
</Document></kml>
