<?xml version="1.0" encoding="utf-8" ?>
<kml xmlns="http://www.opengis.net/kml/2.2">
<Document id="root_doc">
<Schema name="pregledovalniklovisca" id="pregledovalniklovisca">
	<SimpleField name="lov" type="string"></SimpleField>
	<SimpleField name="lov_naziv" type="string"></SimpleField>
	<SimpleField name="luo" type="string"></SimpleField>
	<SimpleField name="luo_naziv" type="string"></SimpleField>
	<SimpleField name="povrsina" type="float"></SimpleField>
</Schema>
<Folder><name>pregledovalniklovisca</name>
  <Placemark id="pregledovalniklovisca.1">
	<Style><LineStyle><color>ff0000ff</color></LineStyle><PolyStyle><fill>0</fill></PolyStyle></Style>
	<ExtendedData><SchemaData schemaUrl="#pregledovalniklovisca">
		<SimpleData name="lov">1203</SimpleData>
		<SimpleData name="lov_naziv">DOBROVO</SimpleData>
		<SimpleData name="luo">12</SimpleData>
		<SimpleData name="luo_naziv">Zahodno visoko Kraško</SimpleData>
		<SimpleData name="povrsina">5460.34</SimpleData>
	</SchemaData></ExtendedData>
      <MultiGeometry><Polygon><outerBoundaryIs><LinearRing><coordinates>13.4879751109827,45.994755827641 13.4879694157838,45.99480147713 13.4879781781266,45.9948352446919 13.4879525807117,45.9948887125459 13.4879564416269,45.9949223252701 13.4880356439958,45.9950241482081 13.4880294587248,45.995071124628 13.4880139981579,45.9951079008244 13.4880174916087,45.9951550053171 13.4880547414957,45.9952093048044 13.488087106292,45.9952533721754 13.4881049987546,45.9953074155073 13.4881081272468,45.995367921823 13.4881212473402,45.9954218120268 13.4881442798017,45.9954625167054 13.4881525866638,45.995513014049 13.4881413521493,45.995570001149 13.4881014486075,45.9956131122745 13.488080900231,45.9956565694724 13.4880703271701,45.9957034878304 13.4880308791973,45.9957298691335 13.487958281298,45.9957457342666 13.4879572742497,45.9957827017148 13.4879951468039,45.9957999387037 13.4880376301684,45.9958374816412 13.4880798579368,45.9958749312031 13.4881133019815,45.9958888703625 13.4881902552204,45.9958932177284 13.4882238283564,45.9959071585633 13.488222823929,45.9959440360699 13.4882084525064,45.9959808675493 13.4882071410852,45.9959842284932 13.4882060435494,45.9960245239142 13.4882148547774,45.9960292934862 13.4882632938511,45.9960555138288 13.488325206355,45.9960764879093 13.4883241995394,45.9961134553616 13.4882802508246,45.9961296997196 13.4882383345326,45.9961483848506 13.4882218343951,45.9961557401507 13.4881871970614,45.9961856043011 13.488181011764,45.9962325807199 13.48818071118,45.9962436162166 13.4881797304555,45.9962796220234 13.4881979907988,45.9963201735671 13.4882021647352,45.9963470421006 13.4881670331733,45.996390306359 13.4880793932927,45.996422798344 13.4880641161187,45.9964528286502 13.4880822833271,45.9964967981255 13.4880433150522,45.9965197666307 13.4879952876428,45.9965056344758 13.4879848476354,45.9965014484794 13.4879521234348,45.9964883274646 13.487903476126,45.9965111678381 13.4878997645642,45.9965151344361 13.4878814662926,45.9965346900443 13.4878786105056,45.9965377420607 13.4878784580551,45.9965433378768 13.4878778778254,45.9965646356497 13.487896505597,45.996591695471 13.4879151284856,45.9966189351795 13.4878918571958,45.9966628061909 13.4878300740023,45.9966939305852 13.4877686480831,45.9967207423811 13.4877374403514,45.9967343642193 13.4876906754639,45.9967544401115 13.4876950269759,45.9967568982641 13.4877229698686,45.9967726830887 13.4874324023025,45.9970223937283 13.4868531825742,45.997527572336 13.4868509193532,45.9975295462273 13.4869319697999,45.9976914993475 13.486954581787,45.9978268802532 13.4869632682539,45.9978788870955 13.486908657243,45.9979972941785 13.4867749415392,45.9981901447864 13.486589825005,45.998402655979 13.4865726290407,45.9984223966059 13.4865596710592,45.9984441557037 13.4864101246247,45.9986952733389 13.4864040449416,45.9987054822591 13.4863562281711,45.998798138497 13.4862536961622,45.9989968172319 13.4861200700068,45.9992761366145 13.4859451996725,45.999552839843 13.4856549247528,45.9998193755361 13.4854502091769,46.0000115534812 13.485028420007,46.0003754994712 13.4849061497196,46.0004825015167 13.4848593803208,46.00052343054 13.4844115702684,46.0006945860222 13.4840546338948,46.0008310070483 13.4837898715665,46.0009381664047 13.4829233035499,46.0013294934056 13.4824218426134,46.0016833741333 13.4824049923433,46.0016914940403 13.4823803475585,46.001703370005 13.4821741697103,46.0018027237102 13.4817812785002,46.0020434979106 13.4815773478907,46.0021684706458 13.4814975409413,46.0021916112151 13.481309117765,46.0022462455003 13.4803090596329,46.00235279917 13.4798151679282,46.0026320877912 13.4786380779305,46.0035300525574 13.4786243103534,46.0035471449186 13.4784266398203,46.003791770868 13.4781778261203,46.0041968649288 13.4781038479574,46.0044696809774 13.4780587065275,46.0046691649094 13.4780284742206,46.0048027632593 13.4778558146166,46.0051435901009 13.4778021381785,46.0052495454549 13.4775116284915,46.0056303284641 13.4773082318345,46.0057161559374 13.4773036691508,46.0057172677964 13.4770705493628,46.0057740753576 13.4764991685123,46.005913309206 13.4763328654685,46.0059789347052 13.4761593308006,46.0060774852326 13.4763029733808,46.0063527521777 13.4764396566237,46.0067387135391 13.4764465310384,46.0067581251298 13.4769064634522,46.0067025111954 13.4769143490653,46.0067015576686 13.4769332081486,46.0068366587727 13.4769747756813,46.0071344346123 13.477055866608,46.0074592267575 13.4771053034349,46.007657233457 13.4772878253729,46.0077931868008 13.4774613845452,46.007922463256 13.4779772404689,46.0082410397071 13.478094991023,46.0083137579263 13.4783368136282,46.0083678350562 13.4785283956594,46.0084106767949 13.4787720755658,46.0087256028696 13.4789709024784,46.0088892748135 13.4789772777095,46.0088945228063 13.4793356100204,46.0088191223328 13.4793438210459,46.0088193383825 13.4798130407504,46.0088316835789 13.4801312222381,46.0090481728873 13.4804100920074,46.0091630939206 13.4805696171013,46.0092919846422 13.480591254478,46.0093094668265 13.4806791428704,46.0093792371803 13.4809597856611,46.0096020243378 13.480910547847,46.0096433314708 13.4807781889025,46.0097543710867 13.4803968488396,46.0100001571445 13.4803531711334,46.010097188839 13.4803060998014,46.0102017591904 13.4799799171586,46.0103870372399 13.4799319940609,46.010414258301 13.4798827180862,46.0105247058746 13.4798019786756,46.0107056748203 13.4796896504885,46.0109206149478 13.4796584765861,46.0109802659247 13.4796149665156,46.0110412314961 13.4796368814757,46.0110803033247 13.4796345175006,46.011166560139 13.4796314540951,46.011268913589 13.4796184531798,46.011356918392 13.4795884328358,46.0114204028514 13.4795740268463,46.0114701485842 13.479614215673,46.0115115330472 13.479754917923,46.0115606432223 13.4798380069127,46.0116057475741 13.4799997241618,46.0116702532171 13.4801081508386,46.0117238452775 13.4801295545654,46.0117344244747 13.4802027528724,46.0117625330141 13.4803176626698,46.0118066588368 13.4804582529732,46.0118599056101 13.4806386109913,46.0119330194275 13.4806457421205,46.0119359102462 13.4806569465646,46.0119389938411 13.480729565013,46.0119589792593 13.4808082642993,46.0119710928342 13.4808921577359,46.0119868745024 13.4810596584655,46.0120147447795 13.4811804267316,46.0120420836242 13.4812694111109,46.0120653108247 13.481358569344,46.0120774730557 13.4814739583653,46.0120937628628 13.4816422764354,46.0121106659133 13.4817521735651,46.0121341706254 13.4818673659087,46.0121576556071 13.4819560198517,46.0121882560219 13.4820601531677,46.0122336383289 13.4821587897192,46.0122864156415 13.4822367181958,46.0123314496902 13.482340922246,46.0123695445165 13.4825449975,46.012420032807 13.4826703307144,46.0124693851612 13.4827746644193,46.0125074813121 13.4829414505486,46.0125757391503 13.4830238538767,46.0126318992794 13.4830910948283,46.012680569901 13.4831692262986,46.0127182278648 13.4832783211267,46.0127711430346 13.4833770630901,46.0128201416408 13.4834813979505,46.0128582371583 13.4835547056159,46.0128739663495 13.4836866365798,46.0128757171707 13.4837924787972,46.0128586763167 13.4838930257666,46.0128416550829 13.4839988654021,46.0128247039807 13.4840551274991,46.0128208521573 13.4841783150736,46.0128124183739 13.4842653295362,46.0128022355213 13.4843475098341,46.0127926183215 13.4845210362427,46.0127986089787 13.4846055315907,46.0127924414351 13.4846835789987,46.0127673765867 13.4847704666461,46.012739472614 13.4848459925072,46.0126625611475 13.4848949302959,46.0126127253978 13.4849744655995,46.0125990236964 13.4849892126708,46.0126056887413 13.4850163061368,46.012617933819 13.4851151501126,46.0126632432056 13.4852236474442,46.0127381030579 13.4852392188924,46.0127487449522 13.4853168246966,46.0128017824944 13.4854459357213,46.0128878926156 13.4855070160284,46.0129731009155 13.4855791520924,46.0130365012485 13.4856725031786,46.0130891154867 13.4857918871579,46.0131531418396 13.4859012898246,46.0131949013916 13.4859846833873,46.0132291180358 13.4860625156945,46.0132778372583 13.4861653201651,46.0133673770564 13.4862162475196,46.0134413832502 13.4862878686308,46.0135047763073 13.4863657997639,46.0135498975378 13.4863776758528,46.0135570580937 13.4864087375534,46.0135757863865 13.486428053857,46.0135874329174 13.48646334334,46.013642966465 13.4864400997506,46.0137233682129 13.4864219476657,46.0138112155361 13.4863989312059,46.0138880211906 13.4864282777712,46.0139506565901 13.4864335886253,46.013961991716 13.4864664121537,46.0139856507733 13.4864957735268,46.0140068142994 13.4865538257194,46.0140425565246 13.4865628331647,46.0140481023229 13.4866409665016,46.0140858479016 13.486745979328,46.0140945268318 13.4868880682174,46.0141074756826 13.4869874168773,46.0141344347512 13.4870711142778,46.0141575874123 13.4870889454468,46.0141614744655 13.4871967958883,46.0141849849342 13.4873078457409,46.0141934643013 13.4873122656363,46.0141938017862 13.4873808432172,46.0141983986911 13.487459590722,46.014199441107 13.4875018045501,46.0141999998879 13.4875848033329,46.0142487864501 13.4876465873146,46.0143083593714 13.4877139373803,46.0143532496511 13.4877652463443,46.0143944184832 13.4878220393931,46.0144428580503 13.4878520379107,46.0144983211389 13.4878913440968,46.0145457561459 13.4878981733775,46.0145539977646 13.4879203065713,46.0145684788821 13.4879350927114,46.0145781530253 13.4879496861669,46.0145877010955 13.4879908169517,46.0145985391589 13.4880230284713,46.0146070269606 13.4881706129397,46.014612668795 13.4882610042079,46.0145845321222 13.4883349308461,46.0145634657208 13.4883928251326,46.014571519774 13.4884167162589,46.0145939455297 13.4884379110799,46.0146138403399 13.4884444526514,46.0146199806723 13.4885057215898,46.0146795463108 13.4885837591276,46.0147208883783 13.4886519069479,46.014736546039 13.4887251516792,46.0147594692528 13.4887976048519,46.0147972282008 13.4888703212161,46.0148348106286 13.4889434632585,46.0148615113892 13.4890064499701,46.0148770106094 13.4890800346592,46.0148779836362 13.4891759890887,46.0148352535063 13.4892257504065,46.0148044575328 13.4892457393819,46.0147920868647 13.489305931849,46.0147157721582 13.4893290451056,46.014635278143 13.4893261503839,46.0145471521207 13.4893592491817,46.0144888345459 13.4894237322168,46.0144493772035 13.4894872900254,46.0144391502087 13.4895714001336,46.0144329738987 13.4896067289056,46.0144293332418 13.4896665861547,46.0144231648806 13.4897244780569,46.0144313082047 13.4897658507373,46.0144722548279 13.489842672215,46.0145393134642 13.489873358849,46.0145838078861 13.489935340341,46.0146160306215 13.4899458150441,46.014621476169 13.4899872953348,46.0146148014629 13.4900093729618,46.0146112488852 13.4901202060259,46.0146054253057 13.4902891057105,46.0145965897826 13.4903943184378,46.0145979798384 13.4905790943488,46.0145894436099 13.490700259847,46.0145835760018 13.4908887799307,46.0145733029721 13.4909168934613,46.0145717709537 13.4910174415226,46.0145547434664 13.4910975752269,46.0145190909521 13.4911461923515,46.0144646668513 13.4911893299514,46.0144487203934 13.4912420754378,46.0144292222019 13.4913370293503,46.0144231877727 13.4913999159732,46.0144423734207 13.4914891807269,46.0144508400716 13.4915026031408,46.0144482288431 13.4915420208481,46.0144405604175 13.4916067743398,46.0143863491411 13.4916606822757,46.0143502600502 13.4916713584111,46.0143431128188 13.4917344281564,46.0143365671995 13.4918289118018,46.0143525705864 13.4918756214965,46.0143825196823 13.4919267668254,46.0144345717323 13.4919725767606,46.0144976205492 13.4920449227656,46.014553641409 13.4921390107742,46.0145842156351 13.4922491155193,46.0146004248102 13.4923438716133,46.0146016750926 13.492444521995,46.0145808686541 13.4925448667519,46.0145713052536 13.4926186115747,46.0145758772044 13.4926970480607,46.0146026454048 13.4927736728971,46.0146770776071 13.4928042642158,46.0147251690719 13.4928712182314,46.0147848073511 13.4929378852976,46.0148407527378 13.4929812969894,46.0148539960971 13.4930007729664,46.0148599375159 13.4930148898758,46.0148565839953 13.4930592645376,46.014846042627 13.4931595143892,46.0148399865484 13.4932640603079,46.0148706977553 13.4933373759954,46.0148863307862 13.4934320613954,46.0148949573688 13.4934935894591,46.0149060072887 13.4935207371804,46.0149108827779 13.4935538307339,46.0149113190792 13.4935998732081,46.0149119260814 13.4936841730923,46.0149130374032 13.4937579184813,46.0149176086251 13.4938472109232,46.0149298528415 13.493894466598,46.0149211403932 13.4939214521191,46.0149161651086 13.4939351251737,46.0149056065274 13.493958914058,46.0148872363047 13.4940178034843,46.014858679875 13.494076007644,46.0148410916098 13.4941392647639,46.0148419252679 13.4941350971939,46.0148051596212 13.4940886572851,46.0147604587369 13.4940951165904,46.0147221078242 13.4940954314844,46.0147202381991 13.4941379883386,46.0146986646402 13.4942037461013,46.0146624001159 13.494228975054,46.014648486664 13.4943150044733,46.0146225498331 13.494324581133,46.0146196625803 13.4943456409554,46.0146133132821 13.4944144174961,46.0146106204256 13.4944867661511,46.0146666397702 13.4945364912862,46.0147663598855 13.4946025513562,46.0148590070255 13.4946891564087,46.0149702801443 13.4947563129192,46.0150225418462 13.4948756141034,46.0150901566711 13.4949944863025,46.0151688329228 13.4951707837137,46.015277687892 13.495367002573,46.0154234256533 13.4955072088289,46.0155059813775 13.4956363421553,46.0155920802155 13.4957814422285,46.0156894562984 13.4959058366959,46.015764605198 13.4960147814559,46.0158284834088 13.4961664441143,46.0158743884136 13.496291310283,46.0159274086959 13.4963790127369,46.0159983851457 13.4964974940452,46.0160916309875 13.4965849995436,46.0161698928419 13.4966673121574,46.0162443972414 13.496734074718,46.0163113188735 13.4968065254345,46.0163637389824 13.4968683342059,46.0164085509431 13.4969302014055,46.016460741772 13.4969810436115,46.0165385210372 13.4970315694156,46.0166089179838 13.4970459279793,46.0166604838451 13.4970284862096,46.0167226986296 13.497058585125,46.0167891378132 13.4971357135795,46.016845308301 13.4972186249956,46.0168977757478 13.4972959753021,46.0169648362885 13.4973731942568,46.0170319850258 13.4973871560447,46.0170982119105 13.49739026099,46.0171790522896 13.4973884723929,46.0172450720523 13.4974374981935,46.0173851814324 13.497414395417,46.0174656771809 13.4974016331082,46.0175315526371 13.4974028495672,46.0176821005207 13.4974438039666,46.0177340160539 13.4974837741463,46.0178079630481 13.4975246288109,46.0178635663056 13.497570289592,46.017922921807 13.4976110469664,46.0179821228416 13.4976094535016,46.0180409469876 13.4975921117862,46.0180994740938 13.4975901260124,46.018172779411 13.497577487959,46.0182388364674 13.4975809829537,46.0183195919772 13.497605302852,46.0183896440785 13.4976239299261,46.0184743775861 13.4976374951856,46.0185552654948 13.4976724895093,46.0186365251208 13.4976812561487,46.0186990845595 13.4976947508579,46.0187873496612 13.4977346222073,46.0188649843197 13.4977699871958,46.0189278034588 13.4978303061636,46.0190277513131 13.497871261929,46.0190796666984 13.497932536167,46.019153893576 13.4979990430378,46.0192209010486 13.4980343086723,46.0192874078606 13.4980485689306,46.0193426613446 13.4980789797492,46.0193833708514 13.4981187244614,46.0194375517103 13.4981198337008,46.0194390638479 13.4981224229889,46.0194414609068 13.4982123136873,46.0195246779413 13.4982692282283,46.0195548484878 13.4983372874173,46.0195740982724 13.4984259942188,46.01960828563 13.4985253609634,46.0196351448852 13.4985346254634,46.019679355443 13.4985227748331,46.0197306666753 13.498500169344,46.0197928138006 13.4984828279707,46.0198513410295 13.4984968915557,46.0199138800193 13.4985400418985,46.0200612897835 13.4985488097029,46.0201238491553 13.4985847024162,46.0201720086817 13.4986253722222,46.0202202309638 13.4986615304202,46.0202538176506 13.4987024998463,46.0202909766484 13.4987541416903,46.0203394330169 13.4987846509513,46.0203765445345 13.4988252212547,46.0204284545005 13.4988765370164,46.0204841946796 13.498901752941,46.0205212366262 13.4989267692639,46.020565654073 13.4989524724035,46.020599013344 13.4989598205373,46.020603156915 13.4989990327882,46.0206252684626 13.4990302138425,46.0206233272798 13.4990467717221,46.0206222964621 13.4990992925865,46.0206192072984 13.4991565960596,46.0206493825046 13.4991919344417,46.0206807038101 13.4992027598207,46.0206902986092 13.4992064345355,46.0207454129018 13.4992313712879,46.0208118736413 13.4992292852601,46.020888956677 13.4991953088764,46.0209656208609 13.499182932666,46.0210315915255 13.4991821289863,46.0210612879999 13.4991811459623,46.0210976112977 13.4992011884788,46.0211492515023 13.4992360693986,46.0212157528671 13.499260816211,46.0212749229501 13.4992703809316,46.0213080701878 13.4992899951028,46.0213707719399 13.4992879115499,46.0214477650249 13.4993022733582,46.0214993306014 13.4993686579677,46.021566245664 13.4994357563264,46.0216258819105 13.4994432529621,46.0216405399088 13.4994660553584,46.0216851248569 13.4995061307508,46.0217553834091 13.4995409126205,46.0218255724361 13.4995800696462,46.0218567390239 13.4995876938558,46.021862807421 13.4997070835583,46.0219231301186 13.4997849377335,46.0219719301638 13.4998786166965,46.0220134698044 13.4999984329782,46.0220628205834 13.5000970093602,46.0221190906084 13.500153521852,46.0221785874727 13.5002356510007,46.022260374956 13.5002909834431,46.0223491888117 13.5003515687831,46.0224491387673 13.5004075856821,46.022526984335 13.5004736736756,46.0226049620375 13.5005193347523,46.0226788926083 13.5005759455413,46.0227347914616 13.5006114249173,46.0227792558409 13.5006473301655,46.0228127485862 13.5007098013445,46.0228429908074 13.5007565523748,46.0228766258242 13.5007810751285,46.0229393917053 13.5008252552693,46.0230537924291 13.5008494749271,46.0231421078226 13.5008841866245,46.0232197636037 13.5009033186368,46.0232860578165 13.5009500701533,46.0233196927576 13.5010014993434,46.0233570781052 13.5010270056192,46.0233978124339 13.5010257145403,46.0234455733523 13.5010132834506,46.0235040753657 13.5010337248147,46.0235410541867 13.501074100114,46.0236003388893 13.5010933297269,46.0236630352612 13.5011233374146,46.023733161156 13.501137701474,46.0237847265099 13.5011675212874,46.0238474718031 13.5011905179616,46.0238954590659 13.5011923415145,46.0238992642784 13.5012066850754,46.0239027869495 13.5012395602206,46.0239108608305 13.5012976631838,46.0239116229102 13.5014447895926,46.023920840638 13.5015499503536,46.023929597842 13.5016078540427,46.0239377352746 13.5016544862234,46.0239567020876 13.5016744348044,46.0240119396841 13.5016459504713,46.0240813884242 13.5016024995985,46.0241358846527 13.5015533674314,46.0241903063626 13.5014889697272,46.0242408387967 13.5014509209618,46.0242770504785 13.5014289800913,46.0243098743128 13.50143308285,46.0243540169047 13.5014470486916,46.0244203332381 13.50146682283,46.0244513444571 13.5014776551839,46.0244683325138 13.501508066398,46.0245092210282 13.5015545021368,46.0245354734497 13.5016224713641,46.0245583191595 13.5017007294882,46.024592366924 13.5017638305711,46.0246041715096 13.5018533102753,46.0246053447032 13.5018817058811,46.0246082038667 13.5019375550676,46.0246138273194 13.5019560788135,46.0246202067418 13.5020263693397,46.0246444141681 13.5021145995427,46.0246822814369 13.5021175499905,46.0246839057564 13.5022239267191,46.024742469562 13.5022908167246,46.0247909442021 13.502358318072,46.0248359177079 13.5024979632583,46.0249405017304 13.502642087668,46.0250562114591 13.5027297129379,46.0251308709565 13.5027533243051,46.0251478656678 13.5027815347883,46.0251681706569 13.5028331931833,46.0252019590851 13.5028851123117,46.0252356609286 13.5028854670502,46.0252359175122 13.502978104591,46.0253029224511 13.5030501770333,46.0253699998178 13.5030903591025,46.0254365694003 13.5031465819014,46.0255070381561 13.5031871575326,46.0255590365692 13.5032596287443,46.0256113627808 13.5033325953761,46.0256453401081 13.5034005750694,46.0256535186249 13.5034635757787,46.0256690999913 13.5035260541394,46.0256992507708 13.5035512079737,46.0257435789856 13.5035496228056,46.0258023132659 13.5035532025274,46.025861115185 13.5035990645098,46.0259278489433 13.5036554957803,46.0259762757858 13.5037071200028,46.026020950593 13.5037581579088,46.0260729958201 13.5037994500376,46.0261176252709 13.5038189820805,46.0261692579334 13.503833744846,46.0262061618809 13.5038535730521,46.0262468212104 13.5038789133144,46.0262986198873 13.5039243614789,46.026361569054 13.5039865744126,46.0264063823661 13.5040380060687,46.0264438563326 13.5040794680565,46.0264774207222 13.5041099841919,46.026514530864 13.5041563448242,46.0265628256173 13.5041866620796,46.0266073112548 13.5042567280376,46.0267440938105 13.5043079957203,46.0267924527325 13.5043268264046,46.026884475827 13.5042973562639,46.0269905329585 13.5042576152615,46.0271038337574 13.5042236336178,46.0271951655495 13.5042215540647,46.0272722486747 13.5042666375144,46.0273535482413 13.5043014584231,46.0274274253166 13.50435238813,46.0274979141463 13.5044028575036,46.0275902613533 13.5044373506574,46.0276715122132 13.5045035392933,46.0277605560035 13.5045589833606,46.0278456801023 13.5046046540665,46.0279196090939 13.5046058517138,46.0279218266443 13.5046446384348,46.0279936436068 13.504644888249,46.0279987492334 13.504648052566,46.028063420503 13.5046556420356,46.0281699626758 13.5046421138552,46.0282836066122 13.5046332582726,46.028415577034 13.5045836197411,46.0285031049372 13.5045654908995,46.0285909552146 13.5045680145663,46.0286937420286 13.5045649455241,46.0288075228252 13.5045247192336,46.0289244164146 13.5044801778474,46.0290192991148 13.5044513556619,46.0291108784267 13.504448980272,46.0291989348583 13.5044940655533,46.0292802343318 13.5045603580366,46.0293655003875 13.5046058366423,46.0294322286823 13.5046247761383,46.0295058977959 13.5046227964453,46.0295792931473 13.5046309995697,46.0296822442445 13.5046913149708,46.0297784091965 13.5047878283571,46.0299118483792 13.5047939545462,46.0299272017391 13.5048128751363,46.0299746201726 13.5048203317985,46.0300022709413 13.5048367140913,46.0300630196079 13.504860553119,46.0301514190378 13.5048319643666,46.0302391324711 13.5047982775699,46.0303194910496 13.504784856532,46.0304147810531 13.5048044823524,46.0304773919319 13.5048868269194,46.0305518906231 13.5050005808445,46.0306304892517 13.5050988791017,46.0306978183971 13.5051715551943,46.0307428578863 13.5052341747724,46.0307584332717 13.5053393218812,46.0307634077521 13.5054554429687,46.0307686156444 13.5055388939749,46.0307847886768 13.5056177486905,46.0308000708711 13.5057488314663,46.0308348966134 13.5057838634669,46.0308510985609 13.5058631513927,46.030887768354 13.5058985704586,46.0309396083496 13.5059278946703,46.0310354573776 13.5059457504337,46.0311494217802 13.5059483736213,46.0312486107393 13.5059666221838,46.0313480039957 13.5060018375768,46.0314217956809 13.5060574838225,46.0314996335022 13.5060874000119,46.0315735358313 13.5060948956057,46.031683675697 13.5060974893049,46.0317791752013 13.5061162364747,46.031836004337 13.5061169557398,46.0318381846753 13.5062475866929,46.0318802920666 13.5063932445867,46.0319162151311 13.5064359741339,46.0319267533165 13.5066401364114,46.0319918656989 13.5067545887057,46.0320447382642 13.5068205899003,46.032141066327 13.5068814357283,46.0322225707599 13.5069629934895,46.0323264801227 13.5070193273479,46.0323932592768 13.5070704710125,46.032441705264 13.5071534149671,46.0324941657616 13.5072208326697,46.0325427343119 13.507266289604,46.0326056821911 13.5073464632858,46.0327610400253 13.5074640304552,46.032909418135 13.5075093216497,46.0329833409398 13.5075285615562,46.0330460362571 13.5075591755087,46.0330941239009 13.5076009229199,46.0331169647199 13.5076211752978,46.0331280451769 13.5076911677822,46.0331319453727 13.5077055356984,46.0331327459917 13.5077579591003,46.03314809685 13.5078044324444,46.0331781262085 13.5078454077614,46.033230038135 13.5078329418679,46.0332996075056 13.5077993938145,46.0333653024921 13.5077452526518,46.0334233504299 13.5076700017775,46.0334737445432 13.5075791247717,46.0335239345212 13.5075354831986,46.0335710523216 13.5075289025006,46.0336187441415 13.5076069485796,46.0336564740806 13.5077247125087,46.0336876760451 13.507738041794,46.033691207676 13.5077675474908,46.033693249789 13.5078694377902,46.0337003016389 13.5080013301314,46.0336909566531 13.5081016056433,46.0336995540307 13.5081527514428,46.0337479995488 13.5081722207134,46.0338070086879 13.508128373744,46.0338761683871 13.5080960716551,46.0339051691206 13.508094689359,46.0339565279192 13.5080758812956,46.0340553469933 13.5080625544713,46.0341617057155 13.5080873807997,46.0342280729422 13.5081381348941,46.0342910896153 13.5082270673271,46.0343179840648 13.5082998499267,46.0343593338657 13.5083240907139,46.034433071505 13.5082904062526,46.0345134310864 13.5082251534336,46.0345859104517 13.5081869654462,46.0346367887442 13.5081957460478,46.0346993473816 13.5082148210974,46.0347730176003 13.5082717495244,46.0348178494928 13.5083386544244,46.0348664106672 13.5084029588647,46.0348865951184 13.508411931581,46.0348894115506 13.5085062293155,46.0349089977041 13.5085659819977,46.0349160193167 13.5086113153554,46.0349213464744 13.5086477867118,46.0349438668279 13.5086466033192,46.0349878501103 13.5085981877561,46.0350203297339 13.508507475129,46.0350595453973 13.5084162686106,46.0351171098384 13.5083889679705,46.0351570631446 13.5083869928705,46.035230458549 13.5084105418806,46.0353299205344 13.5084361581675,46.0353669655005 13.5084765473256,46.0354263376149 13.5084694065188,46.0354996655908 13.5084324488766,46.0355384131307 13.5082860264879,46.0355918868159 13.5082024250059,46.0356224180761 13.5081374104016,46.0356859927725 13.5081455445177,46.035743774185 13.5082175991775,46.0357786361839 13.5082468447803,46.0357838808146 13.5084015837772,46.0358116301068 13.508452111261,46.0358312308232 13.5085463174449,46.0358677753667 13.5085982721389,46.0359294578329 13.5086103099516,46.0360246305858 13.5085410267168,46.0360643958858 13.5084269953842,46.0361443365991 13.5083998642848,46.0362355789642 13.5083641131297,46.036306284036 13.5083178013244,46.0363816916512 13.5083052080668,46.0364021966969 13.5082876390304,46.0364308035552 13.5082812168961,46.0364918140507 13.5083809631564,46.0365778743973 13.5085326902162,46.0366381486902 13.5085399793866,46.0366410443394 13.5085345519972,46.0366457962316 13.5084903629669,46.0366844854205 13.5084352150522,46.0367414407922 13.5084378029601,46.0368229036854 13.508443194092,46.0368338057328 13.5084749282969,46.0368979791433 13.5085005835093,46.0369464773716 13.5085164819555,46.036976531511 13.5085477873685,46.0370854522769 13.5086124877149,46.0372016471359 13.5086488802044,46.037303975972 13.5086212634582,46.0374324624755 13.508619075524,46.0375137730466 13.5086414912178,46.0375785790448 13.508671863807,46.0375961334742 13.5087615840575,46.0376479889288 13.5087802634958,46.0376777793197 13.5087894570257,46.0376924413568 13.5088055456187,46.0378147499716 13.5088408474378,46.0379576440858 13.508842652777,46.0380730180326 13.508838729989,46.038218819397 13.5088373741524,46.0382692125845 13.5088355466479,46.0383371363229 13.5088352621321,46.0383477110378 13.5088620416724,46.0384328187309 13.5088433407552,46.0385852654859 13.5088536232914,46.038603435197 13.5088665275616,46.038626237614 13.5089323461411,46.0387153638082 13.5089457795343,46.0388314600808 13.5089480698908,46.0388512541315 13.5089755083092,46.0389262929765 13.5090287751161,46.0389906558027 13.5090321926114,46.0389947851912 13.5090368374253,46.0390070403426 13.5090537110081,46.0390515605545 13.5090593356987,46.0390664010391 13.5090127762863,46.0391642282564 13.5089225279117,46.0392579762775 13.5088833617175,46.0393018940243 13.5088776333234,46.039308317367 13.5088828731455,46.0393200529444 13.5089324687782,46.039431131537 13.5089631746221,46.0395672173371 13.5090384100337,46.0396665437395 13.5090621517535,46.0397419944054 13.5090651904738,46.0397516513775 13.5090976816367,46.0398165887202 13.5091665180325,46.0399007850293 13.5092153865909,46.0399605577693 13.5092237248079,46.0399867096258 13.5092398409041,46.0400372558346 13.5092425524824,46.0400457603668 13.509287613218,46.0401717759737 13.50927065113,46.0402039510322 13.5092467687056,46.0402492530738 13.5092537165597,46.0403511975284 13.5092462037241,46.0404527733757 13.5092536088812,46.0405377181656 13.5092684268207,46.0405776419748 13.5092991470052,46.0406604108414 13.5094037182576,46.0407499522926 13.5095378272873,46.0408365497771 13.5095482126922,46.0408496183457 13.5095937265241,46.0409068910073 13.5096085623273,46.0409255597192 13.5096472531108,46.0411059280807 13.5096328251044,46.041282094538 13.5096741324337,46.0413843970997 13.5097099605542,46.0414934664266 13.5097247043881,46.0415491169938 13.5097586393885,46.0416772041611 13.5097360725999,46.0417956792932 13.5097509147258,46.0418258296378 13.5097701310894,46.0418648657731 13.5098082144283,46.0419045023486 13.5098884732474,46.0419613346125 13.5100546366316,46.0420572571685 13.5101436135555,46.0421166322989 13.5100854077458,46.0421478151752 13.5099309757676,46.0422306496683 13.5093765892204,46.0425414873224 13.5089196062582,46.0427855708224 13.5085418600595,46.0429802996894 13.5082079354434,46.0431837872902 13.508065296094,46.0432987149759 13.5080396150075,46.0434017398527 13.5080299514996,46.0434405068643 13.5082262485371,46.0435978297755 13.5086924351096,46.0440010199941 13.5086992570135,46.0440069199888 13.5086333732777,46.0444384886988 13.5085590480958,46.0451116248484 13.5085192529955,46.0455534176288 13.5084853255492,46.0459300631675 13.5084840448379,46.0459442808689 13.5073273017976,46.0460262616315 13.5064736879151,46.0458544095001 13.5061067674144,46.0459053088728 13.5054660361904,46.0461479658663 13.5049250688149,46.0462081020027 13.5045424628013,46.0462942419803 13.5037055837502,46.0464837549953 13.5030570183624,46.0466187736296 13.5027311214427,46.0466909841959 13.5016804473953,46.0469256384823 13.5013182988903,46.0470051076837 13.5006089121839,46.0471668476128 13.5004541387565,46.0472005758729 13.5003137175765,46.0472311762699 13.5002238240272,46.0472270033992 13.5000461851919,46.047218757171 13.4994713854896,46.0472535897928 13.4988492303248,46.0473383643838 13.4985596751865,46.0473375294282 13.4983166214604,46.0474183739216 13.4981772969843,46.0475433201919 13.4980113129006,46.0477174031026 13.4975642512557,46.0481306378048 13.497142140566,46.0482002177089 13.4968530595154,46.0481769804507 13.4963136355455,46.0483029591054 13.4962493904348,46.0483895779221 13.4962408036422,46.0484011550879 13.4963108893319,46.0486802855225 13.4964538250427,46.0492177079878 13.4965926255697,46.0496742767013 13.4966952564622,46.0498184072851 13.4968190552489,46.0499922640817 13.4970550197452,46.0503161349121 13.4970826076291,46.0503654794183 13.4972116645137,46.0505963131532 13.4973101335138,46.0509877198774 13.4973187480254,46.0510219616458 13.4972312969537,46.0510444755 13.4973097534152,46.0511391730159 13.4970826647358,46.0511643492461 13.4969831955567,46.0512794373227 13.4969371086516,46.0513327607125 13.4970134153084,46.0513495103091 13.4971515653212,46.0513826391814 13.4972884194611,46.0513920869674 13.4975124566498,46.0513984520352 13.4976699780865,46.0513952637026 13.4977172655525,46.0513943065321 13.4978321894209,46.0514738271505 13.4978778741618,46.0515761913637 13.4978737353155,46.0517288274458 13.4977047927948,46.0520353166349 13.4974783943792,46.0522969615186 13.4974155726079,46.0524690707072 13.4972919099065,46.0527116413438 13.4972515854162,46.052945230431 13.4972571698233,46.0532776777847 13.4972857729215,46.0534714138407 13.4973098008515,46.0536718379708 13.4973489569627,46.053838629789 13.4974099018759,46.0541073817483 13.4974463744915,46.0543826501082 13.4974784166965,46.0546306872346 13.4974639752112,46.0551630692542 13.4974627212716,46.0553903338193 13.4975046579582,46.055645249246 13.4975582142801,46.0558291458869 13.4975168979604,46.0560897149046 13.4974484039208,46.0562754258782 13.4973743020461,46.0564915651483 13.4972230517504,46.0566931033493 13.4970376938664,46.0568703489407 13.4968466484147,46.0570952070307 13.4967015351237,46.0572324019801 13.4964264597678,46.0574865659806 13.4962941211227,46.0577053573414 13.4962591404551,46.0579084241603 13.4963243208975,46.0580211228142 13.4963112220938,46.0581465578178 13.4963070804245,46.0582991036695 13.4963826838152,46.0583849464499 13.496501608975,46.0584984421393 13.4967506601634,46.058650899896 13.4971856636755,46.0588776360631 13.4972647617009,46.0589188638224 13.4977026539672,46.0591281485465 13.4981084435598,46.0592488325877 13.4985166636881,46.0592846991829 13.4987270525827,46.0592569613196 13.4988400245887,46.0592279433797 13.4988853512558,46.059192037216 13.4989495203275,46.0591412046615 13.4991159464803,46.0591093795052 13.4993642681061,46.0591126407482 13.4995675410668,46.0591662367167 13.499648428254,46.0592385602283 13.4998004840181,46.059555924535 13.5000212942699,46.0600405578501 13.5002856719316,46.0605392589691 13.5005284059093,46.0609257445687 13.5008105140158,46.0613093270852 13.5010428596207,46.0615498232354 13.5012607528234,46.061779962002 13.5015954137734,46.0620082124062 13.5018544247487,46.0621710468445 13.5020808101397,46.0622690298189 13.5022642386399,46.062325689953 13.5024321171551,46.0624364018687 13.502677885838,46.0625346376725 13.5029204889971,46.0625683182893 13.5033482312165,46.0626145906769 13.503639285778,46.0626489943055 13.5040727653307,46.0626647470805 13.5042490697593,46.062626385506 13.5043538595339,46.0625463283005 13.504509535361,46.062372011694 13.5046121430307,46.0621764857772 13.5047826364021,46.0619990335594 13.5050905436235,46.0617825294392 13.5053290752362,46.0616126247096 13.5055095845243,46.0614182968295 13.5056748199362,46.0612678574435 13.5058631898684,46.0611413841413 13.5059794732455,46.0609800469164 13.5061837044184,46.0608165301519 13.5064119899921,46.0606668239059 13.5066452367628,46.0605104337927 13.506749046286,46.0604472771546 13.5068416849527,46.0604484876613 13.5070285815599,46.0605730278142 13.5072955948713,46.0607603528247 13.5073102196096,46.0607706128554 13.507344058337,46.0607943524986 13.5075905378683,46.0610485164298 13.5078863673903,46.0612796603747 13.5080721714423,46.0614449439131 13.508297320214,46.0617666701159 13.5086148893732,46.0620931111577 13.5087180079212,46.0622572244835 13.5088431251353,46.0624828088223 13.5089860102177,46.0626101905141 13.5091209940051,46.0626662075219 13.5094460591119,46.0627145365468 13.5097522905484,46.0627422843396 13.5100335050267,46.0627966980886 13.5102707841837,46.062850718343 13.5104705785372,46.0628567418954 13.5107303409279,46.0627957043402 13.5113637507846,46.0626105979118 13.5116939832024,46.0624859629748 13.5123776985914,46.0622370828893 13.5128947873013,46.062036867171 13.5131898252203,46.0619422719413 13.5131954516405,46.0619417793326 13.5135611345391,46.0619097621635 13.5136836343816,46.0618967162731 13.513844230198,46.0618796130591 13.5142394509797,46.0618711658555 13.5146953604265,46.0619516831286 13.5152133752606,46.0620635975701 13.5155806844307,46.0621803003277 13.5159669747859,46.0623074157523 13.5162121575016,46.0624428650904 13.5165704487235,46.0626985512717 13.5171497689405,46.0630893701474 13.5176152620545,46.0633531922852 13.5182075913253,46.0636254954802 13.5187511002301,46.0638869054539 13.5193248365238,46.0641250406724 13.5196712739876,46.0642787100463 13.5200331564851,46.0644155728358 13.5203828281317,46.0644676984649 13.5206921382332,46.0645597899622 13.5211214036229,46.0647147070704 13.5216521845888,46.0649115152888 13.5218974841289,46.0650435347478 13.5222535725253,46.0652041592989 13.5228481538195,46.0655680634832 13.5231841692119,46.0657690950071 13.5233594156431,46.0659544617671 13.5235104567109,46.0661362763552 13.5237096617292,46.0663491250113 13.5239717065261,46.0665662041028 13.5242152112983,46.0667660376027 13.5243821754135,46.0668938008431 13.5246272823743,46.0670190636627 13.5248148741945,46.0671198297166 13.5252274440451,46.0673591836111 13.5254391113445,46.0674636784399 13.5256330852826,46.0674899350219 13.5259556972496,46.0674669239946 13.5263082576306,46.0673968806902 13.5264751416201,46.0673481960158 13.5265529913159,46.0673474662328 13.5267822220184,46.0673453170572 13.5269650881051,46.0672594974808 13.5272038983225,46.0670726352823 13.5273534458287,46.0669257935756 13.5274937811634,46.0667879964595 13.5277699782604,46.0666727861881 13.5281521749989,46.0665962807876 13.5284366673684,46.066528773288 13.5286265803515,46.0665277996092 13.5291202534138,46.0664833182484 13.5294670860013,46.0664436035082 13.5297354842511,46.0664368897029 13.5300021455757,46.0664809896187 13.5301612722327,46.0665441304735 13.5302349602524,46.0667045165138 13.5302767832059,46.0669696751442 13.5302945083014,46.067217428301 13.5302204775403,46.0674302601763 13.5301565392255,46.0676329644958 13.5299744731204,46.0678884050372 13.5297093945725,46.0681495254849 13.5294307173621,46.0685429156066 13.5292794383408,46.0689141009584 13.5292187212636,46.0691948557153 13.529264934594,46.0694600711166 13.5293803505986,46.0697090815657 13.5295579747488,46.0699862451939 13.5296946667697,46.0701643577395 13.5298140440743,46.0702643278004 13.5300121581088,46.07033471862 13.5302167367762,46.0703271827083 13.5303696949029,46.0702578886094 13.5306138688163,46.0700540828126 13.5309079697711,46.0698101590373 13.5312834197149,46.0696182966779 13.5316139427288,46.0694631060315 13.5320216168562,46.0693428266375 13.5324963795265,46.0692810822219 13.5330360690819,46.0693253517413 13.533448002898,46.0694052294628 13.5335774395454,46.0694916482813 13.5336504217624,46.0696791958435 13.5335347720977,46.0699897499469 13.5334619165025,46.0703586179589 13.5334010304004,46.0708123972708 13.5333395843372,46.0711067311911 13.5333129245517,46.0713810869016 13.5333520992623,46.0715614524557 13.533460168742,46.0718885538515 13.5336561994954,46.0722234420943 13.5339285146136,46.0726068161889 13.5341766307387,46.0728203637647 13.5346313649939,46.0729448745535 13.535138616531,46.0731073969214 13.5356268323851,46.0732663439772 13.5359543833091,46.0734096442743 13.536164571912,46.0735716849978 13.5363075954605,46.0736923757243 13.5366690415986,46.0738496045449 13.5370926999858,46.0740449688182 13.5373328663281,46.0741735600265 13.5375291219876,46.074315175206 13.5377535637182,46.0744909818045 13.5379730055439,46.0746701430884 13.5380865495807,46.0748107890496 13.5381548844198,46.0749744303741 13.5381935817094,46.0751784518075 13.5382197055941,46.0752907165059 13.5382420057804,46.0755624602763 13.5383165211354,46.075878870323 13.5384074813787,46.0761209002847 13.538515098361,46.0762952110863 13.5386050399214,46.0763947054 13.5386763102311,46.076466878019 13.5388506677634,46.0765030285562 13.5390454264207,46.076515685903 13.5394155770856,46.0765204174337 13.5397470843065,46.076524653978 13.5400777969382,46.0765492140501 13.5404283717876,46.0765706977282 13.5408218781207,46.0766163922841 13.5412453585216,46.0766285470493 13.5415614078707,46.0766699211634 13.5419761737091,46.0768313226282 13.5424799042945,46.0771395288864 13.5427668468795,46.0775401635775 13.5429702546148,46.0779463907266 13.5431825323358,46.0782171363394 13.5433643586298,46.0787214316554 13.5434454761,46.0791566909589 13.5434674195815,46.0796149497086 13.5434115058759,46.0800789642915 13.5432604677921,46.0806299429661 13.5431566221655,46.0808763236976 13.5429796713055,46.0813014547713 13.5428978943736,46.0816327842245 13.5429686901011,46.0819051450987 13.5431401248698,46.0822397028328 13.5434923087945,46.0825699058953 13.5435618428749,46.0825906768452 13.5435931145604,46.0826110501036 13.5440352710624,46.0828685276288 13.5445315992951,46.083091962575 13.5451518839145,46.083228706845 13.5457495302871,46.0832872402886 13.5463531935532,46.0833185843583 13.5466721759632,46.083254799406 13.5475185729892,46.0829400264591 13.5481343130807,46.0826933082593 13.5487754434586,46.0824199163143 13.5492411747443,46.0821341269021 13.5494883780934,46.0820015807771 13.550008528518,46.0818690785702 13.5503355211517,46.0818494733554 13.5505527359015,46.0819336570598 13.5507538431286,46.0820651435081 13.5508517266387,46.0822427381293 13.5509619162718,46.0824984980538 13.5509996856929,46.0827399331754 13.5510045246594,46.0831131257388 13.5509776766067,46.0833977398536 13.5509712842125,46.0836418541211 13.5509837461342,46.0839066320359 13.5510129064633,46.0840867741467 13.5510768956199,46.0842503523462 13.5512341453557,46.0843880300302 13.5514942561396,46.0845134249262 13.5516982463975,46.0845500213486 13.5519468669145,46.0845463337631 13.55215803853,46.0844913346617 13.5523549236705,46.0844090713721 13.5525290574605,46.0842721739753 13.5526947851571,46.0840809142274 13.5528021185017,46.0839025011566 13.5529322612112,46.0837616269405 13.5531146981294,46.0836927657821 13.5533545044243,46.0836551325011 13.553762592169,46.083704296073 13.5541794304405,46.0838045853783 13.5545989828888,46.0839693304172 13.5548745916392,46.0840609926272 13.5556732007822,46.0844611353596 13.5565956951647,46.0848018334536 13.5570608424603,46.08490956056 13.5578610193345,46.0850620933907 13.5583449785547,46.0852073027733 13.5589808103531,46.0853103369577 13.5595358208992,46.0853341596366 13.5597927575308,46.0853985817485 13.5602566426255,46.0855502782397 13.5603932592948,46.0857216043135 13.5604758605011,46.0859363381208 13.5605921365443,46.086327939178 13.5607599141598,46.0866386703618 13.5609393397552,46.0868546231694 13.5612197264974,46.0871364496742 13.5615798333023,46.0873512569999 13.5620092191331,46.0875126793623 13.5625716023563,46.0876418520602 13.5630185935076,46.0876882326883 13.5632817841847,46.0877016191359 13.5638618219226,46.0876988325522 13.5659231821467,46.0873548271269 13.5662066844834,46.0873278825068 13.5665135244029,46.0873384800258 13.5667308720697,46.0874193054023 13.5668840499761,46.0875263184914 13.5671553088389,46.0877774240305 13.5673669529912,46.0880786180711 13.5675950107078,46.0883053372937 13.5679561164312,46.0884827969005 13.5682258467334,46.0886184414008 13.5686982902356,46.0888211371647 13.5691327913219,46.0889860158395 13.5693628290861,46.0891415852188 13.5695267659294,46.0892079702586 13.5699646428274,46.0892474613888 13.5703458023929,46.0892148903027 13.5706838411733,46.0891445285484 13.5709851136081,46.0889956068366 13.5712733041507,46.0887923551906 13.5716025114262,46.0884979298829 13.5717951268598,46.0883951552203 13.5721595118679,46.0882606954885 13.5724218381218,46.0882877264342 13.5727637427513,46.0884581827654 13.5730381068275,46.0887906514075 13.5733278903044,46.0892724921606 13.5735267816084,46.0896786074939 13.5735631225959,46.0899844397929 13.5736499761433,46.0903925754497 13.5737004082776,46.090708660856 13.5737912847728,46.0909608281379 13.5738932961987,46.0911723751518 13.5740500987585,46.0913303502034 13.5743052951272,46.0914489733948 13.5746924928168,46.0915589851436 13.5749384803809,46.0916536484177 13.5753778028668,46.0918287306373 13.5756028740809,46.0919874645751 13.575702772188,46.0920905625031 13.5756896336384,46.0922090771052 13.575721576944,46.0923044898779 13.5758350434148,46.0924381686737 13.5759976376408,46.092572459523 13.5762717154533,46.0927115581592 13.5764057077294,46.0928115711393 13.5765900392501,46.0930309792736 13.5765870720783,46.0931462915352 13.5765302266035,46.0932847763421 13.5764372355559,46.0936769930215 13.5764053846934,46.0939548019885 13.5764752696087,46.094274547375 13.576614599527,46.0945442312703 13.5768716738078,46.094791717619 13.5771534530032,46.0950090091152 13.5774067984126,46.0952155987265 13.5775570645197,46.0952513901016 13.5779269093072,46.0952830756702 13.5782522692704,46.0953347211417 13.5785225005449,46.0954330073371 13.5787566306522,46.0956326967047 13.5789349353668,46.0958961141981 13.5790198422483,46.0961956201658 13.5790146152257,46.0963990807458 13.5791155240497,46.0966546973776 13.5792681028026,46.0971343665009 13.5794353425031,46.0974864518165 13.5797446445643,46.0978315747922 13.5800288166868,46.0981078230232 13.5803932565754,46.0982853743401 13.580613089652,46.0983423603607 13.5809008674242,46.0983220905969 13.5810397946601,46.0982356392572 13.581281386322,46.0981301277356 13.5815306283662,46.0981196352425 13.5819142794922,46.0981786519555 13.5820446451306,46.0982141904606 13.5822025329394,46.0983314984572 13.5824262575992,46.098544547479 13.582718165184,46.0987618607362 13.5828452262902,46.0989466273506 13.5830046870613,46.0991894700942 13.5831069524676,46.0993274114221 13.5831048841639,46.0993829009013 13.5831173174473,46.099563996557 13.5831037094338,46.0997165169162 13.5830332729974,46.0999870108623 13.5830275392087,46.1002107997503 13.5830615497093,46.1003978313984 13.5831460033136,46.1005243048357 13.5833291172773,46.1006215894232 13.5837964966374,46.1006442976726 13.5843581466886,46.1006071681628 13.5850056248442,46.1004660067968 13.5853452773842,46.1003345281096 13.58569919292,46.1002268885777 13.5860126670602,46.1001731829868 13.586404198391,46.1001169330179 13.586804300239,46.1001048758659 13.5872168891188,46.1001710707358 13.587623784923,46.1002880301204 13.5879899448893,46.1004655783621 13.5883166273056,46.10064938597 13.5886951114626,46.1009118414285 13.5890075762879,46.1010853041938 13.5891646220496,46.1012365129916 13.5892478794221,46.1014104743671 13.5893370249964,46.1017542028001 13.5893604932059,46.10179224845 13.5906923407875,46.101722247331 13.591481998987,46.1016102451603 13.5924917253007,46.101440124435 13.5928436858309,46.101353133161 13.5932915565174,46.1009329711553 13.5939141115258,46.1005147767939 13.5944462861346,46.1002172048108 13.5951585457705,46.0997089613183 13.5956876180712,46.0995329927627 13.5962602631371,46.0993574669938 13.5970108014894,46.099062475019 13.5973650508498,46.0988843523397 13.5987304936798,46.0984752469819 13.600407219403,46.0978569650149 13.6022562800103,46.097332001851 13.6037128895398,46.0967718926268 13.6048604970167,46.0963296403974 13.6066726447873,46.0956387793496 13.6077039140928,46.0955211527659 13.6083159529346,46.095349645481 13.6087738383379,46.0948023185134 13.6094279331287,46.0938834373316 13.6093434494896,46.0935246649994 13.6089834483213,46.0929675615023 13.6086444022697,46.0925082458724 13.608463180065,46.0922784902004 13.6083123131853,46.0917726077609 13.6077806741952,46.0915926587255 13.6074115252435,46.0910558631769 13.6071797894278,46.0905933518233 13.6068490820948,46.0899118915873 13.6065458472636,46.0895211178505 13.6062761750606,46.0891790697151 13.6057607692128,46.088930927379 13.6050019438195,46.0886798116075 13.6044511633889,46.0884554350692 13.6037686141353,46.0879390934159 13.6031884402683,46.0874965196554 13.6028542656643,46.086960136428 13.6025571837205,46.0863274814945 13.6023912597919,46.0860108961373 13.601949726413,46.0855942149174 13.6019941489717,46.0852075913321 13.6021405723697,46.0849190296661 13.6023577633733,46.0845828361989 13.6020533663256,46.0842404430604 13.6008506657845,46.0836694023872 13.6001637971109,46.0833223208488 13.5989531747839,46.0830657195199 13.5985769455503,46.0828191606576 13.5981658194689,46.0825721724803 13.5979968665527,46.0823765612374 13.5974431112494,46.0822731319855 13.596890587325,46.0821212180339 13.5966154879551,46.0819969121629 13.5963440721308,46.0817274293968 13.5961429424148,46.0814346058358 13.5958355314544,46.0812131767864 13.5953873325002,46.0810625373283 13.5949433069207,46.0807425223346 13.5946371334851,46.0804726980736 13.5944360172763,46.0801798716009 13.5943030831779,46.0799362906292 13.594206148514,46.0796447451644 13.5940476654855,46.0790378857082 13.5938476554023,46.0786967545236 13.5933653288671,46.0785214835248 13.5926340905859,46.0785609777038 13.5919394664439,46.0785283075604 13.5914576318372,46.0783289209384 13.5907307076975,46.0781990309428 13.5900714716349,46.078142672209 13.5891683758246,46.0781074129748 13.5882614490667,46.0782173208533 13.5876705191078,46.0782101092749 13.5871142281602,46.0782033229041 13.5867368471811,46.0780052077067 13.5864642632407,46.0777840939821 13.5862301573621,46.0774182340262 13.5860303306542,46.0770770912851 13.5860005084213,46.0768830934748 13.5862213406744,46.0764018435902 13.5864745932165,46.0760178086826 13.5864466213491,46.0757513129997 13.5863888268496,46.0752908195335 13.5860442530336,46.0751656286019 13.5855955096605,46.07503923736 13.5850771095543,46.0749118919488 13.5845246940061,46.0747599192511 13.58404304858,46.0745605035225 13.5839797068135,46.0743176825433 13.5845556203524,46.0735504815226 13.5854034561193,46.0730285000791 13.5856900972363,46.0726932872419 13.5859774844272,46.0723337893047 13.5859824264526,46.0721403114639 13.5853609966537,46.0719632851271 13.5845950742281,46.0720023884372 13.5838274254461,46.0721139861098 13.5828498203304,46.0722713824068 13.5820863735391,46.0722135951343 13.5815302734088,46.072206783879 13.581144766656,46.0723230162446 13.5805476972409,46.0725577277527 13.5799915963296,46.0725508190242 13.5799959386509,46.072381537602 13.5801064352516,46.0721409643157 13.5800437339493,46.0718739453729 13.5799115010387,46.0716062423109 13.5796023518958,46.0714571784419 13.5793274740126,46.0713328333926 13.5788240263057,46.0706249382269 13.5785155045331,46.0704517655327 13.5779308727927,46.070202635492 13.5777254012749,46.0700791502274 13.5774877840002,46.0698584499129 13.5772860454561,46.0695897885098 13.5767330829404,46.0694619747609 13.5763538053214,46.0693363222034 13.5760087985635,46.0692352990693 13.5758387195148,46.0690880477629 13.5759871008267,46.0687269322552 13.5763389460429,46.0685618906103 13.5766226390539,46.0683475917485 13.5767646664996,46.0682283424846 13.5758909035937,46.0684111761582 13.5751920602896,46.0685477769064 13.5740760712788,46.0686791690782 13.5730674787197,46.0686909631973 13.57240713062,46.06868280574 13.5721670470134,46.0685587880606 13.5719628427802,46.0683869009319 13.5715531895984,46.0680915172888 13.5710033783236,46.0678426969188 13.5705205931693,46.0676916168909 13.5698956438545,46.067659684054 13.5695145191491,46.067606596549 13.569066503591,46.0674558556201 13.5686171102414,46.0673535029648 13.5681305840142,46.0673474978635 13.5675764140284,46.067268031871 13.5672300575829,46.0672152825655 13.5670606344702,46.06704382269 13.5672432013598,46.0667073506803 13.5673177309852,46.0665146558792 13.5674251399674,46.0663950741372 13.5674301481104,46.0662015077063 13.5669838967728,46.0659782596935 13.5665377806019,46.0657549216452 13.5662988444238,46.06558258861 13.566000413955,46.0650223399889 13.5657682638557,46.0648327255244 13.5653352324333,46.0647035723128 13.5650797107952,46.0645879835485 13.564920975275,46.0644735197168 13.5646101788874,46.0639971500456 13.5642617032001,46.0637229330499 13.5650540228975,46.0630802856909 13.5660719907294,46.0624629585515 13.5665307647741,46.0622211890784 13.566901808771,46.0616184117209 13.5672700673039,46.0611279788033 13.5677317328687,46.0607737701192 13.5682273090408,46.0603525020649 13.5688193322184,46.0599548439254 13.56932984423,46.0596952659111 13.5698593651583,46.0588595340271 13.5707624107998,46.0583882879575 13.5712324208587,46.057949321512 13.5718276387183,46.0576163807274 13.5726179351465,46.0574465717518 13.5729669830507,46.0573475480683 13.5737976465675,46.0570452497076 13.5748762187568,46.0569223912388 13.5752034150319,46.0565521688678 13.5754564799724,46.0562149426031 13.5763509204634,46.0556475399807 13.5766576175495,46.0551238279301 13.5775550862569,46.0544373245532 13.5782788650138,46.0538506867051 13.5790178806706,46.0536216206513 13.579345161016,46.0532512973243 13.5799388410659,46.0529694016815 13.5794554785193,46.0527592371643 13.5786086619315,46.0524256013285 13.5776073659071,46.0523963167866 13.5763202547063,46.0519430923475 13.5756882806089,46.051593036154 13.5752608191933,46.0508986665796 13.5748216099963,46.0503850918014 13.5735866586,46.0498008510383 13.5741659137235,46.0497075761732 13.5747973949258,46.0494476831662 13.5750943336842,46.0491166730414 13.5753448055793,46.0487181402072 13.5749327067971,46.0479097801954 13.5746597423563,46.0473040720082 13.5744229179264,46.0471672325452 13.5748647374918,46.0468045588948 13.5758942369875,46.0460140816069 13.5771160460351,46.0452258997095 13.5776522177803,46.0449313326543 13.5781978280207,46.0442686958137 13.5778673503483,46.0440303740961 13.5772469826324,46.0438553851877 13.5767201439846,46.0437818818985 13.5760567598192,46.0434056126549 13.5760164481194,46.043103868235 13.5761286229959,46.0424694004212 13.5760934700165,46.0419668921601 13.5755305094191,46.0414245142537 13.5746252014011,46.0411120732838 13.5737620529534,46.0410344508209 13.573728512852,46.0404651090813 13.5738373927511,46.039964487551 13.5738123336185,46.0390605379117 13.5741540637989,46.037890425169 13.5739023951113,46.0375236883446 13.5735658613984,46.0370711334484 13.5730550535263,46.0366285483134 13.5725962492972,46.0361986673577 13.5723315326584,46.0356620676352 13.5718291763697,46.0348923366563 13.5698235513533,46.0332286837408 13.5696044235339,46.0327742570099 13.5693995507998,46.0324984324801 13.5692948845432,46.0322492357142 13.569055090172,46.0319701840209 13.5690782479852,46.0318237216729 13.568900852785,46.0314995627659 13.5689172984171,46.0313629138378 13.5688159169531,46.0311317531042 13.568876722757,46.0310281414232 13.5687720569819,46.0309842714592 13.5687727491086,46.0308924136898 13.5686152841815,46.0307371206701 13.5684917260836,46.0306795172555 13.5684348446008,46.0302859653904 13.5685116815475,46.0301067941451 13.5684258484831,46.0299389916017 13.5683274357283,46.0294429754464 13.5682584093514,46.029254688626 13.5681860494912,46.0291004612535 13.5678293367105,46.0288577320921 13.5677312596609,46.0288590221867 13.567481881052,46.028716791817 13.5674493097199,46.028567561601 13.5675340897445,46.0283959586281 13.5675336469535,46.0282581083698 13.5673835117695,46.028114512488 13.5673464068109,46.0278558133937 13.5670155160983,46.0278639012625 13.5664600849716,46.027808527012 13.5658230783672,46.0275460789792 13.5653589455511,46.027322148612 13.565070136842,46.0270519204973 13.5648132422226,46.0268912345592 13.5641588218368,46.0266285584782 13.5638532171413,46.0263339123866 13.5632910471397,46.0258663433313 13.5629477620536,46.0256802731473 13.5620470062275,46.0255236288359 13.5614226335151,46.0254431586554 13.560835826694,46.0252541060435 13.5603190683967,46.025053696096 13.5600289079698,46.0248319356899 13.5596329730602,46.0246694858135 13.5589098199844,46.0243696523785 13.5583294648013,46.0239381800842 13.5579093922157,46.0233633247914 13.5574899599766,46.0227641821697 13.5571574299942,46.0221662252428 13.5569622047012,46.0216426128127 13.5567421136069,46.0214095818465 13.5561626229517,46.020941758468 13.5557700695391,46.020645991741 13.5550651819421,46.0203220707428 13.5545907609685,46.0200954468127 13.5543955501253,46.0199985913951 13.5536104009391,46.0182017102303 13.5534481629974,46.0178114951689 13.5531974686487,46.017208083762 13.5535441513305,46.0165821828081 13.553537779893,46.016157949826 13.5529222433677,46.0157185359128 13.552505540736,46.01489527555 13.5520354949375,46.0144190994586 13.5516234486902,46.0141899241523 13.5511734108024,46.014184308868 13.5501466392384,46.0141042525355 13.5492823520906,46.0139591269667 13.5489660411579,46.013753561767 13.5485879157515,46.0134575932376 13.5483009535382,46.0133644205845 13.5478492931729,46.0134259845603 13.5474951104613,46.0134439772261 13.5473694633439,46.0133303583675 13.5471175816921,46.0131256070632 13.5466710716407,46.0129856829001 13.5462894422515,46.0128240881142 13.5459112061075,46.0125281992295 13.5456914777221,46.0123238539032 13.5454067463605,46.0121410850216 13.5449592052102,46.0120458596939 13.5443835482196,46.0119265963144 13.5440696160193,46.0116315204078 13.5435026542253,46.0111763883231 13.5434126898341,46.0109288838434 13.5432916300674,46.0106361741979 13.5430076325778,46.0104310042887 13.5423395554633,46.010153811692 13.5419614876547,46.0098579117125 13.541740606945,46.009698352654 13.5413274610082,46.0095139346125 13.5405291955191,46.0093022823983 13.5400476440756,46.0092739063601 13.5396626540908,46.0092465824451 13.5392838880824,46.008973068963 13.5388386137843,46.0087882311699 13.5383893413567,46.0087601709146 13.5376857532214,46.0086169228292 13.5373397336006,46.0083214175777 13.5371264201961,46.0078706898672 13.5367460331924,46.0076643601882 13.5364257983795,46.0076155401878 13.5360396400547,46.0076329977794 13.5356527589491,46.0076729391311 13.5353962166376,46.0076473368127 13.5351088449638,46.0075765299863 13.5347610735903,46.0073481174778 13.5342229521645,46.0070277348511 13.5340709917664,46.0066898100963 13.5335696276484,46.0061906610537 13.5335426830929,46.0059887660183 13.5334264215663,46.0055168723325 13.5330191246284,46.0051085455033 13.5326410119345,46.0048126137804 13.5324540948339,46.0045862596472 13.5315315240319,46.0042162071534 13.5311849740581,46.003942990565 13.5305592541162,46.0032854888456 13.5300357653837,46.0024053450774 13.5298557288115,46.0019102226197 13.5295472712899,46.0014135372581 13.5290027069895,46.0013394948834 13.5284886316196,46.0013329657063 13.5282041425637,46.0011501566363 13.5283133612406,46.0006587570424 13.5283524939876,46.0003904984741 13.5280732272377,46.0000061168741 13.5277542329725,45.9999124796727 13.5270164001625,45.999858341836 13.5267950077167,45.9997211513297 13.526706195536,45.9994288392344 13.5264537293914,45.9992464386248 13.5261027350418,45.9991523841173 13.5250393848509,45.9992508648721 13.5236553919178,45.9993227889457 13.5236023055316,45.9988965996471 13.5239084156483,45.9982509171795 13.5243997215269,45.9978987926966 13.5248835434005,45.9978377365766 13.5258187904952,45.9977152002272 13.5269498183351,45.9974831583666 13.5277945876756,45.9971354854574 13.5286650797701,45.9970345858346 13.52928073295,45.9968407822004 13.5294168583033,45.9965512771082 13.5292070819116,45.9959662427683 13.5288437597782,45.9951104683631 13.5284395378374,45.9945902319756 13.5279628752611,45.994382542575 13.5274149484782,45.9944427856044 13.5273547091232,45.9942852684065 13.5275515399846,45.9941309741999 13.528069705706,45.9939807295257 13.5288495544731,45.9936546167503 13.5290172133583,45.9933879223853 13.5288670983866,45.9929828904059 13.5287519593645,45.992466196532 13.5288057906692,45.9916381064115 13.5288173985879,45.9911903475649 13.5286030299715,45.9907843977993 13.52841901468,45.9904460517731 13.5284634813656,45.9899762216566 13.528669659171,45.9894636650692 13.5292186986532,45.9881267381611 13.5297280055591,45.9870803747136 13.5304610088822,45.9860816948934 13.5311243967098,45.9852837552362 13.5311372996732,45.9847911135008 13.5309975955967,45.9839830276559 13.5308825823084,45.9834663367836 13.5309526306376,45.9832432829633 13.5312755530502,45.9831801309608 13.5310933203638,45.9827746883731 13.5308456542237,45.9824131230684 13.5307919353402,45.9820092422973 13.5308345958866,45.9816066007505 13.5308438156973,45.981248338091 13.5304969461058,45.9809975186036 13.5295589926819,45.9800001058286 13.5290958300676,45.9792774717449 13.5290245687338,45.9783134325481 13.529231881587,45.9777560796904 13.5291833869847,45.9771506249031 13.5290612855934,45.976902693951 13.5284644507884,45.976379976223 13.5277953310338,45.9761698965836 13.5273859107699,45.9758511380102 13.5273006934398,45.9754244447014 13.5272813745166,45.9749313872673 13.5271009783558,45.9744587479582 13.5267073528312,45.9735353595173 13.5263977963342,45.9725668160212 13.5263860223901,45.9726696779999 13.5257357281032,45.9730018554347 13.5253106440542,45.9731723665699 13.5253095235009,45.9731723869948 13.5249725106597,45.9731785293914 13.524881419041,45.9731224565683 13.524791705743,45.9730672320111 13.524151262541,45.9729940874656 13.5236750755891,45.972999362964 13.5231812085925,45.9729949602898 13.5228375135381,45.9729676631256 13.5228243466763,45.972965153479 13.5222743780751,45.9728603261269 13.5222515681919,45.972861663706 13.5220719784285,45.9728721947479 13.5218437030712,45.9729026604957 13.5218083071226,45.9729073844134 13.5216905322318,45.9729328992705 13.5213689571921,45.9730025648312 13.520508501452,45.973549469075 13.5201447575281,45.9737757316838 13.519466504406,45.9740995032616 13.518923510581,45.9743594303174 13.5184933924859,45.9745873586613 13.5184496589977,45.9746105337302 13.5184222619867,45.9746305126148 13.5182805416754,45.9747338598173 13.5176883193576,45.9748946864127 13.5176768633205,45.9748977974267 13.517670072306,45.9750432616661 13.5176693319585,45.9750591199289 13.5176447985009,45.9751418511729 13.5175773461829,45.975272969858 13.5175423066304,45.9753410820016 13.5175396289402,45.9753974012189 13.5175328922866,45.9755390910002 13.5174051041864,45.9757576986262 13.5173856626628,45.9759441416212 13.5173827289839,45.9759722752958 13.5173304499288,45.976031710908 13.5172061169555,45.9761730633864 13.5170292304177,45.9764662548353 13.516927248478,45.9767090409439 13.5166597075573,45.9768399948429 13.5163685262699,45.9772036836311 13.5161351113156,45.9774628478575 13.5160813646195,45.9775810105074 13.5160053521604,45.9777693365515 13.5157262822352,45.9780851328213 13.5156221872128,45.9783825067657 13.5154623103861,45.9785457188368 13.5151956008876,45.978785103289 13.5147831448748,45.9790692911803 13.5145871019678,45.9792672132064 13.514470412226,45.9793596329393 13.5141702129131,45.9795721260986 13.5141404696531,45.9795956703758 13.5139978811383,45.9797085407162 13.5137476290967,45.9798726444509 13.5134241690836,45.9799700214594 13.513404400455,45.9799759727255 13.5132621731364,45.9799740404088 13.5132479061632,45.9799738465663 13.5131990207995,45.9799885440141 13.5130559961109,45.9800315444057 13.5125872902057,45.9800973361239 13.5122372162095,45.9800706439071 13.5119334522045,45.9800448236735 13.5115557611457,45.9799663624645 13.5114916828076,45.9799530507415 13.5114803620656,45.9799570610545 13.5112687421661,45.9800320259698 13.5107710782324,45.9800465955009 13.5106030688844,45.9800503441443 13.5103652044106,45.9800072032178 13.5095788510342,45.9798671108045 13.5094893634368,45.9796525162435 13.5088922801157,45.9796043963485 13.5087886618995,45.979596045266 13.5087518312082,45.9795930452069 13.5085123420063,45.9795865001608 13.5084891081423,45.979590425833 13.5083077518383,45.9796210682249 13.5082824749139,45.9796253390484 13.5083409552961,45.9797929212888 13.5083338339808,45.9797951222333 13.5080795014763,45.9798737269276 13.5079480454976,45.9798908157622 13.50783981323,45.9799754211187 13.5077225803485,45.9800683667307 13.5072584305237,45.9801228588914 13.5068243283717,45.9802598015516 13.5066444046956,45.9803322216568 13.5064367080499,45.980376745253 13.5062022424752,45.9804280267514 13.5057046332754,45.9805554970063 13.5052974699068,45.980501673412 13.5048908981128,45.9804695405713 13.504874528843,45.9804682468177 13.5048665494867,45.9804682973356 13.5045501398898,45.9804703001017 13.5044128142681,45.9804252362467 13.5042674109185,45.9803775214005 13.5042049783378,45.9803575525287 13.5038910818852,45.9802571529688 13.5032388216204,45.9804001330716 13.5025524262178,45.9803394923137 13.5022765061374,45.9803341663196 13.5019434481169,45.9803466259634 13.5017705519809,45.9803783706062 13.5016272476968,45.9804518028404 13.5014758826776,45.9805800156113 13.5011612727365,45.9809676609671 13.5010991390087,45.981044218028 13.5010479517973,45.981082311978 13.5008625883646,45.9812202603536 13.5004127234062,45.9816724287389 13.5004087419404,45.9816764305493 13.5003655231376,45.98176179207 13.500366462561,45.9820167504274 13.5003664683847,45.9820183310155 13.5003271894992,45.9821180884972 13.5002551962986,45.9823009302696 13.5002488978163,45.9823183326223 13.5001365031699,45.9826288707438 13.5000230379656,45.9828253322723 13.4999106461503,45.9829390282671 13.4997350886938,45.9830498253039 13.499556875042,45.9831155983271 13.4995101050728,45.9831603329199 13.499164032111,45.9832286696743 13.4988769299123,45.983244963211 13.4985737355272,45.9833265483526 13.4983989098365,45.9833528638669 13.4982346435249,45.9835370682739 13.4982313296569,45.9835407843528 13.4982301817618,45.9835433302951 13.497938453494,45.9841903527781 13.4974593655801,45.9844661338592 13.497307198374,45.9845755251491 13.4971254421737,45.9846669814024 13.4970128435051,45.9847688847196 13.4967379648719,45.9849483732664 13.4965477907514,45.9850789012746 13.4965309258842,45.9850904766081 13.4965271432132,45.9850930728729 13.4963071705236,45.9851514530248 13.4960207868672,45.9854696240132 13.4958006756452,45.9859380297002 13.4952182585032,45.9864058930106 13.4950085071011,45.9866281331887 13.4949771908657,45.9866613138298 13.4946828165576,45.9871308085695 13.4946569220765,45.9872389564949 13.4946081437747,45.9874426771372 13.4946055837226,45.9876799145119 13.4945968354064,45.9876836031577 13.4941445276446,45.9878743129029 13.4941066667138,45.9878902763348 13.494151409444,45.987939633899 13.4941571843286,45.9879837090816 13.4941040011811,45.9880480197543 13.4941022000394,45.9880501977462 13.4940476027192,45.9881166914839 13.4940363759318,45.9881736793282 13.4940589561022,45.988231112744 13.494105863899,45.9882720409585 13.4941584796051,45.9882928893828 13.4941696980692,45.9883010544815 13.4942055680491,45.9883271615902 13.4942094687349,45.9883641938112 13.494199684725,45.9883740707488 13.4941700525417,45.9884039843487 13.4941256191033,45.9884336312521 13.4941146655638,45.9884805452051 13.4941137555754,45.9885140948764 13.494161687481,45.9885315523958 13.4941821375706,45.9885380151514 13.4941949633525,45.9885420684265 13.4942085956028,45.9885724805702 13.4942084840858,45.9885765922545 13.4942074124437,45.9886161041385 13.4941870005843,45.9886595642775 13.4941428074115,45.9886993818272 13.4941127741881,45.9887358768504 13.4941114055317,45.9887863362732 13.4941101295795,45.9888333777667 13.4940943652883,45.9888768091618 13.4940699623441,45.988886565038 13.4940463100277,45.9888829241329 13.4940177332225,45.9888657216706 13.4939698010778,45.9888482640888 13.4939266643936,45.9888443663426 13.4938973580778,45.988854057551 13.4938675954573,45.988880568557 13.4938556916687,45.9889144790301 13.4938523471063,45.9889240067194 13.4938313519482,45.9889841949462 13.4938005863033,45.9890476735247 13.4937411745253,45.989110774469 13.4937142385679,45.9891350490369 13.4936125614855,45.9892266797289 13.4935709487082,45.9892555368504 13.4934699522034,45.9893255744848 13.493367198649,45.9893780262708 13.4932922539967,45.9894090578102 13.493264847342,45.9894204057726 13.4931771335696,45.9894561399151 13.4930848235327,45.9894852450057 13.4930017008063,45.989527787884 13.4929084798103,45.9895904424763 13.4928296204582,45.9896566156029 13.4927544567394,45.98975306991 13.4926944984316,45.9898362281073 13.4926493304129,45.9898928580308 13.4926218181573,45.9899144136349 13.4925903755533,45.9899390486024 13.4925407064664,45.9899855416064 13.4925252735798,45.9900357254726 13.4925135001454,45.9901127709506 13.4925068601412,45.990176657442 13.4924662336384,45.9902466638971 13.492445419635,45.9903001059258 13.49244377827,45.9903605492356 13.492418481605,45.9904174412421 13.492382667929,45.9904908403379 13.4923470890765,45.990550835854 13.4923023458835,45.990610800412 13.4922476844874,45.9906604666045 13.4922104816983,45.9906809602445 13.4921940863724,45.9906899918142 13.4921902568113,45.9906960428623 13.4921687299731,45.9907300571591 13.4921431410077,45.9907834361171 13.4921035383569,45.9908299717893 13.4920397458194,45.9908593623912 13.4920291564757,45.990892784291 13.4920380135819,45.9909231336625 13.4920321420775,45.9909634561246 13.4919882215973,45.9909931089565 13.491933833199,45.991032701106 13.4918849186549,45.9910656171563 13.4918596004863,45.9911090121069 13.4918924049216,45.9911464258878 13.491933074492,45.9911746757716 13.4919355054916,45.991213488209 13.4918842924804,45.9912454741462 13.4917925438305,45.9912727860442 13.4916526631562,45.9912709395939 13.4915898303527,45.9912887355 13.491563500068,45.9912981054842 13.4915538351414,45.9913354985566 13.4915856418551,45.9914381330221 13.4915975175865,45.9915189097376 13.491596239383,45.9915659511541 13.4915571807274,45.9915924288062 13.4915102543691,45.9916067294126 13.4914937898095,45.9916117469102 13.491421252539,45.9916208667294 13.4913484776286,45.9916434800064 13.4913472920958,45.9916871034938 13.4913470962181,45.9916943111018 13.4913461970033,45.9917273990035 13.4913256551128,45.9917707669174 13.491281124551,45.9918038305681 13.4912464240514,45.9918504306646 13.491220521271,45.991910553584 13.4911944712278,45.9919808420218 13.4911693583073,45.9920308978667 13.4911336842219,45.9920943108831 13.4910840144013,45.9921407132526 13.4910250558248,45.9921869029532 13.4909471025139,45.992219525077 13.4909277008454,45.9922268911756 13.4908786236304,45.9922455239619 13.4908663594017,45.9922522794343 13.4908250232516,45.9922750484934 13.4907708161624,45.9923078941572 13.4906592568159,45.9923468205141 13.4905858220452,45.9923794121007 13.490517456,45.9924154897504 13.4904102862019,45.9924543838751 13.4902723542877,45.9925184250857 13.490155699651,45.9926022724253 13.4900858072205,45.9927029009381 13.490070117359,45.9927254905576 13.4900634191866,45.9927334844261 13.4900004709436,45.9928086092588 13.4899514631521,45.9928448524125 13.4899069694193,45.9928812451807 13.489833331566,45.9929307493852 13.4897641220639,45.9929835512661 13.4897609688904,45.9929863734079 13.489704977955,45.9930364861477 13.489631742858,45.9930759180546 13.4895673076626,45.9931287829241 13.4895287519688,45.9931626357349 13.4895182423413,45.9931718634269 13.4894690278971,45.9932014452985 13.4894058019572,45.9932240935925 13.4893976381661,45.9932275623425 13.489351993852,45.9932469563417 13.4893339031063,45.9932591233729 13.4892932138003,45.9932864891608 13.4892534939768,45.9933229447903 13.4892180228361,45.9933930182222 13.4891874329788,45.9934497495242 13.4891373930907,45.9935096427839 13.4891026921532,45.9935561522352 13.4890770058515,45.9936129483462 13.4890701802045,45.9936834904913 13.48906376024,45.993743870533 13.4890617502023,45.9938177155477 13.4890358416473,45.9938779278563 13.4889876549411,45.9938839489824 13.4889686400965,45.9938836975269 13.488929583738,45.9938831810292 13.4888624929413,45.9938723062498 13.4888144874261,45.9938716713581 13.4887510929691,45.9938909878889 13.4887250386611,45.9938996410457 13.4886830912084,45.9939135726153 13.4886293752003,45.9939330170924 13.4885612802739,45.9939590196619 13.488507638585,45.9939852133832 13.4884487443266,45.9940146667647 13.488395231579,45.9940408621388 13.4883603760093,45.9940740526341 13.488349597637,45.9941143099727 13.4883534065386,45.9941545803401 13.4884004277754,45.9942055898469 13.4884186629989,45.9942328243559 13.4884320190588,45.994273310997 13.488445229861,45.9943238732029 13.4884536274781,45.9943710425643 13.4884086375212,45.9944208348356 13.4883841602471,45.9944474143138 13.488416667712,45.9944814959741 13.4884111629984,45.9945082364681 13.4883671087173,45.9945378861242 13.4883132082754,45.9945640763291 13.4882549723525,45.9945835508078 13.4882059397083,45.9946063862175 13.4881715116657,45.9946428215017 13.4881651428244,45.9946965438205 13.488101837848,45.9947125320032 13.4880996137255,45.9947128115484 13.4880292960095,45.994721649607 13.4879756917242,45.994751172741 13.4879751109827,45.994755827641</coordinates></LinearRing></outerBoundaryIs></Polygon></MultiGeometry>
  </Placemark>
</Folder>
</Document></kml>
