{"type":"FeatureCollection","features":[{"type":"Feature","geometry":{"type":"Polygon","coordinates":[[[14.0334955920054,45.9938343981799],[14.0332988620013,45.9940786412054],[14.0331448273323,45.994636094987],[14.0331670446332,45.9952061069633],[14.0338237877021,45.9952338856585],[14.0342896959382,45.9951818581205],[14.0347570275362,45.9950404936002],[14.0349826580845,45.9949752763514],[14.0352870858277,45.9949889138393],[14.0355941009205,45.9948461924202],[14.0359344182009,45.9946367182933],[14.0363041583888,45.9945838712119],[14.0365282978719,45.9945969182803],[14.036801747052,45.9945432577243],[14.0374792670383,45.9943030592178],[14.0380752730476,45.9941402705774],[14.0385090288717,45.9940879551871],[14.0389587235141,45.994047019311],[14.0393774393337,45.9939386984514],[14.039940909278,45.9937980308337],[14.0405363228948,45.9936687857778],[14.0409727102129,45.9934712603112],[14.0414925924226,45.9930732450193],[14.0418959321528,45.9929201573735],[14.0422007355388,45.9929114653115],[14.0426988206234,45.992848426036],[14.0429676324867,45.9930629332145],[14.0430907941659,45.9933545001978],[14.0432137016783,45.9936683791908],[14.0437336031497,45.9941977463737],[14.0439382750719,45.99441171448],[14.0440615738202,45.9947032814921],[14.0442003661387,45.9950172922222],[14.0444969120609,45.9954890017868],[14.0448086994082,45.9960055564665],[14.0448191309359,45.9963296505393],[14.044778723402,45.9968097895008],[14.0448685452128,45.9971792656173],[14.0456461352307,45.9976437444152],[14.0461874155235,45.9978715860688],[14.0469703969387,45.9980232511568],[14.047256024106,45.9981931697526],[14.0477186874097,45.9983310016235],[14.0479413128102,45.9984333607112],[14.0483220935329,45.998671102086],[14.0485279483711,45.998818038869],[14.0487160738702,45.9990654218368],[14.054817016212,46.0032825117251],[14.0551724422002,46.0034281540242],[14.0558697421931,46.0033399811637],[14.0563635394747,46.0033438796812],[14.0568558776525,46.0034260438357],[14.0562433748321,46.0038122063473],[14.0558347750053,46.0040748026689],[14.0554725573773,46.0042595910543],[14.0552461909945,46.0043672216507],[14.0550259247344,46.0046321816504],[14.0547452952726,46.0052192086729],[14.0544341771031,46.005617391393],[14.0540215797377,46.0060147332709],[14.053915684709,46.0062731696661],[14.0537775711178,46.0064370435566],[14.0540107308818,46.0066511390218],[14.0543812039619,46.0067484107773],[14.0545816190431,46.0068914224144],[14.0546794815348,46.0071043971287],[14.0545052618224,46.0074094166339],[14.0545000422943,46.0077157442304],[14.0544968292917,46.0079043088747],[14.0544263655774,46.0080687431881],[14.054119246778,46.0082312189448],[14.0536791020456,46.0082512389722],[14.0535059502196,46.0084855440394],[14.0528725759401,46.0086221898426],[14.0524717667742,46.0087431251874],[14.0520543914373,46.0088208228638],[14.0517483642605,46.0088507655854],[14.0509458459725,46.0087822898071],[14.0505309027624,46.0088082655042],[14.0502836477485,46.0089200315335],[14.0499747248863,46.0091190116893],[14.049500581055,46.0095704412393],[14.0493521576742,46.00985245334],[14.0489783679828,46.0099027895083],[14.0486557379361,46.0099818030346],[14.0482774315025,46.0101146979209],[14.0477743753027,46.0104587172156],[14.0474334876981,46.0106682213157],[14.0470407132386,46.01069571877],[14.0466847994081,46.0105093778344],[14.0465878256424,46.0105166667532],[14.0464212447157,46.0106745356434],[14.0460122115216,46.0109491498439],[14.0454824115982,46.0112025991652],[14.0453420521016,46.0114798146032],[14.0452872351086,46.0117312013981],[14.0453530026665,46.0120366817617],[14.0452954131392,46.012456661653],[14.0452097630279,46.0126236626043],[14.0451026419775,46.0127776174217],[14.045064658947,46.0129661610521],[14.0449959927883,46.0132042053517],[14.044699346678,46.0135576736485],[14.0443522433094,46.0138413472367],[14.0431181342141,46.0141740116171],[14.0418049792893,46.0145438800869],[14.0407852627605,46.0148363875158],[14.0404517128517,46.015454786047],[14.0401063708992,46.0160601278652],[14.0398824262089,46.0166202405686],[14.0395780017827,46.0173454133532],[14.0396956092208,46.0177135961453],[14.0393871806965,46.0179982992667],[14.0390587687626,46.0181540770224],[14.0389926454561,46.0184745574506],[14.0393426333442,46.0186390979338],[14.0392404416418,46.0194537865023],[14.0392639685951,46.0195196671812],[14.0395909287895,46.0196570203125],[14.0399533174091,46.0202920605297],[14.040333641991,46.0207941748338],[14.0405190657728,46.0209534606279],[14.0409355169629,46.0210026643568],[14.0413845750207,46.0213174808885],[14.0413482376332,46.0214844424548],[14.0416686402186,46.0220695477468],[14.0423452999792,46.0223912175055],[14.0425257181792,46.0227887158533],[14.0425644738824,46.0231623530781],[14.0427177955253,46.0234013553924],[14.0429441894559,46.023702243449],[14.0429316819081,46.0241725358082],[14.0428927259163,46.0252397805082],[14.0428761377453,46.0260586973568],[14.0440397781848,46.0268172209959],[14.0450620463858,46.0274610012048],[14.0456512202466,46.0278272681083],[14.0465910492817,46.027700957635],[14.0470390808991,46.0276370321824],[14.0475187444857,46.0280025561782],[14.0475895272228,46.0281606948059],[14.0476822432082,46.0282677295955],[14.0479251894791,46.0284122764441],[14.0481734983173,46.0286207506906],[14.0484304327246,46.0287708115407],[14.0486680521267,46.028849629661],[14.0487038707076,46.0289528608346],[14.0488220055098,46.0293629668498],[14.049006032246,46.0299306298526],[14.0492642377789,46.0306247865874],[14.0494060676784,46.0310848459325],[14.0493214388545,46.0312666140635],[14.0491383073694,46.0314899414818],[14.0489163063594,46.0316295370359],[14.0484663922028,46.0315755851043],[14.0477641190779,46.0314731011688],[14.0476581399542,46.0316941897887],[14.0472884936056,46.0323893254723],[14.0469922351231,46.0330005840903],[14.0469343679025,46.0332932444653],[14.0470186227149,46.0334344901206],[14.0471676358387,46.033551082268],[14.0474027092723,46.0337791524636],[14.0475692584637,46.0340030520612],[14.047772817575,46.034351247164],[14.0479067291813,46.0346628711473],[14.0480140133571,46.0350506630478],[14.0481024608439,46.0354671803243],[14.0482607259064,46.0356548393691],[14.0481423065285,46.0357122477592],[14.0480089183105,46.0358664358176],[14.0478924243552,46.0359696579243],[14.0475804126212,46.0360833974838],[14.0472480959912,46.0362509526969],[14.0470787892864,46.0364201361826],[14.0466400861842,46.0367412918025],[14.0461215567302,46.037241462125],[14.0461362883034,46.0374214476725],[14.0461019853779,46.0376280168325],[14.0459696863686,46.0378083946535],[14.0456207305927,46.0381010531636],[14.0451928666967,46.0384742099697],[14.0449969205633,46.0385990793787],[14.0448642695031,46.0386570852328],[14.0445982938494,46.0386697081199],[14.0441390014482,46.0390666218705],[14.0435782498442,46.0395776743629],[14.0433303677675,46.0401810498043],[14.0431610149406,46.0406359015542],[14.0430411460025,46.0409110349661],[14.0425353918121,46.0416024051678],[14.0423968217645,46.0419575499942],[14.0418628461704,46.0423894591788],[14.0416662537514,46.0429240690245],[14.0418640825928,46.0436258325154],[14.0416673124638,46.0442900064647],[14.0413017904604,46.0445730650828],[14.040460861383,46.0451715474227],[14.0407647075741,46.045928998097],[14.0410623839113,46.0466477063492],[14.0413878373666,46.0472550763186],[14.0413321487149,46.0482183435093],[14.0418083375616,46.0489123637507],[14.0419378777495,46.049058311291],[14.0417016337433,46.0492840601437],[14.0415486992022,46.049519414829],[14.0413894384046,46.0496871441885],[14.0410839858481,46.0498646238863],[14.0409244819876,46.0501880991654],[14.0407810552534,46.0507024584423],[14.0407649721953,46.0509596550471],[14.0406772297285,46.0515491616227],[14.0407728590102,46.0519297532725],[14.0408425889833,46.0522388664206],[14.0411428938969,46.0524492310343],[14.0414476083294,46.0526812260862],[14.0416683906867,46.0528945213416],[14.041765886298,46.0531004842158],[14.0417905535319,46.0533031371324],[14.0418620691071,46.0538157903456],[14.0419772666148,46.054186467568],[14.0420127906701,46.0545161675764],[14.0418949674905,46.0552088949923],[14.0417721466705,46.0556748407744],[14.0414947469064,46.0562159696739],[14.0415494708665,46.0563396957335],[14.0412511328465,46.0563205478366],[14.0409727833382,46.0563337782994],[14.0407146434339,46.0564710746631],[14.0405994962639,46.0566946881853],[14.0406849082706,46.0569045093524],[14.0409142544,46.0571464901486],[14.0411098567903,46.0574191391013],[14.0417659087044,46.0580750778886],[14.0420581913991,46.0585420740293],[14.0425032459648,46.059188501779],[14.0426751682848,46.0595384188464],[14.0427458655019,46.0599572191923],[14.0427976866353,46.0601744952317],[14.042947921102,46.0604932784623],[14.0434096029445,46.060814578726],[14.0436046959591,46.061118170676],[14.0437304373097,46.0615683826181],[14.0438551121089,46.0620804888864],[14.0435450118956,46.0626433027189],[14.0429895924762,46.0632428413251],[14.0427162971871,46.0636122429165],[14.0428046728985,46.0639283485772],[14.0428223327666,46.0642302755679],[14.0429526099811,46.0646125043588],[14.0430813703944,46.0650900946876],[14.0431649303561,46.0655355449439],[14.0431594432074,46.0658531137574],[14.0430009247696,46.0661549151426],[14.0433511225403,46.0660858663009],[14.0437140883065,46.0660259208035],[14.0439752128495,46.0658751464561],[14.0443417473848,46.0656082843636],[14.0445285833845,46.0652679382431],[14.0449648717975,46.0654605341223],[14.0455307420477,46.0656271278518],[14.0457157105189,46.0653947352234],[14.0460381924121,46.0654334177424],[14.0464003765402,46.0654184451116],[14.0466859452473,46.0653488467806],[14.0470639940804,46.0651630502546],[14.0469498454377,46.0650361322364],[14.0468637129656,46.0647834815464],[14.0471115896451,46.064650584697],[14.0467169882384,46.0642963881443],[14.0465786982546,46.0640702949117],[14.0471105849878,46.0639577621356],[14.0476969489985,46.0636837242456],[14.0479681916203,46.0636949816136],[14.0483800490642,46.0637973851181],[14.0485739062382,46.0637989091143],[14.0492471495598,46.0637415285844],[14.0497042645051,46.0634664051162],[14.0498596568261,46.0634497018966],[14.0500278183698,46.0634421021921],[14.050470615239,46.0632478349287],[14.0507195558671,46.0630519559477],[14.0510715744322,46.0628749274861],[14.0519320719296,46.0624411869958],[14.0524554741846,46.0620675388696],[14.0529616373529,46.0619457679768],[14.0531802567749,46.0620105624532],[14.0540862470135,46.0619460837601],[14.0545248712795,46.0619947011433],[14.0546180985769,46.0618335157273],[14.0546462484779,46.0616987847254],[14.0542777727442,46.0613268350359],[14.0545266912959,46.0611309475264],[14.0546563830432,46.0611050275756],[14.0548397628428,46.0609625828013],[14.0548825234146,46.0607289990431],[14.0550845046148,46.0602537068098],[14.0552254289504,46.0603268525936],[14.0552303394736,46.0600389702297],[14.0552709493955,46.0599313348126],[14.0554141745046,46.059869535495],[14.0557649309918,46.0597644628123],[14.055794150488,46.0595667571661],[14.0559122953001,46.0594597620483],[14.0562025976708,46.0591022559901],[14.0564765543132,46.0589605564958],[14.0569309900883,46.0588383409234],[14.0573866486449,46.0586441528712],[14.0576974017885,46.0586107250572],[14.0578770931311,46.0586841872169],[14.0580932579428,46.0588929136074],[14.0584298572753,46.0588596968101],[14.0586233903954,46.0588792862628],[14.0586607821869,46.0589605725931],[14.058841240263,46.0589890515767],[14.059101220965,46.0589012162638],[14.0593209052722,46.0589030246375],[14.0595269047753,46.0589496179722],[14.059976295619,46.0591242693743],[14.0601475683024,46.059077180933],[14.0602378015396,46.0589464680853],[14.0601500908558,46.0587837901407],[14.0600789670022,46.0584053062683],[14.0599643439876,46.0583053899967],[14.0597848037491,46.0582229347634],[14.0597344883522,46.0581415424681],[14.0598392420467,46.0580614258847],[14.0599716722851,46.0578735657034],[14.0601402736655,46.0578389619513],[14.0603341090999,46.0578405558068],[14.0606297978224,46.0579329624948],[14.0609656273595,46.0579447198764],[14.0613926760144,46.0579122374779],[14.0618346273609,46.0577629070763],[14.0620435176495,46.0576386552743],[14.0623452995983,46.0573712036998],[14.0624400189096,46.0571200480691],[14.0626262579995,46.0568066598376],[14.0627705323864,46.0566818767023],[14.0628878981634,46.0566197659521],[14.0632760172052,46.0565959548998],[14.0636810116132,46.0563383432521],[14.0638126644895,46.0561954601938],[14.0638170735744,46.0559345659698],[14.0639230333481,46.055782474711],[14.0643394211188,46.0556149300024],[14.0646808576485,46.0552938112247],[14.0645838635062,46.0549151182231],[14.0647041078271,46.0546821647305],[14.0647834601541,46.0545748428952],[14.0652677835721,46.0542099034597],[14.0655319807078,46.0538701551197],[14.0658860189915,46.053567040919],[14.0659533561065,46.0534056344371],[14.0659687042302,46.053261798241],[14.0662035624426,46.053128753374],[14.0670485970338,46.0528297361777],[14.0682690924996,46.0524887862669],[14.0686326993898,46.052383778755],[14.0692302449266,46.0521996971109],[14.069826881803,46.0520695005886],[14.0701757502287,46.0520723394501],[14.0707732873893,46.0518882496638],[14.0715407812534,46.0515174876563],[14.0719692540509,46.0514660823266],[14.0722288776194,46.0513962093732],[14.0725152459154,46.0512725672484],[14.0729814511578,46.0512133664843],[14.0735899352292,46.0511463196067],[14.0741070699803,46.0511325150941],[14.0750756833074,46.0511673509468],[14.0754382195563,46.0511252063589],[14.0760133384495,46.0507339628828],[14.076286774266,46.0506102067421],[14.0766142905702,46.0503429252125],[14.0768866739336,46.0502821423667],[14.0771292854118,46.0496812620974],[14.0772512633351,46.0493403379428],[14.0773490468283,46.0489002446334],[14.0771080556045,46.048628370599],[14.0766595673816,46.0476259235145],[14.0762746656481,46.0474608562185],[14.0756366195153,46.0469788240762],[14.0766936233713,46.0463575355334],[14.0775701783673,46.0457077880302],[14.0780919012291,46.0454150765319],[14.0787943415496,46.0451328170638],[14.0790549734906,46.0449999533793],[14.0794097776914,46.0446428173768],[14.079066187654,46.0443251327073],[14.0790302704131,46.0441538885957],[14.0791349697215,46.0440737537234],[14.0789584568958,46.0438024028767],[14.0790625576468,46.0437582537047],[14.0789675771381,46.0432536218066],[14.0789732584666,46.0429117581617],[14.0785559076096,46.0423685369604],[14.0786609032937,46.0422704096532],[14.0788211623822,46.0419567848631],[14.0789142846836,46.0417955782839],[14.0790970896039,46.0416800824035],[14.0793045354652,46.0416367656907],[14.0800535188784,46.0416607923159],[14.0806465835955,46.0417375455927],[14.0809148049834,46.0411457701037],[14.0809595276309,46.0407862249655],[14.0809647486718,46.0404713502438],[14.0810114094867,46.039994851556],[14.0811149620611,46.0392038934726],[14.0804938489524,46.0392618812513],[14.0800274533612,46.0393391064396],[14.0790267611044,46.0395442903895],[14.0786051965358,46.0395435917215],[14.0785441132466,46.0391921919686],[14.078343673617,46.038029882267],[14.0790416838814,46.0380085163602],[14.0793641808415,46.0380381075824],[14.0796754033835,46.0379686332359],[14.0800763031474,46.0379448680404],[14.0804391753631,46.0378848049714],[14.0806081510704,46.0378231810797],[14.0809046631344,46.0378615565367],[14.0819990989442,46.0380862958179],[14.0830035650157,46.038283309877],[14.0837556294459,46.0381182969214],[14.0848578057399,46.0378751944253],[14.0860769738555,46.0375880287934],[14.0856080702318,46.0370354229746],[14.0851645654434,46.0365100113688],[14.0852793359204,46.035818112772],[14.0848591535057,46.0354458462055],[14.084845219554,46.0347169267277],[14.0847460418329,46.0344641988893],[14.0847399585579,46.0340501692294],[14.0845962385587,46.0341479920783],[14.0845191826751,46.0341203819592],[14.084378879552,46.0340112864161],[14.0842271461879,46.0338121228045],[14.084089371108,46.0335500874346],[14.0841584135494,46.0332807118067],[14.0838702486097,46.0327385442873],[14.0837424207629,46.0326565408345],[14.0835902472199,46.0324843656963],[14.0834359924234,46.032438140516],[14.083088734101,46.0323453786535],[14.0829493310969,46.0321823027417],[14.0824797593407,46.031674666341],[14.0822751826174,46.0315470568655],[14.0821742547289,46.0313932865726],[14.0815455300279,46.03113630176],[14.081445181197,46.0309555425594],[14.0803486482316,46.0308658352529],[14.080240761732,46.0303610094615],[14.0800056570449,46.0297382801789],[14.0797138178532,46.0294210131826],[14.0792826475376,46.0290776995458],[14.079247137325,46.028742431379],[14.0792656004704,46.0284006698503],[14.0789686918058,46.0283892797715],[14.0787633879404,46.0283066462629],[14.078327399649,46.0281141805305],[14.0776475172331,46.02782976859],[14.0773273259887,46.0276652264481],[14.0772391638815,46.0275295500281],[14.0771235245529,46.0274926257029],[14.0766893459629,46.0271921966067],[14.0765391568503,46.0269030585883],[14.0768123233743,46.0267882962155],[14.0772925804305,46.0266482124606],[14.0781997819554,46.0264665829541],[14.0787620346529,46.0267786560357],[14.0791439973313,46.027167013386],[14.0797375031961,46.0272077846465],[14.0803954373158,46.0272580689146],[14.0809492846307,46.0273614982387],[14.0819042748115,46.0274141622973],[14.08255049043,46.0273922689124],[14.0833307420207,46.0278574095884],[14.0833668115034,46.0280196564063],[14.0836466409567,46.0282828320122],[14.0839793245036,46.028474449463],[14.0841362298307,46.0291416221933],[14.0838490937888,46.030102067903],[14.0837623612038,46.0306682236386],[14.0842430695426,46.0312839157043],[14.0843520357311,46.0317256728557],[14.0853176500799,46.0327051495978],[14.0856117642348,46.0328874558044],[14.0864091671645,46.0323179845434],[14.0874292417719,46.0315613356295],[14.0885141666065,46.0307871095157],[14.0887291576181,46.0310677506568],[14.0889254690222,46.0316991501751],[14.0895939161159,46.0326942166181],[14.0908388607961,46.0331899992665],[14.0910167449352,46.0333713668437],[14.0915036017962,46.0336181741057],[14.0918508825296,46.0337109105414],[14.0930792741572,46.0344314778556],[14.0941060031639,46.0348535118266],[14.0951863433491,46.03514999421],[14.0955047230408,46.0354314408603],[14.0964435779343,46.0356908009628],[14.0971910250424,46.035804679438],[14.0973177082484,46.0359586397548],[14.0979339370669,46.0361974436234],[14.098386486951,46.0361740218579],[14.0994094503449,46.0360291279133],[14.0999827844353,46.0357276351821],[14.1000359143598,46.0356380773139],[14.1000840131032,46.0350626079587],[14.1003834445202,46.0349210033334],[14.1011975177642,46.0349094132752],[14.1021435142826,46.0347368966231],[14.1020251430789,46.0340611445103],[14.1022784321942,46.0335772624372],[14.1021793224218,46.0333155526258],[14.1019388581246,46.0330077438817],[14.1019683346809,46.0327830347488],[14.1019317706016,46.032647782971],[14.1018303336196,46.0325299266454],[14.1015490839497,46.0323477633347],[14.1013306674161,46.0322741549766],[14.1010732115938,46.0322181444241],[14.100272094402,46.0322298355805],[14.0999497651778,46.0321913070147],[14.0994074883086,46.0320225583342],[14.0992826366761,46.0319071245293],[14.0991829592728,46.0316813980911],[14.0990187009045,46.0314551624429],[14.0989944763889,46.0313559975019],[14.0990354182552,46.0312213557782],[14.099179543889,46.0310965250343],[14.0995834561792,46.0308836748682],[14.0999223449171,46.030697394057],[14.1005330540572,46.0304772613538],[14.100895872815,46.0304081352276],[14.1014557854604,46.03013361214],[14.1016393797143,46.0299641004083],[14.1018909042941,46.0295881766178],[14.1020874112861,46.0294187656262],[14.1021563609971,46.0291493782534],[14.1027647151077,46.0290731772563],[14.1030636706278,46.0289585546554],[14.1032339052749,46.028815838415],[14.1033267887516,46.02866360739],[14.1033712094086,46.0283130480616],[14.1034635098173,46.0281968028882],[14.1039609903371,46.0277868130882],[14.1040930525597,46.0276078956716],[14.1043161032196,46.0273937006839],[14.1044213154982,46.027277555914],[14.1045143383707,46.0271163273399],[14.1045428001987,46.0269455952078],[14.1044830180099,46.0266482046755],[14.104290597071,46.0265657179721],[14.1034324038839,46.0261181042494],[14.1032304173919,46.0258285949672],[14.1035837775797,46.0255434426565],[14.1037918713663,46.0254550982849],[14.1038843114256,46.0253298561709],[14.1038227897845,46.0251404232751],[14.103644453219,46.0249860647645],[14.1032314686175,46.0249648296067],[14.1028698526787,46.0249619914962],[14.1025993686664,46.0249148796657],[14.1024713850632,46.0248418934796],[14.1023574815605,46.0246970365988],[14.1023518477481,46.0242471101848],[14.10271666126,46.0240520268807],[14.1029270805935,46.0238196500399],[14.1027567559065,46.0231704825274],[14.1028637096268,46.0229463810362],[14.1028657470148,46.0228204299905],[14.1028155613383,46.0227210619149],[14.1028083228951,46.0223700968876],[14.1026709239444,46.0220810934518],[14.1027530663655,46.0217938136768],[14.1027455372707,46.0214608416033],[14.1036660689243,46.0212431238997],[14.103982254246,46.020858704443],[14.1040630800875,46.0206523921898],[14.1046918050329,46.0201083728217],[14.1055042083068,46.0193859247094],[14.1064870731004,46.0185028458707],[14.1075211263677,46.0176470612047],[14.1078578815813,46.0175867069793],[14.1082861850389,46.0174550848905],[14.1086507883697,46.0172689784611],[14.108884380064,46.0171988188857],[14.1088374972804,46.0169015307228],[14.1082308344133,46.0160780118311],[14.1076697620347,46.0156327471602],[14.107130179918,46.0154575773065],[14.1061134288159,46.0152337753074],[14.1056423343846,46.0148161973238],[14.1057560756362,46.0141692559848],[14.1059571549758,46.0137119486037],[14.1054500941732,46.01312313279],[14.1047326728835,46.0127109105993],[14.1052231911356,46.0119786534725],[14.1057601233522,46.0123157696348],[14.1060766772899,46.0119043537251],[14.105705086335,46.0116684070511],[14.1059374017095,46.0117323086299],[14.106272673392,46.0117619240527],[14.1072407700048,46.0117873961578],[14.1076014322836,46.0118441990135],[14.1078207885159,46.0118549093574],[14.1089451285477,46.0118006976925],[14.1091119708949,46.01186498207],[14.1100018769342,46.0119348995048],[14.1102989936914,46.0119282153172],[14.1106590682343,46.0120299922518],[14.1109947769048,46.012032604231],[14.1114208687458,46.0120359180154],[14.1116136825548,46.0120914030068],[14.1119100799871,46.0121296973458],[14.1120402068744,46.0120677248586],[14.1122491002554,46.0119253851561],[14.1119416638239,46.0117700363084],[14.1120231663261,46.011518735071],[14.1120129903143,46.0113477004137],[14.1124035081484,46.0111527855348],[14.1123926114009,46.0110267336194],[14.1122530452218,46.0108636916117],[14.1124511805839,46.0105863029876],[14.1128260468637,46.0105622207028],[14.1129319281531,46.0104010846601],[14.1130144307994,46.0100868067715],[14.1132752473014,46.0099268728029],[14.1140631309986,46.0099148980398],[14.1141136434274,46.0091774810546],[14.1145903536908,46.0092441590639],[14.115294445823,46.0088177239405],[14.1159516240286,46.0089037885449],[14.11554692748,46.0083697948967],[14.1152151137465,46.0081242894188],[14.1145425944949,46.0081910620474],[14.1143363058282,46.0081714681986],[14.1144205199672,46.0077492304282],[14.1147813072669,46.0077970139713],[14.1149907513874,46.0076186827572],[14.1149449910978,46.0072494239668],[14.1149766955081,46.0068807650651],[14.1160548879594,46.0072850071824],[14.1161249011014,46.0077534274486],[14.1164980279194,46.0078372916768],[14.1167591102245,46.0076593564237],[14.117021908708,46.0073734618089],[14.1172018013027,46.0074288375863],[14.1172138533869,46.0074829166948],[14.1174198544105,46.0075204984666],[14.1177974155882,46.0073254649854],[14.1181055591016,46.0074358153159],[14.1182445761324,46.0076258390336],[14.118855569976,46.0081884069804],[14.1194725858733,46.0083641183433],[14.119770110867,46.0083304196798],[14.1200283331471,46.0083323183076],[14.1201303376017,46.0084140826966],[14.1204033238743,46.0082992144557],[14.1212807046691,46.0083419547106],[14.1212356143282,46.0079277153219],[14.1212529418664,46.0076489208687],[14.1213785414577,46.0070560404764],[14.1213242577469,46.0063987932763],[14.1213817402571,46.0060303307619],[14.1213838768571,46.0058953821346],[14.1210787274539,46.0055961125572],[14.1213530770824,46.0053207340321],[14.1211234713313,46.0052167549444],[14.1210773584755,46.0048672906441],[14.1211989642761,46.0045263142878],[14.1216978085893,46.004008284186],[14.1218264819495,46.0040362660444],[14.1217989534921,46.0041440265812],[14.1219125819558,46.0043068578207],[14.122770022707,46.0047903194306],[14.1229460739398,46.005088593839],[14.1232644253705,46.0053699643928],[14.123641383268,46.0052108976041],[14.1239539295658,46.0050423381563],[14.1254073971144,46.0045765941327],[14.1258734392794,46.0044991807389],[14.1268689271155,46.0044257217529],[14.1274887562263,46.0044214580044],[14.1275344293352,46.0039719230736],[14.1285781541412,46.0041148515655],[14.1299562903858,46.0043322983119],[14.1300310716943,46.0045038233765],[14.1303359818409,46.0048210626032],[14.1312060398443,46.0045037641124],[14.1313904435941,46.0042712263725],[14.1322228822018,46.0038816527993],[14.1331595739068,46.0034297902737],[14.1334953730424,46.0034233391886],[14.1337744772363,46.0037403736233],[14.1339232200543,46.0041373985445],[14.1338272326826,46.0044965779413],[14.1340608796636,46.0044173695344],[14.1343839148549,46.0044018214486],[14.1347371185117,46.0041075730416],[14.1356018158515,46.0041321120153],[14.1360778097384,46.0042436833862],[14.1366704170031,46.0043291407601],[14.1373170443376,46.0042620424393],[14.1373973472078,46.004910480916],[14.1381206039413,46.0048979424508],[14.1392971164705,46.0047988372548],[14.140110413047,46.0046582975961],[14.140253924005,46.0045876658878],[14.1406787708925,46.0043342476584],[14.1410681196301,46.0041050347113],[14.1414771034917,46.0037414527414],[14.1420264119205,46.0033790128421],[14.1421845499448,46.00335572629],[14.1423426878394,46.003332439518],[14.1426256157422,46.0031879004105],[14.1429598240703,46.0031170762168],[14.1432402980064,46.0031313261086],[14.1433961714554,46.0032546829685],[14.1435346171354,46.0033779090047],[14.1436377608205,46.0035130172001],[14.1438912399491,46.0035698921248],[14.1441445905043,46.0036267655235],[14.1443367131934,46.0036770615269],[14.1446844675809,46.0038750941749],[14.1448416052497,46.0039251274839],[14.145017865538,46.0038653520948],[14.1452661101651,46.0036838364804],[14.1454264451347,46.0035262266315],[14.1455161735457,46.0033924723427],[14.1457489243592,46.0030765045651],[14.1458235376964,46.0027838281096],[14.145862789528,46.0025152710013],[14.1457959444331,46.0022948682356],[14.1455962173444,46.0021432939853],[14.1454869448402,46.0021126046997],[14.1453776710729,46.0020820052768],[14.1451518046672,46.0019846706957],[14.144997058947,46.0017880835684],[14.1449060338723,46.0016122177915],[14.1449324773285,46.0014210350951],[14.1453047371396,46.0011672060751],[14.1455686433026,46.0011080852708],[14.1463929722884,46.0011019186251],[14.1469896949499,46.0010696636766],[14.1477259938329,46.0010872140144],[14.1481200386334,46.0011206541146],[14.1485140839278,46.0011540928592],[14.1489175049195,46.0011570979481],[14.149338542669,46.0011479059302],[14.1496028195065,46.0010643048922],[14.1497885423502,46.0009927156026],[14.1500117647315,46.0008751568723],[14.1496548764179,46.0005148442682],[14.1490877213452,46.0000758550278],[14.1490291337586,45.9999561995594],[14.1489704388295,45.9998435614475],[14.1486005899413,45.9996725500858],[14.1484115576426,45.9995308678325],[14.1482627797822,45.9993825570736],[14.1483857633725,45.9990999567542],[14.1484800191626,45.9989983554945],[14.1484521778063,45.9988439278244],[14.1484724780327,45.9984800329785],[14.1484674582899,45.9981424026244],[14.1484860864875,45.9979463919941],[14.1483876565029,45.9977984564894],[14.1481478351573,45.997677449837],[14.1479993010762,45.9975220323341],[14.1481270986982,45.9970601442968],[14.1478158608024,45.996898924776],[14.1476889440637,45.9967483468393],[14.1476833979121,45.9964537213462],[14.1475576690719,45.9962426876801],[14.1472678653418,45.9959807624882],[14.1472096092857,45.9958400538924],[14.1478967234061,45.9950035358406],[14.1476717297396,45.9945230011899],[14.147187854241,45.9941132357608],[14.1467474036628,45.9938098752138],[14.1465415282446,45.993690558173],[14.1463577900766,45.9936595834559],[14.1461544703577,45.9936679619885],[14.1459746706888,45.9936830842406],[14.1457489465032,45.9936122049473],[14.1455608621253,45.9935449357791],[14.1453115692405,45.9934705502566],[14.1450605147873,45.9935106015981],[14.1449555815308,45.9935345601767],[14.1444678538131,45.9934268966875],[14.1442077752715,45.9932902539855],[14.1441216562471,45.9932744929308],[14.1439799228262,45.9931818348935],[14.1435817857282,45.9931245958772],[14.1432927893899,45.9930301134823],[14.1429801160214,45.9928220819176],[14.1427676396664,45.9927631730189],[14.1426514693876,45.9927624815023],[14.1422173584984,45.992869895477],[14.1421157880413,45.9928433096801],[14.141852782832,45.9926543630559],[14.1416586586315,45.9926108859721],[14.1414432997481,45.9924964372134],[14.1411600104458,45.9925341683455],[14.1409068487306,45.9927021418718],[14.1407324111786,45.9927128873183],[14.1404784262372,45.9926420550317],[14.1399642311507,45.9925607164095],[14.1397047138708,45.9924971288943],[14.1395506057643,45.9925205323628],[14.1390575015231,45.9927608359007],[14.1388573894048,45.9928455260183],[14.1385784168378,45.9930124900916],[14.1383244880568,45.9932625110255],[14.1381561401035,45.9933714632356],[14.1379057105943,45.9934457847654],[14.1375606368295,45.9934798017033],[14.1373144152824,45.9934576984747],[14.13710426388,45.9933574072334],[14.1367605249738,45.9932806702885],[14.1363009063042,45.9930518054267],[14.1360068859985,45.9929491687067],[14.1358335124879,45.992891442304],[14.1355116577899,45.9927526030654],[14.1353589384142,45.9926120734806],[14.1351237326679,45.9922808882403],[14.1349335568407,45.991976136672],[14.1347829011384,45.9918856490801],[14.1347212089527,45.9917772096968],[14.1347306792438,45.9916665198229],[14.1349439464254,45.9913093064385],[14.1349231401458,45.9910622522718],[14.1348485742535,45.9908770551497],[14.1348592845538,45.9907861695595],[14.1352002240863,45.9905276370499],[14.1351899094461,45.990435692548],[14.1350725169671,45.9902817533579],[14.1351033628897,45.990108061396],[14.1352325189551,45.9898464861027],[14.1351805847812,45.9897083384006],[14.1350545176235,45.9895147436693],[14.1350902557522,45.9892175503642],[14.1351216238114,45.9890185787938],[14.1352693743877,45.9889221618725],[14.13545177928,45.9887969443746],[14.1354259362335,45.9887157696018],[14.1351775069413,45.988588192041],[14.134901610776,45.9884838000248],[14.1346940213566,45.9882122974837],[14.1345676942175,45.9880357058416],[14.1346493980956,45.9878371155404],[14.1347987722493,45.9876280603314],[14.1345450411756,45.9873607069814],[14.1344248234451,45.9872643309126],[14.1344110421545,45.9870553899523],[14.1343969331027,45.9869254462947],[14.1341013255792,45.9868441170697],[14.1338139083792,45.986552213022],[14.1336444603934,45.9862442869528],[14.1331668938559,45.9859046013954],[14.1327057557544,45.9856786794614],[14.1323020829258,45.9854099130515],[14.1319840795234,45.9851105739199],[14.1319524509326,45.9850696640657],[14.1319520707935,45.9850692112931],[14.1318891910772,45.9849880242637],[14.13139215082,45.9846651889297],[14.1311754541121,45.9844910557004],[14.130941126555,45.9842807071887],[14.1308413879109,45.984187902156],[14.1307415219529,45.9840950060891],[14.1307440507562,45.9840076576247],[14.1308187302632,45.9838542749402],[14.1307872412281,45.9838045480656],[14.1306522473836,45.9837707695681],[14.1306232814914,45.9837082851022],[14.1305605594304,45.9833616662454],[14.1304135475742,45.9832712004665],[14.1304271493265,45.9831526242417],[14.1305173228445,45.9829823539661],[14.1304022690121,45.9826808651918],[14.1304322818355,45.9824868331046],[14.1303348727878,45.9822702368903],[14.1303999506161,45.9821200205387],[14.1304650294954,45.9819697141773],[14.1305849789168,45.9816203460734],[14.1306763309975,45.9813251064383],[14.1306852574439,45.9811670846179],[14.1306469695252,45.9810983207978],[14.1306086817002,45.9810295569647],[14.1306555356036,45.9808231460705],[14.1306156187316,45.9807430327311],[14.1300493350337,45.9805674068794],[14.1298571328287,45.980478665786],[14.1296649326502,45.9803898344058],[14.1294844749485,45.980334113743],[14.1293040176122,45.9802783927971],[14.1289916960644,45.9803438554857],[14.1287489319987,45.9803685481603],[14.1286153335756,45.9803204715126],[14.1284489226053,45.9801756890196],[14.1280851714002,45.9800478460929],[14.127541910765,45.9797878049694],[14.1273255193552,45.9796537064202],[14.1271089985341,45.9795196964461],[14.1267767862568,45.9793810230522],[14.1263963265685,45.9792903875535],[14.1261313564599,45.9793158046828],[14.1257884490334,45.9791927026412],[14.1255369229268,45.9790281895721],[14.1251356129225,45.9788522719641],[14.1245456268795,45.9787907982231],[14.124086731526,45.9787395939353],[14.1238938359678,45.9789494715226],[14.1237347182373,45.9790633322726],[14.1235972661352,45.9791863566677],[14.1234037046155,45.9792664813098],[14.1227107757033,45.9792428085856],[14.1221072346122,45.9791488264365],[14.1214219792408,45.9791297036995],[14.1211730214445,45.9791381367829],[14.1210189732684,45.9790862049104],[14.120315106719,45.9790362501849],[14.1199871497393,45.9790619779844],[14.1194670343562,45.9792092231028],[14.1192903395815,45.979267066438],[14.1189681111418,45.9794929445642],[14.1186104057103,45.9796120152567],[14.1180157751926,45.979574765806],[14.1170245341238,45.9795139347199],[14.116282325435,45.9794970404058],[14.1157441016391,45.9794837893193],[14.1148496847965,45.9795833079324],[14.1138016759936,45.9797480316834],[14.1128781483531,45.9800455286867],[14.1125171555677,45.9801754420112],[14.112020480159,45.9803077190986],[14.1117883431337,45.9804018306655],[14.1114267911875,45.9803082330647],[14.1111978304229,45.9802037886545],[14.1113518853638,45.9799967796923],[14.1114793398172,45.9797744475415],[14.111826992394,45.9793407610302],[14.1121847173312,45.978914439831],[14.1123706622076,45.9786819437406],[14.1124839331985,45.9786118315406],[14.1124383955266,45.9781744589236],[14.1126034056473,45.9781535160419],[14.1129461747393,45.9777981581853],[14.1130610103864,45.9776298924829],[14.113126778051,45.977301626403],[14.1131473992614,45.9769153345571],[14.1131373437454,45.9767368318138],[14.1129532628626,45.976643086513],[14.1127945342702,45.9764568612633],[14.1132824463152,45.9762083522202],[14.1137509844122,45.9759605906083],[14.1140495147092,45.9757803417186],[14.1141607606626,45.9756829490416],[14.1138043057604,45.9755303733568],[14.113346840795,45.9757395309333],[14.1128304349878,45.9759058498616],[14.1126351095834,45.975934565649],[14.1121369115789,45.9754378010563],[14.1115935393707,45.9750469461214],[14.1110836152365,45.9747276106952],[14.1105160646575,45.9744050351529],[14.1101130186796,45.9741894611216],[14.1095326719566,45.9739171682493],[14.1091439744696,45.9735556695693],[14.1087561041473,45.973255540456],[14.1083452407614,45.9728686725158],[14.1079328710328,45.972632233238],[14.107605733616,45.9725687644761],[14.1072868448811,45.9724818751574],[14.1071530919502,45.972477860968],[14.1064761153646,45.9725190879352],[14.1059648558296,45.9726147840346],[14.1052353105017,45.9726428156026],[14.1045538595657,45.9727132387472],[14.1040884553301,45.9727658267522],[14.1034357329174,45.9727590880355],[14.1032685421367,45.972724034742],[14.1030367298724,45.972767114102],[14.1027315336848,45.9729833628501],[14.102295174084,45.9731389255891],[14.1016382213446,45.9732419155884],[14.1011967100874,45.9732370042408],[14.1006341525107,45.9731605064825],[14.099978178299,45.9729718784473],[14.0997328248088,45.972982362675],[14.098946724495,45.9731233698235],[14.0986157759692,45.9730884580323],[14.098365105206,45.9729494452034],[14.0978079137622,45.9729243528607],[14.09746976922,45.9728559094058],[14.0968243075871,45.9730931185393],[14.0965804987659,45.9731117061571],[14.0960399890215,45.9730209637155],[14.0956750313971,45.9729984611667],[14.0953950551567,45.9730033534307],[14.0951375838089,45.9728624801366],[14.0949076956632,45.9726444443025],[14.0948234080298,45.9724478062659],[14.0941581805599,45.9721636056275],[14.0938603068945,45.9722296267633],[14.0935434604978,45.9723432745456],[14.0926469656005,45.9720768454524],[14.0917321283674,45.9718436450857],[14.0914070918183,45.9718425008594],[14.0909518831785,45.9720603146634],[14.0906988029376,45.9722986303978],[14.0904885157311,45.972382165387],[14.0897511984224,45.972317179716],[14.0895557512669,45.9723612412058],[14.0890117546617,45.9725551257233],[14.0886941855741,45.9725154330726],[14.0882035982106,45.9725841314127],[14.0871884081129,45.9727888229799],[14.0869209103114,45.9728981677536],[14.0866157177881,45.9730082903463],[14.0853899160647,45.9730795556792],[14.0852292969928,45.9731084124226],[14.0844652447812,45.9733656570575],[14.0838863180093,45.9735553682791],[14.0835249007244,45.9735608382235],[14.0826317414156,45.9735083232088],[14.0820115590168,45.9734765296955],[14.0812351768963,45.9736041764374],[14.0807434150551,45.9737583116712],[14.0800456958812,45.9739590147507],[14.0795309454157,45.9740437672038],[14.079330952844,45.9741120684365],[14.0789515993292,45.9744207826174],[14.0786199113644,45.9744074014874],[14.0783580650874,45.9743457250597],[14.0781182813318,45.9741677055053],[14.0773501674726,45.9741227262425],[14.0769248491728,45.9741448450152],[14.0766921257112,45.9741013954502],[14.0764249712913,45.9738857206538],[14.0761853202944,45.9734596308496],[14.0760168849834,45.9732597792834],[14.0757168236458,45.9730135143885],[14.0754471673864,45.9729874890691],[14.0751693310923,45.9729412420086],[14.0749300133517,45.9728059586783],[14.0747302573666,45.9725655418316],[14.0744995111675,45.9723031891244],[14.0741320594682,45.9721446419123],[14.0737248757906,45.9721866906979],[14.0733214995032,45.972139691417],[14.0730531326357,45.9721527210292],[14.0725008444552,45.9722138332286],[14.0724022025212,45.9721088389025],[14.0723986967732,45.9719323650266],[14.0721875542115,45.9718260073733],[14.0719464002168,45.9718013748961],[14.0710599989539,45.971732898294],[14.0709249393698,45.9717069665933],[14.0701933051141,45.9717823554152],[14.0697871606436,45.9717623143085],[14.0694265959202,45.9718099459341],[14.0689584247241,45.9717642931061],[14.0688150749828,45.9717094986404],[14.0685651028392,45.9715336253458],[14.0676562105147,45.9714832943721],[14.0674522744392,45.9714018204795],[14.0673950599267,45.9712817737578],[14.0672939085965,45.9710578945271],[14.0669397135379,45.9711182570949],[14.066716216739,45.9710721631945],[14.0661106076545,45.9707589533995],[14.0655721313225,45.9706206653359],[14.0651798317429,45.9705452950378],[14.0649283672451,45.9704667569703],[14.0648256126135,45.9703618123873],[14.064599776461,45.9702173500057],[14.0641987040419,45.9701191402635],[14.063913341285,45.9699848963364],[14.0635931019722,45.9697533703704],[14.063528867777,45.9695221421726],[14.0634426822599,45.9693454402335],[14.0629333425066,45.969087438714],[14.0625061743019,45.9689687641171],[14.0620267154247,45.9688291438974],[14.061567464853,45.9687537514711],[14.0611794001077,45.9685739385029],[14.0608812719843,45.9685087746524],[14.0604950942782,45.9683854806231],[14.0601053361187,45.9682298539732],[14.0599468554069,45.9681323646073],[14.0597130391175,45.9679880068081],[14.0596480648501,45.967801578976],[14.059583568772,45.9675640479041],[14.0594686355214,45.9673485960132],[14.0592621734755,45.9672731151229],[14.0587240868143,45.9673357173096],[14.0580769453848,45.9671636569572],[14.0577885324116,45.9671273578466],[14.0572490506468,45.9669983797974],[14.0569219569181,45.9668692626554],[14.056265996106,45.9667385088279],[14.056009356643,45.9665865767758],[14.0552457565193,45.9664882194755],[14.0546697824988,45.9664496247107],[14.0540929794071,45.9663688207933],[14.0535177395679,45.9663554199596],[14.0531872784696,45.9666518571658],[14.0531402054676,45.9668625540297],[14.0529852023099,45.9673190743901],[14.053137858414,45.9679014131073],[14.0531352100375,45.9681249848629],[14.0529680520446,45.9683480931541],[14.052715132167,45.968613859373],[14.0524597319722,45.9689341307174],[14.0523538240278,45.9692350364608],[14.0521616364465,45.9699114216553],[14.0520822037393,45.9702637437808],[14.0520225951945,45.9708078819415],[14.0520952460498,45.9709212261582],[14.052243291285,45.9711081672348],[14.0524818900004,45.971327351032],[14.0527941403509,45.9716468396676],[14.0528834077534,45.9717847949179],[14.0530948102348,45.9721841564489],[14.0531328265103,45.9722931640056],[14.0529475075937,45.9725665089077],[14.0528282785457,45.9729597111623],[14.05267915401,45.9731686619386],[14.0525003056751,45.9732741621455],[14.0523580987618,45.9732892688497],[14.0520406198636,45.9731548189813],[14.0516094009205,45.973303212631],[14.0515373997752,45.9734616048809],[14.0513660424283,45.9737403717051],[14.0509867972882,45.9740337878795],[14.0506431312417,45.974200810398],[14.0503493178335,45.9743502507256],[14.0501543200317,45.9747959969536],[14.0500056999537,45.9748764608771],[14.0495798992415,45.9748201936535],[14.0490362645812,45.9749004295522],[14.0489781329724,45.9750471485497],[14.0489207496743,45.9755496437265],[14.0487616880863,45.9756292093265],[14.0483193777278,45.9757604924884],[14.0477601970083,45.9760092101635],[14.047255333913,45.9762433517707],[14.0467345680938,45.9765992776143],[14.0466300403918,45.9767493873849],[14.0466016211638,45.9769690545971],[14.0466758577907,45.9774635588208],[14.0467697555915,45.9776321495902],[14.0472311566383,45.9781270029965],[14.0472032396333,45.9782497690586],[14.047036528346,45.9783307980566],[14.0460976922553,45.9782752771931],[14.0459733010258,45.9781689654703],[14.0459774336585,45.9779959738252],[14.0456880792331,45.9775609474278],[14.0453283028754,45.9773265210107],[14.044914627726,45.9771346520974],[14.0444294974348,45.9771506613953],[14.0437701155142,45.9772208165882],[14.0433894017597,45.9773409889906],[14.0432762949355,45.9774191320742],[14.0431562808046,45.9776435201454],[14.042843355668,45.9780235725961],[14.0425874687129,45.978194005303],[14.0421588132798,45.9784294825914],[14.0417941110108,45.9786232952291],[14.0414341146645,45.9787237498501],[14.0409457807265,45.9785133348741],[14.0406472198306,45.97844910447],[14.0401791255133,45.9783448492537],[14.0392324503319,45.978101243764],[14.0387711505694,45.9781416332577],[14.0384255635329,45.9782520071265],[14.0378966938686,45.978542410995],[14.0378868258107,45.9786725249136],[14.0378774880088,45.9790700554985],[14.0376415288358,45.9791841392128],[14.0369775959197,45.9793809047474],[14.0366846219036,45.9794559057818],[14.0362240307535,45.9798042828478],[14.0361674984742,45.9800202011606],[14.0361874752282,45.9802151702259],[14.0363192934545,45.9804281781488],[14.0363853985679,45.9806424313578],[14.0364085911643,45.9809347827676],[14.0362162575386,45.9816728630046],[14.0360456902531,45.9819076143541],[14.0358916335034,45.9823212893125],[14.035675222182,45.9824309449949],[14.0352891308856,45.9825975631277],[14.0348131595063,45.98301940579],[14.0346106261215,45.9835332639237],[14.0346076020325,45.9837963314729],[14.0346827809274,45.9844388632674],[14.0346306334536,45.9846989064745],[14.0346034824781,45.9849168715803],[14.0346795442782,45.9851374181449],[14.0346745479231,45.9852837686735],[14.0345899339018,45.9854660672915],[14.0344877294379,45.9855687674531],[14.0342922188382,45.9856929034067],[14.0335819255941,45.985997049804],[14.0332959315273,45.985817106054],[14.0330776076894,45.9857686508406],[14.0327454424124,45.98592761863],[14.0322164241392,45.986124328479],[14.0320273082299,45.9862366377291],[14.031905340173,45.9863768685593],[14.0317234819622,45.9866354515361],[14.0316933330544,45.9868839826878],[14.0315049408916,45.9874430333319],[14.0317422779204,45.9877412489993],[14.0320531242806,45.9883025498791],[14.032426434892,45.9889537259531],[14.0328975932269,45.9895162916676],[14.0333379849805,45.9900004050998],[14.0337631567467,45.990439759504],[14.0339856595421,45.9905533020656],[14.0344652663421,45.990624298188],[14.0347064939235,45.9905816175001],[14.0349799249537,45.9905279611239],[14.0351725561285,45.9905184304932],[14.035412101685,45.9905650812882],[14.0355394244504,45.9906219416649],[14.036003804443,45.99064817422],[14.0362752306187,45.9907174064289],[14.0367045019214,45.9909221243642],[14.0367816173437,45.9910903115602],[14.0364204728326,45.9915789912911],[14.0354586749474,45.9924985402056],[14.0340789669192,45.9934705149958],[14.0334955920054,45.9938343981799]]]},"properties":{"fill-opacity":0,"stroke-opacity":1,"stroke":"#ff0000","lov":"1221","lov_naziv":"DOLE","luo":"12","luo_naziv":"Zahodno visoko Kraško","povrsina":4850.72},"id":"pregledovalniklovisca.1"}]}