{"type":"FeatureCollection","features":[{"type":"Feature","geometry":{"type":"Polygon","coordinates":[[[13.9669192288381,45.9304050674347],[13.9669677551141,45.9308333514986],[13.9670158307229,45.931535974297],[13.9670738815859,45.9325626078351],[13.9671605123963,45.9333904682745],[13.967254048165,45.9342632899274],[13.9673810968097,45.9354775205218],[13.9663392037501,45.9360283928221],[13.9663017884519,45.936237522929],[13.9666108960782,45.9365572209608],[13.9669227538175,45.9369651213378],[13.967091473733,45.9372824689833],[13.967214802203,45.9375719628555],[13.9671667717847,45.9380959198256],[13.9673779645641,45.938432006361],[13.9673050750741,45.93866951907],[13.9671218303258,45.9392243759453],[13.9670489340509,45.9398579709096],[13.9669270739503,45.9404751970226],[13.9668625364698,45.9408043823153],[13.9670062331395,45.9412474725898],[13.9674006005937,45.9416239051224],[13.9675105749954,45.9417301729157],[13.9673557477393,45.9423516902737],[13.9674457795961,45.9428652873819],[13.9673279930526,45.9432352014546],[13.9671519468439,45.943547452905],[13.9666827492918,45.9439144593491],[13.9662274649548,45.9442403798932],[13.9659078678476,45.9444965341391],[13.9656348608407,45.9447163083146],[13.9653196241918,45.9451121458712],[13.9649679857343,45.9453152803512],[13.964464354026,45.9455835300118],[13.9637349253279,45.9459942342788],[13.9628539528594,45.9460372590557],[13.9623284349875,45.9460328479771],[13.961894204927,45.9462719338593],[13.9615586689936,45.9464958090084],[13.9610257324211,45.9467432622277],[13.9606572602114,45.9469140183046],[13.9604829059354,45.9469951218716],[13.9610664038566,45.9474728116629],[13.9612996015228,45.9476527276616],[13.9616104062214,45.947579431267],[13.9617401921402,45.9474536519971],[13.9618698485068,45.9473278714004],[13.9620896030605,45.9472537464777],[13.9624159846398,45.9473201448493],[13.9627059977884,45.947386302132],[13.9629413312863,45.9474519624418],[13.9630675624358,45.9475166322733],[13.9632308727564,45.9475434878307],[13.9633052651679,45.9474552647669],[13.9632899209436,45.9473027932457],[13.9632922875182,45.9471758561242],[13.9633300738154,45.9471000777639],[13.9634768561571,45.9470378850164],[13.9636042707702,45.9470390407081],[13.9639474152799,45.9471818878663],[13.9641466199253,45.9472344412789],[13.964437214488,45.9472625388538],[13.9646007609515,45.9472767077331],[13.9648378798943,45.9472534823087],[13.9650196085167,45.9472679052762],[13.9651277667227,45.9473196322987],[13.9652353442774,45.9474095045205],[13.9653783457668,45.9475504448237],[13.9655404757885,45.9476408106717],[13.9660129341377,45.9476832373288],[13.9662853481677,45.9477111656876],[13.9664491322392,45.9477126472083],[13.9665595450274,45.9476501215445],[13.9665789076245,45.947586862355],[13.9665636628394,45.9474216153428],[13.9665853844104,45.9472314188971],[13.9666594286325,45.9471685642212],[13.9667505829589,45.9471567016341],[13.9670960943291,45.9471726021415],[13.9673854058189,45.9472768017847],[13.9676749538933,45.9473683159695],[13.9678550355543,45.9474715275702],[13.9680530663449,45.9475875878418],[13.9682152008869,45.9476779499318],[13.9683940401134,45.9478065231772],[13.9687230885996,45.9477714327185],[13.9689230039675,45.9477860136072],[13.9691746494521,45.947953303127],[13.9694646742299,45.9480194433442],[13.969717861563,45.9481106244123],[13.9699898097592,45.948163913451],[13.9702756050113,45.9484585568844],[13.970273019363,45.9485981789976],[13.9702883830483,45.9487506497119],[13.9703596031717,45.9488401894493],[13.970504372945,45.9488795543932],[13.9707412600128,45.9488690914659],[13.9709544326868,45.9491503021734],[13.971205278961,45.9493684173789],[13.9713468909746,45.9495855487538],[13.9716337463905,45.9498166740025],[13.9716906104888,45.9499433344593],[13.9718541159813,45.949939317081],[13.9721055247847,45.9498971298801],[13.9723965010177,45.949912523766],[13.9729055880261,45.9499425644217],[13.9732513546786,45.9499456717584],[13.9734881185656,45.9499351120507],[13.9738161687855,45.9499126848173],[13.9739974405245,45.9499524630969],[13.9742493451768,45.9501070568365],[13.9744671163253,45.9501471620021],[13.9748662676334,45.9502142677921],[13.9753001530831,45.9503704916377],[13.9756994360162,45.9504375956931],[13.9763685827172,45.9506722251483],[13.9766195617079,45.9508776427308],[13.9770161520323,45.9510843634063],[13.9773008812054,45.9513065475257],[13.9766284983013,45.9513312102201],[13.9755134855683,45.9511766249316],[13.9755245548352,45.9514439578449],[13.9757420530666,45.9518633139653],[13.9759576853397,45.9522160694549],[13.9754858435156,45.9526907010887],[13.9751966365658,45.9527884328554],[13.9750737470975,45.9525200970757],[13.9750961018005,45.9521751433065],[13.9746669922775,45.9520599914069],[13.9741382833042,45.9521554812541],[13.9740883786371,45.9522664255609],[13.9744647869947,45.9526371830599],[13.9744868390653,45.9531830054001],[13.9747515614926,45.9535527595191],[13.9751122029941,45.9537088666647],[13.9753542120254,45.9538135214979],[13.9756733153765,45.9537947877695],[13.9758688750494,45.9535849132203],[13.9760772205805,45.953542241365],[13.9763273965232,45.9538339408328],[13.9764801333216,45.9541141496584],[13.9767938483343,45.9545284268242],[13.9769211452919,45.954740204197],[13.9770396553069,45.9550650046139],[13.9773391285855,45.9552792224811],[13.9774142494755,45.9554803648475],[13.9761915080159,45.9563304118727],[13.9768509322232,45.9566556485241],[13.977262040086,45.9568819332617],[13.9775107277498,45.9572626944401],[13.9776004208978,45.9575975836969],[13.977977631023,45.9579349547503],[13.9784509654475,45.958250869463],[13.9787003564896,45.9585870953545],[13.978501031589,45.959008478134],[13.9783041592826,45.9592962658164],[13.978298149905,45.9596302087159],[13.9781308083382,45.9600518767369],[13.9779011210195,45.9603839091009],[13.9778004937651,45.960650242247],[13.9777309082149,45.9609613918662],[13.977819380607,45.9613630331294],[13.9783866693279,45.9617911804585],[13.9787658297794,45.9620171739418],[13.9795579142271,45.9623804708725],[13.9800017552495,45.9625624989441],[13.9801585965807,45.9627197398237],[13.9803159754909,45.9628547608411],[13.980598077971,45.9631467353449],[13.9811399452012,45.9632183312569],[13.9819294877711,45.9637151155593],[13.9828140768135,45.9642573692655],[13.9838903850106,45.9648012310124],[13.9845850648019,45.9652527043865],[13.9848402183297,45.9652771958018],[13.9857030280213,45.9652624530821],[13.9865338440438,45.965247420104],[13.987077234223,45.9652299236531],[13.9876817723209,45.9653688072621],[13.988441436396,45.965753979554],[13.9888834380233,45.9660472587852],[13.9891010601244,45.9663832703454],[13.9892175685652,45.9670077545031],[13.9893385317588,45.9673874493488],[13.9894260126442,45.9678558355956],[13.989578441005,45.9682580328053],[13.9902736157723,45.9686871612601],[13.9908381163576,45.9692710623206],[13.9914646008447,45.9699668095965],[13.9919022054826,45.9705051364353],[13.992178203412,45.9711533383683],[13.9923626590427,45.9715557241002],[13.9925471156696,45.9719581994913],[13.9924441137203,45.9723581403835],[13.9930102882536,45.9728529675244],[13.9939978511028,45.9730174164777],[13.9946974215404,45.9732016380661],[13.9953714423953,45.9730292306069],[13.9961105302604,45.9727907176033],[13.9966241347271,45.9726615221368],[13.9970725349527,45.9725986052625],[13.9979358591028,45.9725614602584],[13.9986449398297,45.9722112757853],[13.9993900189633,45.971638708213],[13.9997793545532,45.971307940841],[14.0006449294958,45.9711372686978],[14.0014199701119,45.9706762517996],[14.0018407534709,45.9703680665444],[14.0024177856631,45.9702617133952],[14.0032498714856,45.9701798067235],[14.0040188912639,45.9700527155733],[14.0043729987625,45.9698998705812],[14.0052429239052,45.9694841931307],[14.006046712892,45.9692015501903],[14.0068183691221,45.968918622316],[14.0075531093182,45.9689249157979],[14.0086431311045,45.9687115033115],[14.0098967022303,45.9682768035805],[14.0110584895096,45.9676186017717],[14.0117335787809,45.9673794336871],[14.0127249297338,45.9673210596707],[14.0135861862542,45.9673951705675],[14.0147991393295,45.9674499932461],[14.0154060113722,45.9674551337608],[14.0159290735927,45.9675005790383],[14.0168871889389,45.9664033636395],[14.0177391062095,45.9658665962915],[14.0188439640414,45.9651361137565],[14.0205410583446,45.9644323827367],[14.0206211691383,45.9651945482671],[14.0206646951681,45.9662609736136],[14.0207842113129,45.9665664813251],[14.0211511884529,45.966982981513],[14.0211115383394,45.9674612315721],[14.0209452139854,45.968047268971],[14.0209086269646,45.9683515288939],[14.021311054725,45.9685289024093],[14.0217450883459,45.9686848605268],[14.0222099645407,45.9688627654434],[14.0226154606928,45.9688661443938],[14.023094137773,45.968707018589],[14.0227687629098,45.9690196971703],[14.0226382638493,45.9693450189458],[14.0226035983833,45.9695405131633],[14.0228709511129,45.9703041877984],[14.0231471069249,45.9705675730441],[14.0232969739861,45.970916886361],[14.0233874551624,45.9710916758122],[14.0234769179728,45.9713317800173],[14.0235041887731,45.9715495782062],[14.0236255138663,45.9717463155442],[14.0238450954411,45.9716828679374],[14.0240060497861,45.9714014440295],[14.0240102534785,45.9711621402649],[14.0240140746836,45.9709446077361],[14.0240495009867,45.9707055706114],[14.0240525571507,45.9705315805585],[14.0242432017139,45.9703374179077],[14.0244934898053,45.970295915771],[14.0246768772034,45.9705150463061],[14.0250585441395,45.9701048573292],[14.0256539259082,45.9699575137306],[14.0260921776223,45.9698741515333],[14.0264660778879,45.9698990220465],[14.0267399639168,45.9702928464133],[14.0269519170595,45.9706644582163],[14.0272600777588,45.9708846469647],[14.0277299382769,45.9707797730438],[14.0280406397047,45.9708475597166],[14.0281293622343,45.9711311130261],[14.0281536078058,45.9715229004968],[14.0282720321942,45.9718938042897],[14.0283286449413,45.97222054338],[14.0283884285568,45.9723733832693],[14.0288855919753,45.9724863018602],[14.0293840275269,45.9725339055739],[14.029758707733,45.9725152229043],[14.0299455412787,45.9725385835552],[14.0299425033542,45.9727125738511],[14.02984592088,45.9728858599949],[14.0298432627851,45.9730380789993],[14.030092038772,45.9730836497889],[14.0303705209857,45.9732164801332],[14.0307095554096,45.9734586059531],[14.0308651682111,45.9734817002726],[14.0312071130376,45.973549743256],[14.0315172042653,45.9736610642604],[14.0316082226949,45.9738141671336],[14.0318235041868,45.9739900073198],[14.0321381474921,45.9738402511571],[14.0323287755602,45.9736460749937],[14.0323960216897,45.9733637558501],[14.0321483787486,45.9732529661489],[14.0317759692122,45.9731411188573],[14.0314685355568,45.9728774895223],[14.0315027926242,45.9727037637851],[14.0318470066894,45.9726413570264],[14.0321605044451,45.9725569145808],[14.0324432856525,45.9724504366983],[14.0326011693678,45.9723429908328],[14.0328225077555,45.9721707583043],[14.0332268943496,45.9722393237276],[14.0336310307381,45.9723297500849],[14.0342902463858,45.9720958033107],[14.0347290098735,45.9719906378315],[14.0351398188822,45.9716894440331],[14.035360519872,45.9715607502078],[14.0357054784117,45.9714547890871],[14.0359269311505,45.9712826414675],[14.0362404151864,45.9711981876992],[14.0362438108739,45.9710024257092],[14.0363562287276,45.970614131886],[14.0365042776237,45.9703736111854],[14.0368282055572,45.9704381563181],[14.0371095983133,45.9704404377367],[14.0373431770026,45.9704914432994],[14.0376457859755,45.9706247291426],[14.037807351907,45.9707732025549],[14.0378274357162,45.9709696121785],[14.0377081740309,45.971083059092],[14.0377056248981,45.9712302405031],[14.037703642918,45.9713446749471],[14.0378405964638,45.9715583545308],[14.0379383584717,45.9713302753553],[14.0381753383685,45.9711850673357],[14.0384350792882,45.9710890879806],[14.038674038379,45.9708293544577],[14.0388423946765,45.9705854924586],[14.0388950146223,45.970258867476],[14.0393458897802,45.9699518769951],[14.039818416021,45.9697432319113],[14.0401927545258,45.9697953243136],[14.0403534765713,45.9699929146755],[14.0405859286817,45.9701092276878],[14.0408424269737,45.9701930802899],[14.0410983608966,45.9703096793229],[14.0415376612771,45.9706730040709],[14.0417442276367,45.9709363004729],[14.041954048694,45.9710034732482],[14.0420696379696,45.9711025175212],[14.0420668196392,45.9712659826583],[14.0421809998717,45.9714468043688],[14.0422964614431,45.9715458473338],[14.0426224412747,45.9716793158247],[14.042760952616,45.9718112131789],[14.0432762232887,45.9718481900127],[14.0435823845906,45.9717688734882],[14.043750287784,45.9715577522504],[14.0440186131045,45.9709548999237],[14.0440956809071,45.9705630635963],[14.0443098507821,45.9703849902712],[14.0444991330376,45.9702884078499],[14.0450383062253,45.9702928248677],[14.0454134959613,45.9702958696324],[14.0456038994632,45.9701338812373],[14.0455895330974,45.969610543126],[14.0458990480148,45.9693350078278],[14.0462566429421,45.9689945494248],[14.0464459170897,45.9688979636919],[14.0467746959171,45.9688679549378],[14.047174478689,45.9688057855432],[14.0477860416742,45.9686963419966],[14.0480702269201,45.9685351308699],[14.0481427810593,45.968404908184],[14.0480537480322,45.9681262265254],[14.0478932827309,45.9679123631828],[14.0479002871538,45.9675035644497],[14.0482149466346,45.9669338396784],[14.0485019205262,45.9666091617832],[14.0488821224784,45.9663179209247],[14.0489345500282,45.9659912895118],[14.0488443972398,45.965778012592],[14.0482387481916,45.9655441574014],[14.0476549032181,45.9654085560572],[14.0474924857329,45.9653091270198],[14.0474009377662,45.9651776267536],[14.0474040204753,45.9649977876413],[14.0476865073246,45.9649346385806],[14.0483426175872,45.9649563003924],[14.0488838271712,45.9648462650057],[14.0493552862423,45.9647028950482],[14.0496636349472,45.9644928431911],[14.0497604973369,45.9643137838602],[14.0500916122268,45.9641529578315],[14.0504203626756,45.9641228483645],[14.0509358474048,45.9641434166286],[14.0515957052463,45.9639525642575],[14.0519975497793,45.9637595679139],[14.0524237062403,45.9635177340627],[14.0526833870162,45.963421721723],[14.0530338090813,45.9634899497476],[14.0534770330116,45.9636243589843],[14.0536640489654,45.963658569673],[14.0539939064937,45.9635631354911],[14.0540890843,45.9634821339052],[14.0544174006272,45.9634847611217],[14.0545569021928,45.9635513289499],[14.0547229432447,45.9634381613223],[14.0549138513822,45.9632434996211],[14.055363191536,45.9630182224187],[14.0556952649687,45.9627919744653],[14.0558867237567,45.9625645638874],[14.0563614756752,45.9622250413931],[14.0565786282653,45.9618670146154],[14.0569377733968,45.9614284597935],[14.0569904263922,45.961085450403],[14.0572742683119,45.9609405892697],[14.0577677642512,45.9608791558299],[14.0582393140805,45.9607194639747],[14.0587126524421,45.9604616194996],[14.0589040907848,45.9602342036168],[14.0590252232309,45.9600062984764],[14.0591024461386,45.9595980767335],[14.0592712326911,45.9593214359707],[14.0596259139286,45.9591444902823],[14.0600040712697,45.9589676466247],[14.0603363783573,45.9587250110679],[14.0606652190433,45.9586949628335],[14.0610171320324,45.9586813891641],[14.0612031791463,45.9587646173131],[14.0615804996661,45.9586368892604],[14.0619354471026,45.9584434726942],[14.0623127653038,45.9583156522216],[14.0626423004113,45.9582365662648],[14.0630846800455,45.958419969164],[14.0636074075434,45.9587658982523],[14.0635871401438,45.9595171340397],[14.0637152927856,45.9597673317115],[14.0641508539191,45.9606554679526],[14.0648383773047,45.9621353766783],[14.0640662262649,45.9627773424739],[14.0632125136085,45.9633428734222],[14.0623767467337,45.9642355230532],[14.0615162214144,45.9652097525595],[14.0611183216816,45.9657357310195],[14.0609623234898,45.9660719543406],[14.0607487753034,45.966217402302],[14.0601121240828,45.966424874212],[14.0600133301072,45.9665368032394],[14.0599203934508,45.9666685753839],[14.0597756214979,45.9669126625999],[14.0595552594769,45.9671477596705],[14.0592621734755,45.9672731151229],[14.0594686355214,45.9673485960132],[14.059583568772,45.9675640479041],[14.0596480648501,45.967801578976],[14.0597130391175,45.9679880068081],[14.0599468554069,45.9681323646073],[14.0601053361187,45.9682298539732],[14.0604950942782,45.9683854806231],[14.0608812719843,45.9685087746524],[14.0611794001077,45.9685739385029],[14.061567464853,45.9687537514711],[14.0620267154247,45.9688291438974],[14.0625061743019,45.9689687641171],[14.0629333425066,45.969087438714],[14.0634426822599,45.9693454402335],[14.063528867777,45.9695221421726],[14.0635931019722,45.9697533703704],[14.063913341285,45.9699848963364],[14.0641987040419,45.9701191402635],[14.064599776461,45.9702173500057],[14.0648256126135,45.9703618123873],[14.0649283672451,45.9704667569703],[14.0651798317429,45.9705452950378],[14.0655721313225,45.9706206653359],[14.0661106076545,45.9707589533995],[14.066716216739,45.9710721631945],[14.0669397135379,45.9711182570949],[14.0672939085965,45.9710578945271],[14.0673950599267,45.9712817737578],[14.0674522744392,45.9714018204795],[14.0676562105147,45.9714832943721],[14.0685651028392,45.9715336253458],[14.0688150749828,45.9717094986404],[14.0689584247241,45.9717642931061],[14.0694265959202,45.9718099459341],[14.0697871606436,45.9717623143085],[14.0701933051141,45.9717823554152],[14.0709249393698,45.9717069665933],[14.0710599989539,45.971732898294],[14.0719464002168,45.9718013748961],[14.0721875542115,45.9718260073733],[14.0723986967732,45.9719323650266],[14.0724022025212,45.9721088389025],[14.0725008444552,45.9722138332286],[14.0730531326357,45.9721527210292],[14.0733214995032,45.972139691417],[14.0737248757906,45.9721866906979],[14.0741320594682,45.9721446419123],[14.0744995111675,45.9723031891244],[14.0747302573666,45.9725655418316],[14.0749300133517,45.9728059586783],[14.0751693310923,45.9729412420086],[14.0754471673864,45.9729874890691],[14.0757168236458,45.9730135143885],[14.0760168849834,45.9732597792834],[14.0761853202944,45.9734596308496],[14.0764249712913,45.9738857206538],[14.0766921257112,45.9741013954502],[14.0769248491728,45.9741448450152],[14.0773501674726,45.9741227262425],[14.0781182813318,45.9741677055053],[14.0783580650874,45.9743457250597],[14.0786199113644,45.9744074014874],[14.0789515993292,45.9744207826174],[14.079330952844,45.9741120684365],[14.0795309454157,45.9740437672038],[14.0800456958812,45.9739590147507],[14.0807434150551,45.9737583116712],[14.0812351768963,45.9736041764374],[14.0820115590168,45.9734765296955],[14.0826317414156,45.9735083232088],[14.0835249007244,45.9735608382235],[14.0838863180093,45.9735553682791],[14.0844652447812,45.9733656570575],[14.0852292969928,45.9731084124226],[14.0853899160647,45.9730795556792],[14.0866157177881,45.9730082903463],[14.0869209103114,45.9728981677536],[14.0871884081129,45.9727888229799],[14.0882035982106,45.9725841314127],[14.0886941855741,45.9725154330726],[14.0890117546617,45.9725551257233],[14.0895557512669,45.9723612412058],[14.0897511984224,45.972317179716],[14.0904885157311,45.972382165387],[14.0906988029376,45.9722986303978],[14.0909518831785,45.9720603146634],[14.0914070918183,45.9718425008594],[14.0917321283674,45.9718436450857],[14.0926469656005,45.9720768454524],[14.0935434604978,45.9723432745456],[14.0938603068945,45.9722296267633],[14.0941581805599,45.9721636056275],[14.0948234080298,45.9724478062659],[14.0949076956632,45.9726444443025],[14.0951375838089,45.9728624801366],[14.0953950551567,45.9730033534307],[14.0956750313971,45.9729984611667],[14.0960399890215,45.9730209637155],[14.0965804987659,45.9731117061571],[14.0968243075871,45.9730931185393],[14.09746976922,45.9728559094058],[14.0978079137622,45.9729243528607],[14.098365105206,45.9729494452034],[14.0986157759692,45.9730884580323],[14.098946724495,45.9731233698235],[14.0997328248088,45.972982362675],[14.099978178299,45.9729718784473],[14.1006341525107,45.9731605064825],[14.1011967100874,45.9732370042408],[14.1016382213446,45.9732419155884],[14.102295174084,45.9731389255891],[14.1027315336848,45.9729833628501],[14.1030367298724,45.972767114102],[14.1032685421367,45.972724034742],[14.1034357329174,45.9727590880355],[14.1040884553301,45.9727658267522],[14.1045538595657,45.9727132387472],[14.1052353105017,45.9726428156026],[14.1059648558296,45.9726147840346],[14.1064761153646,45.9725190879352],[14.1071530919502,45.972477860968],[14.1073087025283,45.9723262053389],[14.1074632274316,45.9720492927019],[14.1075925703787,45.9716288494474],[14.1076832797518,45.9712917831983],[14.1077132587484,45.9710883087882],[14.1077590432298,45.9708005591042],[14.1079415382479,45.9704608800492],[14.1080232726813,45.9701923060809],[14.1080568467821,45.9697808321558],[14.1080538517897,45.9691635646615],[14.1080291969379,45.9688426032056],[14.1082716930026,45.9683737345528],[14.1083475608326,45.9682211851923],[14.108386197881,45.9680729341399],[14.1082711514758,45.9678285578808],[14.1081521320296,45.9677111984424],[14.108095191962,45.9675366479619],[14.1077876182354,45.9674057593825],[14.1073875742717,45.9671838104975],[14.1075486454295,45.9667233049348],[14.1076510396477,45.966373192996],[14.1081806622792,45.9663354880083],[14.1084753827943,45.9660608374518],[14.108941494871,45.9658557254908],[14.1093404041156,45.9656249841884],[14.1096474972439,45.9653828188529],[14.1098800021238,45.9654392463748],[14.1101596874017,45.9654500623983],[14.1109114491943,45.965511249815],[14.1116710054917,45.9656176614969],[14.1120711393919,45.9656647701862],[14.1126896842765,45.9659644303642],[14.1132120953619,45.9662811567184],[14.1137163598624,45.9667166899377],[14.1140365383856,45.9670206866613],[14.1144303547368,45.9674083021956],[14.1145947100371,45.967620752462],[14.1151950004669,45.967950759826],[14.1158079097563,45.9679341791469],[14.1162936106958,45.9678921377115],[14.1168877147717,45.9677840788617],[14.117366132441,45.9676480402847],[14.1180067155538,45.9675298072517],[14.118707787037,45.9674131168549],[14.1190325391577,45.9674224591495],[14.1186894571731,45.9669335764194],[14.1184059305973,45.9665055268569],[14.118158697303,45.9659778818037],[14.1180195539358,45.9655908952275],[14.1178922150118,45.9653870134721],[14.117804513604,45.964897039707],[14.1178264479321,45.9645556550448],[14.1181466025725,45.9643983263344],[14.1182237185437,45.9640837307512],[14.1181900450944,45.9640023113416],[14.1178128238088,45.9639833839053],[14.1174376491214,45.963843721419],[14.1170758927079,45.963728545235],[14.1171661552447,45.9633257841066],[14.117263353536,45.9628842962096],[14.1172633841427,45.9624030974454],[14.1173818383897,45.9620772145563],[14.1174859464681,45.9618097060384],[14.1176276166491,45.961402842542],[14.1177206024154,45.9612344029906],[14.1180859666577,45.9608935995817],[14.1183037689421,45.9606643982445],[14.1184366994404,45.9604338219596],[14.118327724113,45.9603742259783],[14.1184797939413,45.9600593984842],[14.1188447698899,45.9598236832149],[14.1193558979254,45.9593935722315],[14.1198668209915,45.9589270164959],[14.119658079384,45.9588700724743],[14.1194867183169,45.9587989297365],[14.1193434322893,45.9584784956754],[14.1192884701618,45.9581774574695],[14.1193349713742,45.9580190956342],[14.1194315245656,45.957893511355],[14.1193787555372,45.9577716351643],[14.1192734004682,45.957679226185],[14.1192672445539,45.9575792137927],[14.1193938701474,45.957477165466],[14.1193634071006,45.9572095177151],[14.1193036854373,45.9570623942069],[14.1197214249401,45.9565971002573],[14.1201903689577,45.9561320190326],[14.1203241444657,45.9559120642294],[14.1203125621365,45.955421147914],[14.1202610363272,45.9552614911051],[14.1205283986255,45.9549962259643],[14.1205278172154,45.9541441345932],[14.1205141703754,45.9533758915652],[14.1204719287911,45.9530126871219],[14.1205050284952,45.9526245988812],[14.120443811943,45.9521072967794],[14.1202894056849,45.9516751158103],[14.1201694666584,45.9514126277013],[14.1192059877007,45.9509255351607],[14.1184751393902,45.9505741158503],[14.1176241718863,45.9501356558544],[14.1169272527551,45.9497527264857],[14.1163552048069,45.9493210908772],[14.1160092654544,45.9490770954128],[14.115051991329,45.9495584443693],[14.1144172534298,45.9498244495837],[14.1135837074493,45.9491131024369],[14.1132860506598,45.9488431097962],[14.1130792918237,45.9486889032434],[14.1124393352049,45.9481505472726],[14.1119636544131,45.9477211675998],[14.1118968990415,45.947305582084],[14.1117104118113,45.9466903952416],[14.1116134788185,45.9462989588359],[14.1115395246544,45.9455511195931],[14.1114325538192,45.9448840033655],[14.111336828749,45.9443123507389],[14.1112215013345,45.9433048736139],[14.1111466603668,45.9426856949258],[14.1110771624271,45.9420954405266],[14.1109898934054,45.9413986941212],[14.1108478760462,45.9406981024259],[14.1108171803681,45.9403512693952],[14.1108307153408,45.9400531885293],[14.110779502475,45.9397312995875],[14.1108010067492,45.939596230389],[14.1107089671428,45.939303176479],[14.1106773722721,45.9389481483543],[14.1105998756933,45.9383586408314],[14.1105677635783,45.9380440985845],[14.1108189217441,45.9372573081078],[14.111115442362,45.9365446516298],[14.1111988427078,45.9361675736056],[14.1111692528385,45.9359855883163],[14.1095809084627,45.9355323315057],[14.1087242495133,45.9352665169873],[14.1084161350051,45.935180344042],[14.1069339173965,45.9351076746803],[14.1056842509221,45.9350566014535],[14.1053786251536,45.9350165084276],[14.1045723022312,45.9343331098428],[14.1041832653363,45.933963580997],[14.1027082320114,45.9336477030232],[14.1029802175062,45.9326944537109],[14.1030704267954,45.9323699818642],[14.1031473606252,45.9322210425129],[14.1031993449845,45.9319719419033],[14.1024823928274,45.9319797196672],[14.1013557709379,45.9320193633067],[14.1005720284056,45.932090578069],[14.0996021911068,45.9317565905967],[14.0988673192725,45.931525403214],[14.0982769389179,45.9308765043733],[14.0979412914912,45.9305026964654],[14.0983116591908,45.9297525046355],[14.0987778495824,45.9289049913664],[14.0992227141447,45.9281075156516],[14.0994613946107,45.9275490143764],[14.0996214654882,45.9271629207533],[14.0998786341542,45.9271109600443],[14.100154729065,45.9264546759839],[14.1004293240588,45.9258189843296],[14.1007134683168,45.9250627066477],[14.1007763726033,45.924832228233],[14.1009957323545,45.9243505025818],[14.1012101758096,45.9237658029856],[14.1013856065633,45.9232094991209],[14.101721196057,45.9224753078619],[14.1019158734131,45.9219001690007],[14.1019793685417,45.9217124340053],[14.1019102956176,45.9209434788233],[14.1019101216716,45.9203470130631],[14.101840456438,45.9196788284191],[14.1017811307082,45.9190570636312],[14.1017443478035,45.9183645732367],[14.1017011691369,45.9176929973615],[14.1016565424041,45.9167836878868],[14.1016079771306,45.9158868542439],[14.1015263765287,45.9152558259957],[14.1014796728196,45.9144515042181],[14.1014284682258,45.9138063182493],[14.1013748848677,45.9132047528814],[14.1013144278749,45.9124780637237],[14.1012929785883,45.9118104369894],[14.1012455379161,45.9111559225164],[14.1012376706418,45.9107649054242],[14.1011795552534,45.9103725033067],[14.1011628888914,45.9102790648208],[14.1016807131473,45.9097413781688],[14.1019429421316,45.9094904206881],[14.1022761380725,45.9091867530595],[14.102889385388,45.9085492148276],[14.103436995452,45.9079527281976],[14.1036976369109,45.9076872676683],[14.1040537616551,45.9072550157609],[14.1049324293003,45.9071178467007],[14.1059867076062,45.9069605401787],[14.1064863060411,45.9069996293928],[14.1071106537603,45.9070478793098],[14.1078727723016,45.90662238634],[14.1085242116219,45.906258289778],[14.1090716371059,45.9059581628873],[14.1093206857167,45.9060203898588],[14.109670360535,45.905859174565],[14.1098781592889,45.9057443616115],[14.111368803567,45.9049655947309],[14.1122362661356,45.9044930232802],[14.1132568785331,45.9035316120535],[14.1141577243143,45.9027080096913],[14.1149772445043,45.9019234506988],[14.1158235315622,45.9011318046097],[14.1168294018926,45.9001250777701],[14.1178261125227,45.8991166515907],[14.1189183131465,45.8981142616262],[14.119965168038,45.897108362594],[14.1209160858315,45.8961855756443],[14.1213595307263,45.8942971002499],[14.1218410309236,45.89246119249],[14.1222203232047,45.8908785062766],[14.1225985412354,45.8894526426644],[14.1227562711376,45.8883384801054],[14.1229190121226,45.8871019847735],[14.1230999552946,45.8854042185862],[14.1232889596525,45.8836273323142],[14.1235345798456,45.8815427926852],[14.1237413306006,45.8795858133834],[14.1240502008701,45.8785483882159],[14.1218531533752,45.8788876599435],[14.121265960021,45.878953329039],[14.1190894457927,45.8793199690509],[14.1171985282603,45.8796450448459],[14.1151909828156,45.8799873619627],[14.1131523248063,45.8803321916575],[14.1114718837316,45.8806064384774],[14.1097913972263,45.8808905578707],[14.10809383275,45.88117811838],[14.1063842980893,45.8814799566265],[14.1062469856377,45.8813018047099],[14.1048921249378,45.8815146160832],[14.1036085675073,45.8816910795396],[14.1004292966782,45.8821505389931],[14.098189870573,45.8824955003863],[14.0965287235831,45.8827471849856],[14.094638161349,45.8830350888487],[14.0930402027037,45.8832574404463],[14.0914489894248,45.8835078066751],[14.0896142243039,45.8837760957849],[14.087789828571,45.8840552356409],[14.0853994334757,45.8843967613981],[14.0859146858768,45.885832623885],[14.0854108991209,45.8859120027255],[14.0840573319446,45.8860971338187],[14.0821542000294,45.8864333186807],[14.0815933492911,45.8863548497585],[14.0812219576846,45.8862650347188],[14.08095484646,45.8864927818673],[14.0807536939627,45.8867209690599],[14.0804886005388,45.8868261805212],[14.0800509537425,45.8867614723822],[14.0795698847306,45.886665730099],[14.0792647846469,45.8865408111655],[14.0790689418843,45.8864472747883],[14.0787844789174,45.8863990926662],[14.0785634420284,45.8865046548517],[14.0785167257879,45.8866728079914],[14.0784689960838,45.886902228342],[14.0784231683303,45.8870244095482],[14.0780242554958,45.8872663830744],[14.0778244795195,45.8874027080784],[14.0777278728501,45.8879382005896],[14.0777853384837,45.8884442538973],[14.0777812825305,45.8886893227255],[14.0776221367423,45.8890250977767],[14.0774195634187,45.8893299292543],[14.0773043443699,45.889666148468],[14.0771874752588,45.8900941323164],[14.0772273477742,45.8903396458001],[14.0773774938178,45.8905399807139],[14.0778542831983,45.8908960954323],[14.0778732723308,45.8910800747753],[14.0776289164273,45.8912620185967],[14.0774059548473,45.8914747273262],[14.0773144110944,45.8917037932369],[14.0773462929078,45.8924241485667],[14.0773198234846,45.8926997188907],[14.077030762183,45.8929272793869],[14.0764993623766,45.8932141561284],[14.0761443318183,45.8934564775129],[14.0758124715244,45.893622413514],[14.0755035307712,45.8937271686723],[14.0753936300406,45.8937416657464],[14.0749997418515,45.8936772924348],[14.0746943600377,45.8935676555185],[14.0742359091238,45.8934260950664],[14.0737318698656,45.8933915075464],[14.0733581056343,45.8934345460437],[14.0730961546602,45.8933558497313],[14.0727449328184,45.8933683864223],[14.0722392366369,45.8934256468956],[14.0718239624492,45.8933304063231],[14.0713217132998,45.8931885683605],[14.0709072076503,45.89304744167],[14.0706681869913,45.8929076508805],[14.0703870222282,45.8926602623657],[14.0699536898133,45.8923350629884],[14.0694300627138,45.8921624499828],[14.0687961570181,45.8920195285893],[14.0680711854449,45.8920749834083],[14.0676527225597,45.8921636176931],[14.0665523189713,45.8923693222459],[14.0662451639786,45.8923669025936],[14.0659377526157,45.8923797763643],[14.065193183598,45.8922972056574],[14.0641437780305,45.8920743767093],[14.0631591871492,45.8919133449025],[14.0628522937279,45.8918955319465],[14.0624762124754,45.8920763629208],[14.0620552920735,45.8923180999553],[14.0617687511398,45.8923924091827],[14.0613537607971,45.8922818365078],[14.0612247960697,45.8921276336107],[14.0611842168424,45.8919281777746],[14.0614103395117,45.891531610576],[14.0614828842787,45.8911338715571],[14.0612719912153,45.8906266398187],[14.060883952693,45.8902251162842],[14.0600361130481,45.8897587144406],[14.0590796860367,45.8892301367388],[14.0577697499614,45.888851959902],[14.0573534988547,45.8888179339708],[14.0567343028459,45.8891040846532],[14.0562917380872,45.8893303255423],[14.0560700005486,45.8894664311008],[14.0558877823564,45.8898632606785],[14.0558102661017,45.8905521257106],[14.0559322046608,45.8911199080121],[14.0559288296614,45.8913190925777],[14.0556357945468,45.891776371331],[14.0556318999403,45.8920061442655],[14.0559041700518,45.8927743812191],[14.0559869787761,45.8930661458281],[14.0559807500297,45.8934337464863],[14.0558871689565,45.8937700327157],[14.0559238352006,45.8941993530632],[14.055633901718,45.8944727412231],[14.0553225804812,45.8947153591348],[14.0550102157458,45.8950193328733],[14.0547896221285,45.8950940799745],[14.0544821935522,45.8951069227804],[14.0539595011746,45.8948729713365],[14.0535450295809,45.8947316919812],[14.0532611977141,45.8946527689536],[14.0530206521934,45.8946048866291],[14.0523893668971,45.8943087526009],[14.0521722913065,45.8941691051175],[14.0519106278775,45.8940750662694],[14.0514919936087,45.8941789362682],[14.0511803956976,45.8944368369568],[14.0507807897678,45.8947093920335],[14.0499841789308,45.8951012862575],[14.0493869095417,45.8953874891834],[14.0489457043857,45.8955218447116],[14.0486163684967,45.89553448939],[14.0483973335069,45.8955173691143],[14.0479836556721,45.8953301871866],[14.0478981400012,45.8951915376706],[14.0476606063796,45.8949751394847],[14.0474870858692,45.8948511424553],[14.0473134318933,45.8947425303658],[14.0470473189954,45.8949089309737],[14.0466859932343,45.8955034639839],[14.0465502455344,45.8957475226593],[14.046194679172,45.8960050428024],[14.0458408116786,45.8961707080136],[14.0454456302698,45.8961827936918],[14.044789576397,45.8960548504951],[14.0441778583884,45.89589668173],[14.0432374614932,45.8957204616999],[14.0430188242092,45.8956727417644],[14.04218808275,45.8954974314182],[14.0416633329337,45.8953858671619],[14.0412901874763,45.8953982132583],[14.0409795905856,45.8955948191594],[14.0407659788424,45.8965276323788],[14.0406616134213,45.8974919549854],[14.0405238584591,45.8978432438733],[14.040388741134,45.8980413214611],[14.0401905481985,45.8980856358064],[14.0401480578438,45.8980087072386],[14.0402843676936,45.8977339783237],[14.0403304168818,45.8976118144561],[14.0402447807336,45.8974885445591],[14.0399782413009,45.8976702213907],[14.0396888680588,45.8979129810086],[14.0393558175413,45.8981400763554],[14.03909125088,45.8982145133996],[14.0387845954404,45.8981813414911],[14.0386325892045,45.898088194702],[14.0383685514655,45.898131951879],[14.0381454117474,45.8983446723006],[14.0377473027731,45.8985252363021],[14.0369526652299,45.8987945054826],[14.0363563500056,45.8990193728946],[14.0360473051392,45.8991241104086],[14.0355638204077,45.8991660995735],[14.0353883211026,45.8991646181532],[14.0353240674636,45.899072207745],[14.0356104123025,45.8990132595725],[14.0357650681266,45.8989531994808],[14.0355472208266,45.8988594929688],[14.0352178627801,45.8988720988396],[14.0346903028732,45.8989290984643],[14.0341813328156,45.8991699887177],[14.0339201904568,45.900316895378],[14.0337839808256,45.9005762311383],[14.0336480352601,45.9008202726318],[14.0336421881195,45.9011572822322],[14.0335700902465,45.9015244141228],[14.0329945747262,45.9018107150981],[14.0316419833164,45.9026115850424],[14.030552752151,45.9034145836153],[14.029729699247,45.9040512128317],[14.0289329368704,45.9044429584927],[14.0277841967778,45.9048777732433],[14.0268518292304,45.9054828588137],[14.0265152008656,45.9059090080368],[14.0262652551553,45.9063972601683],[14.0261462109666,45.9069324263894],[14.0260898023341,45.9076520419505],[14.0260860511593,45.9078665182275],[14.0259058399546,45.9081254692419],[14.0257062587361,45.9082464080712],[14.0254651440033,45.9082290556197],[14.0250725546157,45.9080879499067],[14.0247009331946,45.9080082070495],[14.0243259619481,45.9081123500033],[14.0239706110236,45.9083545060541],[14.0237700899714,45.9085214123735],[14.0231586959134,45.9083477479171],[14.0227661116697,45.9082066343225],[14.022528224538,45.9080054776285],[14.0223783721342,45.9077896873786],[14.021878975692,45.907969509174],[14.0207499032951,45.908040909061],[14.0196647279361,45.9081299502444],[14.0192724505867,45.9080598201407],[14.0188521784623,45.9081374626055],[14.0183664396171,45.9083459994107],[14.0178013115201,45.9088972088926],[14.0172051223227,45.9092212231697],[14.0162122534018,45.9097673052691],[14.0161495275467,45.909735452764],[14.016075407845,45.9096918949167],[14.0141251099001,45.9099148765703],[14.0121776306081,45.9101379392744],[14.010448293906,45.9103212881735],[14.0091461499963,45.9106332059382],[14.0080407110886,45.9109079460495],[14.0069109505047,45.9111942512292],[14.0055660936295,45.9107992476572],[14.0048105932216,45.9105911188281],[14.0043440367236,45.9105733777143],[14.0037640630569,45.9107421606149],[14.0030563095746,45.9110209489359],[14.0028255357002,45.9113255811469],[14.0022914765948,45.9116217165525],[14.0010912824,45.9119013206121],[14.0005062264553,45.9118205328331],[13.9995607208613,45.911440738232],[13.9991496464457,45.9119287795432],[13.9990308886207,45.9123252631778],[13.9988987474947,45.9125053217202],[13.9988197790271,45.9127821227257],[13.9988261191266,45.913010183127],[13.9987302812253,45.913271629918],[13.9996026511618,45.9142292609512],[14.0006778023334,45.9154252114571],[14.0002104444799,45.9154786192416],[14.0002150454773,45.9155813246188],[13.9998025822382,45.9164322378113],[13.9996512262812,45.9169637636185],[13.9997490946367,45.9173284021139],[13.9996037073981,45.9177715314955],[13.9981476998853,45.918424973174],[13.9961680543672,45.9193178179809],[13.9939502724643,45.9203008495305],[13.9923786750378,45.9209937798409],[13.990765078082,45.9217468727917],[13.9902513481097,45.9219295786563],[13.9882908602696,45.9227475940807],[13.987315609401,45.9231396275377],[13.9862950433491,45.9236050326778],[13.9864827560561,45.9240019715025],[13.9873003141501,45.9240439516613],[13.9860896707068,45.925458468342],[13.986093531319,45.9253810314926],[13.9846888500063,45.9250743306477],[13.984066949202,45.9251480737557],[13.983850523967,45.9246438018002],[13.9815624027541,45.9256070712767],[13.9798222039378,45.9265761777539],[13.9783217892526,45.9274037968602],[13.9769337259352,45.928121369262],[13.9752046410455,45.929045425597],[13.9735055661268,45.929947230741],[13.9706412151253,45.9300438336115],[13.968229043594,45.9301345509286],[13.9668409337062,45.9301703267761],[13.9669192288381,45.9304050674347]]]},"properties":{"fill-opacity":0,"stroke-opacity":1,"stroke":"#ff0000","lov":"1220","lov_naziv":"JAVORNIK ČRNI VRH","luo":"12","luo_naziv":"Zahodno visoko Kraško","povrsina":8287.22},"id":"pregledovalniklovisca.1"}]}