{"type":"FeatureCollection","features":[{"type":"Feature","geometry":{"type":"Polygon","coordinates":[[[13.9186896962397,45.9584878463924],[13.9194465129662,45.9582203038257],[13.9196080208998,45.9581413009912],[13.9202541735406,45.9571546852732],[13.9203814710029,45.9563925177954],[13.9206240069816,45.956126495687],[13.9206381539267,45.9559825751059],[13.9204760998508,45.9553527303277],[13.9210219007093,45.9544826725795],[13.9217815812311,45.9538911318344],[13.9223881231341,45.9528803755115],[13.9226023668897,45.9524754266152],[13.9233923475561,45.9516491388935],[13.9241393471578,45.9510429763337],[13.9246049080557,45.9507349560719],[13.9248576203777,45.9504673109397],[13.9251510447697,45.9499218370463],[13.9258115836546,45.9493688367344],[13.9261923303471,45.9492100954778],[13.9263422436142,45.9490082444184],[13.927367746489,45.9487318360813],[13.9276247278127,45.9487365874802],[13.9283095494876,45.9487286158222],[13.9285699022203,45.9485383249497],[13.9288295809665,45.9487244040994],[13.9295852751391,45.9490015087988],[13.929959589315,45.9482379542605],[13.9302036528589,45.9477675863022],[13.9307120189455,45.9470078934366],[13.9312982977654,45.9465155311],[13.9319130517251,45.9460107450172],[13.9324579958451,45.9455674780747],[13.9329616365637,45.9451387591351],[13.9334128269897,45.9446669888834],[13.9342076530782,45.944186005524],[13.934667351059,45.9438818483023],[13.9353189789604,45.9436979784565],[13.935712833707,45.943336067583],[13.9368203926557,45.9433403494479],[13.9380064810678,45.9433725237475],[13.9384829924554,45.9429833883813],[13.9391619271093,45.9427663684942],[13.9395348891171,45.9428221074964],[13.9398233508519,45.9429128724957],[13.9403647624416,45.942866697031],[13.9407024208176,45.9427581652317],[13.9413023943944,45.9424133519024],[13.9419733130501,45.9420404893896],[13.9428716310729,45.9417948860657],[13.9437359801182,45.941653335977],[13.9446426888082,45.9413862015963],[13.9451689692668,45.9412460167178],[13.9456585930866,45.9410596024872],[13.9461246179613,45.9407775919816],[13.9464835043553,45.9406160619379],[13.9472585024661,45.9408942178581],[13.9479428115075,45.9411535380026],[13.9484933281629,45.9416955030294],[13.948693169121,45.94188998436],[13.9489023039478,45.9416132469178],[13.9490706350678,45.9408953323406],[13.9485498293533,45.9400029996849],[13.9481900661854,45.939249813138],[13.9479564655555,45.9387066256585],[13.948027509203,45.9385506282233],[13.9492474102782,45.9378937665335],[13.9496636598665,45.9377047707807],[13.9506266180163,45.9373768308545],[13.9511702196608,45.9370606905696],[13.9514134038053,45.9363442688415],[13.9518826119088,45.9357390631666],[13.9520194904295,45.934688836456],[13.9521119024583,45.934575052058],[13.952288320244,45.9341775275872],[13.9528249907346,45.9336862186248],[13.9534856057816,45.9331246897922],[13.9539268873573,45.9326921573132],[13.9540984537903,45.9325448142684],[13.95449511184,45.931899433088],[13.9550079404962,45.9314326395033],[13.9551647745801,45.9313827862187],[13.9562022074206,45.9314214204739],[13.9577583373538,45.9314633379325],[13.9584615812464,45.931837310199],[13.9590720870357,45.9325025018355],[13.9597130285409,45.9327752134113],[13.9607932348201,45.9328726810275],[13.9617422392536,45.9333535121628],[13.9625451346931,45.9336695189779],[13.9632951356445,45.9339734330942],[13.9640432758825,45.9343084577639],[13.9647067409638,45.9346275040924],[13.9653172781195,45.9351510370154],[13.9656344226434,45.9354331997576],[13.9663392037501,45.9360283928221],[13.9673810968097,45.9354775205218],[13.967254048165,45.9342632899274],[13.9671605123963,45.9333904682745],[13.9670738815859,45.9325626078351],[13.9670158307229,45.931535974297],[13.9669677551141,45.9308333514986],[13.9669192288381,45.9304050674347],[13.9668409337062,45.9301703267761],[13.9659696332582,45.929019634795],[13.9650356300858,45.9278035838281],[13.9643809101641,45.9267348311828],[13.9637756057329,45.9259356471155],[13.9632641723213,45.9252407862424],[13.9624963112252,45.9242413585792],[13.9616738464287,45.9231640482283],[13.9608451031352,45.9221208663323],[13.9600271807517,45.9210452945981],[13.9592531468277,45.9200304918918],[13.9583344111988,45.9188272100996],[13.9575578833263,45.9178042747179],[13.9566516897621,45.9166234978947],[13.9561485346027,45.9159500943778],[13.9556103747054,45.9152398374557],[13.955661457854,45.9139529855712],[13.9554737626877,45.9138433860145],[13.9552645575602,45.9135268194341],[13.9548135408151,45.913298828906],[13.9544181051195,45.9132894525235],[13.9537680992804,45.9133682622855],[13.9533606287893,45.913375058115],[13.9529390877307,45.912354801496],[13.9526335320688,45.9115902449225],[13.9522632049483,45.9107199088852],[13.952020895889,45.9097667959367],[13.9511842243012,45.9088633849784],[13.9508022008897,45.9084380593107],[13.9508767649622,45.9081610707737],[13.9508891821809,45.90791248462],[13.9508034732792,45.9074538877711],[13.9505320492323,45.907302211037],[13.949689980938,45.906845301827],[13.949362979078,45.9068319480386],[13.9492385076349,45.9065840827713],[13.949491643082,45.9064886938024],[13.9493769378193,45.9060101239095],[13.9491674486645,45.9058417375003],[13.9493237378824,45.9054961280777],[13.9494021639324,45.9054245065701],[13.9501578641796,45.9052655322417],[13.9502372650265,45.9053472422988],[13.9506297293566,45.9051077256692],[13.950527370778,45.9045959782024],[13.9506588697497,45.904395724257],[13.9507312664456,45.9043155884838],[13.9507209697682,45.9041096233276],[13.9507565621263,45.9039990967636],[13.9512560648366,45.9038855408059],[13.9518780516594,45.9037695071267],[13.9517050442337,45.9035939017568],[13.9514739077116,45.9027955618982],[13.9512780466116,45.9027798177639],[13.9510080558708,45.9028953011482],[13.9508256511878,45.9029998909564],[13.9507150750934,45.903115937514],[13.9501378715805,45.9029691894553],[13.949820379228,45.9030815342164],[13.9494317461868,45.9031048652097],[13.9493141611372,45.9030389095873],[13.9479480456186,45.9032622629446],[13.9470814969785,45.9036000681647],[13.9468952025338,45.9033100604565],[13.9469064078463,45.9031264277791],[13.9467226320974,45.9024716703936],[13.9477254548094,45.9020827554504],[13.9469711858846,45.9015272080835],[13.9468233895302,45.9006942649801],[13.9464961537666,45.9002795968166],[13.9463188779086,45.9001743969621],[13.9458857681553,45.8996955857373],[13.9449675022696,45.8987177723858],[13.9442916705088,45.8980596358615],[13.9439754824461,45.897804954168],[13.9445502348228,45.8965879064387],[13.9436580230335,45.8968155851886],[13.9432492102212,45.8971440057309],[13.9429428958148,45.8975579528804],[13.9423888898314,45.8979175092502],[13.9419133088349,45.8980693989436],[13.9413887769684,45.8981861914195],[13.9403692713178,45.8981595554745],[13.9396748293355,45.8980490081712],[13.9391004289893,45.8981653273629],[13.9389273459199,45.8981117126067],[13.9388056540273,45.897971655644],[13.9383582382041,45.8979502235634],[13.9376870148903,45.8979267091683],[13.936321690277,45.8977753504252],[13.9356209578861,45.897994671141],[13.9348407673583,45.8984736446819],[13.934136828579,45.8988664949264],[13.9333637956651,45.8989636563265],[13.9325579097639,45.8994771060461],[13.932377638026,45.8998053729362],[13.9318484106383,45.90016510962],[13.9312481064503,45.9003331547139],[13.9302727649663,45.9006020611833],[13.9300921442599,45.9009475970141],[13.9298181229872,45.900962486673],[13.9293708161082,45.9009410204349],[13.9292942087002,45.9010444077001],[13.9289393667767,45.9013883989708],[13.9283420458625,45.9014002541088],[13.9278141126783,45.9016906107673],[13.9278060923036,45.9021072257804],[13.927990937382,45.9028555114025],[13.9274075659037,45.9034404752807],[13.9262822638346,45.9037425814816],[13.9258309175404,45.9039294535076],[13.9254242850087,45.9043771418452],[13.925090918641,45.9048948913348],[13.9246869551595,45.9052036754151],[13.9240040404779,45.9057876848773],[13.9234985662974,45.9061997037487],[13.9229344052032,45.9070799546109],[13.922729386967,45.9073906067994],[13.9218922796446,45.9082336370109],[13.9216348186442,45.9086826289751],[13.9208161188293,45.909265697426],[13.9194986490989,45.9097914072096],[13.9186958487949,45.9101312193001],[13.9180649184925,45.9105941240318],[13.9177388690778,45.9107299628226],[13.9172884505769,45.9108647122538],[13.9168126917991,45.9110164955304],[13.9162614238572,45.9112197481078],[13.9159309715422,45.9115812955988],[13.9153786818428,45.91183654168],[13.9151490683103,45.9121295807622],[13.9149153933107,45.9126308805993],[13.9144085641764,45.9131123092289],[13.9141540659281,45.9134051098265],[13.9141699274524,45.9138740474926],[13.9139036992877,45.9147744493725],[13.9136226232395,45.9151537351379],[13.9129812139649,45.9161547618058],[13.9122900277575,45.9171554008635],[13.9119379028062,45.9173430721559],[13.9116921962023,45.917184529948],[13.9113206263025,45.9170941613081],[13.9112180663068,45.9172494763087],[13.910681529599,45.9179737261877],[13.9104229125367,45.9184747785909],[13.9101896345445,45.9189587962286],[13.9097868461952,45.9191980750107],[13.9093341716633,45.9194368762053],[13.9089001612181,45.9200058039137],[13.9080356027872,45.9209526636237],[13.9076005464559,45.921573583658],[13.9071455855647,45.9219339147624],[13.9065639867303,45.9221249530325],[13.9059676560788,45.9223568773348],[13.905612533059,45.9227007923703],[13.9053054550121,45.9231319955094],[13.9046940182841,45.923855499028],[13.9041425809024,45.9240586011769],[13.9035934033371,45.9241402518443],[13.9028664348501,45.9244112165188],[13.9027089457571,45.9248263930214],[13.9023026579712,45.9252392694129],[13.9021449468251,45.9256718987068],[13.9017431032858,45.9258590606476],[13.901489850385,45.9260823813316],[13.9012815576337,45.9265491646619],[13.9009045831871,45.9267366527359],[13.9009649532814,45.9274664159764],[13.900503168391,45.9281739701197],[13.8996417723636,45.9289471378902],[13.8988668921617,45.9291134209344],[13.8981813501954,45.929801353287],[13.8975201120115,45.930524337459],[13.8977879660512,45.9308220495313],[13.8978057556111,45.9311868121835],[13.8971313999064,45.9313019557327],[13.8962075291595,45.9314495067847],[13.8950467426643,45.9322544785906],[13.8933260656912,45.9336791845473],[13.8926274789161,45.9337593352887],[13.8920230192449,45.9341182465928],[13.8917211772982,45.9342716111799],[13.89091348579,45.9348368443014],[13.8904043845938,45.9354049715654],[13.8890543517074,45.9363467902198],[13.887302685538,45.9374240583487],[13.8853626830871,45.9385775633013],[13.8846835122658,45.9389270688415],[13.8843511665641,45.9393579679845],[13.8832374641108,45.9402675630278],[13.8826082069682,45.940608816104],[13.8817908322722,45.9410177778642],[13.8806873152401,45.9414239311658],[13.8792569757981,45.9419832503229],[13.8779924588867,45.9429521396521],[13.8769612601109,45.9434717992141],[13.8763194202369,45.9438128938432],[13.8753806740714,45.9440643244001],[13.8748421854558,45.9442241326863],[13.8744009633724,45.9444976388772],[13.8739847997701,45.944762752415],[13.8736469879567,45.944846341641],[13.873259399121,45.9449294390461],[13.8728792638312,45.945255638851],[13.8726988864494,45.9455578046665],[13.8726320253829,45.9457828994531],[13.8723905922801,45.9460236373361],[13.8719403554007,45.9461234777381],[13.8711731787815,45.9462183862428],[13.8715010441617,45.9464284837665],[13.8715570070671,45.9465945056863],[13.871215031789,45.9470794376997],[13.8705786069921,45.9478169057124],[13.8699319787954,45.9479004903963],[13.8691472405052,45.9484325937595],[13.8693795538514,45.9496945818484],[13.8697245120387,45.9517675733427],[13.8693193092222,45.9526633421058],[13.8693045258436,45.9533902159723],[13.8692955238052,45.9538328173388],[13.8701910320484,45.9547155386963],[13.8705618854876,45.9553327628558],[13.8719602963064,45.9560186197587],[13.8726106671037,45.9557550152102],[13.8728303154454,45.957646803382],[13.8733117300889,45.9593611265703],[13.8739566647109,45.9593674837917],[13.8782787849535,45.9585267731097],[13.8783603814595,45.9585109282085],[13.8793977057296,45.9582510827355],[13.8799155859672,45.9581661826158],[13.8828948857133,45.9575655038413],[13.8871675455618,45.9567973050356],[13.8874797408562,45.956739340135],[13.8875442256668,45.956727371067],[13.8901683042229,45.9562384851282],[13.8922178135279,45.9558565322424],[13.8953258403875,45.9552567770782],[13.8954740172242,45.9552267172677],[13.8982701855889,45.9546590483923],[13.9016725811663,45.9539682015577],[13.9021902602522,45.9538831985117],[13.9068677078818,45.954281382588],[13.9069554118146,45.9542887899284],[13.9078529444299,45.954567394814],[13.9078511770623,45.9546573556017],[13.9084907656316,45.9549333998337],[13.9091462500431,45.95439970316],[13.9122934809211,45.9583889008868],[13.9152516592473,45.9586680583347],[13.9172963602326,45.9588267354516],[13.9179559627806,45.9589278196569],[13.9186896962397,45.9584878463924]]]},"properties":{"fill-opacity":0,"stroke-opacity":1,"stroke":"#ff0000","lov":"1214","lov_naziv":"KOZJE STENA","luo":"12","luo_naziv":"Zahodno visoko Kraško","povrsina":2487.93},"id":"pregledovalniklovisca.1"}]}