{"type":"FeatureCollection","features":[{"type":"Feature","geometry":{"type":"Polygon","coordinates":[[[13.6222633278302,46.1234271162753],[13.6222635794873,46.1234274024295],[13.6223868917441,46.1235676178762],[13.6225500624345,46.1236713468629],[13.6227378558665,46.1237787914096],[13.6230191918865,46.1238295984714],[13.6234361241918,46.1239432214567],[13.6238178508516,46.1240936688383],[13.6241630252649,46.1243454371576],[13.6243188383561,46.1245474181973],[13.624365678155,46.1248125998002],[13.6243666666422,46.1249652100583],[13.6243701301549,46.1252367076645],[13.6245012826423,46.1254418106586],[13.6247209548615,46.1256309733695],[13.6248300775829,46.1257646403063],[13.6249372507701,46.125955867956],[13.6250367529795,46.1260861798216],[13.6250731478661,46.1261212582114],[13.625285162229,46.1262959316168],[13.6253180678689,46.1265336825863],[13.6252745320325,46.1267231870087],[13.6252686326137,46.1268087553875],[13.6252593466018,46.1269434441221],[13.6252484129547,46.1269942984893],[13.6252368103215,46.1270482643226],[13.6253904678495,46.1271552938112],[13.6256400659583,46.1273278992471],[13.6257692747916,46.1274346342125],[13.626065483297,46.1276688024784],[13.6261288147601,46.1278696691051],[13.6261864296358,46.1281078967386],[13.6263319290855,46.1283402525732],[13.6264144148951,46.1285515164572],[13.6265038410489,46.1286814359554],[13.6265061491289,46.1287968121404],[13.6266157371288,46.1288965621637],[13.6268285911918,46.1289703802971],[13.6270435154079,46.128966124269],[13.6272925404182,46.128948781115],[13.6276388578091,46.1289427729509],[13.6278092125911,46.1289719010097],[13.6281542278354,46.1290235498688],[13.6284609776081,46.1290475659158],[13.628639772265,46.1291277200833],[13.6288017923663,46.1292789332136],[13.6289092001217,46.1294667407579],[13.6289198609046,46.1294822198903],[13.6290155368417,46.129621138013],[13.6290411044177,46.1296582611113],[13.6291070535564,46.1297541561553],[13.6291604877532,46.1299684885824],[13.6292783977834,46.1301190819495],[13.6295873772891,46.1302517219656],[13.6298958943081,46.1303978519012],[13.6301658126829,46.1305401892851],[13.6302637295292,46.1307143854519],[13.6302738104985,46.1308976061105],[13.6302279787237,46.1309819035733],[13.6301018585146,46.1311465764007],[13.62984949812,46.1312928203642],[13.6297451406409,46.1313730868927],[13.6297664358157,46.1314954387468],[13.6298470123351,46.1315913287501],[13.6300316525727,46.1318275680117],[13.630189990199,46.1319346470401],[13.6303818060812,46.1320590424105],[13.6306669799099,46.132171059743],[13.6308702334428,46.1322413362008],[13.6311804076518,46.132326389212],[13.6313635310374,46.1324100099672],[13.6314833133694,46.1325063682887],[13.6317244582464,46.1326144366897],[13.6319282629532,46.1326678024957],[13.6319551055825,46.1327597186818],[13.6320200588136,46.1328961789347],[13.6321243319175,46.1330126853581],[13.6322279000713,46.1331733611261],[13.6323238958693,46.1332321841017],[13.6325058576697,46.1333733733073],[13.6327125625925,46.1334979428749],[13.6328666262159,46.1335846326046],[13.632928259985,46.133656630294],[13.6329213759303,46.1337413046872],[13.632952420156,46.1338570243579],[13.6330593936508,46.1338854763865],[13.633264534013,46.1338641762673],[13.6335570289752,46.1338744218489],[13.6336828227708,46.1339268517859],[13.6338119331141,46.134033576334],[13.633905537603,46.134143435762],[13.6339237494673,46.1341648101586],[13.6339637377628,46.1342117424466],[13.6341042322621,46.1344338610756],[13.6342902411019,46.1346158545764],[13.634444098669,46.1347058687813],[13.6345827097472,46.1348262922259],[13.6347808423129,46.1348896623808],[13.6349857498329,46.1348988580118],[13.6351571141395,46.1348670738562],[13.6354278092185,46.1347855494427],[13.6356440132655,46.1347303664895],[13.6358105095125,46.1347017623505],[13.6359483117966,46.1346559001558],[13.6363012533618,46.1345821933777],[13.6366291195082,46.1345385980327],[13.6368878046833,46.1345450126973],[13.6371890847332,46.1345927834717],[13.6374899111892,46.1346642115428],[13.6377769033205,46.1346878770053],[13.6379966344124,46.1346837476258],[13.6382618617006,46.1346190666925],[13.6383709982027,46.1345389393451],[13.6384502692696,46.1344890477028],[13.6387658988462,46.1343537056098],[13.6388023785066,46.1343385832485],[13.6389089468985,46.1342944060302],[13.6389543677107,46.1342907394583],[13.6390556139283,46.1342825663419],[13.6393599765853,46.1344048676366],[13.6395572928052,46.1345225648614],[13.6399130050248,46.134730322589],[13.6401245277356,46.1348651032387],[13.6404535539682,46.1351844709814],[13.6407509487741,46.1353746169862],[13.6409544795365,46.1354346215614],[13.6410652473979,46.13550378002],[13.6412711369385,46.1356520778095],[13.6413757366934,46.1357720886329],[13.6415095330557,46.1358890273418],[13.64165820071,46.1359959754337],[13.6418158254327,46.1361334414091],[13.6418564277956,46.1362560203259],[13.6418565419597,46.1362584538515],[13.6418584912399,46.1363000047266],[13.6418627966484,46.1363917786894],[13.6419581582587,46.1364980929205],[13.6421261073351,46.1366052694982],[13.6424253297976,46.1367479258728],[13.6429054993748,46.1368587195419],[13.6432652089986,46.1369206643284],[13.6433859183578,46.1369594369226],[13.6437580857615,46.1371097037608],[13.6439460047775,46.1372102765035],[13.6440689328012,46.1373643329734],[13.6441741247715,46.1374605947572],[13.6444434316751,46.1376096390685],[13.6445098363616,46.1376884351728],[13.6445313868299,46.1378176252608],[13.644529518771,46.1380888784075],[13.644561301787,46.1381808501204],[13.6447750564807,46.1384208295613],[13.644864908778,46.1385304950528],[13.6450137577364,46.138630602753],[13.6451093619089,46.1387063256093],[13.6451735226175,46.1388766894738],[13.645175193826,46.1390090628167],[13.6451812400274,46.1391583133818],[13.6451658703835,46.1391886327817],[13.6451261361438,46.1392255014648],[13.6451296387211,46.1392832170923],[13.6451970436949,46.139321355839],[13.6453380197054,46.1393467803328],[13.6455860992293,46.1393802220811],[13.6459468634092,46.1393946639728],[13.6460579210141,46.1394367384306],[13.6461630673228,46.1395193215724],[13.6463879497656,46.1397018456203],[13.6465392667125,46.1398969043669],[13.6466428079994,46.1400608955999],[13.646747252631,46.1401774805061],[13.6468447958163,46.1403855783433],[13.6469142136433,46.1405424171656],[13.6469743217023,46.1406618960044],[13.6469866742764,46.1407705523051],[13.6470172177745,46.1409133445902],[13.6470693384478,46.1409784737853],[13.6473105990678,46.1410898395294],[13.6475849885654,46.1412491036718],[13.6478256220793,46.141380885264],[13.6478573666643,46.1414694364923],[13.6479087901984,46.1415683877118],[13.6480130294294,46.1416882980781],[13.6480107018032,46.1417833742911],[13.6479382267516,46.1419521201168],[13.6478827527983,46.1420397294808],[13.6478368031799,46.1421136852989],[13.647840011921,46.1421782354485],[13.6480508337172,46.1423435844749],[13.6482721463131,46.142471717494],[13.6485144945349,46.1425390056999],[13.6486643914404,46.1425917040505],[13.6489495780685,46.1427069147291],[13.649195305741,46.1428319155035],[13.6493433424843,46.142966018479],[13.6494081853425,46.1431092153982],[13.6494097016061,46.1432483348815],[13.6494058054857,46.1434076348088],[13.649426187354,46.1435639825198],[13.6495304060389,46.1437008965128],[13.6496834491025,46.1438315491499],[13.6497918660397,46.1439820987421],[13.6497792019267,46.1443041500523],[13.6497332231941,46.1443952015337],[13.6497227394359,46.1446121876387],[13.6497689195002,46.1447246622585],[13.649815761769,46.1448100621709],[13.6498325205792,46.1449187701362],[13.6498845669019,46.1449872261982],[13.6505106311222,46.1453236590582],[13.6506064672578,46.1453959608986],[13.6506477299683,46.1455084670645],[13.6506576318105,46.1457018504846],[13.6507327628361,46.1458215945679],[13.6507847275894,46.1458934682987],[13.651001771321,46.1460011211965],[13.6511931488586,46.1461526485562],[13.6512868695114,46.1463063523052],[13.651386511946,46.1464296242934],[13.6516587282435,46.1466635321547],[13.6518489255903,46.1468794666307],[13.6521644367801,46.147344490065],[13.652401300855,46.1476322341722],[13.6526596712382,46.1478557191807],[13.652766982524,46.1480469215293],[13.6527618509467,46.1482572227313],[13.6527220701295,46.1484975270562],[13.6526727256498,46.1487106361275],[13.6527734135285,46.1487966695038],[13.6528437231348,46.1489127562952],[13.6528350698388,46.1490551747752],[13.652855688998,46.1492181826677],[13.6529161698856,46.1493445006864],[13.6531832409354,46.1495885113199],[13.6533309409863,46.1497428493693],[13.6535959319593,46.1498918208758],[13.653774275845,46.149978768133],[13.6538263778011,46.1500506420399],[13.6538691227646,46.1502885895936],[13.6539078361541,46.1505060653093],[13.6540052483269,46.1507107360429],[13.6541554617159,46.1509533680835],[13.6543470426141,46.1511082214832],[13.6545548190716,46.1511988431013],[13.654736600685,46.1513468323578],[13.6547873373564,46.1514695256177],[13.6547791600856,46.1516085307329],[13.6547016906036,46.1517806408329],[13.6546628838449,46.1519599541028],[13.6546599092147,46.1520820151633],[13.6547042509466,46.1522758933674],[13.6548265078033,46.1524706885935],[13.6548515805566,46.152637167493],[13.6548717330165,46.15280367845],[13.654862483891,46.1529866686935],[13.6547725765141,46.153270651272],[13.6547584086476,46.1534535835999],[13.6547066742394,46.1535683225931],[13.6545776962861,46.1536651470351],[13.6545362473159,46.1537562536303],[13.6546080957849,46.1540114586524],[13.6546551175586,46.1540901104258],[13.6547545223782,46.1542133765015],[13.6548740965183,46.1543165455205],[13.6550293290705,46.1543590410331],[13.6551243098991,46.1544620103538],[13.6552595869534,46.1545211860303],[13.6553582309414,46.1545768354198],[13.6553701868424,46.1545835802533],[13.6555292779261,46.1545872505493],[13.6556725853007,46.1545905565188],[13.6557886960195,46.15463933896],[13.6558454757869,46.1547214340702],[13.6558860389209,46.1548474261705],[13.6558575420344,46.1550234419502],[13.6557730057222,46.1552836450224],[13.6556800471548,46.1554962421884],[13.6555844715757,46.1556036277788],[13.6554974554476,46.1557688778908],[13.6554363177322,46.1558869256021],[13.6554234128126,46.1560021216602],[13.6553878025352,46.1560661247853],[13.6553164872062,46.1561873817649],[13.6551427046836,46.1563108520982],[13.6549633891966,46.1564647585547],[13.6548188114738,46.1565851530276],[13.6547766152391,46.1567068423486],[13.6547731449195,46.1568492318154],[13.6548081487032,46.1570226655823],[13.6547802518887,46.1571579294564],[13.654791995726,46.1572870017412],[13.6547458361587,46.1573747238454],[13.654656999237,46.1576144510736],[13.6545453597112,46.1577963258533],[13.6542887482168,46.1580985896542],[13.6541892929261,46.158178935885],[13.6539681459952,46.1582373346673],[13.6537268365879,46.1583260869982],[13.6536230888682,46.15838595787],[13.6535610138397,46.1585209087732],[13.6534941162318,46.1586624609679],[13.6535353941593,46.1587749660084],[13.6536403027231,46.1588745444167],[13.6536955475819,46.1590142963647],[13.6537221070729,46.1591197898656],[13.6538295023138,46.1593244880587],[13.6539217271835,46.1595460127327],[13.6540427551727,46.1597917198627],[13.654019973421,46.1599135474953],[13.6539246434937,46.1600210244959],[13.6536858445091,46.1602082388049],[13.6536053074712,46.1603090516932],[13.6535081567316,46.160491096063],[13.6535200079571,46.1605997453781],[13.6534835276703,46.160704496233],[13.6535100896901,46.1608098998082],[13.6535229329322,46.1608778921632],[13.6536484757954,46.1609438830605],[13.6536810675713,46.1609985218197],[13.6536538020788,46.1611236256104],[13.6536363261866,46.1612455156415],[13.6536534259572,46.1613407305257],[13.6539145366975,46.1614387294782],[13.6540875602928,46.1615595339091],[13.654110444254,46.1616140582221],[13.6540980044739,46.1617259304322],[13.6541295705227,46.1618279737252],[13.6541855630441,46.1619372326933],[13.654374617493,46.1621972365801],[13.6544570989094,46.1622185419397],[13.6546923474758,46.162177223491],[13.6548435926841,46.1621823326865],[13.6551732211705,46.162274476979],[13.6552693750574,46.1623298631411],[13.6552772408361,46.1624215500763],[13.6552448351105,46.1625398456247],[13.6552436186378,46.1625495947925],[13.6552266518893,46.162685570878],[13.6552634223007,46.1627707598028],[13.6553304506726,46.1628258032296],[13.6553724088215,46.1628424774305],[13.6555241026636,46.1629027604695],[13.6558896957356,46.163124079717],[13.6559145080695,46.1631404735858],[13.6561876465234,46.1633209391298],[13.6563042551169,46.1634159131569],[13.6563693423208,46.1634689244424],[13.6564054302065,46.163598192627],[13.6564419533566,46.1636936353806],[13.6564797738391,46.1637517538198],[13.6565255112943,46.1638676391652],[13.6565549319052,46.1639412648657],[13.6565854399968,46.1640176117992],[13.6567092153971,46.1641513295513],[13.6568755909937,46.1643330544833],[13.657048572299,46.1644402676649],[13.6571345279968,46.1645158667123],[13.6571725623925,46.1645705683837],[13.6572390169899,46.1646493572787],[13.6573837438786,46.1647257365467],[13.6575053142198,46.1647373317049],[13.6576957433216,46.1647395682877],[13.6578274113018,46.1647512816907],[13.657982462807,46.1647971900059],[13.6581616050983,46.1648535480925],[13.6582622746147,46.1649258999819],[13.6584162531974,46.1650159727382],[13.6585555713442,46.1651125313575],[13.6586763766956,46.1651716229829],[13.658695386647,46.1651823566776],[13.658786872142,46.1652340125401],[13.6588056342472,46.1652580921832],[13.658810857225,46.1652647954482],[13.6588630391151,46.1653129144493],[13.6589362286817,46.1653171922673],[13.659238769649,46.1653207416593],[13.6594276826294,46.1653907985627],[13.6596296018803,46.1655118434375],[13.6597385976509,46.1656130413446],[13.6597443363002,46.1656183694217],[13.6598010056539,46.1657003711317],[13.6598041113587,46.1657155878633],[13.6598183641634,46.1657854208952],[13.659875689181,46.165840437818],[13.6599224272195,46.1659154849354],[13.6599302404207,46.1659936746544],[13.659943940352,46.1660480900732],[13.659977447861,46.1660653981838],[13.6601384115916,46.1660707042727],[13.6601853418867,46.1660794431743],[13.6602745435182,46.1660960533713],[13.6603071912959,46.1661541098832],[13.6603693901555,46.1662057646399],[13.6604404431706,46.166298101759],[13.6604407683217,46.1663015292791],[13.6604481763508,46.1663796195658],[13.6604862496156,46.1664275724604],[13.6605399893696,46.1664707452487],[13.6605830047747,46.1665053023738],[13.6606104746314,46.166527370699],[13.6607220714019,46.1665659279573],[13.6608466126668,46.1665949346757],[13.6609063397656,46.1666088455656],[13.6610219847831,46.1666780413817],[13.6611526241536,46.1668603302065],[13.6611543805136,46.1668627809502],[13.6611609670903,46.166868715251],[13.6612688152124,46.1669658828225],[13.6613353614499,46.1670412513282],[13.6614450067822,46.1671442969261],[13.661510318481,46.1672198270537],[13.6615309144985,46.1672436453985],[13.6616017562146,46.1673394883178],[13.6618413519841,46.1674568556976],[13.6618429951063,46.1674576605872],[13.6619432131659,46.1675436800711],[13.6619565785301,46.1675709655483],[13.6619899781191,46.1676391509024],[13.662030950008,46.1676446159603],[13.6621016339027,46.1676540441336],[13.6622328998609,46.167682662995],[13.6622506748723,46.1677507120036],[13.6622493170848,46.1678067127259],[13.662248044704,46.1678591907715],[13.6623245473373,46.1679245980471],[13.6623906743255,46.1679791921896],[13.6625161286461,46.1680827663106],[13.6625920200431,46.1681787576655],[13.662621001102,46.1682688086352],[13.6626281490743,46.1682910190225],[13.6626578142138,46.1683360614891],[13.6626583108326,46.1683368155363],[13.6626799842466,46.1683697236068],[13.6627022278802,46.1683810726289],[13.6627954953039,46.1684286589143],[13.6628525796745,46.1684938386447],[13.6628810440068,46.1685649982686],[13.6629125325733,46.1686437181333],[13.6629869837278,46.168793857159],[13.6631585927767,46.1689291533163],[13.6631835680817,46.16894884371],[13.6633119017407,46.1690826074891],[13.6633457307008,46.1691427629544],[13.6633576469036,46.169163952598],[13.6633964507528,46.1692329543032],[13.6634294276904,46.1693441656534],[13.6634367970571,46.1693690180283],[13.6635628384432,46.1694147027982],[13.6635724907591,46.1694182013532],[13.6637128498735,46.1694672591121],[13.6637551304533,46.1695288462611],[13.6637415599341,46.1696881228178],[13.6636657365764,46.1697923268074],[13.6636495095438,46.169826015313],[13.6636300098057,46.1698664981354],[13.6636762573426,46.1699621421351],[13.6637458774506,46.1701087151329],[13.663777523112,46.1702244326856],[13.6638538695916,46.1702964952102],[13.6639742498644,46.1703752126061],[13.6640124631808,46.1704002004543],[13.6640890859209,46.1704568309295],[13.6648155839723,46.1704621303333],[13.6651946116402,46.1704368657423],[13.6663397108481,46.1704097443054],[13.6668580562298,46.1704660872376],[13.6676510890699,46.1705437150648],[13.6686620886657,46.170626485745],[13.6694184165318,46.1707280568959],[13.6699725146316,46.1708433754249],[13.670190481361,46.1708377239046],[13.6708245402646,46.1708594951572],[13.6714225389097,46.1709159338667],[13.6721380963005,46.1710007276647],[13.6736332810254,46.1712421253281],[13.6738084054662,46.1709607371657],[13.6737792006681,46.1707102686581],[13.6736967418751,46.1704393877532],[13.6741370468184,46.1699496353452],[13.6750656481278,46.1696238980777],[13.675786453162,46.1687288152952],[13.6760734194869,46.1683190656972],[13.6760240919057,46.1682322085522],[13.6761234791101,46.1680030244714],[13.6765652968895,46.1678047982061],[13.6767075796489,46.1677955586558],[13.6769082890193,46.1677475863524],[13.6779289490271,46.1673067339842],[13.678176837472,46.1669595993012],[13.6782296365279,46.1669665081332],[13.6783319593942,46.1664791285163],[13.678216309157,46.1658524665947],[13.679098459116,46.1657160059611],[13.6793435076318,46.1653516506672],[13.6791060823859,46.1649269253903],[13.6785856908477,46.1639464833119],[13.6780073849931,46.1628816922755],[13.6789774441109,46.1621163356678],[13.6802217207144,46.1611507943731],[13.6797361038209,46.160238239575],[13.6799711758258,46.1598837545933],[13.6795753110525,46.1591656813886],[13.6798984721204,46.15891748472],[13.6807042034634,46.1585227108938],[13.6814175451111,46.1581467499881],[13.6816718466928,46.1578536661588],[13.6818864171096,46.1570012895635],[13.6820933451209,46.1567886358001],[13.682800188502,46.156097679114],[13.6834742469124,46.1555808916754],[13.683824758328,46.155259129423],[13.684111408653,46.1552318385465],[13.6843342314315,46.1549491832399],[13.6844368985042,46.1548351971196],[13.6847369553823,46.15475047504],[13.6852365234885,46.1542036868127],[13.685411882539,46.1540761399893],[13.6854922980227,46.1537927441083],[13.6854876862421,46.153437290086],[13.6855298230666,46.1533531982581],[13.6860328528542,46.1531115512769],[13.6861480946281,46.1527898660361],[13.6862841381077,46.1525134072364],[13.686335818559,46.1520227380133],[13.6862710877629,46.1517996658819],[13.6865448567363,46.1513988247504],[13.6865137538221,46.1509539909774],[13.6870004992038,46.1503072651234],[13.6868677820508,46.1501176926945],[13.6868083908143,46.1498442961506],[13.6869416925564,46.1497316493959],[13.6871443636949,46.1495980253794],[13.6873349236568,46.1494292616335],[13.687457017722,46.1492543128298],[13.6875277018676,46.1490418837981],[13.6875599657182,46.1485015045283],[13.6875100610139,46.1477091513555],[13.6875683098889,46.1475568627086],[13.6876943558579,46.1474278462418],[13.6881714119014,46.1464678007156],[13.6883529640988,46.1460128111798],[13.6884663227747,46.1456002268362],[13.6884222021991,46.1453432016697],[13.6885032769306,46.14486186572],[13.6884389647755,46.1446919746165],[13.6881767675617,46.1444388348183],[13.6880227634583,46.144110457602],[13.6880449411507,46.1439397595415],[13.6878055519947,46.1435114292596],[13.6877861795046,46.1433897404833],[13.687855264593,46.1432060847171],[13.6877673468833,46.1426679240593],[13.6876347860412,46.1418133480899],[13.6875216576887,46.1415682164956],[13.6876029397935,46.1413451118415],[13.6875899064004,46.1408042117273],[13.687499967684,46.1405746421217],[13.6874650052396,46.1402430421748],[13.6873747640681,46.1399010000569],[13.6873093041156,46.139883242943],[13.6873091859937,46.1397193968626],[13.6873613515545,46.1395994293062],[13.6873359715539,46.1394092902684],[13.6874093185725,46.1392149765597],[13.6872966787877,46.1391020237346],[13.6870815781936,46.1383608569884],[13.6876005533221,46.1381283833099],[13.6888872719463,46.1377498698369],[13.6895712160433,46.1376281494865],[13.6907585929905,46.1377047399412],[13.6912057482953,46.1372850885729],[13.6915212021917,46.1372671064596],[13.6920882331161,46.137086448386],[13.6926372022286,46.136596966042],[13.6931663270448,46.1357751557143],[13.6939798623839,46.1345391982044],[13.6946941578108,46.1338976472935],[13.6950976615489,46.1333947947038],[13.6955690539902,46.1332831180057],[13.6954926557198,46.1332300604021],[13.6956794986993,46.1330891322428],[13.6957244290745,46.1330059680294],[13.6958938202946,46.1329683118696],[13.6963163585905,46.1326123317325],[13.6963632940416,46.1325318893906],[13.6961833067312,46.132426364748],[13.6958196674805,46.1322719571879],[13.6955892637614,46.1320983748594],[13.6954363411796,46.1320525415774],[13.6953419821248,46.1319380956829],[13.6952380335954,46.1319009189442],[13.6952136446409,46.1318376578432],[13.6954184559768,46.1316590556337],[13.6955746634967,46.1315547577467],[13.6953871175117,46.1306734688738],[13.6956566109722,46.130616261353],[13.6959496452278,46.1306034096761],[13.6960206091338,46.1305466351776],[13.6961422864068,46.1306002090165],[13.6972021220841,46.1306572825741],[13.6973666884304,46.1305933864233],[13.6974677918294,46.130641415816],[13.6973897389874,46.1307628926031],[13.6971715561517,46.1309601507695],[13.697370483019,46.1312008526271],[13.6975992256234,46.1313132292894],[13.6979871359714,46.1314481131575],[13.6979393302532,46.131554639085],[13.6980492592483,46.1316071772856],[13.6982158458504,46.1316278796642],[13.6983065793351,46.1316218050435],[13.6984671833592,46.131671230996],[13.6985385793217,46.1320410324811],[13.6984939595821,46.1321331988713],[13.6985354631394,46.1322227469734],[13.6991383811652,46.1319712920589],[13.699553181488,46.1319428116912],[13.6996131179334,46.1318706137104],[13.7000571630782,46.1316992236708],[13.6999869222288,46.1313844111358],[13.7007622099688,46.1315398867088],[13.7014096567916,46.1311936421945],[13.7014476248322,46.1312300636837],[13.7018784459854,46.1312960509568],[13.7020632334128,46.1314179066725],[13.7023611361358,46.1314733850473],[13.7031343775813,46.1312698200734],[13.7039392286865,46.1314948904711],[13.7042900146291,46.1314862712998],[13.7045795756728,46.1315057491989],[13.704854532732,46.131469186251],[13.7049024987902,46.1315319026788],[13.7055640154393,46.1315671991098],[13.7057226933603,46.1315996777],[13.7059697040442,46.1315627955911],[13.7062545933941,46.1315939131305],[13.7063442328731,46.1316345168899],[13.7067795215788,46.1313884121524],[13.7069784172915,46.1310406588282],[13.7069661816164,46.1309441569168],[13.707178314784,46.1309375591603],[13.7074455929978,46.1310243491482],[13.7079014030428,46.131078989506],[13.7083668030862,46.1313046893725],[13.7084465280987,46.1313874677977],[13.7086095149433,46.1314405054247],[13.7088479344206,46.1313281207756],[13.7089672079638,46.1311584252248],[13.7090644103458,46.1310803449694],[13.7095987415688,46.1311475622129],[13.7098636330085,46.1310596776572],[13.7101608601248,46.1310279420635],[13.7103161152575,46.1310296940927],[13.710409724996,46.1307284335591],[13.7103296809228,46.1305150988178],[13.7092432362775,46.1304831295781],[13.7088727636417,46.1302657036838],[13.7079266994093,46.1302685085509],[13.7071154464412,46.130200940447],[13.7068553574112,46.1300836394263],[13.7064805144446,46.1301307735345],[13.7059971416281,46.130048822853],[13.7054697973581,46.1299104974496],[13.7052222725421,46.1299806635036],[13.7046916364052,46.129773106235],[13.7036303166913,46.1295425230125],[13.70359037777,46.1294852955958],[13.7034916432923,46.1294850753554],[13.7031657416489,46.1292114520744],[13.7030618852995,46.1291868800214],[13.7030403005284,46.1291416474449],[13.7028746402999,46.1291037773233],[13.702590531574,46.1290069782402],[13.7022788221785,46.1285040765348],[13.7021395905623,46.1284925982563],[13.7019964582827,46.1285755495579],[13.701953838329,46.1286380482134],[13.7015413330547,46.1284983995565],[13.7014049418199,46.1285202435082],[13.7008422495994,46.1284058783566],[13.7008824573108,46.1283469517047],[13.7011485154996,46.1282644990926],[13.7012325946812,46.1281448876846],[13.7014324334648,46.1279672078337],[13.7015866492085,46.1275667703441],[13.7017513268212,46.1272717225676],[13.70222343211,46.1268514111464],[13.7023437755896,46.1266972102774],[13.7023468176049,46.126567680365],[13.7024137620588,46.1262903267288],[13.7022219733005,46.1262413619463],[13.7018924596116,46.1258912148231],[13.7018790750866,46.1258109847612],[13.7019579159664,46.1257048095768],[13.7025065618838,46.1252755588548],[13.7029212030762,46.1254611157789],[13.7030824269496,46.1254835497419],[13.7037089646523,46.1257380898513],[13.7046174135042,46.1260228146686],[13.7054045282495,46.1262728670605],[13.7062821420752,46.1264438604312],[13.7067062262591,46.1263982739099],[13.706913937734,46.1264195189648],[13.7072111790937,46.1264912628067],[13.7074982234492,46.1265232114465],[13.7077570016089,46.1265631175009],[13.7079970563369,46.126584726274],[13.7084725822115,46.1266745876936],[13.7090236584948,46.1267321896279],[13.7094714736462,46.1267398563499],[13.7097318208263,46.1267292995006],[13.7101140141615,46.1266544353084],[13.7104279139003,46.1265671024944],[13.7109244803431,46.1264097590261],[13.7112816229474,46.1261826400859],[13.7117496577609,46.1262220172312],[13.7121087671937,46.1262989444359],[13.7121299426591,46.1262731801875],[13.7122749637015,46.1261082699526],[13.7122251355693,46.1260753174123],[13.7122588263219,46.1254125789589],[13.7125102129269,46.1246811225026],[13.71298631832,46.1241790239941],[13.7134353359011,46.1236117463203],[13.7140666521142,46.1232283582908],[13.7141754908075,46.1231719986102],[13.7148516747242,46.1224723977436],[13.7155888126808,46.1213262102612],[13.7162166216296,46.1205405808607],[13.7172045241013,46.119603242786],[13.7185927774722,46.1193883891941],[13.7197862460392,46.1195331281063],[13.7208730296845,46.1197594379417],[13.7221285762635,46.1197437012008],[13.7238356978408,46.1200578949684],[13.7250246296441,46.1202771180543],[13.7250471048657,46.1202675614605],[13.7262214977019,46.1197875011917],[13.7274060820152,46.119302233762],[13.7280113271315,46.1190389552776],[13.7283044758488,46.1181577593178],[13.7283717274607,46.1180577351464],[13.7294258627643,46.1176051858416],[13.7305837486288,46.1170961049518],[13.7314022513891,46.1168406653941],[13.7325034487775,46.1167259278809],[13.733332781783,46.1167199164952],[13.7340328726353,46.1166062065991],[13.7347955063949,46.113471629382],[13.7337375340437,46.112899725224],[13.7331756967339,46.1127294736864],[13.732473118797,46.1125249074995],[13.731017394967,46.1122792259943],[13.7304555725858,46.112108961217],[13.7299865329129,46.1120053168745],[13.729330429062,46.1118340888034],[13.7288651623007,46.1115665464294],[13.7284042955918,46.1111022746593],[13.7282718532162,46.1107073380776],[13.7283279803766,46.1103144096805],[13.728428296036,46.1100531572007],[13.7282554369977,46.1093626510876],[13.7278934001378,46.1087027002323],[13.7279045853423,46.108210928385],[13.7279172768658,46.1076536710518],[13.7267153238156,46.1066236523903],[13.7263195832475,46.1053730808043],[13.7263876694025,46.1044556384939],[13.7265052173987,46.1034404038014],[13.7266173475896,46.1026546363202],[13.7267221860776,46.1021966586623],[13.7267789388157,46.1017709862968],[13.7262308271041,46.1010106127494],[13.7257685559007,46.1006119960286],[13.7254521606231,46.1000181375443],[13.7253288321764,46.0992297447462],[13.725155417488,46.0985719775954],[13.7249310330982,46.0980775772094],[13.724568350043,46.0974504484119],[13.7242475769955,46.0970533143195],[13.7230816312658,46.0965155546864],[13.7224796135383,46.0960496805425],[13.7216435403073,46.0955156830208],[13.7210415455573,46.0950498014601],[13.7201607150016,46.0944168585965],[13.7188087623759,46.0937786283433],[13.717782734483,46.0933079750528],[13.7166124965913,46.0929668778735],[13.71375450917,46.0922459830203],[13.7123441799946,46.0920988267547],[13.7106139764209,46.091521829141],[13.7093077385287,46.0909495041717],[13.7086047605935,46.0907776268369],[13.7078114979822,46.090440698406],[13.7070714340862,46.0898419967027],[13.7065638707698,46.0893771065559],[13.706430229684,46.0890477218998],[13.706207585741,46.0884876210978],[13.7059325178193,46.0881566346502],[13.7058002899674,46.0877615827862],[13.7057220222818,46.0870720209051],[13.7053611620475,46.086379257954],[13.7049455815957,46.0860138359395],[13.7048613165433,46.0855865751015],[13.7049145108969,46.0853248081166],[13.7044532924799,46.0848932745929],[13.7042308137054,46.0843331713935],[13.7040544927613,46.0838065223317],[13.7040134527168,46.0835436870532],[13.702797991939,46.0831363422634],[13.7016263978659,46.0828605778708],[13.7010179110513,46.0826897269964],[13.7005254820165,46.0827580890664],[13.6990755276166,46.0823501974203],[13.7002393115899,46.0817298283721],[13.700717916206,46.0814073081359],[13.7009193327277,46.0808521965539],[13.7014451059123,46.0805302094004],[13.7022139417977,46.0798831076838],[13.7025513664461,46.0795590663483],[13.7027998092638,46.0790043952031],[13.7033346401636,46.0782890368898],[13.7038148617522,46.0779009293443],[13.7043473651136,46.0772839735794],[13.7048746166003,46.0768964846851],[13.7052596936119,46.0765401339732],[13.7057152418796,46.0763600334048],[13.7054833162427,46.0761549603871],[13.7054167246715,46.0760282395654],[13.7054109583472,46.0756556733081],[13.7055140765578,46.0754588040429],[13.7057380696172,46.0752786895784],[13.7055983595974,46.0750998543758],[13.7055044919839,46.0750394069423],[13.7052863266457,46.0746221457705],[13.7041929451683,46.0739007418472],[13.704186245378,46.0737396086547],[13.703929093573,46.0731770411826],[13.7034430574899,46.0725236099699],[13.7025097518049,46.0720793325983],[13.7018181086362,46.0720084946666],[13.7009438196167,46.0718762822508],[13.7005478651609,46.0717710074071],[13.6997895951199,46.0715319539754],[13.6985469072764,46.071651873262],[13.6984286201361,46.0716299215912],[13.6974760204967,46.0710135287905],[13.6961728144797,46.0714089592705],[13.6951489806981,46.0717373836648],[13.6940780527573,46.0720778573874],[13.6938698224937,46.0721367514477],[13.6934522144463,46.0724783859439],[13.6928991343882,46.0723703883475],[13.6926956876551,46.0724346435708],[13.6924870601234,46.0726634954883],[13.6918232234431,46.0724282588503],[13.6916773812308,46.0725165654414],[13.6914612835899,46.0726346593175],[13.6913463697785,46.0727926912158],[13.6909653112466,46.0728998974228],[13.6907757771723,46.0730425878222],[13.6905896087685,46.0732069107392],[13.6905228381522,46.0728543389961],[13.6902719533099,46.0725301591975],[13.6903110976552,46.0722143416644],[13.6898887150479,46.0723853136647],[13.6894588682414,46.0725875102008],[13.6890090191265,46.0727607732697],[13.6882954565046,46.0734516998838],[13.687852580213,46.0740939039981],[13.6875691615849,46.0743735344282],[13.687284206568,46.0746633137973],[13.6868042211309,46.0751903679346],[13.6861158228147,46.0755375912344],[13.6856901517823,46.075562298678],[13.684964138398,46.0757019574437],[13.6845384635429,46.075726750529],[13.6842381214441,46.0758416115542],[13.6835015493628,46.076424901557],[13.6830291224425,46.0766266732635],[13.6824369951693,46.0765016195248],[13.6820127225752,46.0764672150998],[13.681669847913,46.0765815788386],[13.6812866885088,46.0766068502529],[13.6808205978343,46.0765423567135],[13.6802673448487,46.0765656611511],[13.6799323525387,46.0763547571445],[13.6796843973468,46.0760560513241],[13.6794767202775,46.0758466167868],[13.6791424393603,46.0756062064891],[13.6791899029358,46.0753996300538],[13.6789425308349,46.0750714171418],[13.6786918902563,46.0748910866281],[13.6786110826701,46.0747126294212],[13.6784884581631,46.0745041764317],[13.6781067253654,46.0744702493841],[13.6777271137953,46.0743475391641],[13.6771356013564,46.0741928628374],[13.6766248922351,46.074216642087],[13.6762403340473,46.0743009946963],[13.6756467045315,46.0742350026018],[13.6751389547792,46.0741404908859],[13.674502098427,46.0741035938513],[13.6740806830169,46.0739508744513],[13.6733171023503,46.0738829882708],[13.6729764818351,46.0739086356612],[13.6728418274005,46.0742029135322],[13.672878677165,46.0744399787068],[13.6726188406097,46.0746440860422],[13.6720641841609,46.0747265387421],[13.6716817462591,46.0747220942034],[13.6713792527889,46.0749257028938],[13.6715810867041,46.0753718114731],[13.6713643445376,46.0755468147144],[13.6706765576725,46.0758643500087],[13.6699519267699,46.0759447251953],[13.6695652129076,46.0761178366657],[13.6692231541286,46.0762026604073],[13.6687556606706,46.0761972155987],[13.6683264183507,46.076369827457],[13.6675131694823,46.0765971652134],[13.6670889066756,46.0765627054723],[13.6665349384146,46.0766154472334],[13.6656828496218,46.0766943980338],[13.6649171034697,46.0767151469248],[13.6643171671459,46.076915351606],[13.6638836238134,46.0772653293786],[13.6634536459075,46.0774674264784],[13.6630703463377,46.0774925451893],[13.662605699088,46.0773688799198],[13.6624182662242,46.0771641500847],[13.6618382160647,46.0772631714242],[13.6610382507428,46.0776559047307],[13.6603618204739,46.077965413093],[13.6592888485005,46.0783336991705],[13.657913777563,46.0786138502668],[13.6569024247046,46.0786794381585],[13.6450311707226,46.0815476540492],[13.6437162885295,46.0819666410491],[13.6430493413506,46.0821838439136],[13.6412105285506,46.0827756321668],[13.6402639139664,46.0829337080557],[13.6388928031238,46.0830442523798],[13.6376134654177,46.0831348199504],[13.6366112956807,46.0830804896194],[13.6357307647095,46.0830276026624],[13.6319405121194,46.0829144504416],[13.6304500486796,46.0831761539945],[13.6297626696781,46.0834638456026],[13.6289051693429,46.0837495821278],[13.6281847776934,46.0836523104936],[13.6277128281716,46.0838241670562],[13.6272841358003,46.0839670291235],[13.6265571383287,46.0841359070265],[13.6253200524042,46.0842987355936],[13.6245528501696,46.0843784007273],[13.623737104369,46.0846941131307],[13.6232680754084,46.0847476679904],[13.6223637045835,46.0852103134796],[13.621849932065,46.0853520395106],[13.6206897545618,46.0858411887023],[13.620219975247,46.0859243241072],[13.6194430225848,46.0863883947651],[13.618411132015,46.0868494683349],[13.6170419366181,46.0871881327515],[13.6163559195464,46.0874165558632],[13.6157057662471,46.087911738276],[13.6149376336028,46.0880208397046],[13.6142941266769,46.0882498556006],[13.6139928331581,46.0883941224585],[13.612314242093,46.0892023411436],[13.6111098851779,46.0897499706348],[13.6099056338665,46.0902975886846],[13.6092463394294,46.0911475782079],[13.608899636385,46.0914096873434],[13.6083123131853,46.0917726077609],[13.608463180065,46.0922784902004],[13.6086444022697,46.0925082458724],[13.6089834483213,46.0929675615023],[13.6093434494896,46.0935246649994],[13.6094279331287,46.0938834373316],[13.6087738383379,46.0948023185134],[13.6083159529346,46.095349645481],[13.6077039140928,46.0955211527659],[13.6066726447873,46.0956387793496],[13.6048604970167,46.0963296403974],[13.6037128895398,46.0967718926268],[13.6022562800103,46.097332001851],[13.600407219403,46.0978569650149],[13.5987304936798,46.0984752469819],[13.5973650508498,46.0988843523397],[13.5970108014894,46.099062475019],[13.5962602631371,46.0993574669938],[13.5956876180712,46.0995329927627],[13.5951585457705,46.0997089613183],[13.5944462861346,46.1002172048108],[13.5939141115258,46.1005147767939],[13.5932915565174,46.1009329711553],[13.5928436858309,46.101353133161],[13.5924917253007,46.101440124435],[13.591481998987,46.1016102451603],[13.5906923407875,46.101722247331],[13.5893604932059,46.10179224845],[13.589421362813,46.1018909273719],[13.589691154634,46.1021961259967],[13.5898542867509,46.1023168171395],[13.5901909433653,46.1024905751193],[13.5903534281369,46.1026215148005],[13.5905934124636,46.1027669064183],[13.591022525802,46.1029622266361],[13.5915147038746,46.1031751479717],[13.5918918452625,46.103308730785],[13.5922940771373,46.103401862365],[13.5925653210267,46.1034628776409],[13.5930229862912,46.1034922666362],[13.5932956559298,46.1035125386867],[13.5939634931554,46.1035275052845],[13.5942126259792,46.1035069064778],[13.594431372413,46.1035367697423],[13.5946538725557,46.1036072578364],[13.5950250354911,46.103778006753],[13.5952694748408,46.1039472868612],[13.5958659927889,46.1042699826651],[13.5963511759044,46.1045507288706],[13.5965959248954,46.1047030044914],[13.5967916759553,46.1050683704696],[13.596816297453,46.1052450253087],[13.5969111319636,46.1053615386042],[13.5969850612917,46.1055219732816],[13.5969418371641,46.1056807897249],[13.5968818888521,46.1059379242865],[13.5968031469014,46.1061608172164],[13.5966797050036,46.1064069148123],[13.5965719095938,46.1066226126506],[13.5964751865893,46.1067842809555],[13.596473120246,46.1068656836388],[13.5965108809656,46.1069069063917],[13.5967237836807,46.1069841106944],[13.5971298038685,46.1071179407168],[13.597557803463,46.1071707009374],[13.5981462444181,46.1072220086264],[13.598441869137,46.1072968952891],[13.5988884964682,46.1073803807437],[13.5991925343777,46.1075062048999],[13.5993789399176,46.1076645075016],[13.5996424231149,46.1078440887923],[13.6001561550562,46.1081692565498],[13.6003319639743,46.1083477622931],[13.6003539157477,46.1084566318437],[13.6003265558346,46.1085613884105],[13.6001497984324,46.1088035075646],[13.5999621827045,46.1090963296987],[13.5998144978629,46.1095286532198],[13.5997246026366,46.1098090858065],[13.5997497478657,46.1099655017481],[13.5998106244699,46.1100646810326],[13.5999888412287,46.1101482923786],[13.6002703458957,46.1102093249762],[13.6006291037108,46.110295056425],[13.6012434210086,46.1104959346264],[13.6015618794178,46.1106253479635],[13.6017724012656,46.1107975279875],[13.602009193976,46.1110717015055],[13.6020808299988,46.1113236999063],[13.6020153844776,46.1115942660165],[13.6018998976959,46.1119252234176],[13.6017989094968,46.1120665094027],[13.6016030466311,46.112281224273],[13.6013592000305,46.1124749271013],[13.6012196231736,46.1125919867266],[13.6012424798688,46.1126601081273],[13.601293835975,46.1127420746728],[13.6014833506101,46.1127784047387],[13.6020074152586,46.1128864890609],[13.6026467221116,46.1130571635352],[13.6030236153517,46.1131940353629],[13.6037328342931,46.1135012415784],[13.6042014381906,46.1136901561479],[13.6046310686801,46.1138548393774],[13.6049735738984,46.1140116193727],[13.6052476610443,46.1141573961269],[13.6053767997536,46.1142641535947],[13.6054506811189,46.1144279110385],[13.6055653329535,46.1147243400878],[13.605903095775,46.115054082525],[13.6060714268184,46.1151613172644],[13.6063839837634,46.1153415712453],[13.6065304781171,46.1155298769745],[13.6067399587785,46.1157190403699],[13.6070300033131,46.1160176059592],[13.6073775703959,46.1161642731266],[13.6076967173143,46.1162733431037],[13.608057447418,46.1162879044231],[13.6085078758834,46.1162187097743],[13.6096174779359,46.1159235980838],[13.6098817067708,46.1158860533949],[13.6101552569393,46.1158791231826],[13.6103295296281,46.1159254204231],[13.6105421855059,46.1160094339549],[13.610927711671,46.116190472604],[13.6113132838431,46.116374929576],[13.6116893698994,46.1165456836906],[13.6119044326915,46.1167246481583],[13.6119882066001,46.1168817732713],[13.612013908972,46.117038103088],[13.6120873889882,46.1172187666789],[13.6121566956147,46.1175656544012],[13.6121689218412,46.118047442103],[13.6121598963543,46.1184068748592],[13.6122139745606,46.1185873926931],[13.6123283504379,46.1186904538901],[13.612783471192,46.1188214949863],[13.6132776602624,46.1189631755537],[13.6138684826384,46.119136617729],[13.6141140255886,46.1192616923674],[13.6142860187305,46.1193994610208],[13.6143373621576,46.1194984268127],[13.6144140844204,46.1195501931841],[13.6148137257913,46.1195618757919],[13.6152609039727,46.1196282982602],[13.6154585773352,46.1197121210353],[13.6155735582952,46.1198016899567],[13.6157000963877,46.1200135855226],[13.615888526818,46.1202702285605],[13.6160444276059,46.1204722221204],[13.6162118602583,46.1206167707537],[13.6163217558771,46.1207028582625],[13.6163588275877,46.1207880640272],[13.6164647407138,46.1208368533153],[13.6166042124269,46.1209199694931],[13.6167546141067,46.120948962551],[13.6170997810953,46.1209869704737],[13.6179241759395,46.1209901047434],[13.6181741884829,46.1209422917136],[13.6186537542229,46.1208938338266],[13.6189799422599,46.1209146912781],[13.6191149274679,46.1209807448],[13.6191759313993,46.1210663287793],[13.6192693993277,46.1212404809354],[13.6193718441042,46.1214282377794],[13.6196773251836,46.1220865894393],[13.6199568341163,46.1222256479601],[13.6202985032339,46.1224197114425],[13.6208731167662,46.122653924944],[13.6211057665239,46.1227109873539],[13.6211434371941,46.1227725352043],[13.6211961001015,46.1228036722498],[13.6215110753398,46.122885480534],[13.6218293660819,46.1230419176017],[13.6219820309585,46.123182860546],[13.6221792272674,46.123354090362],[13.6222633278302,46.1234271162753]]]},"properties":{"fill-opacity":0,"stroke-opacity":1,"stroke":"#ff0000","lov":"1201","lov_naziv":"KANAL","luo":"12","luo_naziv":"Zahodno visoko Kraško","povrsina":6027.31},"id":"pregledovalniklovisca.1"}]}