{"type":"FeatureCollection","features":[{"type":"Feature","geometry":{"type":"Polygon","coordinates":[[[13.6755287817668,45.8944444134237],[13.6764309084172,45.8941423711574],[13.6771574922502,45.8939824355306],[13.6782797995587,45.8945721884704],[13.6800442391667,45.8956740416695],[13.6819463441847,45.8967773655916],[13.6827822030898,45.8978445256576],[13.6832073112472,45.8988108489015],[13.6831900862257,45.8995557643873],[13.6834898501384,45.899991836605],[13.6841286444436,45.9006481219635],[13.6843550782245,45.9012756317749],[13.6842434878866,45.9016348914601],[13.6843372996512,45.9020445650578],[13.6847092950173,45.9023372297578],[13.6856752041086,45.902252067874],[13.6863324969937,45.9021153912321],[13.6869832471237,45.9022670173486],[13.6879042499461,45.9026380523969],[13.6885870215747,45.9028861343195],[13.689649613384,45.9030905201645],[13.690472396542,45.90324409921],[13.6911192179157,45.9035639168088],[13.6926392952938,45.9048310339051],[13.6934527861826,45.9053930781196],[13.6944793491149,45.9056691697657],[13.6950245711191,45.9059156412746],[13.695738006248,45.9063323804976],[13.6963576747723,45.9063393625033],[13.6971794013969,45.9065409296357],[13.6978884943391,45.907149890151],[13.6982876990058,45.9077552261083],[13.6984538034995,45.908021565505],[13.6993416976075,45.9083439921485],[13.7006454047317,45.9085510199353],[13.7021867337893,45.9089048778507],[13.703179561347,45.9091563936133],[13.7036581496298,45.9093060602657],[13.7041684808625,45.9095762063112],[13.7043646831195,45.9100350725656],[13.7044120754546,45.9109730065497],[13.704225755672,45.9115957946557],[13.7040486806676,45.9118101847178],[13.7037639063241,45.9122155468542],[13.7036512987681,45.9126228617677],[13.7030834081021,45.9133616192336],[13.7028636460913,45.9139359767619],[13.7032875427177,45.9149742813765],[13.7038919002299,45.9156540877175],[13.7039148181456,45.9161591269286],[13.7039093525073,45.916399397418],[13.7029338322615,45.916893196543],[13.7025118088302,45.9172729728434],[13.7025232087004,45.9182826604771],[13.7026617484926,45.9197503421213],[13.7024425133336,45.9203007699724],[13.7012416233854,45.9216091785869],[13.7010868393585,45.9223525300903],[13.7014729836011,45.9235346460951],[13.7017735771329,45.9239466536084],[13.7017248444282,45.9245709995374],[13.7010896545301,45.9252368183811],[13.7007265440458,45.9260499631039],[13.7012243702226,45.9268728060322],[13.7014915561297,45.927236295907],[13.7021894426191,45.9283498782756],[13.7024440105014,45.9292660490495],[13.7026586913432,45.930422188136],[13.7028733805906,45.9315783266854],[13.7031666488333,45.9338169845989],[13.7034633903904,45.9343971124452],[13.7049490363409,45.935711806062],[13.7060969675325,45.9367341862273],[13.707488274471,45.9376630313469],[13.7083656595619,45.9384660201846],[13.7083879363031,45.9389950734526],[13.7080178404785,45.9401205645057],[13.7075786189694,45.9412452722931],[13.7073456400723,45.9423963357689],[13.7072636385294,45.9429722574432],[13.7073952178003,45.9447523421539],[13.7071648840539,45.9457832238878],[13.7068630161634,45.946933506053],[13.7070148763477,45.9478245671269],[13.707274505048,45.9485244742485],[13.7080448547035,45.9494944217884],[13.708820808863,45.9502241861582],[13.7097317251447,45.9510755897887],[13.7108832710896,45.9519537251573],[13.7126528191629,45.9529348195799],[13.7138094531345,45.9535966755808],[13.7142497017547,45.9539380576729],[13.7146806399071,45.95468792288],[13.7149059606494,45.9553874258393],[13.7154025860856,45.9562822613781],[13.7160101782691,45.9568418244703],[13.7165871014075,45.9572327812427],[13.7171263970718,45.9577675470871],[13.717527824503,45.9583008529949],[13.7181759943355,45.9585964149748],[13.718864017587,45.9586520893619],[13.7193769564775,45.9588260978086],[13.7197504916395,45.9590705243601],[13.7202258105123,45.9593882519093],[13.7215862098033,45.9601024279332],[13.7227745738822,45.9610395192704],[13.723796678964,45.9618808044951],[13.7247979820529,45.9626684914811],[13.7258446142546,45.961806753074],[13.7272036700255,45.9607149931641],[13.7281757992224,45.9602360685248],[13.7297150185998,45.9595104238056],[13.7310123565099,45.958895354333],[13.7323671002249,45.9582735287668],[13.732634691786,45.9582385264331],[13.7337198203558,45.9580676320832],[13.7356632420008,45.9577719807488],[13.736523612051,45.9578113701146],[13.7374488289324,45.9579152637968],[13.7397159808662,45.9580147034763],[13.7417093850475,45.9581082946468],[13.7434543922244,45.9578164441587],[13.7449562555783,45.957562116748],[13.7451333498392,45.9575922247995],[13.7452523557942,45.9575895726463],[13.7455957334689,45.9575743574549],[13.7460704864036,45.957402761936],[13.7464520210163,45.9572572251439],[13.7467962879701,45.9570250796073],[13.7470456423508,45.9570258346232],[13.7477196542952,45.9569250700789],[13.7493302772996,45.9566742164683],[13.7510712420477,45.9564091987093],[13.7520164206191,45.9562562159703],[13.7533370058698,45.9554874646152],[13.7544480369452,45.9553470684644],[13.7550560450138,45.95527154472],[13.7555993058478,45.95508014101],[13.7559866130823,45.9548996338335],[13.7567800939711,45.9545368412884],[13.7578642954169,45.9540602327208],[13.7591346738803,45.9535062753271],[13.7602781239541,45.9529914167596],[13.760611168922,45.952807515812],[13.761303756934,45.9524080561079],[13.7615403289375,45.9522868109018],[13.7614969529771,45.9522593474033],[13.7618538404984,45.9518153952657],[13.7620126848154,45.9515640086013],[13.7621222964823,45.9513453801732],[13.7631804372291,45.9508060839622],[13.7636950700544,45.9513187686118],[13.7641823652899,45.951628345111],[13.765272822879,45.951276982941],[13.766243644884,45.9509276478458],[13.7674017902122,45.9505300277027],[13.768712087535,45.9500818482811],[13.769723306706,45.9497411968407],[13.7702181634173,45.9502405024599],[13.7703785677921,45.95013245569],[13.7706012216743,45.949956785249],[13.7706932399495,45.949919624632],[13.7707669457599,45.9498822669408],[13.77082331332,45.949806482087],[13.7708978620702,45.9497309827523],[13.7711918177911,45.9496323793502],[13.7714912625952,45.9492794666922],[13.7718858090776,45.9487495091488],[13.7724632523373,45.9481961414257],[13.7728687973822,45.947996967411],[13.7734541803314,45.947901487549],[13.7738042015776,45.9477398648239],[13.774871184952,45.9473060991126],[13.7762855103438,45.9468252062727],[13.776583792998,45.9467457106243],[13.7769273584004,45.9466540120186],[13.7778628487678,45.9463969670659],[13.7787236704301,45.9462153277127],[13.7794952705077,45.9459437407101],[13.7801357036225,45.9458361277078],[13.7807776577406,45.9456649129385],[13.7817679400497,45.9453956437447],[13.782666061787,45.9451762216901],[13.7834473842411,45.9450010779311],[13.7849692147388,45.9437613581272],[13.7863171526572,45.9427092645586],[13.7873577667656,45.9417250664215],[13.7878785765572,45.9412092598754],[13.7885063984125,45.9404576734669],[13.7892021551565,45.9397067134398],[13.7895875428025,45.9391658896207],[13.7903236851892,45.9386734974237],[13.791054649631,45.938062724535],[13.7913223757159,45.9378491596441],[13.7923802570222,45.9370116719818],[13.7941649340088,45.9356499862926],[13.7948934672458,45.9350940495588],[13.7950051730262,45.9350272042035],[13.7944449264118,45.9335721072965],[13.7933603389396,45.9326310950211],[13.7925730820963,45.9319543311541],[13.7917731518704,45.9312504343182],[13.7909418100179,45.9305273039953],[13.7901380627764,45.9298347823526],[13.7889290316588,45.9288003618957],[13.7879748900393,45.9279644250134],[13.7870310552836,45.927141996195],[13.7863098435029,45.9265241054489],[13.7858166830847,45.9262335450586],[13.7853239476042,45.9258942188346],[13.7842059159321,45.925081431593],[13.7828763674193,45.9241377114527],[13.7819902560217,45.9235118279174],[13.7816055871146,45.9233443261932],[13.780791028221,45.9229316349533],[13.7799777180269,45.9226095593427],[13.7791943473098,45.9220691505379],[13.7787626137256,45.9215796438311],[13.7779401650145,45.9206476728741],[13.7768781231343,45.9194614618944],[13.7766401473528,45.9192498045171],[13.7758493879597,45.9186972362082],[13.7749989777729,45.9180909356187],[13.7740755611456,45.9174521729553],[13.7732658651117,45.9168778785505],[13.7724369567075,45.9162869958636],[13.7717241523953,45.9157632194453],[13.7712878484867,45.9154333464447],[13.7708291532777,45.9154814101461],[13.7705507803751,45.9151920138713],[13.770371908023,45.9151720033793],[13.7700757995907,45.9152129057882],[13.7696561614084,45.9152028092474],[13.769216741227,45.9151079183674],[13.7692160563412,45.9149756427158],[13.7691760111928,45.9149094371251],[13.7690189412707,45.9148537579803],[13.768802801161,45.91488103208],[13.7683047984479,45.9147423167733],[13.7678950667967,45.9148322865774],[13.7678010439035,45.9148402704955],[13.7676987649042,45.9147437003443],[13.7677248280902,45.9146611113068],[13.7675417058772,45.9146177461327],[13.7673595342546,45.9144324949391],[13.7673072172423,45.9143792031672],[13.7674147373264,45.914239006987],[13.7674765171079,45.914121081852],[13.7670991126567,45.9138807267708],[13.7663679720047,45.9134260022108],[13.7661403466025,45.9132272113922],[13.7659634783359,45.9131171471989],[13.7655768932253,45.912983312352],[13.7646445181726,45.9128846966387],[13.7636385615315,45.9127619727113],[13.7628220414754,45.9128158494747],[13.7621937344673,45.9128053554287],[13.7614896763763,45.9128102329709],[13.7607020771532,45.912792425297],[13.7598835952047,45.912737475818],[13.7588191663906,45.9126824584226],[13.7579306476318,45.9126815310092],[13.7562907305465,45.9126985139316],[13.7556995681639,45.9126180253137],[13.7550259029938,45.9126415496017],[13.7546241398002,45.9126862095145],[13.754383490261,45.9127834623762],[13.7541853871967,45.9127075201989],[13.7540334617115,45.9126878678932],[13.7535852046225,45.9126845984841],[13.7532680444476,45.9126179733531],[13.7532744655009,45.9124578817359],[13.7526679659829,45.9119115714426],[13.7522950456495,45.9118715083669],[13.7520467573954,45.9117344589111],[13.7518564519797,45.9113110109395],[13.7518978477991,45.9110629425338],[13.7518490468434,45.9109398587341],[13.7516134964792,45.9109362955942],[13.7513790870192,45.9108588720888],[13.751360937167,45.910754298685],[13.7514124054388,45.9105802128561],[13.7513809516627,45.9104366233535],[13.7512137934905,45.9101826767436],[13.7509587099827,45.9099582714512],[13.7505077543069,45.9096569516037],[13.7502212628131,45.9094997750389],[13.7494080173156,45.9093233366985],[13.7492722872421,45.9091570103502],[13.7494521139482,45.9088463932717],[13.7496601508362,45.9086570157573],[13.7496633928875,45.9085700419921],[13.7487065175099,45.908361704007],[13.748791748719,45.9080620190737],[13.7485946521619,45.9078391431798],[13.748196531964,45.9075510797234],[13.7477774136757,45.9072626947552],[13.7475618391929,45.9068702748785],[13.7471755578955,45.9065148536541],[13.7469001558391,45.9064387709683],[13.7464554623024,45.9063825152471],[13.7460687276875,45.9063853799558],[13.7458852512512,45.9060563840888],[13.7456033621664,45.90579928014],[13.7453470080015,45.9055244601652],[13.7450932705858,45.9055053874894],[13.7440155254798,45.905858948413],[13.7434426149325,45.9059560346072],[13.7431791832068,45.9061322845441],[13.7429187565834,45.9061068349596],[13.7425640770176,45.9061514306186],[13.7422092912817,45.9060637554947],[13.7415961516619,45.9062639549086],[13.7414582616875,45.9062173568719],[13.7410859907806,45.9059168662679],[13.7408950249157,45.9059147620047],[13.7406635982052,45.9060147870593],[13.7404305247756,45.9063471181853],[13.7402959791988,45.9064204970593],[13.7396871085605,45.9062721562755],[13.7386504590669,45.9065675438059],[13.7383325975343,45.9065000595518],[13.7380123576633,45.9063441891767],[13.7376346731263,45.9063003364257],[13.7371477950759,45.9061723153404],[13.7366482904122,45.9061918974014],[13.7363097372082,45.9061844643723],[13.7359139412888,45.9060187545646],[13.7354516028031,45.9057128401175],[13.7353281599716,45.9055241384062],[13.7350805807377,45.9053078785602],[13.7349294328263,45.9051530615519],[13.7347988731,45.904954382803],[13.7347600567179,45.9046603527746],[13.7344833280508,45.90464379126],[13.7344064268288,45.9046248537722],[13.7339422817,45.9042972282733],[13.7336038495827,45.9041546406716],[13.733406716821,45.9037552898937],[13.7333069210819,45.9036777017346],[13.7331403598441,45.9036342849306],[13.733404143036,45.9033527869586],[13.7341675206659,45.9028876892867],[13.7342180328744,45.9027576898876],[13.7345493987856,45.9026380896713],[13.7347643062669,45.9024992032078],[13.7347784129759,45.9023094145017],[13.7348934751681,45.9022425747489],[13.7354161045235,45.9019295660082],[13.7355642530552,45.901756377087],[13.7363439109142,45.9014183148452],[13.736897933901,45.9013228549786],[13.7380021380227,45.9005959718272],[13.7377982702997,45.9004929437582],[13.7374013599375,45.9004120764999],[13.7370226009489,45.9003946635115],[13.7370806205172,45.9003423973781],[13.7373705498597,45.9000941113095],[13.7375244694776,45.8999899072422],[13.7376435058915,45.899753048907],[13.737896020578,45.8994778943706],[13.7379774766123,45.899227303695],[13.7382498254768,45.8989126868286],[13.7384823226264,45.8986903073555],[13.7387698415823,45.8985478060121],[13.7388099870005,45.8984424342046],[13.738833120266,45.898257423408],[13.7390690798277,45.8978761785421],[13.7391484307342,45.897718241809],[13.7391317574432,45.8976122428493],[13.7392345405806,45.8972559816076],[13.7393726730278,45.8970061052131],[13.7397730434632,45.8969046169794],[13.7400404125458,45.8968148876195],[13.7397777055123,45.8966928584867],[13.7392684943156,45.896581425874],[13.738835210683,45.8964576022322],[13.7384594748894,45.896307868637],[13.7380645009013,45.8961712381729],[13.7376875684565,45.8960744862878],[13.7372167150754,45.8959370145358],[13.7368038810389,45.8957471848269],[13.7363348345864,45.8955302781739],[13.7358244407867,45.8954717245983],[13.7354619523367,45.8952442960627],[13.7351016866048,45.8948964094196],[13.7349461202425,45.8937570855456],[13.7347457503304,45.8929964357114],[13.7346179140953,45.8922365887612],[13.7342649740976,45.891828224686],[13.7334792433008,45.8913392106807],[13.7328423462489,45.8906748536318],[13.7323837091521,45.8901388910726],[13.7320041205167,45.8893004852459],[13.7319741219464,45.8890220277058],[13.7318362353259,45.888717088642],[13.7315545811443,45.888360075253],[13.7312338555689,45.8881290475789],[13.7308012180078,45.8880483902615],[13.7303300787057,45.8880685296777],[13.7297836658169,45.8882141606525],[13.7293815913185,45.8883866783394],[13.7285819185163,45.8885295767746],[13.7280055161935,45.8883968308371],[13.7274371991353,45.887910195177],[13.7272386835033,45.8870736998062],[13.7272325711434,45.8857336660489],[13.727139892286,45.88502476952],[13.7269697582207,45.8845425665382],[13.7264002046878,45.8841064797546],[13.7256780488438,45.8840226652793],[13.7243010553468,45.8840832410226],[13.7224895958717,45.8841390330663],[13.720641487496,45.8842196700922],[13.7194649430265,45.8842191766996],[13.717335843764,45.8844111537873],[13.7168839687171,45.8844518792202],[13.7159873490152,45.8842237873426],[13.7153387754064,45.8840952050573],[13.7145157479141,45.8839949793158],[13.7136948206578,45.8838038925509],[13.7129594435725,45.8836743194436],[13.712262571168,45.8837575259052],[13.7114299945161,45.8840818709179],[13.7105919234323,45.8846488210388],[13.7093118996712,45.8855444150817],[13.7086495298813,45.8860222768813],[13.7080759466485,45.8864101701168],[13.7075907111933,45.8867383240901],[13.7071006728912,45.8872787718473],[13.7063775092621,45.8885142744684],[13.7060947691041,45.8894816749712],[13.7059519859592,45.8900260496411],[13.705751254406,45.8912066379554],[13.7055995622452,45.8921451983545],[13.7051086205593,45.892716039728],[13.7047978022555,45.8930158352799],[13.7040917607979,45.8934931750608],[13.7031707503327,45.8938771021075],[13.7025144538881,45.894082090994],[13.701777556287,45.8940130746345],[13.7010881876171,45.8937626567147],[13.7007883985588,45.8935773109918],[13.7008414550443,45.8931533042646],[13.7008112199787,45.8925766461033],[13.7006445090572,45.8922714316739],[13.6995264382477,45.8917735450763],[13.6987931154465,45.8915529357503],[13.6980596697168,45.8913323203032],[13.6972386960473,45.8911410250205],[13.696321935091,45.8913430082172],[13.6951326148267,45.8916064763609],[13.6948180449752,45.891591366013],[13.6935837712239,45.8914029705827],[13.6929006568492,45.8913612355712],[13.6915917113436,45.8911376823626],[13.6908114532541,45.8910681886008],[13.6901884891873,45.8910990196937],[13.6896063643769,45.8911849329558],[13.6888919526568,45.8912578079896],[13.6885897218833,45.8912770140465],[13.6883812118224,45.8911247157871],[13.6881022065606,45.8910057996853],[13.6880227885446,45.8908544430919],[13.6884576475298,45.8906857765376],[13.6890576206763,45.8905421275252],[13.6894569175387,45.8904772446512],[13.689657717493,45.8903985667571],[13.6897600298915,45.8902724199961],[13.6898130198534,45.8901341002796],[13.6898338619295,45.8899491627517],[13.6897702414585,45.8898327203487],[13.689491239566,45.8897138076507],[13.6888272582795,45.8897525288709],[13.6880266197216,45.8899749435967],[13.6872616800434,45.8900819600637],[13.6868798194847,45.8901123038171],[13.6863169166172,45.8900827084021],[13.6857070198092,45.8899368567943],[13.6848942640538,45.8899623263621],[13.6845457810747,45.8899815292006],[13.6832701198071,45.8899553175033],[13.6828735547621,45.8899044974018],[13.6822786441985,45.8898282639395],[13.6819157338133,45.8897547040801],[13.6815394938381,45.8895420618362],[13.6811786485498,45.8893759351765],[13.6802858134379,45.8892846447271],[13.6797898107897,45.8892326652837],[13.6793423048049,45.889227583404],[13.6792082366001,45.8892954973378],[13.6791063237644,45.8893984247455],[13.6791037100212,45.8895141073898],[13.6792501343129,45.8896316029627],[13.6795902456465,45.8899710653734],[13.6797524688927,45.8901233847484],[13.6797465651518,45.8903779567721],[13.6795570124278,45.8906882628963],[13.6793180084162,45.8909863898089],[13.6788287305005,45.891351176107],[13.6784946614297,45.8914630254369],[13.6782458918551,45.8914717550663],[13.6780138865656,45.8914690708545],[13.6776501473175,45.8914302197182],[13.6773364086317,45.8913803389943],[13.6770872370698,45.8914005787419],[13.676517583865,45.8916602289262],[13.6762295125723,45.891934656381],[13.6759701437155,45.8923946821899],[13.6756984263866,45.8926692977929],[13.6754271110946,45.8929323101281],[13.6750354463598,45.8933791926587],[13.6747255101332,45.8938732709691],[13.6745964820163,45.8944273035579],[13.6746740163437,45.8947594150254],[13.6755287817668,45.8944444134237]]]},"properties":{"fill-opacity":0,"stroke-opacity":1,"stroke":"#ff0000","lov":"1210","lov_naziv":"LIJAK","luo":"12","luo_naziv":"Zahodno visoko Kraško","povrsina":3942.47},"id":"pregledovalniklovisca.1"}]}