{"type":"FeatureCollection","features":[{"type":"Feature","geometry":{"type":"Polygon","coordinates":[[[14.2669190231472,45.8828307783186],[14.2663609903394,45.8818556988169],[14.2660508606898,45.8810067393055],[14.2655272299032,45.8801315726138],[14.2648637156311,45.8790312769287],[14.2644098410924,45.8782810839225],[14.2642806656988,45.8772339812274],[14.2642913860071,45.8764119157365],[14.2646593006324,45.8755423911843],[14.265453127815,45.8748248786213],[14.2684767041755,45.8718012872486],[14.270118010102,45.8699206108784],[14.2711856215347,45.8687717387562],[14.2716446690334,45.8681705485778],[14.271958980734,45.8671219598498],[14.2720860658024,45.8660198098656],[14.2725951017518,45.8644471631502],[14.2745049494617,45.86212165579],[14.2789605973715,45.8576582944031],[14.2821189592537,45.8546574988532],[14.2828770719399,45.8541631461404],[14.2827118912227,45.8540005971216],[14.2820001156897,45.8529856630173],[14.2817086372137,45.8525318666997],[14.2813808178852,45.85208072038],[14.2810151560969,45.851578946736],[14.2808446614631,45.8512502602832],[14.2805313623691,45.8508324950391],[14.2804423378374,45.8504969426216],[14.2803539537178,45.8501118157131],[14.2802552452199,45.849588865799],[14.2801804875176,45.8490858620236],[14.2801292504327,45.8483765944299],[14.2800777220418,45.8478097617246],[14.2797203267707,45.8475683450381],[14.2794480160437,45.8473786618914],[14.2794145967891,45.8471948038865],[14.2788841163426,45.8470867215912],[14.2786213248195,45.8469976931238],[14.2793803307901,45.8465480882201],[14.2801189690736,45.8461793310893],[14.2809805951776,45.8457573557119],[14.2814915463092,45.8455716137817],[14.282188181743,45.8454634284548],[14.2828401019216,45.8453280544878],[14.2833961011489,45.8451425867637],[14.2836499687158,45.8449237298693],[14.2840159017918,45.8444896248514],[14.2842789255184,45.8440683709309],[14.2846076117163,45.8435260557078],[14.2850174601104,45.8432001072903],[14.2852972758539,45.8429544152969],[14.2854623381537,45.842631522796],[14.285383270326,45.8422711118029],[14.285250868009,45.8420543337336],[14.2849955969892,45.8418817762713],[14.2846168812335,45.8417984245593],[14.283825423704,45.8417754707239],[14.283354751458,45.8418355050418],[14.2828240688099,45.8420571232197],[14.2825259071522,45.8422172138232],[14.2821506208398,45.8423678212205],[14.2816474105204,45.8424547277934],[14.2811262239001,45.8424378630953],[14.2807098185983,45.8422822780037],[14.2805254772686,45.8421012491115],[14.2804718991888,45.8417633999812],[14.2805602122471,45.8414040394964],[14.2807774260326,45.8410319934932],[14.2812189763013,45.8402339574871],[14.2813541313085,45.8397354232388],[14.2812502770374,45.8393027799747],[14.2810982415901,45.8391128672262],[14.2807542238273,45.8388362657192],[14.2801641869347,45.8386705875109],[14.2799001897524,45.8386779219602],[14.2797195719153,45.8387082762361],[14.2790467866352,45.8389694717389],[14.2785798356466,45.839241050949],[14.2783504979808,45.8395545298558],[14.2783217287068,45.8397882940069],[14.27847932051,45.8400457298947],[14.2787204114105,45.8403171895514],[14.2787492215402,45.8405783109861],[14.2785644105906,45.8409325619289],[14.2783159310085,45.8412324229423],[14.2779249156485,45.8416033660497],[14.277490527148,45.8418436537679],[14.2770900666105,45.8419490957985],[14.2766520932233,45.8419688187667],[14.2761958017732,45.8419119417492],[14.2757091385046,45.8417154027155],[14.2754100700284,45.841448068073],[14.2753299590803,45.8411731236074],[14.2753728420166,45.8408448816738],[14.2754092285282,45.8405211874458],[14.2753932482649,45.840264645483],[14.2752557966834,45.8399443476718],[14.2749242079993,45.8397037991479],[14.2745590964563,45.8395665128761],[14.2738717083765,45.8394631694918],[14.2735362059515,45.8395240223061],[14.2731999413467,45.8396433557531],[14.2727652562092,45.8399060285163],[14.2722907164784,45.8402630139024],[14.2718101463248,45.8405883761789],[14.2714265858945,45.8408783633671],[14.2710508678799,45.8410604242986],[14.270787269852,45.841036247533],[14.27017851911,45.8408254088009],[14.2700710312696,45.8406672586555],[14.2698545383247,45.8400045285396],[14.2694659187843,45.8396871174154],[14.2692934362106,45.8395870374075],[14.2687727510531,45.8395342178491],[14.2678638887134,45.839631873907],[14.2670726474279,45.8395953085041],[14.2660641732081,45.8394358705664],[14.265673044947,45.8393208835622],[14.2652572986963,45.8391202566841],[14.2650548362373,45.8388535159682],[14.2649617892947,45.8385874788027],[14.2649923907724,45.8382187609279],[14.2650822188315,45.8377514468464],[14.2652522975293,45.8370551117401],[14.2651287312154,45.8366629074494],[14.2650408100705,45.836486882446],[14.264839197648,45.8361661591484],[14.2646677313677,45.8359805983507],[14.2643048038756,45.8356813306198],[14.2640442588065,45.8354277108404],[14.264008491115,45.8352115302509],[14.2640204421157,45.8347932036912],[14.2640950886569,45.8345012518856],[14.2642718750434,45.834272853256],[14.2645182648137,45.8341349716456],[14.2649165600339,45.8341915223041],[14.265031867614,45.8342327547392],[14.2652229223857,45.8343869482755],[14.2654770915909,45.8346360254622],[14.2658343033047,45.8348902631693],[14.2661223013413,45.835004587375],[14.2664498814701,45.835065177424],[14.2668769999923,45.8348879602168],[14.2670085484185,45.8346728539718],[14.267083179189,45.8343809001121],[14.2670909624715,45.8342684759564],[14.2669017931427,45.8339703308088],[14.2667365954616,45.8338073080835],[14.2660159435282,45.8333032960386],[14.2658573041707,45.8331313162223],[14.2657695740125,45.832950793934],[14.2655064623635,45.8319142510113],[14.2652273511407,45.8311161395764],[14.2647130502548,45.8300960647291],[14.2639360016758,45.8289932236562],[14.2637419867116,45.8288504361193],[14.2639658448961,45.8286820873464],[14.2642258865699,45.8284831082208],[14.2643448799931,45.82824362953],[14.2644630783813,45.8280644317618],[14.2646600937426,45.8277642689911],[14.2647525507879,45.8275849052422],[14.2648719442778,45.8273049378225],[14.2648751065816,45.8270647132316],[14.2648126078918,45.8269238532956],[14.2646986292806,45.826782841999],[14.2646224681174,45.8267021802158],[14.2643935896255,45.8265000528803],[14.2642534859105,45.826378578417],[14.2641408269307,45.8261376079417],[14.2640531249003,45.8259561844985],[14.2639656843064,45.8257549671983],[14.2639148630307,45.8256463046075],[14.2638905798597,45.825594320031],[14.2637127835827,45.825413215638],[14.263572551739,45.8253115349593],[14.2634068314062,45.8251907941167],[14.2631247797309,45.8251079939954],[14.2628046324127,45.8249862562432],[14.2626126539852,45.8249049357635],[14.262459556423,45.8248031706769],[14.2623450544735,45.8247025543573],[14.2622696946162,45.8245616999165],[14.262181466221,45.8244207623254],[14.2621827974561,45.8243199939688],[14.2622103774966,45.8241807039541],[14.2622765757609,45.8240407634844],[14.2623036444144,45.8239401612934],[14.2622797607517,45.8237996391782],[14.2621400585566,45.8236583691797],[14.2620266175567,45.8234776776737],[14.2619378683158,45.8233763274561],[14.2617968361575,45.823335825408],[14.261654757526,45.8233744983292],[14.261512405082,45.8234338645743],[14.2613319817134,45.8234524937775],[14.2611652124545,45.82341182456],[14.2609595755176,45.8233906991801],[14.2607922827687,45.8233896169846],[14.2605857312283,45.8234278714438],[14.2604188291779,45.8234069957535],[14.2602522061334,45.8233456308781],[14.2600473684443,45.8232642228055],[14.2598811372223,45.8231830644473],[14.2597923923572,45.8230817125847],[14.2597044348862,45.8229209793187],[14.2595647414147,45.8227797062032],[14.2594245118095,45.8226789201908],[14.2592853565847,45.8224971594623],[14.2594032962901,45.8223377605526],[14.2595719097576,45.8222389761456],[14.2598308755314,45.8221200815535],[14.2600375681916,45.8220611340901],[14.2603211964831,45.8220233796152],[14.2606429054131,45.8220254618217],[14.2611577684581,45.8220287923002],[14.2619041334427,45.8220336161684],[14.2622132475263,45.8220149173154],[14.2624968741797,45.8219771574288],[14.2627941763129,45.8218782990413],[14.262937581295,45.8217387662739],[14.2630542506875,45.8216747336162],[14.2629919630979,45.8215186673811],[14.2628262658692,45.8213971159468],[14.262686829502,45.8212360527881],[14.2625468593897,45.8211154767725],[14.2624330451456,45.8209535888907],[14.2623704134951,45.8208335118664],[14.2623725390917,45.8206725523018],[14.2624640679917,45.8205533804681],[14.2625557358693,45.8204333996403],[14.2624933777481,45.8202926291563],[14.2623527577397,45.8202117296412],[14.2621476681,45.8201500291687],[14.2619814429996,45.8200688738602],[14.2618417507767,45.8199276034668],[14.2617795279235,45.8197670379653],[14.2617304455378,45.8195859520273],[14.2617328249797,45.8194059184256],[14.2617606770472,45.8192459348738],[14.2618791377316,45.8190460459123],[14.261945330577,45.8189061054771],[14.261999190375,45.8187255945615],[14.2620672366636,45.8184452979787],[14.262121618522,45.8182251993752],[14.2622132713656,45.8181061184731],[14.262357462796,45.8179063951234],[14.2625520655817,45.8177870787408],[14.2627085879465,45.8176279253111],[14.2628522421017,45.8174686886428],[14.2629310367173,45.8173486243979],[14.2629328885954,45.8172082682739],[14.2628184011848,45.8171076523853],[14.2626779303951,45.8170257644112],[14.262563182527,45.816944942081],[14.2624867751976,45.8168841626205],[14.2625140892722,45.8167646661371],[14.2626566848374,45.8166855046513],[14.2627984963885,45.816665724426],[14.2629786362077,45.8166668865629],[14.2632357059107,45.8166892398004],[14.2633796289847,45.8165093088834],[14.2634334698861,45.8163296968928],[14.26350150592,45.816049399277],[14.2635046859231,45.8158081845937],[14.263468991246,45.8155875045897],[14.2633687016895,45.8153862036375],[14.2632812677731,45.8151858852779],[14.2632828576141,45.8150653229112],[14.2633101809142,45.8149449264646],[14.2633763651974,45.8148049850487],[14.2634811491573,45.8146652924164],[14.2635727931814,45.8145462102964],[14.2636901819032,45.8144263942144],[14.2637566254496,45.8142666587297],[14.2636682805582,45.8141257212811],[14.2635536658144,45.8140449007615],[14.2633874685629,45.8139628477914],[14.2632083934465,45.8138816113315],[14.2630941733515,45.813761201874],[14.2630180308501,45.8136806289327],[14.2629550279812,45.813579445395],[14.2628672084851,45.8133989196777],[14.2627267350075,45.8133179314866],[14.2625856068564,45.8132963254288],[14.2624439483135,45.8132954110795],[14.2622766857375,45.8132943312403],[14.2621354172812,45.8132736235162],[14.2620466838208,45.8131722733008],[14.2620739969212,45.8130527768399],[14.2621010603672,45.8129521744738],[14.2621409780809,45.8128525549076],[14.2621685640879,45.8127123648712],[14.262196411332,45.8125523809984],[14.262250263938,45.812371869722],[14.2622922954609,45.812112100033],[14.2623482616321,45.8117714386251],[14.262351706267,45.8115105199651],[14.2623034141221,45.8112699625824],[14.2622679882104,45.8110294882441],[14.2621942385119,45.8107680711026],[14.2619912976474,45.8105463103395],[14.2619408924674,45.8104659028732],[14.2618272287629,45.8103041050339],[14.2618540178939,45.8102241962243],[14.2619968590044,45.8101252415426],[14.2621139684115,45.810026120505],[14.2622056194825,45.8099061396368],[14.2622332037802,45.8097659495029],[14.2622350569216,45.8096255932139],[14.262211440447,45.8094652769359],[14.2620983007247,45.8092638916723],[14.2619851618103,45.8090625062945],[14.2618454967475,45.808921235803],[14.2618218816639,45.8087609194335],[14.2618234742972,45.8086403569702],[14.2618767893812,45.8085003331272],[14.2619048966544,45.8083205553614],[14.2618558246408,45.8081393792031],[14.2617677555466,45.8079786463833],[14.2616014340961,45.8079172852456],[14.261370791856,45.8078357125419],[14.2612042095843,45.8077941446677],[14.2611134900231,45.8078340488851],[14.2607905416873,45.8079318373967],[14.2605715609619,45.8079511157665],[14.2603657191058,45.8079497834451],[14.2601346830834,45.8079077967557],[14.2598789777712,45.8077855678849],[14.259648729519,45.8076841987236],[14.2594179574681,45.8076224167623],[14.2591354514962,45.8075809942192],[14.2589939362017,45.8075800765151],[14.2588259032772,45.8076383732128],[14.2586441932984,45.8077577671043],[14.25844802952,45.8079967398714],[14.2583043756321,45.8081568710569],[14.2581481304431,45.8082962249798],[14.2580315552966,45.8083548545993],[14.2578889627111,45.8084349102373],[14.2576568628591,45.8084729935397],[14.2574256593987,45.808443597442],[14.2573228918889,45.8084313221134],[14.2571821758137,45.8083701209796],[14.2569262117328,45.8082676793545],[14.2567225002458,45.8081061005194],[14.2565187887385,45.8079446112957],[14.2563027509658,45.8077426405946],[14.2560987784984,45.8076009444434],[14.2558422807899,45.8075389877594],[14.2557010293421,45.8075182721634],[14.2555203799274,45.8075575860785],[14.2554045948293,45.8075568315798],[14.2551459634771,45.8076550232705],[14.2549261902955,45.8077336722469],[14.2547458156269,45.8077522914004],[14.254579362035,45.8076918189693],[14.2543751300559,45.8075699135762],[14.2541446286264,45.8074883271939],[14.2539532633061,45.8073665050335],[14.2536972977945,45.8072649559402],[14.2534156154096,45.8071623384357],[14.2531845760116,45.8071212374575],[14.2530058143425,45.8070192916152],[14.2528661771607,45.8068780102694],[14.2527781359535,45.8067172706576],[14.2526387648062,45.8065561952308],[14.2525240528957,45.8064753628939],[14.2523577462193,45.8064139883746],[14.2520997930107,45.806451891223],[14.2519317443865,45.8065110774876],[14.2517251010904,45.8065700107508],[14.2514412686495,45.8066284379553],[14.2511453786025,45.8066264990257],[14.2509269426,45.8066052716158],[14.2507479092907,45.8065240157811],[14.2506720718956,45.8064227411693],[14.250634816846,45.8063226193565],[14.2505855056064,45.8061621320464],[14.2504994951665,45.8058601358226],[14.2504496416847,45.8057401357572],[14.2503874789979,45.8055786642383],[14.2503893616171,45.8054383082233],[14.2504301031314,45.8052784116031],[14.2504834433815,45.8051383931524],[14.2506013708155,45.8049790027745],[14.2507707550403,45.8048199497082],[14.250915217605,45.8046004465753],[14.2509559690344,45.8044396500128],[14.2509189800506,45.8043197344596],[14.2508426025745,45.8042589472643],[14.2507016387709,45.8042175320173],[14.2505215395817,45.8042163507725],[14.2503540270644,45.8042359471677],[14.2501476682268,45.8042741841245],[14.2499541612845,45.8043134048741],[14.2496952698624,45.8044313781139],[14.2495140947542,45.8045102701832],[14.2492803742006,45.804669798489],[14.2489949409623,45.8048478821608],[14.248709348673,45.8050376614337],[14.2484089770074,45.8053696007149],[14.248264526817,45.8055873011404],[14.2480949515766,45.8057598461739],[14.2479778507369,45.8058571533815],[14.2478592116474,45.8060687245802],[14.2477542719902,45.8062182998429],[14.247558660956,45.8064131675714],[14.2474409398926,45.8065563597849],[14.2473096626991,45.806750751002],[14.2472048051127,45.8068940277048],[14.2471510307062,45.80706553462],[14.2470459417846,45.8072259057877],[14.2469282176754,45.8073690974337],[14.2467842172972,45.8075526065978],[14.2466019241388,45.807713368159],[14.246523254004,45.8078226246074],[14.2463281790686,45.8079770028552],[14.2461458103826,45.8081431619605],[14.2459899478854,45.8082519086991],[14.2458468649525,45.8083670381535],[14.2456658040425,45.8084361170413],[14.2454591714359,45.8084932394328],[14.2452527328433,45.8085359659834],[14.245059815533,45.8085301924764],[14.2449699900795,45.8085125027876],[14.2448799215233,45.8085128073571],[14.2447640496088,45.8085183400787],[14.2446353854431,45.8085183893316],[14.244481063866,45.8085128700023],[14.2443395345185,45.8085128338504],[14.244159397411,45.8085134419244],[14.2439152508295,45.8084902314368],[14.2436359202212,45.8083953436522],[14.2433720827125,45.8081445330105],[14.2429659996462,45.8078803621551],[14.2425933626493,45.807778285029],[14.2421502595511,45.8076258905625],[14.2416536805325,45.8074607222542],[14.2413681739369,45.8075086756722],[14.2410811843691,45.8076563160279],[14.2407938559201,45.8078287878024],[14.2405249156044,45.8079640395085],[14.2402745742694,45.8080371483066],[14.2400260958253,45.8079732298809],[14.2393179938245,45.8076572779989],[14.2386764217191,45.8076904363637],[14.2379808213552,45.8077605723759],[14.2376421304935,45.8077833273668],[14.2373592100355,45.8076319829967],[14.2370051480028,45.8074801628649],[14.2367206996191,45.807440921408],[14.2363279818581,45.8075006531434],[14.2360235662313,45.807623239948],[14.2358284841597,45.8075596694093],[14.2354935429571,45.8073083649426],[14.2351509478398,45.8067610649834],[14.2347753932945,45.8069394095571],[14.2346070540791,45.8070183639288],[14.2343486604923,45.8070967146155],[14.2342052238614,45.8072361216696],[14.2340620565769,45.8073558247914],[14.2339438069802,45.8075349014433],[14.2338775568163,45.8076749155443],[14.2338490761015,45.8078753792909],[14.2338203237835,45.8080956367344],[14.2338173014703,45.8083160667063],[14.2337890915877,45.8084967367015],[14.2337214716108,45.8087365289704],[14.233666987766,45.8089566137672],[14.2335741790118,45.8091566459261],[14.2334816534483,45.8093359845782],[14.2334019803373,45.8095163091804],[14.2334000547837,45.8096566645433],[14.2333573355824,45.8099569099923],[14.2333282962213,45.8101978606293],[14.233299540538,45.8104181178319],[14.2333222472349,45.8106387203508],[14.2333849337547,45.8107588139051],[14.2334860624522,45.8108998606455],[14.2336381135123,45.8110619441781],[14.2337781245204,45.8111825561261],[14.2339177237523,45.8113238604562],[14.2340307656179,45.8115252729337],[14.2341057655467,45.8116859394569],[14.2341928056248,45.8119069729797],[14.2341648662968,45.8120678492509],[14.2341363965005,45.8122674131945],[14.2340181229737,45.8124474793904],[14.233874128787,45.8126264732005],[14.2336928926049,45.8127062394714],[14.233549439766,45.8128456454641],[14.2334314470255,45.8130050176079],[14.2332863494181,45.8132641750921],[14.2332833133415,45.8134854145781],[14.2332794722032,45.8137653153549],[14.2330202179329,45.8139039435148],[14.2329022090623,45.8140642147719],[14.2327319180952,45.8142835213589],[14.2327042574895,45.8144237037741],[14.232663730184,45.8145637997686],[14.232661530574,45.8147239486665],[14.2327710037994,45.8151853793013],[14.2328566601432,45.8155071815433],[14.2328788109515,45.8157682710318],[14.2328752405162,45.8160282880183],[14.2328741409606,45.8161083624512],[14.2328210176792,45.8162285783863],[14.2327547553528,45.8163685015693],[14.2327016315605,45.8164887174403],[14.2326742539496,45.816608206397],[14.2327226945302,45.8168289816193],[14.2327722352221,45.8169696823973],[14.232770307586,45.8171100375556],[14.2328327158139,45.8172508247044],[14.2328305164823,45.8174109735329],[14.2328285889629,45.8175513286823],[14.2327365904892,45.8176910790173],[14.2326577307544,45.8178111220153],[14.2324753881069,45.8179700608534],[14.232216112215,45.8181086869502],[14.2320466211396,45.8182687012304],[14.2319543486015,45.8184281545946],[14.2319001187895,45.8186285343771],[14.2318584851664,45.8188487043268],[14.2318297187956,45.8190689607622],[14.2317752169023,45.819289044149],[14.2316823837463,45.8194890742585],[14.2315635421506,45.8197087248624],[14.231418419328,45.8199677895343],[14.2312732827638,45.8202277537134],[14.2311807186534,45.8204079897039],[14.2310873365093,45.8206476065778],[14.2310596684219,45.8207877883929],[14.2310317276918,45.8209477638516],[14.230888804313,45.8210466791071],[14.2307083666918,45.821066159655],[14.2305671032238,45.8210445131647],[14.2303486180068,45.8210233361267],[14.2301681926841,45.8210419161096],[14.2299746139216,45.8210811024454],[14.2297030076284,45.8211791489014],[14.2295346057563,45.8212589949947],[14.2293659427243,45.8213577347699],[14.2291581159428,45.821496700851],[14.2289888926501,45.8216359270538],[14.2288711413365,45.8217755004003],[14.2286641442352,45.8218541849219],[14.2284957512778,45.8219331297412],[14.2283281906791,45.8219517936824],[14.2280960027443,45.8219907160662],[14.2278898370756,45.8220091185494],[14.2277222636176,45.8220286813097],[14.2274906349301,45.8220271154778],[14.2273499179642,45.8219658777376],[14.2272092013082,45.8219046398254],[14.227094769201,45.8218039885741],[14.2270063602576,45.8216828179837],[14.2268662051106,45.8215810926762],[14.2266359610983,45.8214796572501],[14.2263285080382,45.8213777885591],[14.2260719824107,45.8213156750251],[14.2257002034345,45.8212124691129],[14.2252635253154,45.8211492227437],[14.2247244533998,45.8210456889969],[14.2242875028463,45.821002232535],[14.2237727823319,45.8209987368586],[14.2233997565426,45.8209764065501],[14.222975112397,45.8209735194865],[14.2226016648354,45.8209907746824],[14.2218813323201,45.8209660758439],[14.2213923484247,45.8209627447114],[14.2211733165062,45.8209810473989],[14.220941127822,45.821019955243],[14.2207601334896,45.8210790972423],[14.2205657195782,45.8211776484092],[14.2203584243592,45.8212770111433],[14.2201640090545,45.8213755616141],[14.2199570013851,45.8214542302965],[14.2197505461413,45.8214933113994],[14.2196089968985,45.8214923446913],[14.2193519113007,45.821470792993],[14.2190699450938,45.8213878846092],[14.2188391500107,45.821326920467],[14.2185568957949,45.8212647041292],[14.2182998116811,45.8212431500721],[14.2180416193516,45.8213007698081],[14.2177834138963,45.8213592886652],[14.2175498223552,45.8214980572489],[14.2173422432901,45.8216172080511],[14.2170837582067,45.8216955188968],[14.2168515638072,45.8217344183874],[14.2165414748538,45.8218124642678],[14.21633403379,45.8219307143842],[14.216139596558,45.8220301576432],[14.2159067157097,45.8221086414757],[14.215622340563,45.8222065668223],[14.2153897363182,45.8222652560119],[14.215131523692,45.8223237688191],[14.2148347056225,45.8223820157566],[14.2146148185058,45.8224605862426],[14.2144066728325,45.8226193187699],[14.2141985259752,45.8227780509059],[14.2140038034671,45.8228972840398],[14.213744736633,45.8230161640569],[14.2134862401132,45.8230944666695],[14.2132280217049,45.8231529751284],[14.2127885153063,45.8232903158371],[14.2126169882743,45.8235896653363],[14.2124977839299,45.8238290889631],[14.2123262536522,45.8241284379767],[14.2122070341935,45.8243687609691],[14.2120494992294,45.8245881243278],[14.2119703059967,45.8247279461006],[14.2118267680314,45.8248673239709],[14.2115931457933,45.8250061700695],[14.2114498983515,45.8251248541938],[14.2112162753715,45.8252636095319],[14.2109826512324,45.8254023643812],[14.2108119470504,45.8256423303246],[14.210718748432,45.8258621361611],[14.2106012224469,45.8259818966774],[14.2103933320688,45.8261208280956],[14.2101348165225,45.8261991229586],[14.2099669573146,45.8262375533716],[14.2097979521134,45.826356957092],[14.2097302066892,45.8265967335987],[14.2097013474522,45.8268170735378],[14.2097236738464,45.8270583727878],[14.2098109331458,45.827258730579],[14.2099241992911,45.8274403724573],[14.2101149758436,45.827601854823],[14.2103187517216,45.8277634267091],[14.2104324642868,45.8279045804235],[14.2105464348156,45.8280457358036],[14.21057046965,45.8281664742545],[14.2105167270015,45.828326266242],[14.2104243622306,45.8284866911044],[14.2103325821887,45.8286057294116],[14.2100709367929,45.828904451959],[14.2098741980352,45.829164031831],[14.2097812697841,45.8293640431799],[14.2096617477718,45.8296241566764],[14.2095427964968,45.8298438732492],[14.2095399689988,45.8300436078804],[14.209562588733,45.8302642138038],[14.2095603089296,45.8304252610859],[14.2094808207826,45.8305848744158],[14.2093624285233,45.8307649137384],[14.2092700690617,45.830924437846],[14.2092417802016,45.8311042007676],[14.2091488463697,45.8313042114985],[14.2090945230253,45.8315044894179],[14.2090261944928,45.8317847519634],[14.2089973307987,45.8320050015194],[14.2089933539677,45.8322857095041],[14.2090148379266,45.8325863891882],[14.2090108598284,45.8328671871159],[14.2090071633689,45.8331281015507],[14.2090040404584,45.8333485292533],[14.2090661257914,45.8335091222186],[14.2090241099491,45.83374907612],[14.2089697836615,45.8339493538762],[14.2088250795031,45.8341688012695],[14.2086160189447,45.8343878027427],[14.2083285819099,45.8346872421666],[14.2081572887275,45.8349658907872],[14.2079199143191,45.8353655530945],[14.2077354506976,45.8356648949626],[14.2075386768893,45.8359244702798],[14.2074457287184,45.8361244793649],[14.2072498207067,45.8363228742685],[14.207067626266,45.8364619776844],[14.2068079075653,45.8366212378875],[14.2066008245881,45.836699881667],[14.2064317802822,45.8368192799351],[14.206237861902,45.8368773192563],[14.2059392424036,45.8370561026603],[14.2057052739193,45.8372146395018],[14.2054464173542,45.837312806672],[14.2051598064556,45.8375519576317],[14.2050170766607,45.8376310461818],[14.204783103151,45.837789581086],[14.2046126287021,45.8380088436506],[14.2044676018472,45.8382489783602],[14.2044001005623,45.8384689574962],[14.2043717918861,45.8386487188473],[14.2043434701957,45.8388293798876],[14.2043906754024,45.8391302392196],[14.2044999597893,45.8395916937543],[14.2045863474641,45.8398532349008],[14.2046973384705,45.8401951187],[14.2048093195849,45.8404766332149],[14.2049466361644,45.8407781193245],[14.2050596313579,45.840979559136],[14.2051337276656,45.8412005236517],[14.2052447258811,45.8415423169084],[14.2053048108075,45.8418432653057],[14.2053794855908,45.8420237430204],[14.2054418515589,45.8421645442478],[14.2055311033575,45.8422254509147],[14.2056712706055,45.8423272021131],[14.2058125905549,45.8423479798921],[14.2059805139357,45.8423086563249],[14.2061621545061,45.8422100415568],[14.2063309344056,45.842110437375],[14.2064482097062,45.8420113750391],[14.2066155561314,45.8420125371611],[14.2067951999953,45.8420542750397],[14.2069617028559,45.8421148170566],[14.2071273369839,45.8422365386422],[14.2072403429588,45.842437976317],[14.2072635202325,45.842618995259],[14.2072609644557,45.8427989358653],[14.2072069037664,45.8429794189029],[14.2071534178575,45.8431194152746],[14.2070867773814,45.8432791157474],[14.2070590371309,45.843419290728],[14.2070827893784,45.8435598230462],[14.2071457364745,45.8436601367173],[14.2073374030929,45.8437622431875],[14.2074775902618,45.8438630924867],[14.2076183399799,45.8439243546873],[14.2077067539937,45.8440446400623],[14.2077699709492,45.8441260596308],[14.2077297811274,45.8442454532296],[14.2076508295791,45.844365477813],[14.2073919443195,45.8444635591033],[14.2072364788838,45.8445227665803],[14.2070940152506,45.8445820640715],[14.2070153558812,45.8446813950351],[14.2069751499698,45.8448017780165],[14.2068404796299,45.8461244362108],[14.2068379221768,45.8463043766879],[14.2068098983635,45.8464643449718],[14.2067303661285,45.846624855443],[14.2066126713755,45.8467437104843],[14.2065206872073,45.8468834391454],[14.2065189729802,45.8470039992402],[14.2066325617705,45.8471649508001],[14.2066820624571,45.8473056618916],[14.2066022472078,45.847485965687],[14.2063024442623,45.847744013097],[14.2060155011992,45.8480029588841],[14.205638730354,45.8482405842872],[14.2052359129991,45.8484987224592],[14.2050656890121,45.8486981916518],[14.2049080561559,45.8489175435977],[14.204854558602,45.8490575386731],[14.204852276538,45.8492176855384],[14.2047598717036,45.8493772951718],[14.204616817195,45.8494769860184],[14.2044729143157,45.8496361469388],[14.2043799304079,45.8498362427998],[14.204352179885,45.8499764168969],[14.2043753634123,45.8501565364449],[14.2044371584006,45.8503378246187],[14.2044869512682,45.8504578434382],[14.2044852324336,45.8505784033978],[14.2044325916536,45.8506581182401],[14.2044051230544,45.8507784989033],[14.2042875304181,45.8508982519708],[14.2040803906973,45.8509768906143],[14.2039121574413,45.8510360045705],[14.2037044517266,45.8511542293654],[14.2035347791506,45.8513141092571],[14.2033522434705,45.8514729994195],[14.2031167791039,45.8517314868671],[14.2029728532175,45.8518915454699],[14.2028541111327,45.8520913703571],[14.2026841632547,45.8522701426361],[14.2025662808654,45.8524096872666],[14.2024478320035,45.8525888185868],[14.202445246947,45.8527696583679],[14.202468991224,45.852910191366],[14.2025834416203,45.8530108668637],[14.2026973138578,45.853152028765],[14.2028369374539,45.8532933702106],[14.2029247644186,45.8534550453372],[14.2028970083217,45.8535952189566],[14.2028051702868,45.8537142503183],[14.2026357830117,45.853853435629],[14.2023765489991,45.8539721981498],[14.2021945802024,45.8540905998036],[14.2020509286058,45.8542308637199],[14.2019073020254,45.8543693280473],[14.2018154464338,45.854489348245],[14.2016715224887,45.8546485053602],[14.2014371713537,45.8548277255057],[14.2012672105096,45.8550064955069],[14.2010331400351,45.8551659214],[14.2007990811118,45.8553244471008],[14.2006565830086,45.8553837362263],[14.2002551353526,45.855541089679],[14.200021937047,45.8556393338909],[14.1997375051618,45.8557183232246],[14.199479134245,45.8557758994833],[14.1993105846665,45.855855699569],[14.1990779646554,45.8559134553662],[14.1989357474586,45.8559529489365],[14.1987034109652,45.8559909105851],[14.1984713456199,45.8560099780798],[14.1982392930526,45.8560281454032],[14.1980724856254,45.8559865742566],[14.1981511783372,45.8558871598866],[14.1983065563174,45.8558279642594],[14.1983855315062,45.8557088463124],[14.1983615120122,45.8555881059736],[14.1982210278302,45.8555070389879],[14.1980539387358,45.8554851712293],[14.1978739609615,45.8554641125371],[14.1976163146498,45.8554623035479],[14.1971268752694,45.8554786608654],[14.1966760907741,45.8554754924834],[14.1962643479003,45.8554528015798],[14.1960068305011,45.8554509898677],[14.1958142631113,45.8554100439683],[14.1955576151481,45.8553479514462],[14.1952626244943,45.8552658829108],[14.195096407043,45.8551837310457],[14.1949562155917,45.855082776744],[14.1948163220054,45.8549612191794],[14.1946770004656,45.8548000747174],[14.1944976107996,45.8547385243019],[14.1943302267029,45.8547373441812],[14.1941245014354,45.8547160980269],[14.1939319379998,45.854675148976],[14.1937531346629,45.8545731109792],[14.1936384110718,45.8544922201086],[14.1935626007885,45.8543918083926],[14.1934999655073,45.8542707944497],[14.1934507783501,45.8541102846382],[14.1934788575652,45.8539494204269],[14.193571587098,45.8537701169175],[14.1936514535985,45.853589822763],[14.1937441819651,45.8534105190947],[14.1937719609298,45.8532703478469],[14.1936970231877,45.8531096564145],[14.1936090948379,45.8529479734584],[14.1934444461488,45.8527668533018],[14.1932918438431,45.8526254087232],[14.1931522462363,45.8524840557697],[14.1929617343837,45.8523018524775],[14.1927577629183,45.8521600443357],[14.1924768285648,45.8519978965405],[14.1922725598773,45.851876780602],[14.1919398547591,45.8517331610888],[14.1915679268178,45.8516306534542],[14.1913367510452,45.8515894268016],[14.1910151770088,45.851566455282],[14.1907570906753,45.8516051182692],[14.1904735542772,45.8516229051856],[14.1901911798794,45.8515606182867],[14.1899605932317,45.8514789024542],[14.1897305952083,45.8513566997585],[14.189590709259,45.8512360355538],[14.1894508369834,45.8511144714815],[14.1893367149548,45.8509930899322],[14.1888945897437,45.8512913820826],[14.1887772637991,45.8513904259009],[14.1890467607871,45.8514526249021],[14.1893291333235,45.8515149146182],[14.1894950568554,45.8516159684476],[14.1896355184906,45.8516970460664],[14.1896975545704,45.851858548504],[14.1897212663452,45.8519990839556],[14.189666277307,45.8522389380102],[14.1896001506649,45.8523590409261],[14.1895085740078,45.8524582681022],[14.1894287088998,45.8526376596198],[14.1893107927552,45.8527771903378],[14.1891273228766,45.8529972368563],[14.1889836545841,45.8531365844714],[14.1888399986523,45.8532750322004],[14.1888379580638,45.8534153849782],[14.1889266208186,45.8535167908731],[14.1890407601138,45.8536372731101],[14.1891542984129,45.8537991413095],[14.1891519709074,45.8539592874252],[14.1891484783046,45.8541995965599],[14.1890557207949,45.8543797960632],[14.1890261769232,45.8546405254709],[14.188953650095,45.8552005798009],[14.1888992299667,45.855400846642],[14.1888714376408,45.8555410165638],[14.188894860991,45.8557013454259],[14.1890092792825,45.8558029340426],[14.1890842069911,45.8559636284079],[14.1890818791088,45.8561237744599],[14.1890028704633,45.8562437855273],[14.1889361619903,45.8564034745949],[14.1888826170251,45.8565434616923],[14.1889057399223,45.8567244835531],[14.1889291638213,45.8568848123791],[14.188991504252,45.8570256220542],[14.1890155040146,45.8571463642007],[14.189013175839,45.8573065102168],[14.1889853827839,45.8574466801154],[14.1888932078854,45.8575863929963],[14.1887755807038,45.8577052299408],[14.1886326038032,45.8578049911788],[14.1883995350485,45.8578834171926],[14.1882055117263,45.8579423247747],[14.1879722811316,45.8580406341122],[14.1877393392425,45.8581190596784],[14.1876219836338,45.8582190017786],[14.1875303937165,45.8583182271798],[14.1874127489802,45.8584379623724],[14.1871929696132,45.8584966850603],[14.1869863679435,45.8585348059344],[14.186701916344,45.8586128628584],[14.1864941330347,45.858731955472],[14.1863507319566,45.8588515061843],[14.1861432489253,45.8589499051398],[14.1859998465345,45.8590694553984],[14.1859462915681,45.859209440988],[14.1859448341315,45.8593093072121],[14.185942496965,45.8594694530453],[14.1858503110664,45.8596091633485],[14.1856817437443,45.8596880433713],[14.1853580626763,45.859806307864],[14.1850993560611,45.8598845443329],[14.184905322341,45.85994344622],[14.1847241650987,45.8600024396535],[14.1845547137681,45.8601415975737],[14.1845269080131,45.8602817662336],[14.1844859357425,45.8604416362716],[14.1844572482916,45.8606420844813],[14.1843381316397,45.8608616825408],[14.1842582362331,45.8610411599582],[14.1841920872937,45.8611612594113],[14.1840744293578,45.8612809910187],[14.1840466217898,45.8614211595219],[14.1840191036452,45.8615415347258],[14.1840173530703,45.861661194149],[14.1839512028604,45.8617812934412],[14.1839239870909,45.8618809756305],[14.1837170678545,45.8619397834517],[14.1835233152755,45.8619788896281],[14.1833427427596,45.8619973945337],[14.1830843130798,45.86205583304],[14.1828648181265,45.8620938542627],[14.1827088132407,45.8621935148514],[14.182630665555,45.8622532417032],[14.1825393501907,45.8623326696507],[14.1824471509738,45.8624723770489],[14.1823938870723,45.8625916678371],[14.1823666549197,45.8626922493143],[14.1819285297236,45.8627089087082],[14.181529036796,45.862725843155],[14.1812702981237,45.8628049704805],[14.1810115719351,45.8628831975199],[14.1808043552452,45.8629617932781],[14.1806094339608,45.8630800675352],[14.1804657182172,45.8632194038752],[14.1803483388202,45.8633193382549],[14.1802570184641,45.8633987643297],[14.1801135919878,45.8635183069451],[14.1799453090412,45.863576485361],[14.179764717005,45.8635958842574],[14.1794817121073,45.8635731572103],[14.1792499136708,45.8635714924296],[14.1789654124813,45.8636504294706],[14.1787576071793,45.8637686079776],[14.1785613573646,45.8639678501507],[14.1783539704065,45.8640662355771],[14.1781840557979,45.8642261657461],[14.1780009510167,45.8644246016967],[14.1778575170751,45.864544141408],[14.1777143743543,45.8646438876862],[14.1774805015926,45.8647825713907],[14.1772217609944,45.8648607897231],[14.1769883547973,45.8649589852961],[14.1767550765626,45.8650571813129],[14.1764960281312,45.8651560909144],[14.176237284443,45.8652343069911],[14.1760177591722,45.865273214615],[14.17583688114,45.8653115007934],[14.1756946238332,45.8653509650954],[14.1755775373186,45.8654302015225],[14.1754853155108,45.8655699030739],[14.1754311424363,45.8657494698167],[14.1753113804748,45.866009544106],[14.1752561376659,45.8662700839739],[14.1751627292894,45.866489857832],[14.1750953830641,45.8666891246329],[14.1749898445788,45.8668494247441],[14.1748980525339,45.8669685237437],[14.1746899213342,45.8671072975874],[14.1745473643188,45.8671666436033],[14.1744042089378,45.8672663856028],[14.1743509231619,45.8673856723935],[14.1741943020576,45.8675249074985],[14.1740493727884,45.8677443080353],[14.1739056285857,45.867883635817],[14.1737618836624,45.8680229634094],[14.1735282802528,45.868141845565],[14.1733169005123,45.8682385732886],[14.1733028820909,45.8682458501266],[14.174489488633,45.8741297714454],[14.179482786952,45.8757808543865],[14.1836438047213,45.8770973532774],[14.187736536458,45.8782422554495],[14.1908095458407,45.8791008601784],[14.194077400524,45.8797660428259],[14.1943136989171,45.8799334498044],[14.194567873748,45.880067420281],[14.1955426062123,45.8803698665183],[14.1972613586142,45.8808948320414],[14.1986942481369,45.8813134821693],[14.200498944737,45.8818596066374],[14.2023332158068,45.882421205346],[14.2029413254992,45.8824383157718],[14.2041468586971,45.882823998685],[14.2048200589896,45.8830561512756],[14.2060017153628,45.8835641991704],[14.2071042329301,45.8840579189549],[14.2078494993015,45.8843703646327],[14.2087745930078,45.8850032945422],[14.2108275952276,45.8853171203987],[14.2120095711611,45.8854726623411],[14.2126195172526,45.8855356229308],[14.2147816242625,45.8858815319505],[14.2172433572259,45.8862796609387],[14.2192632597079,45.8866084946807],[14.2203120122966,45.8867859848477],[14.2216974797454,45.8870161472885],[14.2238732893018,45.8873484806869],[14.2256459195387,45.8876469985218],[14.226868588287,45.8878385638071],[14.2269788114754,45.8877878418507],[14.2271940780646,45.8877718421214],[14.2274853751468,45.8874947886448],[14.2277344316222,45.8872067415021],[14.2276078968661,45.8870400559364],[14.2274571833298,45.8864520175189],[14.2280140507222,45.8864515520963],[14.228670361973,45.8863876006221],[14.2293830902342,45.8862967623913],[14.2301514416412,45.886255062814],[14.2312790775199,45.886413638374],[14.2316643037104,45.8865081873142],[14.2318382106662,45.8867161270748],[14.2320562468795,45.886788585639],[14.2320145012009,45.8870129813081],[14.2321667063935,45.8872158258744],[14.2323662846387,45.8872908591607],[14.2323617497277,45.8874423524228],[14.2322194326874,45.887484945828],[14.2324956271616,45.8879002523041],[14.232624660723,45.8882609427405],[14.2333887765008,45.8882947748464],[14.2361838164151,45.8884301045456],[14.2393413260847,45.8885555422793],[14.241470181397,45.8886483350983],[14.2448610295128,45.8887950542252],[14.2480819463999,45.8889320066752],[14.2507735580018,45.8890312071925],[14.2509571699013,45.8887914487291],[14.2518784581,45.8878974299701],[14.2520890978271,45.8876496585573],[14.2525823395118,45.886812487181],[14.2529702051066,45.8859344943043],[14.2531077209788,45.8856718463003],[14.2534808238883,45.8853272374555],[14.2538494869475,45.8851214351817],[14.2540029566342,45.8849369915669],[14.2542008673891,45.8846857138565],[14.2543718841698,45.8845088524737],[14.2545068216319,45.884438200006],[14.2547645453643,45.8844636354682],[14.2560138934196,45.8847436017816],[14.2574587310667,45.8850892495289],[14.2589890273531,45.885433453676],[14.2601424152254,45.8857049243207],[14.2605479024019,45.8858003168609],[14.2621503576008,45.8861663604204],[14.26407735195,45.8866133831939],[14.264482368373,45.8864525900627],[14.2654158155803,45.8859851280478],[14.2660987183797,45.8855908215862],[14.2662748381873,45.8853760042881],[14.2666318137588,45.8850267500303],[14.2669645875391,45.8846070661885],[14.2671485770768,45.8840284249869],[14.2670076556676,45.8832720616347],[14.2669190231472,45.8828307783186]]]},"properties":{"fill-opacity":0,"stroke-opacity":1,"stroke":"#ff0000","lov":"1227","lov_naziv":"PLANINA","luo":"12","luo_naziv":"Zahodno visoko Kraško","povrsina":4573.41},"id":"pregledovalniklovisca.1"}]}