{"type":"FeatureCollection","features":[{"type":"Feature","geometry":{"type":"Polygon","coordinates":[[[14.2377735229524,45.9946924961502],[14.2393217413432,45.9949381910728],[14.2409597277071,45.9950020783234],[14.2423471885815,45.994958648726],[14.243787622322,45.9947222826885],[14.2426064727217,45.9962788870133],[14.242521953688,45.996928768816],[14.2437682567424,45.9979919099883],[14.2450909728871,45.9990028157767],[14.2457340850988,45.9999212254922],[14.2465078786791,46.0005065896175],[14.2478407092614,46.0007791811217],[14.2491424336043,46.0014910887729],[14.2493604640521,46.002142962409],[14.2492989403368,46.0029688139547],[14.2490107119161,46.0038405935265],[14.2487056061068,46.0040317680292],[14.2489054946633,46.0041736254144],[14.2499664427619,46.0040399597593],[14.2503660983512,46.0043236689648],[14.2515670088904,46.0050516228402],[14.2521378555479,46.0057404417596],[14.2527629829503,46.0061485257667],[14.2531600696332,46.006625298061],[14.2539377139525,46.0069465550082],[14.2549666878534,46.0073220816659],[14.2562512587292,46.0074533567226],[14.2567251870432,46.0076622164369],[14.2572974910685,46.0074674487858],[14.2577271587298,46.0072883076256],[14.2582491971765,46.0073082527433],[14.2587273491529,46.007046734012],[14.2594904452344,46.0067870599306],[14.2604903985108,46.0065620250275],[14.2617027022957,46.0064375075923],[14.2626290849065,46.0063938213563],[14.2633428860102,46.0062660690575],[14.263653653543,46.0061026948102],[14.2638469537445,46.0058394089074],[14.2638525268667,46.0054095366027],[14.2639749049351,46.0051292378991],[14.2644300417947,46.0048179698858],[14.2662160714068,46.0043828974502],[14.2669101040092,46.0039407975401],[14.2678412399325,46.0035333240309],[14.2686283066356,46.003240720948],[14.2697468064354,46.0030162735621],[14.2721791006296,46.0023330309803],[14.2730862922358,46.001747568284],[14.2734022875638,46.0011708478888],[14.2732184446048,46.0007067489379],[14.2734812109464,46.0005761539768],[14.2741694296247,46.0005804370398],[14.2746423920197,46.000715705615],[14.2750181588973,46.000641789769],[14.275309577849,46.0005214497515],[14.2755989843179,46.0001595088546],[14.2757935017982,45.9997969659385],[14.2762543958969,45.9997387015151],[14.2766936408805,45.9999348422545],[14.2767828387669,46.0003818710343],[14.2768731164027,46.0007461280067],[14.2773236249372,46.000781999135],[14.2780139103069,46.0006375406781],[14.278370477857,46.0005901256109],[14.2789845576932,46.0008254214771],[14.279528970505,46.0006393640146],[14.2805065268394,46.0006034134913],[14.2810322378427,46.0003256348686],[14.2821063295077,45.9998528113319],[14.2836444604453,45.9992858024681],[14.2843220952564,45.9991885543231],[14.2848676098263,45.9992249906391],[14.2852018992414,45.9990617048202],[14.2854209546822,45.9986331660754],[14.2856356677655,45.9985518198225],[14.2863028723842,45.9983410341087],[14.2870188535594,45.9980312145257],[14.287570253755,45.9975881887959],[14.2880500100356,45.9971942912494],[14.288384701167,45.9969979771174],[14.2892856740229,45.9970696266207],[14.2888537739831,45.9974472714473],[14.2881050705989,45.99846780465],[14.2881254315063,45.9987324629635],[14.2883122767488,45.9989816924096],[14.2887602370103,45.9992159011885],[14.2894239702885,45.9992860728628],[14.2904689348028,45.9992263424681],[14.2925293795064,45.9995862462015],[14.2947066023702,46.0000954749527],[14.2976529257885,46.001750295258],[14.2983814856023,46.0023334101223],[14.2984176298164,46.003243025744],[14.2997443845619,46.0034494713289],[14.3025318681174,46.0039815431711],[14.3036055945058,46.0040845458897],[14.3045778409985,46.0041565089663],[14.3050696186662,46.0047051184349],[14.3054930348035,46.0050218005748],[14.3063658591301,46.0054569194998],[14.307051588494,46.005675943426],[14.3074579462318,46.0054468968623],[14.3082363081117,46.0058484075988],[14.309017487757,46.0060348860499],[14.3099905970341,46.0060407654524],[14.3116486425798,46.0063316708897],[14.3122405311519,46.0064674099265],[14.3132307826202,46.0070189827037],[14.3139798582383,46.0078832074772],[14.3140933308814,46.0083137964239],[14.3139912018629,46.0089083781268],[14.3139374784781,46.0094206518343],[14.3142161104103,46.0099348303117],[14.3148008965885,46.0106493321559],[14.3163240914503,46.0103276107343],[14.316914479649,46.0105791162154],[14.3174601292966,46.0106153976259],[14.3181494949573,46.0105367342153],[14.3189564324557,46.0105580113992],[14.3199472296819,46.0110764174373],[14.3214036628609,46.0123581516453],[14.3226364939585,46.0124976405802],[14.3239209526877,46.012290112512],[14.3246030122027,46.0128232068609],[14.3258112270082,46.0130452044049],[14.3271543754803,46.0118955728197],[14.3284895932082,46.0114072957083],[14.3297060527965,46.0109348621748],[14.3319622527204,46.0108486486201],[14.3338124854159,46.0109750685876],[14.3349947599794,46.0113786603382],[14.336889172527,46.0113328926286],[14.3372011121572,46.0111637468484],[14.3374499923212,46.0108682675961],[14.3374385624059,46.0107332366226],[14.3374399590315,46.0106162753011],[14.3376634406868,46.0102846577173],[14.3378349492276,46.0099797315078],[14.3380582112675,46.009666107143],[14.3381393320794,46.0093606568865],[14.3383607661604,46.0091999813609],[14.3386084516496,46.0090034667262],[14.3388711910689,46.008627085624],[14.3389386438578,46.0083845392364],[14.3391601788594,46.0082148650694],[14.3394985608914,46.0079917899456],[14.3397581851084,46.0078763206458],[14.3401982494174,46.0077888855798],[14.3407195228831,46.0073869994898],[14.3408794610721,46.0069560346783],[14.3410361071564,46.0068129755445],[14.3413087407946,46.0066885800589],[14.3416967211289,46.0066368296229],[14.342177852795,46.0063516750818],[14.3424372505816,46.0062541936725],[14.343346253495,46.0058185350999],[14.3432188457929,46.0056738405006],[14.3438017613103,46.0055151411695],[14.3435447106794,46.0054146907532],[14.343497323741,46.0050545123259],[14.3434646576336,46.0045414582609],[14.3437371682884,46.0044260538892],[14.3440090397506,46.0043646311392],[14.3440231203075,46.0042657377319],[14.343946293782,46.0042113107927],[14.3440412416504,46.003824956526],[14.3445330160676,46.0037288038492],[14.3451028895689,46.0035791106699],[14.3456721235964,46.0034833969347],[14.3461126739262,46.0033509535333],[14.3461906672656,46.003306411456],[14.346230776677,46.0031896713471],[14.3461683438173,46.0030093610055],[14.3459520231601,46.0027291957829],[14.3460048310093,46.0026305237325],[14.3461352069238,46.0025232978166],[14.342052914705,46.0005640218092],[14.3394086722465,45.9993584670942],[14.3318339223463,45.9956279074801],[14.3330097228801,45.9945434481512],[14.334039133492,45.9937887881111],[14.3343975231312,45.9935924772635],[14.3348265109518,45.9934295077053],[14.3353256894617,45.9933662791138],[14.3365120939337,45.9928538272932],[14.3375898461696,45.9925525386917],[14.3384474500339,45.9922763289447],[14.344258486804,45.9905070449335],[14.3472143787775,45.9893663257798],[14.3489291600982,45.9908806096447],[14.3544603689138,45.9886462814088],[14.35526896194,45.9870979360151],[14.3557312617503,45.9860566318534],[14.3557114803124,45.9858035954059],[14.3561007411905,45.9855051765955],[14.3564690599881,45.985064385101],[14.3561999795587,45.9847941986567],[14.3557838929602,45.9838450272482],[14.3553082105834,45.9834612926961],[14.3546540650258,45.983141601799],[14.3542486070545,45.9829023123335],[14.3541613712477,45.9826014764776],[14.3540772087029,45.9820475528598],[14.3539948301719,45.9813514756735],[14.3538019602875,45.9804016685098],[14.3536065743908,45.9796575339424],[14.3532506227778,45.9790705798928],[14.3530874259703,45.9775359987235],[14.3533206766547,45.976999616369],[14.3536875437533,45.9766694966937],[14.3539413448643,45.9763071547631],[14.3545386804319,45.9756778117673],[14.3551783590201,45.9753017198879],[14.3555221254054,45.9750031357989],[14.3555499176559,45.9745763515438],[14.3562852379565,45.9737737616851],[14.3565851620268,45.973348419637],[14.3566108452684,45.9727686621374],[14.3568857868519,45.9715466115884],[14.3572323846117,45.970275385795],[14.3572897453542,45.9693993314378],[14.3574652329026,45.9685736085136],[14.3577144632076,45.9677305741864],[14.3580276839278,45.9670886376932],[14.3581089580977,45.9661962509582],[14.3579573613667,45.9652348031466],[14.3568171845278,45.9653776638809],[14.3556778315474,45.9654378288627],[14.3545405258597,45.9653326160058],[14.3524293995869,45.964779190053],[14.3501707106779,45.9639941845089],[14.3487931950059,45.9632841611172],[14.3477162621704,45.9627338370815],[14.3464084969021,45.9625159983818],[14.34467138947,45.9623837711687],[14.3437665946529,45.9621856679031],[14.3424901273825,45.9620619902567],[14.3407493732406,45.9622283168542],[14.3391559209844,45.962711648804],[14.3379190578014,45.9628806650734],[14.3368607718741,45.96287497883],[14.3343439856323,45.9626153387011],[14.3313195854737,45.9626515784043],[14.3303395744036,45.962435473095],[14.3293118847694,45.9619906273523],[14.3286832035507,45.9618817525747],[14.3279503695614,45.9620534407632],[14.3272148504013,45.9624359251041],[14.3257600729247,45.9639212430842],[14.325021824788,45.96451451369],[14.3242871083572,45.9648266216141],[14.323806832941,45.9649469596025],[14.3219907602711,45.9650774636116],[14.3210594293718,45.9649844764652],[14.3205579829368,45.9647884051628],[14.3203833363363,45.9646469122606],[14.320460657502,45.9645068276688],[14.3206633831078,45.9644200352519],[14.3214970304267,45.9642489924459],[14.3214162898353,45.9636337887122],[14.3215573836835,45.9634587209692],[14.3223126274747,45.9635156588705],[14.3224904019665,45.9634112596529],[14.3224923300564,45.9632530911254],[14.322393538457,45.9629006944336],[14.3223493968063,45.9627433324453],[14.3224256383779,45.9625324279947],[14.3224794227267,45.9622692035476],[14.3222811218973,45.9620045743513],[14.3210750906847,45.9617167766987],[14.3202008348851,45.9610970347844],[14.319721658966,45.9611294544308],[14.3191127825216,45.9614599138369],[14.3189810163458,45.9619159431827],[14.3190504603077,45.9624082625881],[14.3185953517336,45.9625287286775],[14.3180164820343,45.9624728188793],[14.3173098447782,45.9625566873953],[14.3170855474351,45.9623621661094],[14.3170391185215,45.9620457086113],[14.3171479896338,45.9613962735619],[14.3172525425605,45.9610981737535],[14.3177355150134,45.9607670626113],[14.3187487407577,45.9603510239083],[14.3186569450348,45.9596302085399],[14.3183609358743,45.9591190818846],[14.3183525389834,45.9577838586188],[14.3184871006408,45.9570993939263],[14.3189783379554,45.9561006947964],[14.3192151377048,45.9552938392424],[14.3189178542382,45.9548881595109],[14.3182340984317,45.955165441543],[14.3174764709009,45.9553017336764],[14.3165450092001,45.9552437999014],[14.3147098428293,45.9549173490522],[14.3097099310518,45.9537998800646],[14.3080567779744,45.9530350619647],[14.3069328629591,45.9522557052295],[14.3056113645262,45.9511765018447],[14.3047931511971,45.9501352570674],[14.3044996450807,45.9494484728444],[14.3039908750596,45.9478643812749],[14.3034811244753,45.9463505534454],[14.3031122982604,45.9456456704978],[14.3024669862348,45.9448865520788],[14.3016684651369,45.9443022198841],[14.2999650906219,45.9438696233762],[14.2980251840626,45.9435610673811],[14.2969933118587,45.9434848115579],[14.2951027537574,45.9435793389843],[14.2936892227223,45.9437995138945],[14.2916972549527,45.9439460849825],[14.2906631439137,45.9440454842661],[14.289957373888,45.944076552347],[14.2892533990861,45.9439670823106],[14.2885257566223,45.9437520068963],[14.2878000162771,45.9433787581531],[14.2870762149013,45.9428650618942],[14.2863762227979,45.9424568734217],[14.2856735325071,45.9422595711989],[14.284489881045,45.9422349804261],[14.2833815753026,45.9422284855135],[14.2825004389455,45.9421882251731],[14.2817466624746,45.9420432149034],[14.2811196643148,45.9418287247697],[14.2796926104644,45.9411701903442],[14.2786143872832,45.9407949306453],[14.2781365039307,45.9407393659809],[14.2773758992316,45.9392063789746],[14.2768522056138,45.9388167921934],[14.2765062699595,45.9383052391295],[14.2755298805792,45.9378602322723],[14.274585425218,45.9369058762647],[14.2740910443236,45.9362001912115],[14.2736444428439,45.9356879897267],[14.2730204313829,45.9352626561338],[14.2727717133053,45.9350328001812],[14.2728332820879,45.9341898309928],[14.2727608351972,45.9339610065375],[14.27205909278,45.9336932636987],[14.272038445459,45.9333593148359],[14.2715457382365,45.9325306294134],[14.2715000521204,45.9321789751091],[14.2716285548655,45.9319865220616],[14.2726189773314,45.9313774728473],[14.272935696126,45.9302901276746],[14.2726897569194,45.929849381117],[14.2721390746833,45.9296001455737],[14.2719402096376,45.9294056964374],[14.2718947529122,45.9290364978937],[14.272027154613,45.9285453428653],[14.2722100940415,45.9280545095222],[14.2720628956399,45.9277549356023],[14.2718904573244,45.9274727463322],[14.2718764781234,45.9266293851404],[14.2715058811295,45.926100112995],[14.2707881086487,45.9251646241511],[14.2703162542616,45.9246698831443],[14.2701050962262,45.9244511480974],[14.2698099481474,45.9239223521323],[14.2693015775814,45.9235982414664],[14.2686112157961,45.9241336921792],[14.2678033914861,45.9247763595287],[14.2665522303605,45.9257941733699],[14.2657443581117,45.926436825688],[14.2649368237063,45.9270524810561],[14.2641681864879,45.927650475549],[14.2636082016522,45.9280697640032],[14.2627862965232,45.928793284767],[14.2619906324868,45.9294810678753],[14.2612998978222,45.9300434648493],[14.2602575387779,45.9308465218889],[14.2596583314164,45.9313016179473],[14.2596373668045,45.9313169582967],[14.2592548060155,45.9315959295175],[14.2583636948247,45.9316891251866],[14.2577305838443,45.931783990055],[14.2572662902476,45.9317899710363],[14.2567121011832,45.9317683721165],[14.256171045632,45.9317289504246],[14.2559513716235,45.9317635114099],[14.2555229903839,45.9319766679669],[14.2552763232601,45.9321010295447],[14.2550812302517,45.9322257267982],[14.2548727605753,45.9323863275922],[14.2547042970287,45.9324482134112],[14.2544971515054,45.9325098466321],[14.2544560587274,45.9326895340284],[14.2543242256956,45.9329046204222],[14.2541029779053,45.9330561386385],[14.2539600582112,45.933136185631],[14.2533127012885,45.9333299085068],[14.2532288339539,45.9333911751706],[14.2531981707813,45.9333699199947],[14.2526252582634,45.9338675303532],[14.2520419048218,45.9341626195931],[14.2507751843593,45.9346994064735],[14.2500568335887,45.9356613249069],[14.2492250964333,45.9367096821609],[14.2491813826268,45.9370438419926],[14.2484398361189,45.9378474167527],[14.2470476147671,45.9383482452606],[14.244869706492,45.9395147409402],[14.2455466860857,45.9397402875195],[14.2460640682171,45.9400281214815],[14.2464907137166,45.9403311908776],[14.2466890280437,45.9407435161559],[14.2469075570922,45.9413299909863],[14.2468759540681,45.941978071375],[14.2467761728451,45.9426415383728],[14.2465794722563,45.9437471459191],[14.2465295790763,45.9440788342031],[14.2466370277318,45.9445064861697],[14.2467915889086,45.9448078501168],[14.2462449032287,45.9449941881198],[14.2460606591372,45.9451985714134],[14.2462389881748,45.9454210925926],[14.2464617309239,45.9457070705974],[14.2463670803039,45.9459910453927],[14.2460340388457,45.9461060892658],[14.2452963767399,45.9463639543349],[14.244660378323,45.9464390224679],[14.2440164258389,45.9470990683377],[14.2440113530975,45.9474627239235],[14.2437816062909,45.9476827284495],[14.2432313115791,45.9481219548591],[14.2430215478041,45.9485317627467],[14.242699831063,45.9488459920841],[14.2423577803187,45.9489861591897],[14.2415618109392,45.9491551655765],[14.2411497130836,45.9494372085326],[14.2407865946668,45.949466558709],[14.2405384471978,45.9493700735432],[14.2404510144041,45.9491324017451],[14.2404104075535,45.9488001148694],[14.240441011808,45.9482310306162],[14.2403064541019,45.9481195538052],[14.2401461731779,45.9482292504727],[14.2397981559511,45.9487962235408],[14.239247297952,45.9492829350658],[14.2391984364965,45.9495356264837],[14.2385175551897,45.9495787794814],[14.2370352578698,45.9501861380303],[14.2363582590776,45.9502840103901],[14.2345715193566,45.9512457928264],[14.2338190253392,45.9515414547629],[14.2331615994743,45.9515373149775],[14.2329104015518,45.9516622273453],[14.2325873891783,45.952055509558],[14.232061410194,45.9523684268661],[14.2308580388606,45.9524872919973],[14.2301517870017,45.9527199868167],[14.2295802960295,45.953048332116],[14.2289655861168,45.9532183825631],[14.2283765562477,45.9531830046532],[14.2271040470016,45.9533646175222],[14.2263518331683,45.9536444860464],[14.2255369217387,45.953544399898],[14.2250158679636,45.9535093753519],[14.2244074433446,45.9532367548953],[14.2235243450198,45.9531520276058],[14.2216863819165,45.9532350803558],[14.2211628962169,45.9533740380489],[14.2200757441481,45.9532879831894],[14.2197376035199,45.9531435105352],[14.2196736221959,45.9528584749864],[14.2197000031565,45.952605638525],[14.2194537825307,45.9523827024399],[14.2184572003487,45.9522971607711],[14.2178937792791,45.9520563954205],[14.2167841805258,45.9519543195481],[14.2164515323021,45.9514304397682],[14.2158183730995,45.9513156043058],[14.2156425998621,45.950919216878],[14.2150098940297,45.9507727979362],[14.2141483037988,45.9507672360792],[14.2121922001685,45.9511814305217],[14.2106974588152,45.9510609836269],[14.2092163965877,45.9515573175077],[14.208822545666,45.9521397149021],[14.2077689643893,45.9528601533839],[14.20714729844,45.9535043993984],[14.2066658907481,45.953864927136],[14.2063910244398,45.9542241880565],[14.2064609716645,45.9546288524419],[14.2065308429073,45.9547406396961],[14.2069979352961,45.9548959438395],[14.2072889666146,45.9550404872907],[14.2075842908324,45.9551373717297],[14.2079327308944,45.955155173507],[14.2082024254413,45.9552401816336],[14.2084516599459,45.955294455081],[14.2090638907071,45.9554135053391],[14.2092847704503,45.9555658360518],[14.2094202721862,45.9557620245477],[14.2096208041928,45.9559755784239],[14.2096349430757,45.956169757484],[14.2094782334037,45.9563036396365],[14.2087770641965,45.956622705687],[14.2082453730397,45.9568169734094],[14.208035778884,45.957040464547],[14.2077888949998,45.9571647216581],[14.207376241114,45.9571528624766],[14.2072055972934,45.9573586267571],[14.206325221014,45.9575774591931],[14.2058724520634,45.9576642910929],[14.2059331358079,45.958157518906],[14.2056491486788,45.9586476314862],[14.2057208530135,45.9589293091704],[14.2073259501959,45.9594673615877],[14.2092790277474,45.9603591612621],[14.210103962599,45.9608392268379],[14.2105488120321,45.9614748414591],[14.2114015447243,45.9617617283377],[14.2117969711568,45.9623267246424],[14.2129274581474,45.9625803343765],[14.2146292749942,45.9634353100582],[14.2155860398885,45.9634944281714],[14.2164134256135,45.9637986491051],[14.217184941484,45.964506749225],[14.2180135866654,45.9647231493225],[14.2188412507136,45.9650098089364],[14.219746992307,45.9651212700662],[14.2201973989961,45.9653527067094],[14.2216017935552,45.9658540970031],[14.2223313072671,45.9659467915531],[14.223107957615,45.9662858896605],[14.2230451244933,45.967199271273],[14.2222803639418,45.9678444246006],[14.2219206179753,45.9683516067153],[14.2214412772559,45.9690686995408],[14.2214060857392,45.9691214563508],[14.2221670676044,45.9687574620522],[14.2221760600891,45.9687603125525],[14.2226689444613,45.9689189669179],[14.2219278400198,45.969669641905],[14.2213276294857,45.9702082061496],[14.2211113511378,45.9704023426494],[14.2220419909931,45.9707696702699],[14.2225151433981,45.9709564437388],[14.2223743530732,45.9720450192307],[14.2212013685923,45.9730389269651],[14.2203523903416,45.9742985764299],[14.2193421472291,45.9744500394777],[14.2184646310949,45.9741102265291],[14.2173366066459,45.9736634181861],[14.2163530160337,45.9737095841583],[14.2149632153591,45.9739638583163],[14.2146389457258,45.9737157227911],[14.2140862291693,45.9735890142351],[14.213488229506,45.9735710436417],[14.2133830139809,45.9739660388813],[14.2133503705376,45.9740476933674],[14.2131824572574,45.9744685301059],[14.2130354212997,45.9748274261297],[14.2132494318983,45.9752067135782],[14.2135012637262,45.9756493348513],[14.2136267353951,45.975902134194],[14.2136963903859,45.9764514737542],[14.2137403658879,45.9769916388347],[14.2138112982411,45.977460007643],[14.2139706503894,45.9780549524596],[14.2137703366946,45.9785304529203],[14.2140644652579,45.978721427933],[14.2145613788209,45.9791747295386],[14.2144373489669,45.9797317346819],[14.2143931632658,45.9801183321904],[14.2143216400161,45.9806127141431],[14.2143941067157,45.9809641227179],[14.2144560886478,45.9811535005278],[14.2139707085129,45.9817080205316],[14.2139243884839,45.9817708657869],[14.2136153905947,45.9821914518854],[14.2135622408067,45.9822990585375],[14.2131302792939,45.9836367422339],[14.2133933966579,45.9841964108522],[14.2142722598243,45.9841124798455],[14.2148284778336,45.9840263257728],[14.2156288856515,45.9840138268473],[14.2160416141617,45.9840346542924],[14.2168120237008,45.9843188652816],[14.2175609391204,45.9842970022244],[14.2178535906459,45.9845959295155],[14.218199895402,45.984751259968],[14.2184940744651,45.9849512213937],[14.2186847522036,45.9851594721753],[14.2186955064378,45.9853125065144],[14.2187840767017,45.985439079738],[14.2188674589257,45.9859345228898],[14.2188899810687,45.9861686168677],[14.2188727721873,45.986474420815],[14.2187413044891,45.9866444783007],[14.2187912844484,45.9867617899739],[14.2187115679479,45.9869232034782],[14.2187597760929,45.9871664707354],[14.2186927122204,45.9873459660937],[14.2184567234532,45.9876052855104],[14.2184937970746,45.9877225090296],[14.2183762449222,45.9878206796932],[14.2183343590486,45.9880453354774],[14.2185886939117,45.9883170055242],[14.2186637289285,45.9884884746734],[14.218661830029,45.9886234270381],[14.2185275709512,45.9889914142976],[14.2183283953455,45.9893859504378],[14.2252917617075,45.9891982574689],[14.226647070949,45.9896465242049],[14.2278789866408,45.9899006708861],[14.2290859896112,45.9901370007519],[14.2297887152701,45.9903701002898],[14.2303119669269,45.990830438112],[14.2311562641166,45.9917849272034],[14.2318808017541,45.9922817026817],[14.231520250874,45.9928417238953],[14.2315906691452,45.9932288277906],[14.2321443508081,45.9933027312166],[14.2339246133297,45.9940348532432],[14.234429176751,45.9940205089791],[14.2350127541639,45.9937431493632],[14.2355922285838,45.9937821177682],[14.2361696413329,45.993961613221],[14.2366698543605,45.9942635884136],[14.2377735229524,45.9946924961502]]]},"properties":{"fill-opacity":0,"stroke-opacity":1,"stroke":"#ff0000","lov":"1231","lov_naziv":"VRHNIKA","luo":"12","luo_naziv":"Zahodno visoko Kraško","povrsina":6286.65},"id":"pregledovalniklovisca.1"}]}