<?xml version="1.0" encoding="utf-8" ?>
<kml xmlns="http://www.opengis.net/kml/2.2">
<Document id="root_doc">
<Schema name="pregledovalniklovisca" id="pregledovalniklovisca">
	<SimpleField name="lov" type="string"></SimpleField>
	<SimpleField name="lov_naziv" type="string"></SimpleField>
	<SimpleField name="luo" type="string"></SimpleField>
	<SimpleField name="luo_naziv" type="string"></SimpleField>
	<SimpleField name="povrsina" type="float"></SimpleField>
</Schema>
<Folder><name>pregledovalniklovisca</name>
  <Placemark id="pregledovalniklovisca.1">
	<Style><LineStyle><color>ff0000ff</color></LineStyle><PolyStyle><fill>0</fill></PolyStyle></Style>
	<ExtendedData><SchemaData schemaUrl="#pregledovalniklovisca">
		<SimpleData name="lov">0702</SimpleData>
		<SimpleData name="lov_naziv">BOŠTANJ</SimpleData>
		<SimpleData name="luo">07</SimpleData>
		<SimpleData name="luo_naziv">Posavsko</SimpleData>
		<SimpleData name="povrsina">5065.32</SimpleData>
	</SchemaData></ExtendedData>
      <MultiGeometry><Polygon><outerBoundaryIs><LinearRing><coordinates>15.2054930323171,46.025367280288 15.2057945386276,46.0253417244531 15.2060243678216,46.0253883678745 15.2060606608069,46.0254572241086 15.2061102706643,46.025494744648 15.2061914794889,46.0255197014916 15.2062770682807,46.0255415012105 15.2063943133546,46.0256008536955 15.2065609597212,46.0256068509625 15.2066195998784,46.0256412057972 15.2067728477528,46.0256911352915 15.2068362551937,46.0257568830328 15.2069174758828,46.0258194493284 15.2070887489148,46.0258535999541 15.2071650980051,46.0258221499247 15.2072911518159,46.0258187722112 15.2074849470191,46.0258654780404 15.207642716754,46.0259153081815 15.2078277059882,46.026024742734 15.207976634942,46.0261279442854 15.2082290265944,46.0261964963647 15.2084455338953,46.0262713216838 15.208540107523,46.0262774474866 15.2085850219686,46.0262679180418 15.2087334927596,46.0262488419927 15.2087964318569,46.0262237136888 15.2089131848563,46.0261513395488 15.2089896041808,46.0261386931679 15.2091472698319,46.0261603589173 15.209205758419,46.0261539535497 15.209313811533,46.0261380998825 15.2094172383832,46.0261285529133 15.2095207705692,46.0261127073339 15.2096377240739,46.0260936878822 15.2097545825538,46.0260495651673 15.2098624942231,46.0260305620789 15.2099660853696,46.0260303718204 15.2100921156128,46.0260206927376 15.2101909854927,46.0260017059591 15.2103530174314,46.0259826028647 15.2105151325922,46.0259854535437 15.211068797586,46.0260001782236 15.2112354456339,46.0260061686716 15.2114019165347,46.0259995625571 15.2115233542654,46.0259711753718 15.2116762482282,46.025926983994 15.2117932724083,46.0259267671999 15.2119059049513,46.0259265584285 15.2120770164105,46.0259513443689 15.2121580033767,46.0259511940647 15.2122525045434,46.0259384219595 15.2123468861228,46.0258944283079 15.2124504287442,46.0258816392403 15.2127250111,46.0258749201638 15.2129182967199,46.0258212944289 15.2137913660157,46.0257964508197 15.2142225675332,46.025908203465 15.2151924259836,46.0260940715646 15.2157604730216,46.0261860358638 15.2159364443706,46.0262640726715 15.2161124216856,46.0263766599978 15.2163245907008,46.0264953869032 15.21649123384,46.0265326813602 15.2167523978221,46.0265291271866 15.2170001829986,46.0265725653131 15.2172707630425,46.0266974778656 15.217473623391,46.0267472087043 15.2175684815432,46.0268253973028 15.2176318109692,46.0269005866761 15.2176683902167,46.0270384502828 15.2176781272961,46.0271826633225 15.2177235639269,46.0272734525703 15.2178951257851,46.0274111488563 15.2185315421054,46.0277704677284 15.2189151763939,46.0279986325701 15.2194038074777,46.0282209261172 15.2193937339164,46.0282213953346 15.2197229273276,46.0284329263988 15.2199266544023,46.0286990435123 15.2200120485444,46.0290924342186 15.2202131522011,46.0293150074569 15.2202685498053,46.0295380411846 15.2203634431116,46.0297529008947 15.2206014289795,46.0300887720547 15.220699897302,46.0304872655474 15.2210860211873,46.0307496990376 15.2214573311974,46.0309246132927 15.221820383217,46.0312627587762 15.2220781764606,46.0314119781761 15.2225947261333,46.031691878296 15.2229310374575,46.0318020732004 15.2234245506758,46.0318451077807 15.2239973762435,46.0319507880386 15.2243551710703,46.0316865466675 15.224699031478,46.0313635772516 15.2249464709791,46.0309646769179 15.2257132068046,46.0310750954153 15.2263707264446,46.031075144662 15.2265356078556,46.0313085755549 15.2270117164401,46.0314551015094 15.2272389174872,46.0317324957985 15.2271817505166,46.0319678066083 15.2269069498167,46.0320859510767 15.226909162574,46.0323425581111 15.227320772905,46.0324777838377 15.2277359987817,46.0326435926979 15.2282326498672,46.0327243901582 15.2285273702262,46.0328317723921 15.2289334837139,46.0329479283904 15.229255241763,46.032939005663 15.2295674411855,46.0328679278506 15.2301861348352,46.0328457190935 15.2308620528966,46.0328538032843 15.2313286076041,46.0329338382933 15.2318438550677,46.0328568545849 15.2322244606829,46.032741362565 15.2325872925112,46.0327313572596 15.2325510008698,46.0329182211748 15.2325075033098,46.0331427096756 15.2333507857453,46.033627311036 15.2335941175521,46.0337989379367 15.2338743591985,46.0340532666488 15.2339076216218,46.0341291382642 15.2339933199738,46.0343242106069 15.2341983196311,46.0345949781605 15.2345743462887,46.0349222592301 15.2348455626459,46.0351784035531 15.2350377748451,46.0353870224835 15.2351852615034,46.0354673375067 15.2353651204479,46.0355652209568 15.2355947041614,46.0356902643345 15.2359000023945,46.0357868985683 15.2360562717868,46.0360785477214 15.2364572533017,46.0368601492088 15.236797317541,46.0368370411701 15.2369843333522,46.0368243268592 15.23751282489,46.0368165716218 15.2377051469835,46.0368362364233 15.2380127589525,46.0368676276671 15.2383882237391,46.0369652787829 15.2383984414548,46.0369679567475 15.238544970894,46.0370338732696 15.2390947189386,46.0372813279261 15.2397969040105,46.0376743111007 15.2404651327737,46.0380700606573 15.2405626663692,46.038127619921 15.2411268882471,46.0384605113619 15.2415623047109,46.0387333884778 15.2416085627374,46.0387643323727 15.2419862706168,46.0390162754858 15.2423760802946,46.0393462907133 15.24247126413,46.0394268871355 15.2428320915526,46.039864033515 15.2432326422629,46.0403721751012 15.2432928054294,46.0404504160001 15.2435691922356,46.0408093707453 15.2438944963183,46.0413322463413 15.2440689836108,46.0415521346644 15.2440906815682,46.0415796209267 15.2442072317419,46.0416989498148 15.2445567564714,46.0420570259965 15.2446411192937,46.0421431322516 15.2448058233247,46.0423114842255 15.2450429014356,46.0426885146386 15.2451010664644,46.0427812449413 15.2451226895322,46.0428207879187 15.2453526032238,46.0432421011083 15.2456294116227,46.0438941009049 15.2457910494915,46.0443306757724 15.2458177284407,46.0444028689391 15.2459459835835,46.0446536254148 15.2460617279061,46.044880115215 15.2461046239819,46.0449378772722 15.2463881332411,46.0453202932592 15.2466046774924,46.0455492644171 15.2468988263153,46.0457950729595 15.2470095865928,46.0458875986389 15.2473954923537,46.046135996801 15.2475797830276,46.046229892329 15.2477946385856,46.0463393770763 15.2483398429318,46.0466099204938 15.248858688616,46.0467932422341 15.2490692502484,46.0468662937537 15.2494075478773,46.0469836941829 15.2500039759352,46.0471484863453 15.2500698291274,46.0471666973316 15.2500844454352,46.0471699944534 15.2507864207414,46.0473288830676 15.251447548935,46.0474551960492 15.2515638154301,46.0474773441629 15.2522930871265,46.0475846073471 15.2528056349462,46.0476571649352 15.2530006204599,46.04768471594 15.2531976177158,46.047700025458 15.2536081583984,46.0477319563985 15.2543448971353,46.0477753071599 15.2549424913172,46.0477953000106 15.2549753176456,46.0477963964699 15.2550405549134,46.0477925619139 15.2555554787826,46.0477627095012 15.2562894480409,46.0477376723752 15.256887527144,46.0477228333662 15.2577473140247,46.0476894062117 15.2577983459932,46.0476874916049 15.2580119893181,46.0476698241649 15.2583590626723,46.0476411476834 15.2595333811709,46.0475566092787 15.2595997672836,46.0475498902884 15.2604168065398,46.0474673234146 15.2612627056972,46.0473673194183 15.2617711431323,46.0472788796283 15.2621531474079,46.0472054836549 15.2623443425605,46.0471686947702 15.2628435181236,46.0470625462458 15.2630842627539,46.0470113360229 15.263655653652,46.0468480630625 15.2639007888293,46.0467694883661 15.2641874674846,46.0466776806679 15.2645392527908,46.0465553097781 15.2647344306415,46.0464874660423 15.2650547718788,46.0463291760914 15.265169888121,46.0462723143345 15.2655594675861,46.0460563678053 15.2660125412488,46.0457439081513 15.2664562355931,46.0453091914946 15.2664839849695,46.0452758357687 15.2668440821139,46.0448431119634 15.2670960094083,46.044514381887 15.2672342980484,46.0443338371655 15.2673888449767,46.0441221226174 15.2674822910922,46.0439940483852 15.2678009484915,46.0433581631319 15.2679955859179,46.0427808721005 15.268093700643,46.0422029973427 15.2681287756861,46.0417080480972 15.2681404536277,46.0409437660674 15.2681542802362,46.0403299184957 15.2681577529351,46.0397124061392 15.2681847896489,46.0392120769678 15.2681815605625,46.0387849691423 15.2682898578067,46.0382573664289 15.2682581557945,46.0377933452806 15.2681523551206,46.0372878391213 15.2680271686835,46.0367804887881 15.2678793320485,46.0364511636931 15.2676793947041,46.0360067912621 15.267300969796,46.0352241666701 15.2669524766759,46.0347262446259 15.2666242328683,46.034220176407 15.266355526509,46.0336824768887 15.266128527707,46.0332205293082 15.2658901084982,46.0327738137454 15.2657168852255,46.0322638729474 15.2655427952886,46.0317341391413 15.2654381765779,46.0312520209469 15.2653016323773,46.0308196434721 15.2650207908464,46.0301692287439 15.2647990018146,46.0297108652019 15.2646128517782,46.0293843235189 15.2644967249226,46.029140847302 15.264234668347,46.0286337187838 15.2639236478781,46.0281510862012 15.2635947468117,46.0274926807935 15.2633115829622,46.0268622415304 15.2631005606457,46.0262171493056 15.2630263035885,46.0258116181541 15.2630099519622,46.0254141415114 15.2630556913539,46.0249270857246 15.2631964166281,46.0246414475894 15.2634326632174,46.0243436223199 15.2638964504979,46.0238200612242 15.2643336682124,46.0234146082993 15.2650466552177,46.0228780491282 15.2657251411545,46.022448907187 15.2666811206121,46.0219813240649 15.2674723203715,46.0216023852376 15.268338725845,46.0212333416882 15.2691919889134,46.0208731401624 15.2701280073167,46.0205615937304 15.2709109969702,46.0203087969713 15.2717592203761,46.0200334356803 15.2726879639712,46.0197979153881 15.2734079698642,46.0196106644133 15.2742668763829,46.0193848357873 15.2751416258266,46.0191778575544 15.275715908354,46.0190894666455 15.2765563167058,46.0189907117769 15.2774480422364,46.018875630451 15.2785152437249,46.0187278132364 15.2794009135953,46.018617230233 15.2802187469162,46.0184752250632 15.2810962106671,46.0183268590366 15.2819040317591,46.0181477962322 15.282747314404,46.0179084459138 15.2833326928374,46.0177217352497 15.2840802787771,46.0174346549555 15.2846372351406,46.0171975315824 15.2855429144898,46.0168164725976 15.2859901051489,46.0165832158362 15.2863647653817,46.0163601264283 15.2869530145302,46.0160348265867 15.2875131044538,46.0157096845152 15.2878017724666,46.0155667955243 15.2884433372974,46.0152409038135 15.2889262576485,46.0149794727283 15.2893548100985,46.0147437305023 15.2897473024239,46.0144782059679 15.2902921733149,46.014162896177 15.2905184844239,46.0140015335633 15.2910880261932,46.0134920784309 15.2912884051603,46.0132871418255 15.2915402602628,46.0130730759367 15.29187440636,46.0127671135327 15.2921555137763,46.0124196267077 15.2924705698087,46.0119477050655 15.2927338203459,46.0114479325874 15.2932914180582,46.0104221227746 15.2937570920661,46.0095982732939 15.2941951530362,46.0088782355988 15.2944477358963,46.008563837634 15.2950378011735,46.0080459416395 15.2954336619875,46.0077479970677 15.295954881575,46.0074228236263 15.2965048464624,46.0071137689638 15.2970532956993,46.0068362972837 15.2977090469466,46.0065361393823 15.2983816449052,46.006320691473 15.2991929100928,46.0061286304365 15.2999109231274,46.005908645768 15.300428007543,46.0057339931717 15.3011046925069,46.0055140196399 15.3016561248413,46.0053411604806 15.3023485229112,46.005115739509 15.3030559920248,46.0049084496044 15.3034624296124,46.0048093868426 15.3038067138588,46.0047254239518 15.3046306841069,46.0045269021556 15.3054822438509,46.0044157577463 15.3062161117962,46.00431652934 15.3068435426153,46.0042562718904 15.3077018197608,46.0041938601201 15.3085034993206,46.0041701945764 15.3094519527624,46.0041410874157 15.310145975934,46.004145504506 15.3111275089603,46.0041903442609 15.3116618312605,46.0041974361958 15.3123115533841,46.0042221156519 15.3134780171655,46.0042728180464 15.3144661422313,46.0043408249627 15.3157496356285,46.0044222239697 15.3169075166963,46.0045287904267 15.3178633736746,46.0045972173449 15.3185178105947,46.004609701589 15.3194650685941,46.0045743962687 15.3203056718152,46.0045385722683 15.3212097524681,46.004427703319 15.3217944147721,46.0043646947121 15.3228875480886,46.0043037568024 15.3240352751913,46.0042172803122 15.3251668572827,46.0041084340999 15.3254982536506,46.004078878252 15.3263476482837,46.0040030352344 15.3271693659873,46.003897842843 15.3280979628363,46.0037228759601 15.3290138297606,46.0035795199018 15.3299219631687,46.0033523207845 15.3306662526148,46.0031265783401 15.3314471813886,46.0028321627352 15.3322185040923,46.0025304816084 15.3329091643398,46.0022571029012 15.333501528823,46.0019993028795 15.3340896579855,46.0017037220402 15.3345891177127,46.0014353907201 15.3348299340145,46.0012685888913 15.3350623922394,46.0011076595247 15.3356030644214,46.0006959603551 15.3360651288608,46.0002673042602 15.336401505148,45.9998499034448 15.3367793696967,45.9993557193794 15.3371525990035,45.9987796690689 15.3375647934572,45.9982222175144 15.3379529731275,45.9977082041196 15.3384825073872,45.9970667239283 15.3389309133412,45.9965028616639 15.3396754793628,45.9957102970971 15.3400362549953,45.9953440093871 15.3395603745654,45.9948318379972 15.3392765999849,45.9946164670539 15.3389171839839,45.994549961048 15.3383833755984,45.9944642655153 15.3380877466355,45.9943786729384 15.3377521583722,45.9942815007379 15.3375607051323,45.993982894228 15.3375515199408,45.9936611650682 15.337579725096,45.993268153963 15.3376389645236,45.9929051033297 15.3376767964492,45.9926730318633 15.3375390387289,45.9923725570153 15.3375141830751,45.9923184645002 15.3374997318548,45.9917886348692 15.3369563775315,45.9916992717832 15.3366173465488,45.9916487142503 15.336360802196,45.9915767684659 15.3360345535484,45.9914837925914 15.3358625861786,45.9914584747998 15.335691264929,45.9914332448282 15.3355084666936,45.9913671989035 15.3353081151998,45.9912587352172 15.3350949464203,45.9911866593187 15.3348818693565,45.9911296988273 15.3346946658056,45.9910606053005 15.3343689345585,45.9910311466525 15.3341037634598,45.9910262536264 15.3339432918898,45.9910232135433 15.3338282626419,45.9909779314439 15.3335081479098,45.9908518190296 15.3333078005462,45.9907645863024 15.3330905762221,45.9907258098437 15.3328601857877,45.9906870713189 15.3326251530136,45.9906059668434 15.3324930232784,45.9905501159221 15.3323335874962,45.9904826472902 15.3320205339465,45.9904138252878 15.3317727039754,45.9903509315149 15.331584894933,45.9902658188008 15.3309494976734,45.9902362586864 15.3306664833258,45.9903340727051 15.330575923708,45.9903653766273 15.3299328504127,45.9903475300274 15.3296510027114,45.9903595904208 15.3295238870912,45.9903649956962 15.3291947824689,45.9903750317712 15.3287607247827,45.9903619749301 15.3285648507916,45.9901129430059 15.3282657546875,45.9898274068162 15.328146195726,45.9897133898378 15.3280428821573,45.9894431266289 15.3283319377177,45.9892099768404 15.3284378496805,45.9889809518429 15.3284568526127,45.9888111112624 15.3284816128639,45.9885889776807 15.3287241075998,45.9882758814387 15.3287397278877,45.9879054924999 15.3284640179693,45.9876438232475 15.3283950915613,45.9875785182965 15.3284663381052,45.9874032189172 15.3285894550552,45.9871812524154 15.3281726166812,45.986845127492 15.32783900504,45.9865473623233 15.3278236014121,45.9862775663712 15.3275752105344,45.9860718720265 15.3267478128653,45.9855177345972 15.3262960672971,45.9853215263579 15.32571580597,45.9851975740714 15.3250208455657,45.9852353633313 15.3244027012106,45.9852101265954 15.3240416857306,45.9851214439783 15.3227020140156,45.9850264401234 15.3218409507876,45.9852890808855 15.3207733124866,45.9854535906794 15.3195910011988,45.9858337254979 15.3191637259408,45.9854221063674 15.3188275257881,45.9851806474856 15.3188705662044,45.9848088335578 15.31870377287,45.9846455411608 15.3181638249804,45.9845024530023 15.3176794518631,45.9844170628626 15.3173881123492,45.9842540246896 15.3172224802888,45.9842929945949 15.3170023223093,45.9844574531042 15.3168656841703,45.9847372097709 15.3163142541108,45.9849796050098 15.3159112568455,45.985109386403 15.3157066611509,45.9852653415615 15.3155456821662,45.9853516239289 15.3154018876473,45.9853502213222 15.3152056913697,45.9853036148064 15.3147392041306,45.9853228058094 15.3146641644946,45.9854053411368 15.3145122872443,45.9855721261457 15.3141566173847,45.9859697217254 15.3139454909918,45.9863418156996 15.3136501911477,45.986482990161 15.3131999380415,45.9864759471012 15.3127607584931,45.9863036747412 15.3124867533941,45.9860319748053 15.3117856044214,45.9856376323375 15.3109784540415,45.9853508262738 15.309735836589,45.9855522394862 15.3087048383966,45.985488896134 15.3085026629515,45.9853408905052 15.3089733111516,45.9847699764578 15.3094305114785,45.9839183694062 15.3100175930104,45.9829838994657 15.3096605833137,45.9827041398712 15.3081889463898,45.9821879621724 15.3072161106012,45.981918041799 15.3052720036781,45.9816342458994 15.3030310839677,45.9812107505562 15.3027703301852,45.9811784201744 15.302449978254,45.9810802039783 15.3022956941963,45.9810227571062 15.3020819476906,45.9809242578458 15.3018916854321,45.9808009525356 15.3017242855829,45.9807284234346 15.3015298223905,45.9807344252528 15.3012717165968,45.9807376252939 15.3007839631888,45.9806844740768 15.300517086514,45.9806409075674 15.3000749956955,45.9805589306482 15.2996877178311,45.9804218324775 15.2994482217789,45.9803336531557 15.2991894542912,45.9802855634564 15.2989486254262,45.9802372462948 15.2987440862682,45.9802172664365 15.2984739139516,45.9801601172717 15.2980837163235,45.9800548730684 15.2978757184108,45.9800154656885 15.2976201189763,45.979955937123 15.2972532019418,45.9798835609602 15.2970288958696,45.9798351967739 15.296737243522,45.979766852225 15.2964110490684,45.9796827606075 15.2962295694766,45.9796543485951 15.2960017192136,45.9796186783068 15.2959525940674,45.9796031495675 15.2957674659169,45.9795680879858 15.2955761118721,45.9795513974742 15.2950191209256,45.9794349670448 15.2948374336738,45.9793671435156 15.2946597566835,45.9793010189168 15.2941828816546,45.9791782593953 15.2938698877163,45.9790997050992 15.2934800608004,45.9790127095004 15.293117609054,45.9789038679738 15.2927863592867,45.9787890968713 15.2925859004908,45.9785377651368 15.2924538605662,45.9784123155058 15.2922388636804,45.9781690282856 15.2921156845384,45.9777894610334 15.2920094418931,45.9774644662899 15.2918898183743,45.9771224100058 15.2918132021389,45.9769828716254 15.2917432156037,45.9768524039278 15.2912518115641,45.9756515665299 15.2909884524938,45.9751155253686 15.2906978991426,45.973919212358 15.2900017802619,45.973143940419 15.2897454924912,45.9732664191976 15.2896509698921,45.9733287428629 15.2894576815776,45.9734564599182 15.2891429385301,45.9737286269775 15.2887371694045,45.9738678573691 15.2883458597405,45.9740584266389 15.2880900073117,45.9742663786274 15.2878579007451,45.9745247472577 15.2875092379605,45.9747286127687 15.2870229593519,45.975048083284 15.2864815783248,45.9753939630966 15.2862792458782,45.9757478092559 15.2863033523739,45.976068336416 15.2862811387761,45.9763655856116 15.2861874368852,45.9765639493177 15.2859046260971,45.9768535728218 15.2855924788027,45.97726122856 15.2855378498803,45.977479558888 15.285505787134,45.9777446207609 15.285372501637,45.9779007935216 15.2852524132443,45.9784154908192 15.2851988311031,45.9788130521418 15.2851339006875,45.9791873377322 15.2850242664316,45.9795773007459 15.2849023939596,45.9797957983639 15.2846796646037,45.9799521931986 15.2842344722373,45.9803429907659 15.2838224705962,45.9806635222582 15.2835882180319,45.9807887216145 15.283230453762,45.9808130027715 15.2827269603636,45.9807830275084 15.2821333848201,45.9806518686114 15.2818983272717,45.9806446206677 15.2816864876375,45.9807620228365 15.2813188073857,45.9810200821206 15.2809512527789,45.9812781399007 15.2808060373045,45.981325284716 15.2805597596318,45.9812946676265 15.2798765091351,45.9811170191805 15.2793493706853,45.980876631259 15.279001477677,45.9806825913793 15.2786973423998,45.9803092099771 15.27838159267,45.9798579361297 15.2779883023926,45.9795392958612 15.2773478938029,45.9790185364508 15.2771242864706,45.9788214898085 15.2767613069923,45.9786000366957 15.2765056666197,45.9785264246129 15.2758665510687,45.9783648411516 15.2755573568812,45.9782396195313 15.2746823153934,45.9778654429501 15.2730946144198,45.9791642842118 15.2729363221511,45.9793869950328 15.2725737680771,45.979644114229 15.2721186692702,45.9800054658238 15.2718266473043,45.9801719879883 15.2715001365026,45.9804648287676 15.2714242494675,45.980570641764 15.2713055474912,45.9807362109601 15.2710237994046,45.9811845139175 15.2707183732885,45.9815950819936 15.2701952277209,45.981982590252 15.2699310141562,45.9820584351701 15.2698237822166,45.9820892804872 15.2697013412213,45.9821243905035 15.2691447486217,45.9822707451682 15.2687888725332,45.9823417645725 15.268349095545,45.9823311010567 15.2674611276339,45.9822241307696 15.2671863376009,45.9820341127774 15.2669454213277,45.9817485496587 15.2667947329009,45.9813038764499 15.2666896436725,45.9808671045433 15.2666312493701,45.9806129664189 15.2665619560762,45.9804542290651 15.2664011133166,45.9802320915166 15.2663203112958,45.980041529049 15.2662240956784,45.9797854093427 15.2660060684776,45.9795871582814 15.2655740013542,45.9794298039602 15.2652313766819,45.9793000432923 15.2647163757217,45.9792877408124 15.264598566225,45.979264979569 15.2643934340029,45.9792255046149 15.2637729948607,45.9790232307992 15.2636358481543,45.9789503961111 15.2631388862874,45.9786860198704 15.2628542483126,45.9785353338898 15.2623028534208,45.9781934291846 15.2621449363757,45.978121360181 15.2618178512404,45.9779720286366 15.2610969558765,45.9775890269491 15.2608620667046,45.9775043552809 15.2604365014672,45.9773509256231 15.2600583312287,45.977231487758 15.2599658179644,45.9772077643986 15.2597723927813,45.9771580871246 15.2598570570841,45.9770764656159 15.259924832464,45.9769709486176 15.2599419865413,45.9767205940394 15.2599950242478,45.9764994002934 15.2600392045094,45.976315926967 15.2601811929441,45.976047202867 15.2603272369783,45.9758180591556 15.2604044410109,45.975494506446 15.2603740080988,45.9753616799622 15.2603517411336,45.9752640158184 15.2601738983023,45.9750131154384 15.2598260718338,45.9746455414436 15.2595490310303,45.9744020636975 15.2590943320644,45.9740833176181 15.2584194564429,45.9737857624684 15.2580803519509,45.9737637645911 15.2579104774029,45.9737528109908 15.2576299885866,45.9737091750064 15.2573724058168,45.9736516303099 15.2571212528943,45.973617014673 15.2568510093163,45.9735840609751 15.2566469429454,45.9735460992926 15.2565173775526,45.9734892548562 15.256292779309,45.9734202066194 15.255702680241,45.9732566907722 15.2552453030562,45.9731346248077 15.25482247531,45.9730046519902 15.2542852566721,45.9726922790759 15.2539803033925,45.9724327439878 15.2538271070119,45.9723146747308 15.2537195435514,45.9721577239191 15.2535331883173,45.9719838522099 15.2533569266044,45.9718442390207 15.2531938794439,45.9717159333723 15.2530646853821,45.9715122418496 15.252983355263,45.9713345375386 15.2528462566118,45.9711799006777 15.2527552923076,45.9710399178415 15.2525024356438,45.9707123309226 15.2522736164808,45.970562664748 15.2520219901409,45.9704198866558 15.2519162936336,45.970302789763 15.2517163806497,45.9700388780013 15.2515333579475,45.9698856003488 15.2514543424082,45.9698185614513 15.2512286160861,45.9696380242632 15.2509889053781,45.9693035667693 15.2508679726018,45.9690975151344 15.250800131468,45.9687327174807 15.250871526042,45.9685412697528 15.2509608969933,45.9683018247752 15.2515288131139,45.9667719572962 15.2512674414419,45.9664101049066 15.2510190574834,45.9660663087487 15.2508097243021,45.9657406016919 15.2506138336477,45.9655054716104 15.2503009253885,45.9652432445185 15.2498665647061,45.9650001773374 15.2493897839387,45.9648489776384 15.2485198510457,45.9642898659186 15.247675975265,45.9642178267406 15.2475473045766,45.9640072893287 15.2475304075325,45.9638925152266 15.247509785381,45.9637524656389 15.2474576444364,45.9634301008251 15.2474211577599,45.9632041574781 15.2472866929013,45.9629085139865 15.2470833297256,45.9624089513276 15.2462904488183,45.9626576498355 15.246045007425,45.9627346590183 15.2456324602797,45.9628061784512 15.2452910801141,45.962924601667 15.2450367215137,45.9632329588176 15.2446197680916,45.9634770600109 15.2441801601904,45.9638222522947 15.2437852608886,45.9640662133167 15.2431954151255,45.9643422598902 15.2427266678275,45.9645774666297 15.2424123591451,45.9646943840746 15.2419302987041,45.9647477722066 15.2411740663667,45.9647728545962 15.2406965242713,45.9647378705503 15.2401796357169,45.9648534087903 15.2396618408532,45.9649986390071 15.2394628107075,45.965071397739 15.2391435882493,45.9651880465473 15.2389169160671,45.9651039422467 15.2385736784615,45.9649766219908 15.2376746967186,45.9647200811208 15.2371264660906,45.9645976814997 15.2369361033191,45.9645551572818 15.2367427147031,45.9645897493267 15.2360066857734,45.964663073332 15.2351146452879,45.9650063747958 15.2345554266148,45.9650617800432 15.2338801542494,45.9652258424193 15.2329018212268,45.9653959174372 15.232203276545,45.9655816118013 15.2311312522449,45.965874230702 15.2309006427532,45.9659271534542 15.2305552046026,45.9659504350872 15.2300688573399,45.9660333842531 15.2292941929259,45.9661936605587 15.2289977410616,45.9662693857554 15.2286507619727,45.9663578980406 15.228276062623,45.9665145772287 15.2274627457326,45.9665969082525 15.2263865487991,45.9673014955046 15.2259171488244,45.9676536945022 15.2255780985436,45.9678869547106 15.2251538476087,45.968079352293 15.2249190489806,45.9682486114239 15.2246452996536,45.9684863291296 15.2243850224879,45.9688015798565 15.2244249297931,45.9689702082879 15.2241903092267,45.969185083859 15.2239354122353,45.9692038489237 15.2229951150959,45.9695523687054 15.2222499909484,45.9696632321465 15.221883644593,45.9696275033335 15.2208767482027,45.9696523079321 15.22053030303,45.9697213594545 15.2201838776452,45.9697630568976 15.2197653087009,45.9697365095674 15.2193469712541,45.9698011968781 15.2189616953362,45.9699387906149 15.2182826063647,45.9702092107011 15.2178518387422,45.9704289465263 15.2176365183469,45.9705388586944 15.2183118471443,45.9709845760093 15.2185674900459,45.9711528840852 15.2188696797079,45.9715080744799 15.219152007202,45.9717994185384 15.2193228559115,45.97199524045 15.2193364110891,45.9721274804854 15.2193372933574,45.9723509814162 15.2194232829339,45.972624436098 15.2195487219431,45.9729207590313 15.2197330956211,45.9732396426901 15.2199432494271,45.9734855051715 15.2200488613991,45.9737270697486 15.2201240214912,45.9741320009003 15.2201755636136,45.9744709344577 15.2202616783762,45.9750670451861 15.2203469965848,45.9754293074907 15.2204317231261,45.9756746909259 15.2205673830193,45.9760719468868 15.2207036485903,45.9766211723623 15.2205549332683,45.9771943419242 15.2200545172091,45.9778266738962 15.2195367212793,45.9783420671467 15.2190446537834,45.9781187891178 15.2189027686647,45.9784000585393 15.218589638877,45.9786195714387 15.2184664704257,45.9789026040293 15.218192752137,45.979135716949 15.2176633452642,45.9792644935006 15.2171671308576,45.9794661757039 15.2168018399174,45.9797496662834 15.2164113814823,45.9802657933073 15.2162301457932,45.9807541703536 15.2158456369107,45.9811106653236 15.2155327985272,45.9814123179685 15.2153708508533,45.9818185983804 15.215352642608,45.9822154301447 15.2156024241883,45.9825251990058 15.2157992049475,45.9826798575267 15.2159246118645,45.9829670063492 15.2158213572185,45.9833320570196 15.2157311726867,45.9837062605278 15.2155684407226,45.9839118044844 15.2152229485125,45.9842181065303 15.2151045845279,45.9843828967736 15.2148194554382,45.9847798704394 15.2146304333157,45.9849307566006 15.2142912071439,45.985191425821 15.2142919462654,45.9853829848183 15.2142469530475,45.9855974836292 15.2139402766711,45.9857987061402 15.2139679017152,45.9861680986873 15.2136345280785,45.9862416934296 15.2132213540734,45.9863407195536 15.2128974483928,45.9864267112604 15.2124875293958,45.9868374078574 15.212284364263,45.9870737942102 15.2119919978448,45.9872067825471 15.2116761235732,45.9873021134537 15.2114677433831,45.9875601023918 15.2110896829403,45.9879355540674 15.2107266248796,45.9884561091348 15.2106194082012,45.9888091951608 15.2107989439016,45.9891112756289 15.2106633575878,45.9895060731572 15.2102460563332,45.9898865429506 15.2099259508859,45.9900283946688 15.2097577568806,45.9902679513122 15.2096011775246,45.9905755087151 15.2096513381593,45.9911426292342 15.2094687417843,45.9913980477049 15.2094562201918,45.9918086338528 15.2093351095076,45.9922124007445 15.2092746751214,45.9926520470209 15.2092133392159,45.9930925046707 15.2090798635106,45.9932991551794 15.2092862252928,45.9935587197699 15.2092070749124,45.9938624455998 15.2089803720996,45.9943037454778 15.2082792008335,45.9943547824766 15.2083278822897,45.9945991600313 15.2081249949188,45.9947841615501 15.2074924879322,45.9950060240839 15.2070308401117,45.9952123676937 15.2070342199672,45.9954609667365 15.2066638479424,45.9958781384213 15.2066130909546,45.9966353826083 15.2064790002405,45.9970633732729 15.2067032210505,45.9973687081298 15.2065043873476,45.9975023227668 15.20600270453,45.9976419719 15.2057245840576,45.9978757819211 15.2056778554348,45.998225874577 15.2058216169534,45.9983146025158 15.206172442883,45.9983640870825 15.2064438147967,45.9985025209108 15.2063647579301,45.9986638115679 15.2058984824603,45.9988152731708 15.2050768084421,45.9996380557556 15.2053326271635,45.9998987981125 15.2052620510463,46.0002600903963 15.2049677262685,46.0004105193954 15.2046446321638,46.0006372991804 15.2046175785806,46.0005832717719 15.2043395744346,46.0008893291782 15.2041076723095,46.0009531769583 15.2037419280038,46.0009235074882 15.2035585737671,46.0010236180814 15.2033927062905,46.0011747139027 15.202927513913,46.0014538379529 15.2023290360258,46.0016868582681 15.201797339798,46.0020009162835 15.2010493317835,46.0023385664481 15.2005671269246,46.0025248550924 15.2004348811318,46.003194511619 15.2003354523943,46.0033345092866 15.2001914415456,46.0033926164581 15.1999824515103,46.0034770202994 15.1993787257256,46.0036963578481 15.199158613656,46.0037763707364 15.1991209610215,46.0037900227791 15.1989647215142,46.0038592168016 15.1983937742446,46.0041122332116 15.1982235697313,46.0044654159479 15.1983212506336,46.0047014345051 15.1985766421412,46.0050255358647 15.1988953528076,46.0053630229171 15.1989325932617,46.0055942873576 15.198696089518,46.0059308504822 15.1983451182663,46.0059606124573 15.197495917668,46.00607590315 15.1976701266265,46.0063730638298 15.1975446736624,46.006750641573 15.1978586140188,46.0070891293995 15.1980836395702,46.0072600545783 15.1981519876063,46.0075249164287 15.1983410611413,46.0077156982085 15.1985992089038,46.007867939767 15.1987345592024,46.0079477834304 15.199262804878,46.0080545653378 15.1995034105327,46.0081031826952 15.1996578012718,46.0081630172785 15.2000400304125,46.0083113497126 15.2007202288894,46.0086228248863 15.2008784240903,46.0088410994361 15.2011493854946,46.0089982613812 15.2012706331465,46.0090686793323 15.2015605934692,46.0092299457474 15.2016969548143,46.0094437588296 15.2020503018978,46.0097417660747 15.2019757657924,46.0099822245288 15.2019382420239,46.0101032189841 15.2019074896649,46.0105237325524 15.2017535102109,46.0107925837011 15.20164876595,46.011178316942 15.2010517602374,46.0116698294064 15.2005657903183,46.0119801116561 15.2005118718947,46.0123539676788 15.200274859778,46.012876965367 15.2002523392263,46.0129702202288 15.2001361717638,46.0134509868664 15.2003213389615,46.0136611169077 15.2004724920957,46.0139640718121 15.2006420413539,46.0144255323302 15.2008319381536,46.0146208071281 15.2009450992995,46.0147372174179 15.2014306791813,46.0146691504072 15.2017880918718,46.0149399782083 15.2021553177168,46.0150676353548 15.2024735183534,46.0152081548032 15.2025313700698,46.0152778738475 15.2026732758661,46.015448847036 15.202743030406,46.0154890326638 15.2031893846317,46.0157462917807 15.2034577521092,46.0159598677615 15.2035205590623,46.0162180776259 15.2036797108343,46.0164065641851 15.2037945023907,46.0165423135956 15.2039463846206,46.0167903769766 15.2039232084304,46.0170202175287 15.2039066383258,46.0171851734492 15.2038958628044,46.017415801641 15.2038419255563,46.0175689473411 15.203789521907,46.0177177714204 15.2037763614121,46.0179672988289 15.2038830123307,46.0182063552751 15.2039291904836,46.0184718825457 15.2040722041138,46.018519314649 15.2043610770262,46.0186151629671 15.2044127455716,46.0189329563565 15.2044450282463,46.0192470053851 15.2045115950253,46.0194718266786 15.2043226672431,46.0196879273957 15.2042785719754,46.0199887964772 15.2043184881245,46.0203065208613 15.2044793271427,46.0205633850208 15.204426416743,46.0208553622468 15.2046190012281,46.0212094335927 15.2046765013309,46.0214614437336 15.2046516701414,46.0217324962707 15.2047307256487,46.0221555123512 15.2048013807341,46.0224019203038 15.204830630074,46.0226278878639 15.2048521717863,46.0227952048053 15.205029601677,46.0229953534004 15.2050257445267,46.0232097733559 15.2050233856106,46.0233403328984 15.2047730185306,46.0237455841667 15.2048667990522,46.0239928503362 15.2053077970187,46.0244916961694 15.2053630109017,46.024577974004 15.2055055291635,46.0248008584923 15.205263395754,46.025058445205 15.2053511975935,46.0253293853618 15.2054930323171,46.025367280288</coordinates></LinearRing></outerBoundaryIs></Polygon></MultiGeometry>
  </Placemark>
</Folder>
</Document></kml>
