{"type":"FeatureCollection","features":[{"type":"Feature","geometry":{"type":"Polygon","coordinates":[[[15.2890539018702,45.9572818620596],[15.2898840432797,45.9573523709337],[15.2902415440716,45.9574306434462],[15.2909073017647,45.9576430063298],[15.2910556505886,45.9576903164981],[15.2921566961474,45.9577321357044],[15.2924966917296,45.9579149993502],[15.2926940975193,45.9581153229183],[15.2927635031963,45.9583600629123],[15.2925462753348,45.9590020661661],[15.2925195873261,45.9592750351006],[15.2928596269391,45.95970911362],[15.2931665620948,45.9598829722389],[15.2941116772168,45.9600470015087],[15.2952670592413,45.9603994318204],[15.296342200954,45.96079884662],[15.2971619258284,45.9611054295064],[15.2978889628997,45.9616169460124],[15.2980516390081,45.9617585956857],[15.2982853347372,45.9620074024396],[15.2984289205083,45.9621254374199],[15.2989488517444,45.9624109254555],[15.2996120092867,45.9627459729846],[15.3002294228111,45.9628753592778],[15.3009182146408,45.9629859290566],[15.3025429068823,45.9625954579548],[15.3040017182078,45.9629471760983],[15.3058463113048,45.9635784822695],[15.3064323319327,45.9634855857345],[15.3068290888294,45.9633482059564],[15.3076521737542,45.9635919004682],[15.3083411653712,45.9635714183629],[15.3092889985721,45.9635553605758],[15.3096081399753,45.9635217447752],[15.3100677462319,45.9633885923444],[15.3104133017282,45.9633027159285],[15.3107517032937,45.9632528487452],[15.3110938489378,45.9632957367216],[15.3116120819615,45.9634028371857],[15.3119816850702,45.9634411487794],[15.312351725959,45.9634424774084],[15.3129338589942,45.9632800058843],[15.3132728440163,45.9630364989878],[15.3137250395681,45.963032739176],[15.3140501559365,45.9630300466761],[15.3145398934618,45.9629345838107],[15.3146439011549,45.9629148624567],[15.3155226133958,45.9627479617189],[15.315648061347,45.9627324091766],[15.3161752509953,45.9626669781692],[15.3165360600821,45.9625886890764],[15.3167943859536,45.9623447652396],[15.3168019906304,45.9622755517833],[15.3168233250791,45.9620799724377],[15.3168465017838,45.9618681021208],[15.3171584300171,45.9617033886005],[15.3175740342364,45.9618005794171],[15.317733325412,45.9618377470842],[15.3181812628113,45.9617680282688],[15.3187966108606,45.9619365500395],[15.3191175076433,45.9620764685754],[15.3194020608854,45.9622005618433],[15.3197551606902,45.9623085366889],[15.3201819542659,45.9623532300665],[15.3208425008815,45.9623703626936],[15.3211043611908,45.9624066977936],[15.3215453157283,45.9624679920496],[15.3224236986931,45.9624937700666],[15.3230782079613,45.9623152966285],[15.3235118253661,45.9622905859484],[15.3239431523931,45.9625370710406],[15.3241917099607,45.9627254080577],[15.3245136598992,45.962954205787],[15.3249019472321,45.9632302319409],[15.3255131776378,45.9636367185523],[15.3260410071602,45.9637028766638],[15.3265819219171,45.963668220635],[15.3268579476949,45.9634350207557],[15.3268394597773,45.9631214135681],[15.3268344478475,45.9630370294079],[15.3270995684265,45.962858836099],[15.327773555684,45.9628784095519],[15.3280721589408,45.9628870003339],[15.3283679226757,45.9627206830569],[15.3284262473101,45.9626128128946],[15.3287269287973,45.9620567897885],[15.3288758930275,45.9617645654986],[15.329087653903,45.9615757238268],[15.3294708925979,45.9613243033242],[15.3298955920694,45.9611465430742],[15.330064343806,45.9611028668101],[15.3305300213066,45.9609825711855],[15.3308948386985,45.9607809564984],[15.33112951885,45.9606512495855],[15.3316863057496,45.9603199588116],[15.3319340937894,45.9600742316831],[15.3320874792397,45.959705149794],[15.3320238122061,45.959176089298],[15.3319546887351,45.9586836652644],[15.3318559758624,45.958356165211],[15.3318052631195,45.9582460904534],[15.3316762635361,45.9579666359733],[15.3316290217029,45.9576164919994],[15.331691725037,45.9573147065794],[15.3318290020388,45.9570791977289],[15.3321445396745,45.9567315990587],[15.3324924848236,45.9563892138668],[15.332601435229,45.9561421794028],[15.3327633763899,45.9558472126523],[15.3327479183505,45.9555707577564],[15.3326583822236,45.9553107143955],[15.3324617110046,45.9550399154786],[15.3320825112984,45.9547269975569],[15.3318694209847,45.954298065367],[15.3316232090936,45.9537007915093],[15.3320489049951,45.9528799528576],[15.3321753185134,45.9525986765552],[15.3322315465044,45.9522940301217],[15.3325055797547,45.9521077000607],[15.3327326005367,45.951933473198],[15.3328359641694,45.9518753168337],[15.3331571541433,45.951852696422],[15.3338517343077,45.9518434712637],[15.3343593145789,45.9517769337802],[15.3347315304895,45.9516166743977],[15.3349167892125,45.9514063946357],[15.3349977835624,45.9512114464509],[15.3351664209734,45.9510474633046],[15.3353508640811,45.9508094722109],[15.3356124352005,45.9506130037853],[15.335858321055,45.9504894624439],[15.3360254955932,45.950340328558],[15.3362368141457,45.9500041817421],[15.3363803270214,45.949760820745],[15.3365698130362,45.9495477364938],[15.3368093975863,45.9492581135592],[15.3369845605869,45.9490872701649],[15.3370898669707,45.9489681895634],[15.3374525422007,45.9489405759151],[15.3378977989645,45.9489603149647],[15.3381474917863,45.9491042599102],[15.3383662765246,45.9492772685131],[15.3384807406861,45.9493492712899],[15.339019598201,45.9493187013253],[15.3396101756989,45.9492663805837],[15.3402002245528,45.9491489148013],[15.340696479009,45.9489233029853],[15.3410778228842,45.9485749430682],[15.3415525915416,45.9482336808138],[15.3418726892405,45.9480373829391],[15.341975725091,45.9479286519948],[15.3422750981978,45.9477397031595],[15.342667674396,45.9475215913836],[15.3431528310837,45.9471945976609],[15.3434579647504,45.947020744595],[15.3437345322646,45.9468164743182],[15.3446880365816,45.9466809757826],[15.3458491918733,45.9471667643863],[15.3466220480312,45.9474335450474],[15.3476108282089,45.9476996638913],[15.3481667043293,45.9477948772864],[15.3505646052329,45.9472326565301],[15.3501427927724,45.9469197488551],[15.3501761027538,45.9465766531853],[15.3503369013619,45.9460990105054],[15.3502489113028,45.9457264140763],[15.3500690996597,45.945478447573],[15.3500597492214,45.9451404312771],[15.3502920837056,45.9447172756306],[15.3504239614054,45.9441949125831],[15.3506988539885,45.9437517405299],[15.3515485933038,45.9429837820346],[15.3520667501142,45.9426889505586],[15.3526256652919,45.9421106521006],[15.3533564339128,45.9416661558867],[15.3537318066503,45.9413319881723],[15.3536781006164,45.9407554890646],[15.3540238231,45.9402624219615],[15.3545843436329,45.9399227288866],[15.3547746003028,45.9396039781465],[15.3550718588664,45.9393198059135],[15.355769776848,45.9392928915127],[15.3560804650129,45.939516147683],[15.3563057256462,45.9395497269852],[15.3568467002645,45.939483525193],[15.3573915391276,45.9389350295792],[15.3579160491434,45.9385358676056],[15.3584057258781,45.9382759176199],[15.3590653652581,45.9380750866928],[15.359442323021,45.9377757163045],[15.3594189241864,45.9374675270414],[15.3595657853095,45.9370645057691],[15.3600535756146,45.9365162666819],[15.3603794502131,45.9362567341317],[15.3607180571305,45.9357735663367],[15.3611658840316,45.9356280979041],[15.3616549058543,45.9352736595292],[15.361889147932,45.9351635952997],[15.362001169612,45.9348600162433],[15.3622473286024,45.9344019704051],[15.3625440023694,45.9340381501948],[15.3629337775902,45.9337536636778],[15.3630022513512,45.9336548308029],[15.3629746445939,45.9336136187976],[15.3626631117359,45.9337545229581],[15.3622984757887,45.9338203734051],[15.3620855421941,45.9336568392534],[15.3617039382916,45.9330565477816],[15.3614724129475,45.9330475627755],[15.3611783779567,45.9332818042532],[15.3611226731767,45.9334808306819],[15.3612240612331,45.9337240794676],[15.3612559152796,45.9342210147126],[15.36117248595,45.9345195539462],[15.3609666466291,45.9346145907382],[15.3607880803138,45.9345604482895],[15.3604846609558,45.9339251746486],[15.3603204428438,45.9338759349665],[15.3601714397715,45.9339459573166],[15.3600231760466,45.9341502236305],[15.3599051460213,45.934602912477],[15.3597496586227,45.9347873161282],[15.3596072306788,45.9347777768979],[15.359047532519,45.934173088194],[15.3587615571019,45.9340198548091],[15.3584025554175,45.9338803463858],[15.3581273346795,45.9340150957882],[15.3573622229661,45.9335281930647],[15.3567709962997,45.9334707451683],[15.3559255717798,45.9332667029809],[15.3548261459179,45.9329453929199],[15.3535934794554,45.9325150718949],[15.3522039836571,45.93209772788],[15.3508463391909,45.9309819531654],[15.350254090048,45.9307771813623],[15.3497856350537,45.9301009949278],[15.3482681526648,45.9303991365285],[15.3468766707082,45.9305790949064],[15.3459679942586,45.93103542648],[15.3456948644314,45.9306583471725],[15.3454745441237,45.930479058256],[15.3448545045712,45.9303009758332],[15.3445314249537,45.930184979454],[15.344285439009,45.9299830012739],[15.3441166964924,45.929844314173],[15.3437675549648,45.9296834052994],[15.343405410364,45.9295045389086],[15.3429388771398,45.9294178518126],[15.3427857762231,45.9293894283416],[15.3424367521199,45.9292465105602],[15.3421515173504,45.9290134231272],[15.3419812422416,45.9285820402481],[15.3419013151732,45.9284587401313],[15.3417599474784,45.9282407873006],[15.3415780543859,45.9280163870583],[15.3420760965195,45.9272320918881],[15.3422673963174,45.9268896040466],[15.342394891309,45.9266552802339],[15.3425591821678,45.9261149219416],[15.3426341043013,45.9257187956146],[15.3427018409988,45.925579756962],[15.3427614288507,45.9254574785542],[15.3430430804201,45.9251327138057],[15.343001018796,45.9245839762167],[15.3425722676259,45.9240723894822],[15.3420420049631,45.9238040447565],[15.3419716032751,45.9236561521647],[15.3417938386518,45.9232829166136],[15.3417128924881,45.9226983035841],[15.3416915077498,45.9224280744709],[15.3416709564166,45.9221675604431],[15.341656462443,45.9219066683792],[15.3422177480896,45.9209332293911],[15.3427821169769,45.9204636536421],[15.3430735852219,45.9196439814165],[15.343199877489,45.9192387022589],[15.3432887318961,45.9190134909488],[15.3427714056724,45.9187451105158],[15.3423189291331,45.9185395179335],[15.342586549669,45.9180348403698],[15.3429198410108,45.9177279162332],[15.3432924127114,45.9175198486889],[15.3435994149108,45.9171320214919],[15.3438545150948,45.9166903629421],[15.3437728350149,45.9159887817391],[15.3436336367126,45.9155961772719],[15.3435498030841,45.9153596076917],[15.3433800034778,45.9150002067095],[15.3431843694335,45.9146318852555],[15.3431990366883,45.9145018232259],[15.3432209154737,45.9143078552623],[15.3434501134729,45.9138481896395],[15.3436789194899,45.9133256301735],[15.3439981191533,45.9128297914898],[15.3440592896571,45.912298737882],[15.3440961248621,45.9120016999694],[15.3437707645502,45.9114988030402],[15.343666312856,45.9112831702708],[15.3436518681928,45.9110312756029],[15.3436243118708,45.9107434291888],[15.3437383194998,45.9104191658561],[15.3438523258114,45.9100949023949],[15.3439264398391,45.909572807448],[15.3440172941656,45.9092361065188],[15.3440539643764,45.9091003993839],[15.3441894301643,45.9087870482073],[15.3442429284925,45.908663077424],[15.3445357061199,45.9080683406812],[15.3445827527669,45.9073393774311],[15.3446182457726,45.906826396029],[15.3446551859122,45.9065473529275],[15.3449088923462,45.9058897482537],[15.3449345614029,45.905643311064],[15.3449496375504,45.9054970513323],[15.3449507350962,45.9054869704849],[15.344953779436,45.9054582583179],[15.344969712533,45.9053047077749],[15.3448632065401,45.9047561634904],[15.3447800198136,45.9046222573108],[15.3446288787607,45.9043789628184],[15.3445828960837,45.9041545163852],[15.3444426948,45.9034707462635],[15.3443147022334,45.9031560289606],[15.3441940417507,45.9028596449307],[15.3443500350328,45.9026796688066],[15.3444755714176,45.9025348757115],[15.3446651578583,45.9019314512085],[15.344661371946,45.901319611915],[15.3446978623844,45.9009684974636],[15.3446052011849,45.9005728734697],[15.3441247573348,45.8999895538333],[15.3436836503598,45.8995139975359],[15.3431929431608,45.8993535117637],[15.3427788229782,45.8990938182802],[15.3421321523282,45.898717848254],[15.341731278309,45.8984941025254],[15.3412398140662,45.8982076412667],[15.3410172686309,45.8976414435574],[15.3408821786206,45.8975303637395],[15.3406028050846,45.8973007628376],[15.340536887173,45.8970580183831],[15.340355211501,45.8968516099635],[15.3400438490862,45.8965106200448],[15.3396811646477,45.896205773078],[15.3393443663093,45.8959188437034],[15.3388915762685,45.8956502529968],[15.338633031888,45.895516052241],[15.3385669606739,45.895246313587],[15.3386943448924,45.8950029951076],[15.339000599017,45.8945072071505],[15.3392574959275,45.8943714775189],[15.3396041539485,45.8941634980543],[15.3396857164839,45.8941624458287],[15.3403171872505,45.8936646973117],[15.3410956027502,45.8927763613415],[15.3408144153479,45.8904557626916],[15.3410474221209,45.8890099271282],[15.3415279661858,45.8878013436786],[15.3424215917545,45.8880655449052],[15.3441907337756,45.8883280951689],[15.3443744667595,45.8883275416127],[15.3457179265192,45.8882600503483],[15.3458192182353,45.8870794089605],[15.3446160357247,45.8860323673807],[15.3457399640987,45.8848963255069],[15.3454343672873,45.8832142051786],[15.3451163372954,45.8779394638946],[15.3443380092124,45.8780474465852],[15.3428622070223,45.8782780899023],[15.3407283628644,45.8793107661242],[15.3390943876012,45.880061997307],[15.3372570974151,45.8803698519539],[15.3362505503257,45.8798349274476],[15.3353364716861,45.8807053650275],[15.3344434649171,45.8812061023765],[15.3339604768315,45.8826896383739],[15.3348031942023,45.8837854479425],[15.3352448968524,45.8849289470569],[15.3362215391641,45.8860245327216],[15.3362987901647,45.8871258195141],[15.3373285844485,45.8882013536743],[15.3378087682579,45.8892380142158],[15.3376820474952,45.8895893038762],[15.3375291193765,45.8898686882035],[15.3373113293491,45.8900762812107],[15.3367078587021,45.8904289760215],[15.3365286098832,45.8906184583028],[15.3362337741325,45.8908712652056],[15.3359773741756,45.8910879670522],[15.3354626723422,45.8912064508592],[15.3351540233686,45.8913063325504],[15.3346793785654,45.891658638658],[15.3342682914851,45.8918668817362],[15.3342443019599,45.8921638799492],[15.3344523254913,45.8924512015053],[15.3346478226108,45.8928194497391],[15.3346105012257,45.8931277342934],[15.3346048580599,45.8931750793384],[15.3342577825793,45.8933155612617],[15.3338210445243,45.8935462822609],[15.3339131858262,45.8938699344589],[15.3340306684017,45.8941215299638],[15.3338062980015,45.8943111397344],[15.3337167833113,45.8944260333556],[15.3336272693305,45.8945411068585],[15.3334031381665,45.8947712052926],[15.3329269204956,45.8948670707698],[15.3326899527747,45.8951062030034],[15.3324444223843,45.8951632438848],[15.3322588592027,45.8952064332162],[15.3320092422963,45.8954860909638],[15.3321974062254,45.8957059905547],[15.3320763278785,45.8959312878056],[15.3317284787929,45.8959457948397],[15.3315559330261,45.8961847376436],[15.3311634346463,45.8962758539028],[15.3309649255279,45.8964833786956],[15.3305090061473,45.896745634796],[15.3301685546252,45.8969220762939],[15.3299700128553,45.8971251005225],[15.3296352818684,45.897180053451],[15.32944310073,45.89736956169],[15.3293229533613,45.8973624398209],[15.3289403369109,45.8973395176812],[15.3284513885699,45.8974668934413],[15.3282028821368,45.8979399924841],[15.3281995132955,45.8984618751128],[15.3282218086964,45.8989431938451],[15.328094502244,45.8992089947696],[15.3279588448949,45.8994137243932],[15.3278599274618,45.8995110046027],[15.327779211464,45.8995915865743],[15.3276656973173,45.8997051045331],[15.3277252511143,45.8999703690596],[15.3273456334315,45.9000659341016],[15.3273151600509,45.9003629489999],[15.3269798523905,45.9003234188029],[15.3269554509189,45.9005574315772],[15.3265824034753,45.9006754697884],[15.3264936690209,45.9009277518762],[15.3263145099058,45.9009682138682],[15.3260303268531,45.9010325495157],[15.3255732426095,45.9011058351283],[15.3255811852207,45.9013622499326],[15.3251889031657,45.9014983339853],[15.3248669499987,45.9015397398301],[15.3248556629211,45.9018142049383],[15.3247282814432,45.9020710043852],[15.3249227254983,45.9022639044448],[15.3247633336389,45.9025567861333],[15.3245776400104,45.9027597642713],[15.3244312376813,45.9030706041788],[15.3240760341203,45.9029366450416],[15.3239556138187,45.9032834018487],[15.3241825413899,45.9035212000406],[15.3243643625646,45.9037591258143],[15.3245334544291,45.9040240808412],[15.3243091428758,45.9042361659559],[15.3245749503835,45.9045098441807],[15.3252211214694,45.9047869388068],[15.3251068859603,45.9050886901205],[15.3254426942205,45.9052092045455],[15.3256824718859,45.9054379652864],[15.3259929278035,45.9056305327214],[15.3263671959954,45.9057149435069],[15.3267484374892,45.9058893111013],[15.3267766665,45.9061094064796],[15.3267957122177,45.9062580855984],[15.3268494319642,45.9066268416184],[15.3266781782733,45.9070952166946],[15.3266925186571,45.907342615069],[15.3268548712042,45.9075535989961],[15.3268948849265,45.9077829283016],[15.3267303894271,45.9083052707897],[15.3267832659929,45.9085300644298],[15.3267008226694,45.9087800788908],[15.3266629562224,45.9088948190201],[15.3265485325457,45.9091425853424],[15.3263503560752,45.909417584129],[15.3262557119708,45.9096757310843],[15.3262298307308,45.9097463476564],[15.3262635832537,45.9100071872369],[15.3263747528064,45.9102813024015],[15.3257378227272,45.910472073319],[15.3254150819819,45.9103875138173],[15.3248278690117,45.910263215415],[15.3246808714838,45.9104750812323],[15.3244763935017,45.9107770879751],[15.3241957008703,45.9112727630424],[15.3240707720118,45.9114679195177],[15.3239881241835,45.9115970021964],[15.3237805482266,45.9119217808198],[15.3236368265827,45.9121442533385],[15.3235825312556,45.9122282664721],[15.3232475725733,45.9122607067046],[15.3227584280967,45.9123790605166],[15.3226403587323,45.9123355747058],[15.3224677756737,45.9122719076158],[15.3221721891237,45.9124257037121],[15.321793231028,45.9126517161321],[15.3214138543342,45.912805746173],[15.3209840817087,45.913162366699],[15.3207018689837,45.9134016003624],[15.3204134416498,45.9136813407758],[15.3201960383308,45.9139833759241],[15.3198936809819,45.9140831983439],[15.3194561786388,45.9142193889732],[15.3189932023454,45.9144096357382],[15.3185486064208,45.9144333703903],[15.318111921079,45.9147136080977],[15.3178498717603,45.9151012419335],[15.317482947726,45.9151832419575],[15.317051799338,45.9153059090267],[15.3168530420227,45.9154909148268],[15.3164236541371,45.9159239981002],[15.3159813685573,45.9163571153898],[15.3153529462953,45.9169077158788],[15.3151096950577,45.9172053136095],[15.3149565275388,45.9174756692266],[15.3147191069869,45.9176652766846],[15.3141224272176,45.9181572972976],[15.3137561874799,45.9183652523106],[15.3135269596616,45.9185230726137],[15.313139774694,45.918789838582],[15.3127347511075,45.918979901013],[15.3122206249017,45.9192557390098],[15.3117582874105,45.9195719233959],[15.3113983747652,45.9197618579865],[15.3111416448456,45.9199605083226],[15.3107761104839,45.9202989195226],[15.3106163168259,45.920542293869],[15.3103028202762,45.9209660409094],[15.310091479092,45.9212140533375],[15.31000351405,45.9216236906439],[15.3098176281317,45.9218131479635],[15.3096522307306,45.9222094982004],[15.3095247328692,45.9224662800783],[15.3095071953806,45.922790247317],[15.3096252840119,45.9231363415712],[15.3096412049831,45.9236806634763],[15.3095462359518,45.9239913437785],[15.3093225371806,45.9243383635703],[15.3093893273708,45.9247565789539],[15.3094828303474,45.9253411806065],[15.3095761606462,45.9258943803897],[15.3095843090077,45.9262002823304],[15.3094566767078,45.9264345699041],[15.3092908381266,45.9267544394953],[15.309124447881,45.9269753349205],[15.3088491852593,45.9273269919532],[15.3083662927434,45.9276489762732],[15.3080981989151,45.9279228714453],[15.307886801224,45.9281438863549],[15.3074563017687,45.9284059804774],[15.3076908283289,45.9288462395512],[15.3076858240983,45.9291071880785],[15.3070548379189,45.9292573482642],[15.3070368373052,45.9295003361439],[15.3070328725176,45.9299502347598],[15.3070929818702,45.9303279791096],[15.3071720362332,45.9306336904193],[15.3071801722092,45.9309395923085],[15.3070802741386,45.9315067194761],[15.3068170771073,45.9317143748104],[15.3064395359362,45.9322327587696],[15.3062151164031,45.932458304211],[15.305959422808,45.9328593891488],[15.3058195822792,45.933224172497],[15.3056660540074,45.9334450282104],[15.3053453086493,45.933742811524],[15.3051025967568,45.9341618552698],[15.3048136633346,45.9343830712262],[15.3047958732026,45.9346665478528],[15.3047391011647,45.9348961419133],[15.3045922580077,45.9351619670443],[15.3045491493294,45.9355084953242],[15.3044542348067,45.9357908276864],[15.3043841910449,45.9359993121708],[15.304295742832,45.9363324644343],[15.3041619125067,45.9366207486648],[15.3035983056778,45.9373195728037],[15.3034382357652,45.9375269461205],[15.3030608199548,45.938081309029],[15.3024720959644,45.9379371952565],[15.3023715158489,45.9382001056308],[15.3022057239567,45.9385424585079],[15.3023229631455,45.9387580942972],[15.3024990504592,45.9390995426245],[15.3026760390859,45.9396299408906],[15.302807231946,45.9400389906603],[15.3028732822687,45.940326743393],[15.302939455297,45.9406369001255],[15.3028379474939,45.9409430923813],[15.3026785987942,45.9412854287045],[15.3025120412106,45.94148831889],[15.3022554485118,45.941736435693],[15.3017223254954,45.9421248372817],[15.3012147694828,45.9424725891671],[15.3003861458674,45.9430506254812],[15.2999174833075,45.9434387591263],[15.299370679094,45.9436876306272],[15.2988300286398,45.9438824969887],[15.2985247605066,45.9440060239499],[15.2983152417128,45.9440907898791],[15.2978333210911,45.9444159653595],[15.2974602065434,45.9445878941262],[15.2973672633833,45.9446695655163],[15.2969980555397,45.9449939942094],[15.2968445770369,45.9451159523718],[15.2966063317151,45.9453054334164],[15.2966029298907,45.9458767983533],[15.2965291406288,45.9465518198161],[15.2964679211199,45.9471413300943],[15.2963568543427,45.9475989728456],[15.2962975349077,45.947843595],[15.2960021181915,45.9480783015346],[15.2957005368197,45.9483670096243],[15.2956060182892,45.948517966119],[15.2954383410489,45.9487860821612],[15.29517623686,45.949223149285],[15.2949134366437,45.9495297505192],[15.2949417395907,45.9500020581633],[15.2949142923083,45.9503964093796],[15.294893923505,45.9506905076313],[15.294541250242,45.9510783193323],[15.2942002572936,45.9512366578659],[15.2939109779796,45.9514173567028],[15.2930726975212,45.9514510015684],[15.2927132018461,45.9517713421386],[15.2924047315644,45.9519835783308],[15.2922073929539,45.9524789578645],[15.2923640311658,45.9528294684344],[15.2921086882089,45.9533339938216],[15.2913097837236,45.9535024909084],[15.2909301852969,45.9536834123169],[15.2902920435909,45.9538839746782],[15.290151020919,45.9539283316629],[15.2894363487549,45.9541730823668],[15.289005654661,45.9544531016747],[15.288502419053,45.9544273800312],[15.2880277229494,45.9549054565367],[15.2886677440712,45.9551872698279],[15.2890428046323,45.9553707750674],[15.2889679995719,45.9558703375874],[15.2891501234529,45.9561623027469],[15.2890821821653,45.9565677317922],[15.2890625348879,45.9566843918935],[15.2887297412779,45.9571891052577],[15.2890539018702,45.9572818620596]]]},"properties":{"fill-opacity":0,"stroke-opacity":1,"stroke":"#ff0000","lov":"0705","lov_naziv":"BUČKA","luo":"07","luo_naziv":"Posavsko","povrsina":2133.85},"id":"pregledovalniklovisca.1"}]}