<?xml version="1.0" encoding="utf-8" ?>
<kml xmlns="http://www.opengis.net/kml/2.2">
<Document id="root_doc">
<Schema name="pregledovalniklovisca" id="pregledovalniklovisca">
	<SimpleField name="lov" type="string"></SimpleField>
	<SimpleField name="lov_naziv" type="string"></SimpleField>
	<SimpleField name="luo" type="string"></SimpleField>
	<SimpleField name="luo_naziv" type="string"></SimpleField>
	<SimpleField name="povrsina" type="float"></SimpleField>
</Schema>
<Folder><name>pregledovalniklovisca</name>
  <Placemark id="pregledovalniklovisca.1">
	<Style><LineStyle><color>ff0000ff</color></LineStyle><PolyStyle><fill>0</fill></PolyStyle></Style>
	<ExtendedData><SchemaData schemaUrl="#pregledovalniklovisca">
		<SimpleData name="lov">0715</SimpleData>
		<SimpleData name="lov_naziv">BIZELJSKO</SimpleData>
		<SimpleData name="luo">07</SimpleData>
		<SimpleData name="luo_naziv">Posavsko</SimpleData>
		<SimpleData name="povrsina">2915.76</SimpleData>
	</SchemaData></ExtendedData>
      <MultiGeometry><Polygon><outerBoundaryIs><LinearRing><coordinates>15.6561380444747,46.0325691231266 15.6562573890172,46.0328293686778 15.6564686484755,46.0332150527501 15.6564068303994,46.0334493457171 15.6563837646787,46.0336834160871 15.6566445679756,46.0338888630139 15.6571247836469,46.0340660551781 15.6574634181087,46.0342980455289 15.6577772872322,46.0346201535031 15.6581801968263,46.0348247789385 15.6583051326986,46.0350433311244 15.6582624044744,46.035220200296 15.658200164576,46.0354185061486 15.6581503082558,46.0355717526071 15.6581652557584,46.0357426210873 15.658257498524,46.0358950491869 15.6583116283261,46.036101682391 15.6583524129279,46.0362724020069 15.6584714554067,46.0365056540049 15.6585913539872,46.0368108817893 15.6586723917557,46.0371073357934 15.6587002597873,46.0372781296953 15.6586767747296,46.0374762123707 15.6586669563725,46.0377371995087 15.6586951677265,46.0379259866244 15.6588779530623,46.0380868899087 15.6590223043095,46.0382750073345 15.6592051987434,46.0384449070614 15.6594269576206,46.0386235798638 15.6595058617565,46.0387400934282 15.6596634568927,46.0389551264105 15.6598079201811,46.0391522397738 15.6600303266202,46.0393848932627 15.6603566228091,46.0396619341078 15.6605396331466,46.0398408285938 15.6607614019312,46.0400194987101 15.6608916655222,46.0401087215456 15.661074035254,46.0402336332597 15.6612182922688,46.0404127507907 15.6615064869855,46.0407439943373 15.6616639882358,46.0409500274345 15.6617952440439,46.0411112242835 15.6619910757618,46.041281044562 15.6621091772272,46.0414333196334 15.6623449520583,46.0417018814834 15.6625289434884,46.0419617454291 15.6626870974628,46.0422217588822 15.6629113577369,46.0426073550648 15.6631215172893,46.0428940590268 15.6631634295505,46.0432329352761 15.6630340524919,46.0435319562255 15.6627077317442,46.0438286100784 15.662412136255,46.0442314364854 15.6624825640636,46.044351056196 15.663348282964,46.0446543824142 15.663698763385,46.0447242384685 15.6640229336847,46.0447873181621 15.6642310585366,46.0449030775138 15.6644007471074,46.0450460527112 15.6645963850124,46.045197874357 15.6647913764416,46.0452957138628 15.6649354820421,46.0453308659386 15.6652183945014,46.0453472148238 15.6654380398944,46.0453459361975 15.6657227191556,46.0453802687346 15.6659949109123,46.045450663704 15.6662283422878,46.0455212839729 15.6664234459022,46.0456281176294 15.6666312542218,46.0457168816627 15.666826467555,46.0458327115811 15.6672427376256,46.046064219539 15.6674247078846,46.0461531329653 15.6677362091422,46.0462682821814 15.6680215452245,46.0463565907052 15.6682416284477,46.0463912945022 15.6686300048823,46.0464520062259 15.6689403145768,46.0464680956381 15.6691470436774,46.0464668854826 15.6694691883635,46.0463930182214 15.6697393238573,46.0462924620547 15.6699841612168,46.0462370415121 15.6702294537186,46.0462086105531 15.6704491023012,46.0462073222786 15.6707208684453,46.0462417181122 15.6710702669805,46.0462846550953 15.6714331316093,46.0463724998635 15.6717183649634,46.0464518021694 15.6721597372885,46.0466201615236 15.6725624595709,46.0467977442082 15.672900253298,46.0469487149839 15.6732895130569,46.0470813864018 15.6735621600237,46.0471877510179 15.6738472911717,46.047258051013 15.6740933324406,46.0473015880817 15.6744427401638,46.0473445146956 15.6748438314884,46.0473871350835 15.6751671795189,46.0474122181685 15.6755161500398,46.0474191537189 15.675839059635,46.0474082471301 15.6762137619461,46.0474060307971 15.6765244095644,46.0474491803664 15.6769649431804,46.0475364578126 15.6773666975841,46.0476330509637 15.6777029689348,46.0476580502813 15.6779738659196,46.04762045329 15.6783219569655,46.0475554047623 15.6786699369969,46.0474813582413 15.6790562373777,46.0473710926229 15.6793779325775,46.0472612097432 15.6796735643985,46.0471334857694 15.6798922227722,46.0470512069087 15.6800956408052,46.0469379766246 15.6805932283666,46.0467993309415 15.6809814027689,46.0466740216599 15.6813503941598,46.0464809835676 15.6816182365736,46.0462482383413 15.6817605406848,46.0462829300648 15.6819317741341,46.0463689152376 15.6821482923606,46.0464387041403 15.6823772709959,46.04633458474 15.6824667173294,46.0462530723264 15.6825683081677,46.0461085041586 15.6826842597099,46.0460808188365 15.6830582871564,46.0460245985267 15.6833161410362,46.0459780692135 15.6835346784126,46.0458867864926 15.683740293583,46.0457954906829 15.6840907844942,46.0456018345756 15.684343107046,46.0454319790259 15.6845604180917,46.0452417281315 15.6847653632825,46.0450965388831 15.6849965925586,46.0449871821163 15.6852278209192,46.0448778248847 15.6855237602961,46.0447770766574 15.6858322846831,46.0446492593547 15.6861795678488,46.0445212085229 15.6864760607776,46.0444654424806 15.6867476049022,46.0444818063536 15.6871620507266,46.0445602936655 15.6874734717765,46.0446663920136 15.6877335484577,46.0447997912697 15.6878899300842,46.0449068213054 15.6881105780821,46.0449864714293 15.6884606521451,46.0450833367618 15.688681189854,46.0451539888511 15.688862072789,46.0451528987672 15.6889649870683,46.0451162880485 15.6890668944305,46.0449987049467 15.6891552099484,46.0448272181329 15.6892181322904,46.0446918747636 15.6892284789421,46.0444848676524 15.6892390493043,46.0442958543775 15.6892634347081,46.0441787385573 15.6893784835088,46.0440790710982 15.6895453235699,46.0439880886612 15.6897255308639,46.0439330157008 15.6899064097743,46.0439319239863 15.6900752649439,46.0440028853632 15.6901544651258,46.0441373710933 15.6902210818414,46.0442989255504 15.6903128666521,46.0444063423729 15.6905466774293,46.0444949058941 15.6908450711347,46.0445919861961 15.6910917866203,46.0446894681916 15.6912873836199,46.0448322468345 15.6914702859758,46.0449930971356 15.6916402691934,46.0451540253216 15.6917186887675,46.0452255314985 15.6920437164849,46.0453855206057 15.6923032454831,46.0454739247918 15.6926141191554,46.0455350244609 15.6927825327748,46.045569994117 15.6929638669077,46.0456048851867 15.6931966574355,46.0456214686978 15.6933387808059,46.0456206066059 15.6935982003384,46.0457000109181 15.6937803238226,46.0457978790653 15.6939507668476,46.0459947913828 15.6940960463272,46.046245841827 15.6942543603543,46.0465058104931 15.6944510993532,46.0467385526795 15.694582109252,46.0468817180615 15.6947257185031,46.046988816333 15.6950250367281,46.0471579507861 15.6952988540352,46.0473542323676 15.6956253727333,46.047631170866 15.695729755487,46.0477115138297 15.6960941368685,46.047916239752 15.6965091866976,46.048039677414 15.6967296331755,46.048101316909 15.6968864940099,46.0482443220271 15.6969787509501,46.0483877209157 15.6971357264309,46.0485397225768 15.6972139314926,46.048593231073 15.6973959576331,46.0486820964189 15.697836744833,46.0487963746066 15.6982521451979,46.0489467965544 15.6987196860028,46.0491328886015 15.6986956588833,46.0492769969251 15.6987226356582,46.049366807902 15.6988402877571,46.049474059649 15.6989321136125,46.0495724716229 15.6990639363556,46.0497786099563 15.6991440748561,46.0499850643043 15.6991981441918,46.0501736828976 15.699290183274,46.0502990860325 15.6993562663999,46.0504156503313 15.6994102233287,46.0505952719107 15.6998126063271,46.0507367702185 15.7002539833146,46.0508960233762 15.7007597430164,46.0510368849194 15.7012523559539,46.0511598297125 15.7017581194183,46.051300596834 15.7022636585064,46.0514234578962 15.7025742340508,46.0514575394989 15.7027818932418,46.0515282434827 15.7029374096966,46.0515632774516 15.7033370676405,46.0514888380192 15.7036599945357,46.0514778527292 15.7041392535525,46.0515558793558 15.7045670411918,46.0516612140445 15.704956294261,46.0517847799919 15.7052157590938,46.0518641575867 15.7055757343454,46.0517179744856 15.7058588654326,46.0516262503753 15.7061429128755,46.0516065005931 15.7065689836445,46.0515768745981 15.7070600066242,46.0515738379701 15.7074474265406,46.0515534453909 15.7077959662912,46.051524294698 15.7082608003749,46.0514944223314 15.7087901269733,46.0514551505496 15.7099362342377,46.0516869230612 15.7128087518163,46.0507372538386 15.7131706163376,46.0506998158368 15.713498743472,46.0507620106616 15.7138441966245,46.050865035357 15.7141482364913,46.0510033184015 15.7141887465132,46.0508978834634 15.7142033069147,46.0507342163208 15.7141073785966,46.0504601193493 15.7143952976388,46.0506511383629 15.7147365303958,46.0510580352985 15.7151702560819,46.0514819877316 15.7154160377077,46.0516615709434 15.7156180893622,46.0517070034883 15.7160380872608,46.0517277667004 15.716290026967,46.0517436433398 15.716391269668,46.0517780993759 15.716835579826,46.0517402229473 15.7173304340789,46.0517136344593 15.718104337677,46.0518104473172 15.7187530367966,46.052555868608 15.7187077388804,46.0526502682145 15.7179038852182,46.0531652134628 15.7174805894968,46.0534794578887 15.7193462354837,46.0549275887852 15.7197713409214,46.0549274312985 15.7199071521623,46.0548708813333 15.720393763352,46.0545661262696 15.7211376286381,46.0540892420255 15.7219601518525,46.0534810311744 15.7224287210082,46.0531422804808 15.7235717380597,46.0523486608436 15.7237873721706,46.0521668938639 15.723679484794,46.0521287074671 15.7236038357027,46.0519665100669 15.7234807891555,46.0517372207235 15.7233579092011,46.0515602061701 15.7230515395011,46.051324608466 15.7230194659527,46.0511543070724 15.7231870043409,46.0508026110534 15.7231876866281,46.0505875643552 15.7233024997532,46.0502755212097 15.723493517628,46.0500894117044 15.7236474354035,46.0500013405894 15.7236733953513,46.0500002764594 15.7237666432393,46.0499963568836 15.7238707982995,46.0500558011623 15.7240618357963,46.0503955097401 15.7242890303141,46.0503870520667 15.7244401089713,46.0504574454359 15.7247800224018,46.0501059139619 15.7248033968406,46.0499565856829 15.7244854312001,46.0498320955654 15.7239964958614,46.0496574014557 15.7238198737563,46.049421883516 15.7238665414363,46.049126556932 15.724106324101,46.0488160607049 15.7237944688578,46.0487036766801 15.7236092423108,46.0486401568617 15.7230462813753,46.0484459526532 15.7230291587412,46.0483121767955 15.7230302477396,46.0482966040706 15.7231030375052,46.0481807944218 15.7232371288964,46.0481085950533 15.7232624160926,46.0481055558026 15.7235358167358,46.0481134527537 15.7237832036037,46.0479896090758 15.7241826291076,46.0479707032741 15.7243242551788,46.0480697690638 15.7246365533038,46.0481371608801 15.7247142042575,46.048156193303 15.724730247444,46.0484244897725 15.7249740629136,46.0485018523456 15.7250923560962,46.0486642282782 15.7252446880937,46.0488504116641 15.7255812922998,46.0488492649527 15.7271807689286,46.0484149529141 15.7276184179536,46.0482168297725 15.7279483195429,46.0479713441177 15.7285944391543,46.0476196499343 15.7291062410922,46.0473621140751 15.7295639792366,46.047238445345 15.7299385922912,46.0471217839696 15.7300005248108,46.0469382873446 15.7300283765738,46.0467278356355 15.7299448088268,46.0466127502837 15.7296464199632,46.0465122629814 15.7290207764274,46.046297343938 15.7288732734334,46.04613488836 15.7289935980592,46.045920787922 15.7294496783059,46.0455935145598 15.7297994340011,46.0453954940137 15.7302957309451,46.0452478224211 15.7310174769907,46.0452453677403 15.7314291781237,46.045140071107 15.7324830473814,46.0445255339536 15.7324719636947,46.0443321565974 15.7323676083109,46.0440814324084 15.7323028113243,46.0438713037604 15.73207944752,46.0436785665017 15.7319821347137,46.043755399469 15.7318429244173,46.0437807644421 15.7317325054008,46.043696804021 15.7314973875614,46.0436607891036 15.7310297175872,46.0435774944056 15.7309937313408,46.043533276429 15.7310240951037,46.0433079622424 15.7313112716511,46.043294248207 15.7310515749381,46.0430893247109 15.7308546257886,46.0428219159286 15.7306614667842,46.042430225675 15.7303079279134,46.0420649332425 15.7302718385766,46.0417970352677 15.7306167579632,46.0416262157443 15.7309615740911,46.0414281330938 15.7309750513463,46.041245035626 15.7308810507824,46.0410633453277 15.7304893472103,46.0408407295185 15.7303808737414,46.0406782961997 15.7303876931369,46.0405486871023 15.7303937587386,46.0404305097781 15.7304646575817,46.0401045232802 15.7304389529816,46.0399383218241 15.7302286122707,46.0398203576807 15.7299989568665,46.0397465148148 15.7297747366018,46.0397812378944 15.7296149514376,46.0399310784711 15.729587041135,46.0401075197504 15.7297598380093,46.0404258315508 15.7298040785131,46.0406654252195 15.729825768694,46.0407819856524 15.7298006111934,46.0409025342533 15.7296169111234,46.0411203694473 15.7294274710032,46.041226130823 15.7290373322508,46.0412105349373 15.7287251436437,46.0411980397694 15.7284529364487,46.0413177336594 15.7281999614086,46.0413967251678 15.7278214482858,46.0413711536934 15.7272560018307,46.0413867199838 15.7267589112616,46.0414324406814 15.7263255814197,46.0415323694817 15.7257172537209,46.0416972009773 15.7249490762189,46.0420086244924 15.7245479642799,46.0422411467876 15.7243970668021,46.0422619880109 15.724177099608,46.042188162045 15.723789510845,46.0418636443853 15.7235385761011,46.0415354711011 15.7232243646539,46.0412590739975 15.7229930353444,46.0409476909154 15.7231211066977,46.040445084255 15.723469170426,46.0399993895245 15.7234909710229,46.0396404269902 15.723323272886,46.0393831671653 15.723043831638,46.039146588759 15.7225617311886,46.0390128740789 15.722600454631,46.0389308410043 15.7227670265029,46.0387850162208 15.7229372238983,46.0388578101255 15.723507091017,46.0389947466497 15.7237818944832,46.0389156272606 15.7238155671647,46.0388229186045 15.7236538103397,46.0386446205996 15.7233108963588,46.0384941019237 15.7230149251652,46.0384855374442 15.7224999411072,46.0386534503841 15.7223626975749,46.0387002057081 15.7222870282725,46.0387131906224 15.7221147311818,46.0387270559775 15.7221491200726,46.0382924341765 15.7220204840981,46.0380180100551 15.7220229997113,46.0376854425314 15.7218949061813,46.0374822758826 15.7214453766985,46.0373582480975 15.7206306990182,46.037299954649 15.720002147807,46.0371587846842 15.7195432946565,46.0370823155315 15.7190952010943,46.0371380417067 15.7188621010249,46.0372847295289 15.7187997884746,46.0374409600461 15.7188793918241,46.0376815952994 15.7188855996772,46.0378614184555 15.7187299918782,46.0379367173767 15.7185593753751,46.0379405794596 15.718344069708,46.0378157864475 15.7181370231423,46.0374907443267 15.7178953347633,46.0370843110951 15.7175992280596,46.036635480369 15.7174696400611,46.0362355403591 15.7173712072593,46.0360866179431 15.7172481447118,46.0359411791272 15.7170231624697,46.0358265216402 15.7167497932651,46.0357663327951 15.7166594899343,46.0357563718786 15.7163381065884,46.0355096027094 15.7161201794985,46.0352507574634 15.7160656833508,46.0349623655164 15.7161105191793,46.0347929294639 15.7163207820471,46.0341687969734 15.7165360402971,46.033811591951 15.7166111823123,46.0336183019301 15.7169230711714,46.0335911525852 15.7173069178182,46.0335242312062 15.7176748985939,46.0333594241324 15.7180080000062,46.0330252299344 15.7180602461673,46.0328001412314 15.7178466003523,46.0325025825052 15.717420105694,46.0323578795487 15.7171682654327,46.032173119481 15.7167986335701,46.0320098821792 15.71673377885,46.0319294903098 15.7167975694752,46.0317177361954 15.716997655873,46.0313969756808 15.7171676216119,46.0311346184066 15.7173832292744,46.0307458277556 15.717351873364,46.0305288220244 15.7170880875184,46.0302487619258 15.7169571017385,46.0300489367624 15.7169027776736,46.0297737703792 15.7168097067395,46.0293691012754 15.7167935289797,46.0291468714983 15.7168307161701,46.0288459377175 15.7169335489458,46.0285570088504 15.7170478229553,46.0285635800232 15.717209855762,46.0285774093871 15.7173273685469,46.0287145154664 15.7175499473093,46.0288153312348 15.7179389228199,46.0291471500982 15.7183446642455,46.0293169950222 15.7186514380438,46.0293256836156 15.7189525286838,46.0292248160982 15.7193903401278,46.0290983438122 15.7195585394196,46.0289899433152 15.7197710707405,46.0288437432925 15.7200598204277,46.0286185134392 15.7201346561022,46.028363319199 15.7202038066114,46.0282970208514 15.7202273948497,46.0281141304613 15.7202399242374,46.027915204006 15.7202395896299,46.0278397160453 15.7202144851688,46.0276771072201 15.7198913835448,46.0274348573526 15.719830507388,46.0274121168943 15.7197182936501,46.0273750335799 15.7195878701365,46.0273481421506 15.7189752300468,46.0272297201297 15.7186634358926,46.027201539129 15.7185931976408,46.0272038702799 15.7184300230755,46.0272212718131 15.7180836134815,46.0274226562896 15.717936151415,46.027616131887 15.7177935589453,46.0276769517181 15.7176302532544,46.0276544034775 15.7174177573794,46.0276436807542 15.7173297542301,46.0273711552264 15.7172758140246,46.0271755254928 15.7168990692776,46.0270889927987 15.7162077065786,46.0272254125896 15.7155924414436,46.0273933832929 15.7153582329532,46.0274517144938 15.7152099616976,46.027422950304 15.7150797996142,46.0272458817336 15.7149449373158,46.0270147666841 15.7149249097943,46.0267537808707 15.7148296422685,46.026477789749 15.7144820452959,46.0259961609307 15.7140261083908,46.0252656137367 15.7140125923007,46.0249281071624 15.7138859869908,46.0246653575108 15.7134107368733,46.024189111384 15.7127150502515,46.0233939224822 15.7126056527547,46.0231427609551 15.7126768522851,46.0229241244249 15.7127617329728,46.0228052762336 15.7132096296075,46.0225518979598 15.7136491275913,46.0225294496129 15.7138193621934,46.0224293225492 15.7148232840782,46.0215551361021 15.7149485534082,46.0214238868263 15.7149750922287,46.0212583442853 15.7146579441544,46.0207918210686 15.7144515163389,46.020838999653 15.7140732438575,46.0209511348986 15.7137861097559,46.0209795615709 15.7135752239666,46.0209112367822 15.7135121487249,46.0207770259693 15.7133629135626,46.020380621993 15.713267984877,46.0200591890952 15.7133382379336,46.019938182296 15.7134144402317,46.0198881296661 15.7135489032826,46.0198692049771 15.7138900886442,46.0199968201971 15.7141192031224,46.0201370116036 15.714491909677,46.0203050973725 15.7149516728471,46.0205336413191 15.7151894092188,46.0205708436827 15.7155257240601,46.0205205112564 15.7158304843721,46.0204170195043 15.7159016594183,46.02020773855 15.715725787251,46.019880156435 15.7154739027864,46.0195869710115 15.715006632329,46.0193767413025 15.7147861523308,46.0191147596173 15.7147988930881,46.018830624501 15.714677370125,46.0186808540055 15.7142859811549,46.0184953401687 15.7138687172782,46.0184365833906 15.713433752923,46.0184776294222 15.7133441842743,46.0185526889665 15.7131297963418,46.0188340334165 15.7129286495104,46.0191308607647 15.7126408472255,46.019448382827 15.7123181208096,46.0195206662925 15.7119187089539,46.019424360964 15.7115769065065,46.0190969961404 15.7113834313927,46.0187943503714 15.7114613038819,46.0183206798204 15.7112317569591,46.0177024411599 15.7113723962927,46.0176216668008 15.7114405343663,46.0175874115316 15.7118152382173,46.0175507973549 15.7123042033015,46.0175920192568 15.7126226525901,46.0177506419117 15.7130589375915,46.0177624968422 15.7132759325242,46.0176239287488 15.7132773271119,46.0174210232602 15.7132570364709,46.0172290502717 15.7130066230199,46.0170885400713 15.712563186164,46.016981984375 15.7119602934965,46.0170393676933 15.7116951824627,46.0172427460276 15.7112340098059,46.0174752367327 15.7112092327514,46.0174666632131 15.7110701454931,46.0175375303129 15.7108255263913,46.0174759785707 15.7106429474962,46.0174585788686 15.7105037194695,46.0174479275358 15.7103361482938,46.0174325934752 15.7100387161587,46.0174220250038 15.7098838355122,46.0173891560137 15.7097603487863,46.0173167721629 15.7096630566044,46.0172325285931 15.709454613282,46.0169194451723 15.7091757497817,46.0166841780662 15.7089510373954,46.0165831790845 15.7087266202685,46.0166164226373 15.7084487918543,46.0168259007343 15.7083009044935,46.0171079036699 15.7078963115805,46.0171501800251 15.7077061432335,46.0170337586186 15.7076307429849,46.0166810681002 15.7075573670992,46.0164060146245 15.70747481705,46.0162520361632 15.7073195211525,46.0161355781709 15.7070790481042,46.0160236059429 15.706518900056,46.0158877866539 15.7060551877456,46.0156272913926 15.7059652519967,46.0154405160539 15.7059020984662,46.0152474568211 15.7058474362322,46.0148488389232 15.7059269228909,46.01435662672 15.7060868863564,46.0139576727058 15.7063458045284,46.0136833541202 15.7067926888137,46.0134958696048 15.7073741787129,46.0134640193377 15.7079558384746,46.0134758936192 15.7085820260282,46.0133442463451 15.7090648620908,46.0131818134063 15.7095927668658,46.0131811462205 15.7101748346967,46.0133360692532 15.7104709713415,46.0136908953652 15.7105968605973,46.0139211722341 15.7107315824532,46.0141452756283 15.7107767091615,46.0143009241711 15.7108244164222,46.0144563766889 15.7112671473252,46.0145802190406 15.7117634380016,46.0145301615588 15.7125099698721,46.0140150733767 15.7125406673863,46.0136702721561 15.7123620552411,46.01324678668 15.7123360897064,46.0130348739873 15.7119620739924,46.0128208111761 15.7108214340462,46.0125806559352 15.7101630817601,46.0122362698802 15.7100604440113,46.0120767494783 15.7101132085788,46.0118608379787 15.7102995848013,46.011611434645 15.7105983882219,46.0113886848622 15.7118028297975,46.0108263045295 15.7121803284574,46.0107896716872 15.7133856732818,46.0108923753327 15.7138131223879,46.010914179946 15.7142352586499,46.010864304889 15.7147274511181,46.0105991262683 15.7149529464349,46.0104613114334 15.714962341934,46.0104889654218 15.7150094732842,46.0104888505143 15.7151855465234,46.0103037468324 15.7154886262395,46.0099740653357 15.715660415918,46.0096673394609 15.7155443208194,46.0093562977281 15.7153005096513,46.0092147612959 15.7148738749275,46.0091349222874 15.7144614229333,46.0090633608398 15.7144084911612,46.0090541542215 15.7141237458831,46.0089925003827 15.7134940564532,46.0089473961223 15.7129038692798,46.0090923423552 15.7123149907932,46.009379710223 15.7118534541391,46.0095081032022 15.7114957355475,46.0093142719281 15.7113027966945,46.008929833517 15.7114292642134,46.0085612222402 15.7120475979737,46.0080941721695 15.7129243608874,46.0077424764093 15.7132465350019,46.0072608911413 15.7132675095191,46.0070442766285 15.7131900980999,46.0068280961666 15.7130247275676,46.0066097651593 15.7128610072172,46.0065097428059 15.7125948494735,46.0063358583821 15.7123353050511,46.0060835625137 15.7121586216747,46.0057781134308 15.712072173081,46.0054407900174 15.7121524875512,46.0051189831676 15.7123010379845,46.0048020595885 15.712297160409,46.0042383803379 15.7120076326791,46.0038823475235 15.7114918454989,46.003763821427 15.7101242712578,46.003876070283 15.708759832803,46.0038703239852 15.7079528049347,46.0035522200772 15.7074629924771,46.0030901641063 15.7071428274083,46.0025357301425 15.7064412627789,46.0020514058757 15.7059219120159,46.0016910194293 15.7060709103565,46.0012042250912 15.7065966536739,46.0010832862693 15.7068889964903,46.000863374984 15.7066021180144,46.0004374900103 15.7064632816302,45.9997948352038 15.7061425100623,45.9997485901555 15.7059943166141,45.9997806376529 15.7058673952389,45.9998103041574 15.705793485678,45.9998562888273 15.7057288356285,45.9999095943568 15.7056585971672,46.0000006345801 15.705573917477,46.0001439503848 15.7054475878688,46.0005758084517 15.7053866612633,46.0006478959182 15.7052480448309,46.0007226222423 15.7052241823148,46.0007345564378 15.7051832604663,46.0007349889045 15.7049757434142,46.0006505214334 15.7047577633042,46.0004944067096 15.7047574664036,46.0003896757063 15.7047550547748,46.0003217581975 15.7047794988083,46.0002234429151 15.7047993397999,46.0001693345563 15.7049083750058,45.9999612658555 15.7050302310392,45.9997563571106 15.7052770302791,45.9994373066249 15.7054943778666,45.9991781819186 15.7054998477461,45.9991717598075 15.7054206162961,45.9990122703512 15.7050508066427,45.9988961430985 15.7046001471871,45.999001225954 15.7041203413126,45.9993837047599 15.7034112157938,45.9996219209703 15.7032467713548,45.9999203058968 15.7034581995974,46.0003647490775 15.7033988907577,46.0005646823618 15.7030522364352,46.0009316707738 15.7026410192934,46.0009618225894 15.7020620272366,46.0009156237901 15.7009009678457,45.999955771272 15.7003586412996,45.999407179163 15.7004027475561,45.999004353203 15.7006654135248,45.9986824261252 15.7007776304323,45.9988174229183 15.7010711673344,45.9986605027941 15.7017189010972,45.9985600724411 15.7018804585371,45.9984720728817 15.7023409216181,45.9979479190219 15.7021438999038,45.9977428130934 15.7020310968413,45.9976330146941 15.7019754930029,45.9975646140466 15.7019555860468,45.997337995021 15.7017022665081,45.9971522191771 15.7013723651571,45.9970255776011 15.7004856365482,45.9970301163583 15.7003182247885,45.9970530067045 15.7001241619058,45.9970918959797 15.6998496587969,45.9970275344054 15.6998528178296,45.9969606623629 15.6998652450887,45.9967790132505 15.6999353400047,45.9966044790247 15.7000529062157,45.9964782414 15.7003491134066,45.9963291346808 15.7004170744115,45.9963130622337 15.7005996698141,45.99625570755 15.7007957535956,45.9962339906225 15.7010395439313,45.996258678646 15.7012133372853,45.9963630651476 15.7015244895528,45.9965387696236 15.7019048874031,45.9965547891842 15.7020658675864,45.9965339155092 15.7020636567239,45.9964509705537 15.7020510957993,45.9959681426293 15.7021714757036,45.9959015400967 15.7024699605207,45.9959229197746 15.7027751576453,45.996046201031 15.703099612317,45.9961914972695 15.7033288806374,45.996292659992 15.7035766749227,45.9963275753083 15.703855445109,45.9962294936681 15.7042407173399,45.9958259139407 15.7046349988662,45.9952985593171 15.7051981297054,45.994903417067 15.7055972483677,45.9947477231547 15.7058502994315,45.9945568494203 15.7061157513158,45.9943261287721 15.7061597611503,45.9941933210761 15.7060632381873,45.9939324449849 15.7058020365565,45.9937560844011 15.7055478422217,45.9936637182566 15.7051224630073,45.9936823594901 15.7048308887472,45.9937672066779 15.7044700868759,45.9939715191358 15.7041031925898,45.9942554974132 15.7033708031007,45.9944252946517 15.7031556190424,45.9945895667283 15.7030673223736,45.9947223757851 15.7029101403214,45.9950325927374 15.7028168535928,45.9954443601772 15.7027481195834,45.9956745834403 15.7026026674942,45.9957899281635 15.7023997765209,45.9958346340988 15.7021074666335,45.9957910820254 15.7014652166536,45.9955668449305 15.7009725806521,45.9954131281689 15.7008375963554,45.995325059017 15.7006129068997,45.995463291313 15.7002581664066,45.9954849904479 15.6997497770287,45.995217994249 15.6995745675234,45.9949494965937 15.6995950262506,45.9946573068374 15.6998790368897,45.9943503667478 15.7008105140873,45.993905751888 15.7010097215191,45.9939685036046 15.7010829290181,45.9938774479298 15.7016056782541,45.9930134321212 15.7020074908964,45.9927647881431 15.7025459283237,45.9925202516532 15.703091025488,45.9923330768325 15.7032302544135,45.992226587434 15.7032989042838,45.9919698211049 15.7033934687624,45.9918634264042 15.7036090845935,45.9918054137359 15.7038752160025,45.9916896843456 15.704009801912,45.9913088833135 15.7040508724893,45.9907200919993 15.704265882468,45.9907470199221 15.7047379765843,45.9905968176235 15.7047696033338,45.990586725139 15.7050803021009,45.990647072622 15.7052258837814,45.9906856741662 15.7053765167293,45.9907255939995 15.705583679063,45.9908662985708 15.705761448515,45.9909998061871 15.7058945950184,45.9909943050581 15.7060202574006,45.9909890299634 15.7061786912076,45.9909824725113 15.7064353067817,45.9909717988773 15.7066342138282,45.9907272718635 15.7067200350876,45.9906242575868 15.7067215418017,45.9905195152547 15.70672719906,45.9901526447736 15.7068223465009,45.9897683051741 15.706876235106,45.9896412844899 15.7068882641206,45.9896127774068 15.7069865902604,45.989468116263 15.7069042910376,45.9893913352616 15.7068751705056,45.9893751396018 15.7068070478957,45.9893371408344 15.7066619960128,45.9892486908529 15.706500082004,45.9892451031114 15.7061690594007,45.9893014950435 15.705790224139,45.9893944419741 15.7053490904328,45.9895014486475 15.7053295674044,45.9894989598136 15.7051174710499,45.989477504498 15.7049090277712,45.9893879137931 15.7048739259563,45.9893784128025 15.7046554179673,45.9893195658116 15.7046089349686,45.9893286701423 15.7043700866946,45.9893758507463 15.704331764568,45.989407578827 15.7042411928215,45.9894822779027 15.7039832262578,45.9897116886107 15.7038406295498,45.9898268374929 15.7036618099115,45.9899255635203 15.7034252991855,45.9898722236372 15.7021050195707,45.9898708049846 15.7015494569136,45.989841015338 15.7012063009345,45.9897754587935 15.7009963652183,45.9896388122347 15.7007606104495,45.9894711916254 15.7006198129492,45.9892281276944 15.7005838658329,45.9889980973443 15.7009594768242,45.9878823306503 15.7011996736699,45.9876560049645 15.7014531075025,45.9875580844754 15.7022716696551,45.9875032101023 15.7031068926491,45.9876429372901 15.7034687985658,45.9876508775192 15.7040589200204,45.9876185408559 15.7042676782989,45.9874588053108 15.7043425064451,45.9871709580452 15.7043034703357,45.9869630821261 15.7041275902672,45.9867024231903 15.7039927851117,45.9863930134146 15.7033436026639,45.9860006624597 15.7030894317113,45.9859171983059 15.7028283388782,45.9857762809237 15.7026498806983,45.9855864473336 15.7026954929143,45.9851925179675 15.7033912322285,45.984655574624 15.7036474235896,45.984338628439 15.7039686594647,45.9841232248545 15.7041197542018,45.9842519507522 15.7042671353153,45.984474545251 15.7042086869784,45.9848629758274 15.7045952419513,45.985278985794 15.7049106895053,45.9853395744342 15.7052705369262,45.985267892097 15.7054045212555,45.9851871656699 15.7054452924105,45.9850538381661 15.7048878506227,45.9845774309846 15.7048057519764,45.9843020681298 15.7048404678836,45.9839864849328 15.7047995761645,45.9838255884661 15.7049165621946,45.983626107906 15.7050485683261,45.9832576478605 15.7048595898948,45.9830320717228 15.7042259307088,45.9828230927953 15.7039970702142,45.9826276333148 15.7039695858172,45.9823328582087 15.7040999699502,45.9820398098521 15.7045920612262,45.9813860636341 15.7046956323535,45.9810959691441 15.7046371030275,45.9807958969536 15.7043261139014,45.9805657634322 15.7044248226422,45.9803298652527 15.7049732076825,45.9801879191625 15.705272717321,45.9800526353035 15.7055961693426,45.9801563616455 15.7055983450091,45.9801650759793 15.7055543688243,45.9804623614874 15.7054112197368,45.9807351555867 15.705637306112,45.9809867750536 15.7058368352484,45.9810272921828 15.7060494516389,45.9810109526439 15.7061479716906,45.9809231562463 15.706038063215,45.980236861143 15.7058202284721,45.9797508914103 15.7056191137113,45.9796563078669 15.7053396525664,45.9796728792413 15.7051907774271,45.9795454008398 15.7051298698265,45.9796375531915 15.7045085363512,45.9795731826672 15.7042142388948,45.9793153229588 15.7042282838387,45.979069239314 15.7045856350343,45.9788852831311 15.7051946440433,45.9788333890345 15.7054317351792,45.9787124363093 15.7057212900152,45.978373324793 15.7058205311091,45.9781089892919 15.7057887842486,45.977885592488 15.7055375696859,45.9771177502017 15.7056637211245,45.9765032379821 15.705803075841,45.9762983994606 15.7062963674023,45.9761607461422 15.706615832333,45.9757903152841 15.7064317440367,45.9753196114904 15.7056539254071,45.9751935925969 15.7043060115161,45.9751327153517 15.702957709916,45.9750409624617 15.7013213624505,45.9748662933115 15.6994317253761,45.9747547855078 15.6975636133554,45.9745892188114 15.696779195642,45.9745633220082 15.696399577993,45.9742267823325 15.6961170393754,45.9736970991466 15.695808159574,45.9737221043235 15.6955187416927,45.9735390532034 15.6945080097788,45.9730601337095 15.6938426628231,45.9728331141009 15.6933686215366,45.9728899774748 15.6930367194419,45.9728380944616 15.6924379597031,45.9726415249801 15.6921714235344,45.972512222985 15.6920359336397,45.9722743343187 15.6917783549121,45.9719832883155 15.6912133779243,45.9718250180875 15.6906709131395,45.9717127672614 15.6898752839757,45.9716637667121 15.6889042531866,45.9717158726524 15.6878929068302,45.9720763845734 15.686209075389,45.9725179479014 15.6860383855713,45.9730118671531 15.6859089096102,45.9732590915498 15.6855032358052,45.9734925868001 15.6853203345888,45.9738865236475 15.6853336158583,45.9740635188589 15.6847968374715,45.9744134182346 15.6836396492384,45.9745898633052 15.6830554085415,45.9746703771665 15.6823749893732,45.9750211235729 15.6821234044604,45.9752151763929 15.6819568646925,45.9760402699775 15.6810774132239,45.9763690719993 15.6804768387058,45.9769195299682 15.6796085558564,45.9772559021692 15.6788597526374,45.9774221313737 15.6784874312319,45.9776862655099 15.6782808002418,45.9779493251568 15.6777768226928,45.9782758725194 15.6772725572979,45.9785792952592 15.6765592035453,45.9789454980308 15.6763185069576,45.9788603648773 15.6758444221641,45.9791420981687 15.6754977408805,45.9792881110297 15.675112999003,45.9794883338646 15.6749089245135,45.9796874885754 15.6746917249415,45.9798687250099 15.6743319125365,45.9799968164429 15.6740365148636,45.980115529141 15.6736123918283,45.9802619929818 15.6733690492704,45.9804164778648 15.6731649651203,45.9806156294824 15.6728970070875,45.9808691430077 15.6726152696588,45.9810507554389 15.6722638854919,45.9808098852512 15.6719424507365,45.9809107502877 15.6715323091324,45.9811471011184 15.6712105449099,45.9812209729429 15.670811347447,45.9812952984047 15.6705046589981,45.9815490336186 15.6699493998745,45.9815253869394 15.6695998680209,45.9814374585174 15.6693436025403,45.9815919205311 15.6692188839546,45.9819525586573 15.6691195414927,45.9822770572809 15.6688907074334,45.982566323019 15.6685054857479,45.9827305355183 15.668509384259,45.983054429599 15.6685258845947,45.9833422591819 15.6683347865394,45.9835503237851 15.6682489916759,45.9839287284684 15.6684075453677,45.9842337226769 15.6681652522704,45.9844780771338 15.6681949614703,45.984801820218 15.6683786803127,45.9850526811538 15.6680189278948,45.9851897499126 15.6680090517504,45.9854417428904 15.6680261788517,45.9857925525693 15.6682869062264,45.9860069726935 15.6683154260422,45.9862317480706 15.6680472024737,45.98646725614 15.667946656084,45.9866928759615 15.6678462160047,45.9869274027722 15.6675782034221,45.9871809038465 15.6670872056505,45.9871387825175 15.6668068429525,45.9874283445972 15.6664724530843,45.9875292697022 15.6661398967411,45.9877831437605 15.6659095142601,45.9879464447 15.665628904442,45.9882270076025 15.6655424629397,45.9883704842173 15.6653922814855,45.9883976319551 15.6652153471781,45.9885297582205 15.6653226034202,45.9888306461803 15.6654565861489,45.9890135087751 15.6654708504433,45.9894067143613 15.6653973008174,45.9895382388273 15.6652855902982,45.9896306655347 15.6652879184091,45.9898142046624 15.6653928501917,45.9899316433277 15.6654409833369,45.9900165711007 15.6654790655473,45.9900491009063 15.6654521058353,45.9901476025323 15.6654059873457,45.9902200324549 15.6653910417839,45.9905347683221 15.6654589629326,45.9906982205796 15.6653941279648,45.9907707594728 15.6651694731829,45.9908638435888 15.6651053435452,45.9909953130046 15.6650237539141,45.9912317969108 15.6650634079466,45.9913955038455 15.6651115418836,45.9914804317313 15.6649532348284,45.9916058808025 15.6648978480072,45.9916914110602 15.6646450506387,45.9917847478348 15.6646374823186,45.9919289346365 15.6648166768355,45.9919737805069 15.664903130153,45.9921109420069 15.6647909429197,45.9921640511143 15.6648115940346,45.9923147320415 15.66486012164,45.992432499248 15.6648286613022,45.9925326464499 15.6646947148421,45.9927415418291 15.6647244743138,45.9928658965684 15.6646127289518,45.9929452761352 15.6646703922366,45.9930497636982 15.6646994463022,45.9931151877685 15.6646435869392,45.9931614007886 15.6647396219723,45.9933116432645 15.664843095339,45.993317609659 15.6648636684083,45.9934617226985 15.6649486600247,45.993487411447 15.6650236790818,45.9934672700235 15.6651362621263,45.9934469999092 15.6652116734432,45.9934596076147 15.6652129031443,45.9935514667137 15.6652519298845,45.9936626307518 15.6653938035037,45.9937273978536 15.6654227013467,45.9937796860382 15.6654329881723,45.9938516975112 15.6654523843074,45.9938974727098 15.6655557013673,45.9938903027651 15.6656789375603,45.9939617463502 15.6656892247544,45.9940337577959 15.6656517401431,45.9940405444351 15.6654643725975,45.9941006603537 15.6654744244434,45.9941530582591 15.6655223252514,45.9942182823852 15.6656448829077,45.9942438418206 15.6657480430689,45.9942235360133 15.6658328798003,45.9942361783771 15.6658052897261,45.9942822272517 15.665767463252,45.9943896998838 15.6657510020634,45.9944595277449 15.6657989822283,45.9945313195908 15.6659220122991,45.9945961958062 15.6661491697911,45.9946997848168 15.6663946010919,45.9947769936163 15.6666299524295,45.9947887576298 15.6668933645143,45.9947936991381 15.6670726202554,45.9948319727946 15.6671488231367,45.9949102576084 15.6671596638337,45.9950281538081 15.6671604232568,45.9950806058038 15.6672080409788,45.9951327842419 15.6672182525356,45.9951983176539 15.6672469949968,45.9952374696708 15.6674345223223,45.9951904865099 15.6675296507314,45.9952751388596 15.6676058537871,45.9953533333853 15.6674002390422,45.9954528788808 15.6673732802276,45.9955513808628 15.6675527244753,45.9956158358851 15.6676483778214,45.9957333265636 15.6675925973,45.9957861088435 15.6674496549986,45.995783434664 15.6673675323634,45.9958464480672 15.667350232514,45.9959645085548 15.6673889505294,45.9960494903999 15.6674277476265,45.9961410400683 15.6674381954497,45.996226186991 15.6674578309836,45.9962916653312 15.6676095813428,45.9963825551924 15.6676014983887,45.9964940835423 15.6676502715387,45.9966314629679 15.667681193649,45.9968410179948 15.6676740276422,45.9970180440159 15.6676573600431,45.9971886472191 15.6677725224846,45.9973715268154 15.6678956891788,45.9974363101022 15.6679715807108,45.9974883229614 15.6680091463876,45.9974881033902 15.6680082791758,45.9974160371343 15.6680368039831,45.9973725916128 15.6680918866655,45.9973368188044 15.6681482995711,45.9973364890071 15.6682247155902,45.9974213401233 15.6683228630781,45.997541874826 15.6681736884629,45.9978476780615 15.6682234119047,45.9980637812471 15.6682730555919,45.9982732265957 15.6681903935007,45.9984310791275 15.6682774177622,45.9986141226903 15.6683718427322,45.9986397537114 15.6684750901955,45.9986261032233 15.6685505883966,45.9986452765054 15.668532501429,45.9986978387074 15.6684011414019,45.9987248802392 15.6682231839591,45.9987848556148 15.6682055699224,45.9988767348002 15.6682160205831,45.9989619715721 15.6683291649157,45.9989874931743 15.6684235125419,45.999006646284 15.6683590151046,45.9991184146023 15.6683034400669,45.9991777642915 15.6682383118265,45.9992371698125 15.6682296763256,45.9993027233116 15.6683146004527,45.9993219316099 15.668409263908,45.9993672660904 15.6683823050637,45.9994657682437 15.6684024152514,45.9995704734303 15.6685061088442,45.9995830035136 15.6685621295833,45.9995499243054 15.6686271287419,45.9994905193583 15.6686832284351,45.999464007924 15.6687857509486,45.9995186536797 15.6687292927536,45.9996975877101 15.6688499505833,45.9998214992836 15.6687014542237,46.0000231061618 15.6684970652417,46.0002042551877 15.6685537456243,46.000375958965 15.6686577561495,46.0004146702576 15.668836507555,46.0004201925713 15.6690153381545,46.0004322824364 15.6691853477416,46.0004837434641 15.6693459323498,46.0005351694628 15.6694118519068,46.0005413516584 15.6696189556402,46.000553274968 15.6697327865959,46.0006246792368 15.670133469733,46.0010681646625 15.6700602321117,46.0012258732313 15.670090484099,46.0013896332707 15.6700636858781,46.0015012714321 15.6699429800572,46.0016199384316 15.6697757846264,46.0017913341356 15.6697110217814,46.0018704432063 15.6697422219658,46.0021128373236 15.6698679835686,46.0023808603936 15.6697668661444,46.00257157361 15.6697226907101,46.0027947045415 15.6697337469578,46.0029191673672 15.669828655522,46.0029842040854 15.6699414134932,46.002976974859 15.6703922579368,46.002921874749 15.6706222776053,46.0029809895044 15.6708062859517,46.0032498393938 15.6706887868284,46.0033135126226 15.6706243388054,46.0034187135545 15.670653484801,46.0034907037498 15.6707478397929,46.003509764909 15.6709381100248,46.0034740070512 15.6709277901132,46.0036136213304 15.6711279585198,46.0038091348604 15.6713214786649,46.0042341273737 15.6716538462719,46.0044813196812 15.6717291161422,46.0044808772954 15.6718049414421,46.0045263196495 15.6717590569401,46.0046183654721 15.6717786995549,46.0046837529595 15.6719295579119,46.0047091392605 15.6719773175665,46.0047613147946 15.6719118687316,46.0047944510765 15.671780336997,46.0048083608891 15.6718193850349,46.0049195223501 15.6720962604881,46.0052325424786 15.672291240529,46.0053826462671 15.6720725310743,46.0055867398033 15.671963786315,46.0059151638436 15.6719280406921,46.0060661747168 15.6718917889368,46.006164732221 15.671889308137,46.0063117684894 15.671720893559,46.0067884644789 15.6716598274917,46.0071625859252 15.6716517998876,46.0072674557669 15.6716148624358,46.0073201291601 15.6713977536312,46.0072624701938 15.6713136097167,46.0073088525185 15.6713344921076,46.0074660088319 15.6713260190937,46.0075447880677 15.6712460719784,46.007575219842 15.6711474817405,46.0075588832726 15.6711395336399,46.0076704108669 15.6710470434757,46.0077954814886 15.670842736727,46.0080065061804 15.6708174422412,46.0082426630662 15.6706576752472,46.008250169017 15.6705548072914,46.0082966606501 15.6705752424349,46.0084276365328 15.6706791901233,46.0084597780208 15.6707456738762,46.0085118441537 15.6707653972077,46.0085838895595 15.6707379619297,46.008642985195 15.6707016566911,46.0087481108753 15.6707126667381,46.0088791420354 15.6706853117315,46.0089448954457 15.6705258590652,46.0089785825294 15.6704414748533,46.0090053507283 15.6705269679891,46.0090703520596 15.6707941943537,46.0093638168573 15.6707780772531,46.0094405714329 15.670807394984,46.0096653406001 15.6706955740117,46.0097512046259 15.6706878618076,46.009882345637 15.6706517144529,46.0100006069197 15.6706618525361,46.0100594820285 15.6707937939914,46.0100784125348 15.6708509830953,46.0101305331465 15.6708133638494,46.0102231598163 15.6706551711052,46.0102759146916 15.6703466348501,46.0104219571385 15.6702918715552,46.0105599423596 15.6704619134394,46.0106114012206 15.6706884603599,46.0106690065488 15.6707765435856,46.0109373393164 15.6708844293971,46.0112841052201 15.6707359819166,46.0114489136701 15.6706441683701,46.0116198679078 15.6706831407814,46.0117245517651 15.670769035427,46.0118223919391 15.6709241125026,46.0118960721428 15.6709141373757,46.0121390671434 15.6707734932488,46.0121697648874 15.6706901342483,46.0122817349402 15.6707565929566,46.0123206646185 15.6708883015804,46.0123198915333 15.6710590048447,46.012372155398 15.6708898866446,46.0124509779221 15.6708107982132,46.0128841389099 15.6708755426852,46.0132191010757 15.6705930918231,46.0133557234069 15.670516319037,46.0134037713926 15.670384370839,46.0133849305898 15.670317434998,46.01330659382 15.670218727785,46.0133669170738 15.6702253304248,46.013464502788 15.6701519195223,46.0136091655038 15.6700670333247,46.0136377358742 15.6699084570415,46.0137023688184 15.6698438381823,46.0137945235343 15.6698504466037,46.0138819418922 15.670136570975,46.0138780151069 15.6702127252744,46.0139497296362 15.6702061993881,46.0141792077958 15.6700277990393,46.0142064369815 15.6699202261341,46.0143134197314 15.6700124508444,46.0144753765142 15.6699848543757,46.0145214262712 15.6698200921177,46.014565940628 15.6696665785575,46.0146543873038 15.6696287841406,46.0147650098187 15.6695277818692,46.0148387523922 15.6694911533793,46.0149176063536 15.6695541281868,46.0149993858955 15.669466558321,46.0152338375611 15.6691702297465,46.015259596704 15.668974906418,46.0154259368734 15.6688976189508,46.0155708913524 15.6688909571552,46.0158324017639 15.6688649531264,46.0161284863243 15.6687776006635,46.0162528050388 15.6686894192693,46.016308386571 15.6685707070376,46.0162953147027 15.6683830365638,46.0162826460193 15.6682151616383,46.0162837176527 15.668118490513,46.0164493895062 15.6680908243186,46.0166078197044 15.667994272305,46.0167941853151 15.6678678981405,46.016960030548 15.6677205033521,46.0171606393562 15.6676726383943,46.0174758363091 15.6675894319993,46.0176016594611 15.6675918324518,46.0178011230495 15.6675149162659,46.0179667689262 15.667328601589,46.0180779880472 15.6672611666333,46.0182159556403 15.6671748017764,46.0184229555891 15.6670002119689,46.0186716795644 15.6668682352708,46.0191885540665 15.6669109784238,46.0194566141078 15.6667553521653,46.0196501614831 15.6665509714153,46.0198922203125 15.6663852342852,46.0200721497343 15.6662312578624,46.0204033505345 15.6659786122182,46.0207351261164 15.6655384787291,46.0210817594578 15.6652945683943,46.0213240461639 15.6647468842947,46.0217607388893 15.6642783496171,46.0222176634875 15.6641032762223,46.022438852929 15.6636445526812,46.0229610406428 15.6632714133081,46.0230801759354 15.6632878291705,46.0231892218944 15.6633134943609,46.0233588581793 15.6633557910727,46.0236555343973 15.6631938097259,46.0241513439429 15.662977474716,46.0244225278801 15.6629093274131,46.0245348536447 15.6628128007228,46.0246935017755 15.6626352084823,46.0249644603436 15.6625092770729,46.0252351191657 15.6623078059979,46.0256591752298 15.6621804306885,46.0258632596072 15.6621050211347,46.0259842646582 15.6621986547801,46.0262536508779 15.6619161162827,46.0263902519283 15.6615580126713,46.026689246916 15.6612627397678,46.0268739673541 15.6610672454118,46.0269663341847 15.6608524600788,46.0272717859333 15.66071223243,46.0274170085097 15.6606929805035,46.0276225354959 15.6607158958581,46.0277136388984 15.6607273801025,46.0277668384214 15.6605755767182,46.027851303823 15.6605104535312,46.0278820921658 15.6603479438647,46.0279895630695 15.6601745436056,46.0281045646731 15.6601099628976,46.0281809675866 15.6600224293835,46.028173915128 15.659869629202,46.0281747974515 15.6597391610588,46.0282287265944 15.6596744896998,46.0282975717826 15.659587717684,46.028343690529 15.6594027035054,46.0284055820471 15.6592076014755,46.0285207973588 15.6590576534683,46.0287726057473 15.6590385363586,46.029000895602 15.6589780585951,46.0294118956305 15.658937925419,46.0297087784877 15.6588093501645,46.0299224033486 15.6585814329993,46.0300378067133 15.6581806451907,46.0303138230174 15.6578019551241,46.0306126546391 15.6575404952584,46.0310044757681 15.6561380444747,46.0325691231266</coordinates></LinearRing></outerBoundaryIs></Polygon></MultiGeometry>
  </Placemark>
</Folder>
</Document></kml>
