{"type":"FeatureCollection","features":[{"type":"Feature","geometry":{"type":"Polygon","coordinates":[[[15.6841640296999,45.9072591140375],[15.684357033162,45.907378798909],[15.68433520065,45.907143996837],[15.6843350186979,45.9071396789777],[15.6841970159567,45.9070065279567],[15.6841667799018,45.9069898830858],[15.6841453352525,45.9065767420246],[15.6841242323544,45.9064012310897],[15.6840592451619,45.9063255886343],[15.6836182912742,45.9062606539056],[15.6831785129168,45.906207407602],[15.6829445382227,45.9060463957009],[15.6829105889434,45.9060421896678],[15.6824854513674,45.9059108421667],[15.6820869232682,45.9058051579724],[15.6816891189439,45.9058321858007],[15.6814318141622,45.9058496466087],[15.6813424088218,45.9058320941239],[15.6812759419454,45.9057931699764],[15.681174467284,45.905684541477],[15.6810528333852,45.9054661697437],[15.6809633135924,45.9054181150581],[15.680804964554,45.9053064959461],[15.6807073958366,45.905179848126],[15.6805615855773,45.9050605958152],[15.6804072761592,45.9050051884212],[15.6800806169963,45.9046729542002],[15.68001795021,45.9046389554952],[15.6795737308573,45.9045689858016],[15.6794703059757,45.9045007675515],[15.6796064094138,45.904205099799],[15.6797479811528,45.903945750513],[15.6797681647824,45.9038887642555],[15.6798066168021,45.9035545365987],[15.6798452120087,45.9034221290713],[15.6798834236928,45.9033216660565],[15.6799759095445,45.9030851930066],[15.6802208072824,45.9028021037952],[15.6803735234105,45.9026009931843],[15.6804336919572,45.9025150656779],[15.6804764992909,45.9024216833589],[15.6804873847245,45.9022999680423],[15.6804672016508,45.9021670105075],[15.6804508051558,45.9021330064161],[15.6802984490968,45.9019625051247],[15.6802767301373,45.9020203104391],[15.6801983186932,45.9019526637309],[15.6800705776115,45.9017925430537],[15.6800387739804,45.9016049478529],[15.6801310539282,45.9013624472923],[15.6802050824962,45.9011873589811],[15.6803564173874,45.9010317855248],[15.6805460703338,45.9008691453197],[15.6807692359808,45.9007808070963],[15.6807776943379,45.9007558327433],[15.6808461223837,45.9007132252773],[15.6809086299679,45.9006818103459],[15.6809953761892,45.9006722955913],[15.6810117013507,45.9007531786812],[15.6810587533478,45.900743630502],[15.6811431958384,45.9007881162862],[15.6812124112743,45.9007361461746],[15.6813349672823,45.9008199950078],[15.6814724913852,45.9010001210943],[15.6815057187291,45.9012615795235],[15.6814522221476,45.9015239150577],[15.6814463794533,45.9017521345841],[15.681707415458,45.9018304782322],[15.6819465077906,45.9017480712475],[15.6821260349918,45.9015585853894],[15.6821905223685,45.9013836427289],[15.6822162298736,45.9011886864637],[15.6821456787043,45.9009947547436],[15.682008855265,45.9008615039269],[15.6817848987038,45.9006955708954],[15.6817154729441,45.9005618275982],[15.6816906194145,45.9002264471337],[15.6818502401541,45.8999902917396],[15.6819059759634,45.8998690284289],[15.6819597982565,45.8996335941494],[15.6819470250858,45.8994323890994],[15.6819346155016,45.8992714021376],[15.6818952108108,45.8991896671257],[15.6818706144659,45.8991385263108],[15.6819780947488,45.8988122536911],[15.6819153607122,45.89843543932],[15.6819284858444,45.8983601391865],[15.6817658477784,45.8981914106885],[15.6815754848783,45.8980000828305],[15.6815517163278,45.8979744008426],[15.6815070778126,45.8978123463214],[15.6814080395975,45.8975540695232],[15.6812884984551,45.8972841277195],[15.6812273084147,45.8971700401841],[15.6811846447434,45.8973695963554],[15.6809816793245,45.8969902880485],[15.6808348249719,45.8967100710346],[15.6807326126567,45.8964869040396],[15.6807926032558,45.8963026310621],[15.681012794819,45.8961833574801],[15.6813826185545,45.8961394928944],[15.6815296768148,45.8961097328715],[15.6816354646825,45.8960667221105],[15.6817520605612,45.8961171341961],[15.681822921526,45.8961369565155],[15.6819209315625,45.8961954873913],[15.682020521111,45.8962461806455],[15.6821463448307,45.896323980623],[15.6823531802724,45.8964085849719],[15.6823504685352,45.896523863327],[15.6824822259784,45.896570495018],[15.6825664150755,45.896584208727],[15.6825928123032,45.8965089191916],[15.6829606525198,45.8965975093601],[15.6830273106918,45.8965056930203],[15.6830795273784,45.8964972828467],[15.6831242325595,45.8963702362172],[15.6831708673104,45.8962534355541],[15.683260017111,45.8959676713967],[15.683320010874,45.8958264066713],[15.6833674422343,45.8956275409602],[15.6834021677038,45.8954854375321],[15.6833661364641,45.8953845174236],[15.6833192171422,45.8952153688916],[15.6832658010352,45.8951679098315],[15.6832419029756,45.8951421389788],[15.6832400543962,45.8951174959804],[15.6832122945115,45.8949659585604],[15.6831866033506,45.8948780234155],[15.6831656758394,45.8947582074671],[15.6831668868673,45.8946888269605],[15.6831437400922,45.8946087047018],[15.6831039224212,45.8945562154573],[15.6829985946785,45.8943736492426],[15.6831088089754,45.8942400924727],[15.6830544393568,45.8941463001793],[15.6828068365604,45.8938890023718],[15.6827398121917,45.8939822604665],[15.682543459309,45.8937638864031],[15.6824872977333,45.8936183670063],[15.6824045542726,45.8934066923076],[15.6823697675329,45.8931756557683],[15.6824012162624,45.8929763459386],[15.6824814559392,45.8928364003248],[15.6826543124177,45.8927464692051],[15.6828580653336,45.8927172685205],[15.6831647841056,45.8926782741395],[15.6834393105471,45.8926095986758],[15.6837005964661,45.8924910638002],[15.6837725771896,45.8924554515695],[15.683907164165,45.8923448725686],[15.6840657233664,45.8921612674481],[15.684076408435,45.8921499561897],[15.6841210592751,45.8921029001404],[15.6840987899514,45.8916744666256],[15.6840486758254,45.8912659950034],[15.6840513695591,45.8911495468909],[15.6841255095502,45.8908701701391],[15.684020706111,45.8904046196641],[15.6839347705173,45.8901639020509],[15.683852345498,45.8900306875069],[15.6836366553703,45.8899682734405],[15.6833967244409,45.8898939468424],[15.6831359621154,45.8899071132783],[15.6827695837572,45.8901024865885],[15.6826258424857,45.8902438915817],[15.682620317813,45.8904555536978],[15.6826025956883,45.8905445581869],[15.6821484964888,45.8908479776006],[15.6809146099482,45.8913657840587],[15.680735844098,45.89142542507],[15.680526561534,45.891434139847],[15.6804111082376,45.8913603252999],[15.6803167073792,45.8912588519234],[15.6802305976113,45.8909287840973],[15.6801487127629,45.8907441860448],[15.6801473824452,45.8906457576401],[15.6801457838156,45.890535903579],[15.6802550112413,45.890353227161],[15.6803731626671,45.8902683039806],[15.6805427260203,45.8901939618789],[15.6814747651099,45.8898506283814],[15.6818685389557,45.8896509567378],[15.6824887549998,45.8892138282158],[15.6831202359586,45.888866067465],[15.6833729746465,45.8887663898362],[15.6833649549534,45.8888689231816],[15.6837995523881,45.888731625657],[15.6837832350749,45.8886304076332],[15.6839227029789,45.8883828522135],[15.6839356469537,45.8881777139727],[15.6838669304707,45.8879538990711],[15.6837869413875,45.8877144053551],[15.6836751267109,45.8874222846665],[15.6837068662702,45.8872998141005],[15.6837641638931,45.8872231695593],[15.6838143591862,45.8871557452894],[15.6838666859028,45.8871465242752],[15.6840303521327,45.8871177413238],[15.6842509147483,45.887000708536],[15.6844077365971,45.8869182489122],[15.6845497437294,45.8868255303056],[15.6847505991495,45.8866881895038],[15.6848484061307,45.8866159805284],[15.6850396614746,45.8863161957099],[15.6855341212043,45.8858940208209],[15.6860011534878,45.8856307303911],[15.6863299315444,45.8855031462096],[15.6864176378716,45.885468967445],[15.6867020091538,45.8853555056166],[15.6868739271219,45.8853277487321],[15.6869370726648,45.8853602112729],[15.6869792476184,45.8853951392957],[15.6871932629771,45.8857303718014],[15.6871530131273,45.8859560998154],[15.6870940260473,45.886072886615],[15.6869790611772,45.8861639161894],[15.6868008665138,45.8862575751645],[15.68665598402,45.8862838197992],[15.6863096579854,45.8865456681314],[15.6862510145358,45.8867533306264],[15.6862185803156,45.8870491045193],[15.6863086155345,45.8872979839593],[15.6864131283921,45.8874041605693],[15.6867282885838,45.8875195088217],[15.6871002802632,45.8876355942266],[15.6873418645806,45.8875936510253],[15.6876758390466,45.8874375086032],[15.6878090136591,45.8872245379668],[15.6880719568062,45.8867838602523],[15.688082058393,45.8864958684643],[15.6881697424534,45.8860842289776],[15.6880421462656,45.8857886083779],[15.687900337673,45.8856566539884],[15.6877288928254,45.8855557403978],[15.6876466546552,45.8853960736967],[15.6876496332412,45.8851989129974],[15.688132051498,45.8849308423487],[15.6883176756396,45.8849072297354],[15.6885635555685,45.8849950069788],[15.6886343153155,45.8850597249647],[15.6889392075181,45.8850851505931],[15.6896871324778,45.8852419701331],[15.6903077436056,45.8853865070928],[15.6914278253208,45.8856516498784],[15.6916397661058,45.8856721420212],[15.6917881871037,45.8856406508907],[15.6919885965805,45.8855106782615],[15.6919838615129,45.885243470949],[15.6919124207666,45.8849997020436],[15.6915055365778,45.8845941127873],[15.691006109978,45.8842370402439],[15.6908267126494,45.8839519934449],[15.6905879221275,45.8833341150216],[15.6903866906355,45.8831269408523],[15.6900615052271,45.8830745581111],[15.6894605282188,45.8832444660695],[15.689164193865,45.883524827056],[15.6889644816343,45.8837424296032],[15.6888263227496,45.8837908611465],[15.6886257568091,45.8837622871479],[15.6885006121847,45.883550152192],[15.68860932313,45.8830578547188],[15.6887735677282,45.8825557746291],[15.6890138809586,45.8821210793877],[15.6891993430017,45.881782991451],[15.6892461838058,45.8814556370603],[15.6895358797188,45.8812331719985],[15.6899146423349,45.8808271521656],[15.6898370655693,45.8803882554146],[15.6896565703104,45.880200390032],[15.689414215595,45.8801044057597],[15.6891719010822,45.8800324449967],[15.6889922892609,45.8800616914184],[15.6888337585785,45.8802018439783],[15.6885649764015,45.8804484754786],[15.6884407389585,45.880496912674],[15.6878399743239,45.8807343847793],[15.6875501839005,45.8808555303208],[15.6872456844409,45.8808077839414],[15.6865677750243,45.8807028051768],[15.6863045233031,45.8805730179731],[15.6863174381829,45.8802931072039],[15.686330213847,45.8800228249583],[15.6861779637305,45.87994113904],[15.6859798833675,45.8799562750218],[15.6855448561977,45.8801259759211],[15.6854557321127,45.8803480377112],[15.685560441781,45.8806180649261],[15.6859488787406,45.8809647604453],[15.6863751519672,45.88100440064],[15.6866822950882,45.881088934662],[15.6868830592345,45.8812285443711],[15.6869320745135,45.8813588085344],[15.6869171599035,45.8814239526546],[15.6868430128145,45.881585639846],[15.6867258778016,45.8816775820688],[15.686651146338,45.8817187014503],[15.6862699493456,45.8818038616921],[15.6858067164799,45.881828777565],[15.6852325533093,45.8817380146364],[15.684768833804,45.8815555287755],[15.6843114538853,45.8812910326435],[15.6839720868678,45.8811419905929],[15.6837507426318,45.8810989558806],[15.6836265268449,45.8811811296448],[15.683530079936,45.8812585482626],[15.6834683221349,45.8814227685302],[15.6833442612098,45.8815386829946],[15.6830062107814,45.8817177818034],[15.6824747852395,45.8820130272422],[15.6821337299093,45.8822944469436],[15.6817610743848,45.8824784274979],[15.6815401650936,45.8826187620705],[15.6812496456779,45.8825662374593],[15.6811663147374,45.8824312266395],[15.6811510441757,45.8820355922701],[15.6811702477425,45.8815723584733],[15.6811552061742,45.8812586930993],[15.6814298546293,45.8806985589596],[15.6818553465554,45.879811171976],[15.6821231525776,45.879250986876],[15.682494984399,45.8788016632293],[15.6829303403734,45.8787430054639],[15.6834981156587,45.8789880414296],[15.6836502568512,45.8789878511093],[15.6841193675476,45.8786879343362],[15.6844084517793,45.8783207103429],[15.6846010965859,45.8780522300343],[15.6846002907628,45.8778292679937],[15.6844121729675,45.8773961583514],[15.6843146863086,45.8772098567299],[15.6842028884818,45.876980540976],[15.6837783127437,45.8769611276814],[15.6836444934887,45.8769947705653],[15.683533954206,45.8770884697001],[15.6834651867789,45.8771639231691],[15.6833031665771,45.8773456590938],[15.6830383924781,45.8776259057262],[15.6827989191213,45.8778790069814],[15.6822424359292,45.8779133734863],[15.6820071772811,45.8779217062319],[15.6818980927496,45.8778924843757],[15.6818501685207,45.877871265483],[15.6817223689744,45.8778075133881],[15.6815936435605,45.8776574772325],[15.6816032530786,45.8776321359361],[15.6816142144412,45.8775066404341],[15.6816980243638,45.8773863789973],[15.6817303368399,45.8773529841303],[15.6818965790066,45.8771473809221],[15.6819498029576,45.8770858778631],[15.6822095552633,45.8767950462382],[15.6821549402988,45.8765428024285],[15.6819964174074,45.876389345434],[15.6817380613758,45.8763097264519],[15.6815429201708,45.8763114304106],[15.6812525111316,45.8763706585012],[15.6807502348437,45.8765810525749],[15.6805820420244,45.876648188725],[15.6804042854475,45.8767655896195],[15.6802903420342,45.8769713292109],[15.6803196906522,45.8771594796262],[15.6804354402844,45.8773338887103],[15.680614218057,45.8776165263956],[15.6805936436264,45.8777567455613],[15.6803881774561,45.8778417392093],[15.6803061514825,45.8778445670368],[15.680164479493,45.8778367724755],[15.6799251347813,45.8777424597208],[15.6797294686422,45.8775958790363],[15.6796509410328,45.8774946703652],[15.6796394890483,45.8774640557902],[15.6795987952313,45.8773172728486],[15.6795311525863,45.8770944383061],[15.6795423375962,45.8770397547978],[15.6795653230956,45.876928044673],[15.6795974076792,45.8767490664304],[15.6797170587159,45.8764090455313],[15.6799170958993,45.8761433183989],[15.6800141119302,45.8760283783038],[15.6800331360956,45.8759722084276],[15.6800195238066,45.8759228911931],[15.6799434143692,45.8757451865019],[15.6799150111775,45.8755604495055],[15.6799417167883,45.8754686923883],[15.6799636517043,45.8754399486694],[15.6800231246741,45.8753309905833],[15.6801073043948,45.8752199058844],[15.6802271744832,45.8751411809154],[15.6804401534466,45.8750603717708],[15.6806963240066,45.8749827241261],[15.6810407832646,45.8748880836441],[15.6814943223779,45.8747702069815],[15.6816118450636,45.8747525900272],[15.6817542405058,45.874746431795],[15.6818966006459,45.8747479217776],[15.6820332823133,45.8747380181935],[15.6820962005846,45.8747320639555],[15.6821536274999,45.8747089565515],[15.6822328590169,45.874678160732],[15.6823179141689,45.874607469559],[15.6823965848341,45.8745098228668],[15.6824726658341,45.8744005843448],[15.6826565817069,45.8740928386098],[15.6829740187239,45.8737173504818],[15.682745493569,45.8737481391689],[15.6821538407003,45.8735893513533],[15.6819855503825,45.8734475598208],[15.6818620871184,45.8732425155078],[15.6816250431823,45.8729873107192],[15.6814067213134,45.8728409579137],[15.6811719791664,45.872678956313],[15.6811127554339,45.8726286513732],[15.6810604271101,45.8726050289599],[15.6808625312976,45.8724222919655],[15.680828552717,45.8724350914344],[15.6805641570445,45.8721861659259],[15.6802595706799,45.8720213391712],[15.6801169797071,45.8717574707791],[15.6801300350762,45.8717189721872],[15.6801772115694,45.8715843532439],[15.6801988561926,45.8715319468013],[15.6802295254783,45.8715118789468],[15.6810759355064,45.8712910682728],[15.6811529772051,45.871281701156],[15.6813069430641,45.8712428122473],[15.681452025707,45.8712253910299],[15.6816060878674,45.871204946769],[15.681834233163,45.8710490922681],[15.6818690364726,45.8710090240397],[15.681983027629,45.8709244836357],[15.6822025137439,45.8708085406226],[15.6824987741751,45.8706615458968],[15.6828303045776,45.870502282495],[15.6825680424376,45.8703960549714],[15.6825688119139,45.8703957804389],[15.6825747046242,45.8703931358569],[15.6826533749591,45.8703591038405],[15.6819414043087,45.8699961521375],[15.6813028285516,45.8698940564881],[15.6807476210907,45.8698682124416],[15.6796736961502,45.8699886083864],[15.6782212190543,45.8689662629637],[15.6780819968809,45.8688296917606],[15.6779365648693,45.8686484378142],[15.6779319903972,45.8686429762537],[15.6779318605105,45.8686428870456],[15.6775199692445,45.8688881825404],[15.6771445320365,45.8689748980155],[15.6767607718598,45.8691931204188],[15.676351358877,45.8694204912375],[15.6758773268432,45.86963024708],[15.6753779679972,45.8698761421181],[15.6749553379869,45.8700765924208],[15.6745961236205,45.8701956859738],[15.6740957750968,45.8703606004196],[15.6735695554519,45.8705166673087],[15.6731069713786,45.8706093718616],[15.6724134392299,45.8707665088631],[15.6717717261346,45.8709592385014],[15.6712835922512,45.8710700815995],[15.6707695883955,45.8711720766098],[15.6701524352167,45.8712656764413],[15.6694062645782,45.8713420331042],[15.6687892150669,45.871444622826],[15.6683392794309,45.8715192382951],[15.6676056606736,45.8715686061612],[15.6669625223454,45.87164434484],[15.66628074216,45.8717203052226],[15.6655082628243,45.8717518004986],[15.6647615426415,45.8717831406964],[15.6639123168132,45.871860060962],[15.663192210438,45.8719632191796],[15.662228363945,45.8721398585975],[15.6617783068506,45.8722054510565],[15.6613024883508,45.8722711908356],[15.6609293901899,45.8723093409417],[15.660543731093,45.8723745560312],[15.6600556685051,45.8724943485729],[15.6595544042571,45.8725872216398],[15.6590536700722,45.8727250787617],[15.6584885318519,45.8728633048475],[15.6580003553634,45.8729741813695],[15.6574606544047,45.873085262295],[15.6569341496916,45.8732232583873],[15.6564591640616,45.8733609560845],[15.6560482607644,45.8734712903157],[15.6557152736078,45.87363516314],[15.6552408101131,45.873817842068],[15.6547538855627,45.8740365818638],[15.6544464644226,45.874173310894],[15.6540878125727,45.8743463238004],[15.6535751174242,45.8745652060634],[15.6531138358954,45.874774794304],[15.6527165346555,45.8749481137656],[15.6521910529438,45.875176060689],[15.6518067309929,45.875358210771],[15.6513585273997,45.875585713007],[15.6506923931171,45.8759044332611],[15.6482375966392,45.8777192165559],[15.6470471628234,45.8786421251267],[15.6463338338057,45.8790511555154],[15.6444774039916,45.8797269421468],[15.6426956922827,45.8803728553272],[15.6421096450455,45.8808646432794],[15.6410437612682,45.8817098571904],[15.6402492289356,45.8830312365915],[15.6397593457937,45.8838461258617],[15.6384941987648,45.8876726957246],[15.6377202440582,45.8889920515976],[15.6364153238044,45.8909155055893],[15.6349956032965,45.8922260199505],[15.6330513720382,45.8935604782547],[15.6320361188839,45.8941199145575],[15.6291588647632,45.8952340674276],[15.6276449321573,45.8956648408725],[15.6262605205463,45.8960069757026],[15.626391437982,45.8964530900825],[15.6263624668555,45.8966729757444],[15.6262180374535,45.896893494178],[15.6260648983124,45.8972679229083],[15.6261733302372,45.8975822525616],[15.6259965966085,45.8977150389749],[15.6259147191305,45.8979059713741],[15.625812540543,45.8981482124939],[15.6258457574417,45.8982945151011],[15.6259931083502,45.8983449955613],[15.6264029883114,45.8984086134804],[15.6267204373629,45.8986412660876],[15.626846949227,45.8987064362039],[15.6268704265215,45.8989260341833],[15.6270440809594,45.8989545942588],[15.6274570544057,45.8990063142944],[15.6276292411805,45.8994192683936],[15.627670739445,45.899670979393],[15.6278167509215,45.9000480856638],[15.6279109131017,45.9003984831914],[15.6279656319584,45.9006681170291],[15.628071364183,45.9009014791844],[15.6281654279944,45.9012428791755],[15.6281054574453,45.9016391127403],[15.6278250864699,45.9019195857799],[15.6275301022446,45.9020471755116],[15.6269776772276,45.9022031707311],[15.6265660974547,45.9022774107512],[15.6260650140497,45.9024151243953],[15.6257706296464,45.902596693171],[15.6254761422829,45.9027692639316],[15.6251681598081,45.9028879208766],[15.6249120562313,45.9030242889182],[15.6245277556424,45.9032333395977],[15.6242856176615,45.9034776036535],[15.6240694542505,45.9037397209578],[15.6237264280842,45.9041824866026],[15.6236000712515,45.9044082114917],[15.6233206706537,45.9047786461445],[15.6231053030087,45.9051127397039],[15.6229275902235,45.905356649478],[15.6226732805443,45.9056549632289],[15.6224182359344,45.9058992935471],[15.6220992511478,45.9061889604387],[15.6217038379974,45.9065600225358],[15.621423309706,45.9068314826578],[15.6211937297862,45.9070486782853],[15.6209644490573,45.9072928652371],[15.6207218767536,45.9075011326929],[15.6203254429031,45.9077822174159],[15.6199298350672,45.908126280905],[15.6195199035695,45.9083534491951],[15.6191084682641,45.9084456570818],[15.6187735647102,45.9084655566378],[15.6186935338716,45.908223049238],[15.6182788015803,45.9080183444192],[15.6179162253059,45.9078673429048],[15.6174516405949,45.9078158673338],[15.6170781733927,45.9078448781181],[15.6168482733069,45.9080350732828],[15.6164767963763,45.9082440274583],[15.6160654562625,45.9083452216795],[15.6156163439057,45.908527598155],[15.6152941273494,45.9085293335758],[15.6147918667948,45.9085680280981],[15.614445958425,45.9087589324545],[15.6142052704743,45.9091291363456],[15.6143373348954,45.9094163561347],[15.6146496461794,45.9096845207998],[15.6150142130592,45.9100154779646],[15.6153005549882,45.9102658749637],[15.6155997886188,45.9105162017867],[15.6158602578923,45.9107577389387],[15.6162115514829,45.9110527725583],[15.6165628488013,45.9113478050638],[15.6168621936158,45.9116071257372],[15.6172910340188,45.9119197329589],[15.6178071108513,45.9119619329801],[15.6181545266892,45.9119060673722],[15.6186188462977,45.911930548097],[15.6189802497639,45.911973490069],[15.6195095180773,45.9120426043439],[15.6200389880665,45.9121297106706],[15.6204649426083,45.9121813854522],[15.6208270523179,45.9122873923177],[15.6211383078281,45.9124566590589],[15.6214897404597,45.9127606734189],[15.6217637382787,45.9130561102393],[15.6220113563921,45.9132977031986],[15.6222067135977,45.9134765956019],[15.6225190865435,45.9137448282302],[15.6228438481455,45.9139679135097],[15.6232592459193,45.9142265847135],[15.6238034469485,45.914475553549],[15.6242044497471,45.9145993329466],[15.6246050505559,45.9146871219508],[15.6250959842276,45.9147834132404],[15.625884100075,45.9149410596713],[15.6263103849987,45.9150197042207],[15.6267499664197,45.9151342654318],[15.6273711265465,45.9153467139664],[15.6278890688533,45.9155508184946],[15.6282135588573,45.9157469865415],[15.6285257702683,45.9159972079576],[15.6288261103513,45.9163374717677],[15.62911366528,45.9166868029494],[15.6294144196079,45.9170630540617],[15.6297675550542,45.9175109980243],[15.630146274135,45.9179408042061],[15.6304470422787,45.9183170524468],[15.6306952312097,45.918603612185],[15.6309825026981,45.9189258567533],[15.6313223633853,45.9193378779188],[15.6316228408187,45.9196871312208],[15.6318585592125,45.9200097484453],[15.6322240114258,45.9204036297746],[15.6325639926514,45.9208246442666],[15.6329690773532,45.9212902860508],[15.6331262324184,45.9215053622958],[15.6333737327951,45.9217289353885],[15.6335051072268,45.9219441539861],[15.6336621637984,45.9221502322327],[15.6339230734004,45.9224187186742],[15.6342626697764,45.9228037389755],[15.6344984168059,45.92312635043],[15.6347337551242,45.9234128825446],[15.6349043283574,45.9236728706462],[15.6350489135111,45.9239150073446],[15.6352842590569,45.9242016282258],[15.6355070229402,45.9245153119211],[15.6356776032074,45.9247752987819],[15.63596596481,45.9251875922055],[15.6361619229809,45.9254114459599],[15.636514754581,45.9258233790337],[15.636790029266,45.9262177476449],[15.6369736165571,45.9264866577932],[15.6371829912919,45.926755423849],[15.6373535863411,45.927015408029],[15.6375506904344,45.9273382284829],[15.637683870652,45.9275396654042],[15.6377343882512,45.9276161345182],[15.6379831722676,45.9279476635456],[15.6381763801892,45.9282337037231],[15.6382192724624,45.9282972584024],[15.6383334835001,45.9284632592662],[15.6385471761119,45.9287812164392],[15.6387314001031,45.929104106733],[15.6389028361092,45.929436065983],[15.6389967315076,45.9296066786207],[15.6391003712352,45.929794872314],[15.6392981156706,45.9301716726549],[15.639391599557,45.9303287006142],[15.6394690414108,45.9304586449937],[15.6395230915926,45.9305615469595],[15.6396008739989,45.9307098447919],[15.639762790308,45.9309531379259],[15.6398633011936,45.9311042775874],[15.6400606415374,45.9314450877093],[15.6402181635828,45.9316871450932],[15.640415093969,45.9319919657903],[15.6404839890525,45.9321183582357],[15.6405863419045,45.9323059278713],[15.6407829656702,45.9325837563173],[15.6409404941248,45.9328258126238],[15.6411368104832,45.933076648859],[15.6416579774698,45.9335416075681],[15.6419312510612,45.9337560192006],[15.6421657394476,45.933961650365],[15.6424521183497,45.9341938926458],[15.6426769573817,45.9343787921565],[15.6429989921379,45.9346497028648],[15.6432338003207,45.9348823233031],[15.6435068402365,45.9351088794191],[15.6436241801773,45.935186049256],[15.6439760880839,45.9355079861959],[15.6443281042761,45.9358389191882],[15.6447188096415,45.9361696328085],[15.6451089979948,45.9364553591823],[15.6455109370944,45.9366420424522],[15.6456621711011,45.9367167692739],[15.6460686654713,45.936917821256],[15.6466391889589,45.9371844371856],[15.647118823998,45.9373976683864],[15.6476372534023,45.9376196754742],[15.6481298961873,45.937841826458],[15.6485580657881,45.9380643412389],[15.6491935113477,45.9383666569103],[15.64963447969,45.9385800971714],[15.6502440405714,45.9388735563651],[15.6507214821168,45.9391063100083],[15.6508277102036,45.939158072018],[15.6510212113538,45.9392617937045],[15.6512430049552,45.9393806500191],[15.6518395818286,45.9396651769021],[15.6524235855243,45.9399767657139],[15.6529165850042,45.940225887218],[15.6532629504396,45.9403980143246],[15.6533236606698,45.9404280796734],[15.6534354865183,45.9404838562361],[15.6538382228179,45.9407334898387],[15.6546596861923,45.940135924632],[15.6550459754403,45.9399195643921],[15.6555339247066,45.939640715143],[15.6562861665357,45.9392127830254],[15.656719723859,45.9389485474717],[15.6570928072223,45.9387291969148],[15.6578905723949,45.9382378281101],[15.6582272483406,45.9381030824073],[15.6585332023604,45.9380422943917],[15.6598943433614,45.9377762966999],[15.6608545765594,45.9376010499272],[15.6619730649611,45.9373954557667],[15.662574469952,45.9372812978981],[15.6633228332397,45.9371193156012],[15.6638321582865,45.9370702894913],[15.6646885890032,45.9371569984211],[15.6660233797316,45.9373441182696],[15.6676050025022,45.9375412079351],[15.6681818766067,45.9376295235293],[15.668987415371,45.9375902591973],[15.6694780257509,45.9373578531112],[15.6697549777246,45.9371496416324],[15.6694238136688,45.9369680277093],[15.6693213185788,45.9366702622522],[15.6686244823976,45.9361925113212],[15.6685226734,45.9359406296946],[15.6683702383678,45.9355858397144],[15.6680355232696,45.9351288208895],[15.6676077981928,45.935119893349],[15.6672948186694,45.9350873499193],[15.6670957504587,45.9349508463633],[15.6669779957238,45.9347449450021],[15.666068649629,45.9343717128456],[15.6657382009994,45.9342474897472],[15.6652929523823,45.9341313122683],[15.66496814584,45.9338638996112],[15.664701227778,45.9337140200736],[15.6645129729537,45.9334346545113],[15.664270710751,45.9333406866773],[15.664228739414,45.9331950768196],[15.6639664784606,45.9327758652545],[15.6638491653706,45.9323894627716],[15.6637804736188,45.9320251821773],[15.6632030993844,45.9314675234755],[15.6629728934135,45.9310425448526],[15.6630382859441,45.9304812443291],[15.6627739089985,45.9298825365331],[15.6625196132677,45.9295127629766],[15.662316107113,45.929076560829],[15.6620308925273,45.9286868103155],[15.6615488746959,45.9284017629584],[15.6611574003272,45.928292276212],[15.6606695500383,45.928004019674],[15.6599867791372,45.9274899630294],[15.659949276019,45.9271218106107],[15.6599290945094,45.9268225710854],[15.6595457113083,45.926502484047],[15.6594101516577,45.9262155173953],[15.6594807224965,45.9260886013719],[15.6596323412701,45.925826790662],[15.6595266418211,45.9256114540325],[15.659887204209,45.9255732913915],[15.6598829380279,45.9252134947854],[15.6598280615678,45.9249348804507],[15.6590287295733,45.92472120691],[15.6580788514745,45.9239438739806],[15.6580432698946,45.9237369499223],[15.6579591268566,45.9235992284808],[15.6581233362809,45.9235407870491],[15.6581373951428,45.9233450042908],[15.6580537971267,45.9232533484237],[15.6579549229774,45.92326543492],[15.6576611426022,45.9235204136548],[15.6575611793929,45.9234403687761],[15.6574268537017,45.9232454398526],[15.6570786872048,45.9231093263799],[15.657242488146,45.9230163370671],[15.6571583481923,45.922878615002],[15.657011050209,45.9229715992923],[15.6567303795465,45.9229501783276],[15.6567107606285,45.9226970034474],[15.6566117512997,45.9226975723956],[15.6564487662599,45.9228597490836],[15.656248982835,45.9227112634209],[15.6559838651913,45.9226091311535],[15.6559634433177,45.9222984648941],[15.6560770607918,45.9221481794703],[15.6561897272579,45.921917279231],[15.656072182846,45.9217452866344],[15.6562524816813,45.9216521140202],[15.6562823700336,45.9213987446651],[15.6565445008302,45.9212590329173],[15.6563445871458,45.9210990309634],[15.6562113576058,45.9209962315804],[15.655915952525,45.9211130092539],[15.655881465464,45.9209981255048],[15.6557633812642,45.9207800669905],[15.6557656405991,45.920468460637],[15.6554044715799,45.9204525370904],[15.6554016112556,45.9202096132158],[15.6550134968619,45.9200948673002],[15.6551142885529,45.9203118560386],[15.6549673993445,45.9204392969214],[15.6548851658764,45.9204628025584],[15.6547198556262,45.9203394903602],[15.6544881909716,45.9203730295144],[15.654370309752,45.920215523492],[15.6544961545275,45.9199538669221],[15.6540455964538,45.9200104333283],[15.6547384334487,45.9192664875665],[15.6566602521378,45.9176289294326],[15.6576310144665,45.9168675322655],[15.6590324899832,45.9156961333928],[15.6605849918865,45.9145359911443],[15.6623026897739,45.9133978146029],[15.6639645312498,45.9122404113241],[15.6649127098336,45.9116764945161],[15.6668162931363,45.9129220352036],[15.6718541107808,45.9161456806023],[15.6722559910927,45.9163322707765],[15.6725804231865,45.9165103176061],[15.6728657511479,45.9166526025929],[15.6731509717708,45.9167858897019],[15.6734750828199,45.9169369424871],[15.6745871589403,45.9161657503124],[15.6752694190863,45.9156497460604],[15.6760843857935,45.9150865239743],[15.676879050132,45.9146784483403],[15.6774550091971,45.9145509556086],[15.6776979508705,45.9144409116546],[15.6786189396201,45.9134736711707],[15.6803080916603,45.9117727605393],[15.6811117464666,45.9103251753201],[15.681329077529,45.9099360742976],[15.6830818802967,45.9080175349196],[15.6832575788816,45.9078613622755],[15.6837281346205,45.907617316451],[15.6841483887188,45.9074578935515],[15.6841459804832,45.9074371088043],[15.6841640296999,45.9072591140375]]]},"properties":{"fill-opacity":0,"stroke-opacity":1,"stroke":"#ff0000","lov":"0719","lov_naziv":"DOBOVA","luo":"07","luo_naziv":"Posavsko","povrsina":2320.07},"id":"pregledovalniklovisca.1"}]}