{"type":"FeatureCollection","features":[{"type":"Feature","geometry":{"type":"Polygon","coordinates":[[[15.591184398165,45.977566409792],[15.5914453093654,45.9779750847526],[15.5916615545658,45.9782125842702],[15.5919087121934,45.9783230557822],[15.5921016804935,45.9783742427937],[15.5924034093961,45.9786037399033],[15.5926951154668,45.97888547481],[15.5931533957333,45.9797554234397],[15.5933952984212,45.9803878750585],[15.5936475999819,45.9809904897266],[15.594035030761,45.98164080903],[15.5942807420586,45.9822173631332],[15.5942632267308,45.9825827603386],[15.5943622178297,45.9828358003785],[15.5948035368712,45.9831167515027],[15.5952138917716,45.983494767264],[15.5955480380159,45.9837464912753],[15.5964187625137,45.9841816673605],[15.5971495376332,45.9845281311432],[15.5973976972415,45.9847281123994],[15.5981492688525,45.9850148963808],[15.5987706271378,45.9851233038105],[15.5993696784583,45.9851498559548],[15.5999808929121,45.9853105865441],[15.6004117572969,45.9855990388679],[15.6007447299496,45.9857389125716],[15.6009337484117,45.9858155688195],[15.6009113425112,45.9861306055245],[15.6009963288079,45.9862669233982],[15.6012306492319,45.9861761639702],[15.6017753900418,45.9861209303475],[15.6020741304361,45.9860671703388],[15.6024145062685,45.9859012589132],[15.6026056167035,45.9857660059363],[15.6032233476257,45.985538884669],[15.604128656493,45.9852058670745],[15.6046382444327,45.984874936612],[15.6048822098931,45.9846872135764],[15.6050731810653,45.984551957178],[15.6055685495611,45.9843503045731],[15.6059668176504,45.9842399513609],[15.6063866904891,45.9840752260795],[15.6067693286524,45.9839640532267],[15.6072398976802,45.9839624536071],[15.6076506970761,45.9839834841262],[15.6080597177844,45.9838420244198],[15.6081354641392,45.9836636471367],[15.6081550361409,45.9834236646565],[15.6082525966889,45.9832219571632],[15.6085465505527,45.9827097734843],[15.6085791694699,45.982647695692],[15.6090564690387,45.982660629001],[15.6097226235049,45.9826881188925],[15.6102785522162,45.9827857456971],[15.6109036752908,45.9828023806509],[15.6108935402546,45.9830543700888],[15.610834551722,45.9835585558831],[15.6109161748151,45.9839270247354],[15.6110490969505,45.9842772238601],[15.6110515717004,45.9845021527686],[15.6111058698567,45.9847447999348],[15.6111985906633,45.9849602485289],[15.6113944647308,45.9851661475503],[15.6119528125728,45.9854690803875],[15.612189196146,45.9858367194103],[15.6121031140813,45.9862240808738],[15.6121327951677,45.9865748315165],[15.6122966560732,45.9867328527819],[15.6124850487188,45.9869148561237],[15.6126442234337,45.9870808199565],[15.6127853810411,45.987228164995],[15.6130599325189,45.9875326136814],[15.6132957361279,45.9878462673183],[15.6134172665333,45.9883314897861],[15.6134713801388,45.9885561413038],[15.6137181622772,45.9888464310945],[15.61419364625,45.9891220849165],[15.6147232574072,45.9893311327281],[15.6151376184751,45.989390177348],[15.6157817428484,45.9893790604752],[15.6161012611291,45.9894641659976],[15.6164913993875,45.9896432753355],[15.6168588166325,45.9897638411208],[15.6174961429212,45.9897910813863],[15.6176934445616,45.9897619424046],[15.6180400940321,45.9896631632802],[15.6183020456951,45.9895163438846],[15.6187018015044,45.9892488388793],[15.6189927535649,45.9890869247377],[15.6193796610481,45.9890105076538],[15.6198371692571,45.9890029884927],[15.6202264407754,45.988791680508],[15.6206934852917,45.9884826838989],[15.6209186263544,45.9882772135623],[15.6217931708234,45.9880034280455],[15.6222453435148,45.9878200236096],[15.6224556312073,45.9876950703599],[15.6225331677584,45.9875994525562],[15.622850342259,45.9873029603322],[15.6233437091965,45.986903562587],[15.6238688232412,45.9867915553217],[15.6246220577706,45.9867180688185],[15.6249077511356,45.9868256488764],[15.6251393344784,45.9871715129133],[15.6251850716413,45.9874391237065],[15.6253010332843,45.9876269907085],[15.6256852566018,45.987634785234],[15.6262524076168,45.9874730496274],[15.6262215509572,45.9872549349515],[15.6262459191223,45.9868976834128],[15.6265420094985,45.9866679692632],[15.6273037213694,45.9860884788624],[15.627867375071,45.9856192135342],[15.6282434894589,45.9849227951858],[15.6284261925849,45.9847233916971],[15.6284246217248,45.9845845660373],[15.6284079390427,45.9843763613305],[15.6287314062706,45.9840472463705],[15.6290842739585,45.9838072257009],[15.629335232385,45.9836406464449],[15.6298520982229,45.9837497302183],[15.6307555289124,45.9839043664984],[15.6308060365534,45.9839534850265],[15.6315623521044,45.9840416241606],[15.6324472946316,45.9842946939508],[15.6333691189105,45.9834803367728],[15.6337265858142,45.9831364429182],[15.6338129230156,45.9827850542469],[15.6338987457265,45.9823886798924],[15.633972380452,45.9820553568925],[15.6341501835329,45.9818024350639],[15.634313743728,45.981432622013],[15.6343408105822,45.9813503228531],[15.6344384826957,45.9810540265342],[15.6344999265679,45.9807837546408],[15.6347115304294,45.980778710602],[15.6349832556052,45.9807040499029],[15.6351494377145,45.9805642920273],[15.6352724224674,45.9803150921597],[15.6355212308102,45.980065102537],[15.6359357220153,45.9798690764528],[15.6365523586154,45.9800370495109],[15.6367189550073,45.9799789860887],[15.6370736679627,45.9799388590417],[15.6372334434199,45.979871295336],[15.6373604632931,45.9796372767913],[15.6374439198298,45.9793859555873],[15.6375351824981,45.979083933739],[15.6376144170294,45.9788359650862],[15.6375742128899,45.9786052185353],[15.6373402987735,45.9783185070349],[15.6372591423661,45.9782189951993],[15.637129637718,45.9779435779525],[15.6370285291054,45.9777584291245],[15.6370016264153,45.9774944066794],[15.6371097712993,45.9770890873686],[15.6371691761947,45.9769125812368],[15.637107249157,45.9765653453765],[15.6371013000287,45.9763391763771],[15.6370705783542,45.9760346855232],[15.6370060147811,45.9757612453983],[15.6369252723749,45.9755736434847],[15.636838393814,45.9754361029204],[15.6368063444065,45.975319581329],[15.6367300422858,45.9752152732365],[15.6365714997571,45.9750852399063],[15.6365432083803,45.9749925412108],[15.6365826419678,45.9748638343778],[15.6367375749311,45.9746677211114],[15.6370891691354,45.974358580038],[15.6373542220726,45.974245260679],[15.6375207455925,45.9741824276469],[15.6376087309365,45.9741128344241],[15.6379764872638,45.9737509638465],[15.6384271296818,45.9737410691188],[15.6388039297486,45.9736950547215],[15.6391606666773,45.9737223026266],[15.6396127390199,45.9738366535153],[15.6399073483789,45.9739373081439],[15.6401801288756,45.9739577348026],[15.6404311622741,45.9739051313528],[15.6405451733778,45.9737875222285],[15.6407953180599,45.9736691497418],[15.6411823591654,45.973593827538],[15.641663894372,45.973532639754],[15.6421556267218,45.9734494382427],[15.642469074211,45.9733599489012],[15.6424677217004,45.9732429863436],[15.6424966709427,45.973023549522],[15.642662219113,45.97283258714],[15.6429644493828,45.9726773862802],[15.6434646775431,45.9724260541726],[15.6436318287881,45.9723739159469],[15.6438734165247,45.9724090857507],[15.6442096523633,45.9722713254915],[15.6445566864467,45.9721523985201],[15.6450972687073,45.9720323781051],[15.6456514837371,45.9719752620583],[15.6460771878723,45.971963858457],[15.6464509635749,45.9719256639268],[15.6469155864795,45.9719320324577],[15.6477536704381,45.9718732989455],[15.6482824944071,45.9718523048807],[15.6489846300019,45.9723072027569],[15.6493488684018,45.9725570694957],[15.6497409161255,45.9729777333672],[15.649964169215,45.9733092889702],[15.6501221707211,45.9735783213859],[15.6504991156245,45.9738101167136],[15.6508110178902,45.9739972926951],[15.6510969037846,45.9741666206393],[15.6514476506014,45.9743535735559],[15.6518114912819,45.9745674438193],[15.6520072668795,45.9747552787938],[15.6521776583366,45.9749792491028],[15.6523099729274,45.9752574227102],[15.6525214042998,45.9756791076653],[15.6526677892243,45.9760561751981],[15.6529280943491,45.9762436399986],[15.6530589076105,45.9763166736875],[15.6532788372152,45.976439584957],[15.6535787050142,45.9766987137247],[15.6539536731961,45.9767595525521],[15.6543546629394,45.9768382365566],[15.6547444460336,45.977060946554],[15.6546191122238,45.9773765840277],[15.6547126480445,45.9776369814701],[15.6549879937851,45.9780043093286],[15.6551981826833,45.9783180238918],[15.655472367234,45.9785863825311],[15.6556941915571,45.9787920570535],[15.6560066705915,45.979024203882],[15.6560468935829,45.9792391079049],[15.6560755519589,45.979392714011],[15.6561947791483,45.9796529626592],[15.6563008897469,45.9798952911084],[15.6563762517433,45.9801675784277],[15.6563952656359,45.9802366614925],[15.6564505015853,45.9805422658341],[15.6565576785246,45.980874564821],[15.6569608525571,45.9811241832631],[15.6573243330088,45.9813020470447],[15.6576370460962,45.9815521833606],[15.6582319780625,45.9816567305778],[15.6584135788317,45.9817662661044],[15.6585569627362,45.9818528075281],[15.6588711786611,45.9822288994713],[15.6592498196542,45.9825955312337],[15.6594136835418,45.9826891515809],[15.6595616939609,45.9827736855441],[15.6598482930939,45.9829969733897],[15.6599814139334,45.983338116924],[15.6598432970979,45.9836628313007],[15.6596393660989,45.9838799531219],[15.6594919138539,45.9840274664562],[15.6607119627238,45.9843491949183],[15.6618899524528,45.9846712439207],[15.663183029624,45.9849559923805],[15.6644377254408,45.985537783053],[15.66478067718,45.9858508876043],[15.6650429113969,45.9860304853127],[15.6667969575554,45.986185821969],[15.6675669621381,45.9862994662918],[15.6680472024737,45.98646725614],[15.6683154260422,45.9862317480706],[15.6682869062264,45.9860069726935],[15.6680261788517,45.9857925525693],[15.6680090517504,45.9854417428904],[15.6680189278948,45.9851897499126],[15.6683786803127,45.9850526811538],[15.6681949614703,45.984801820218],[15.6681652522704,45.9844780771338],[15.6684075453677,45.9842337226769],[15.6682489916759,45.9839287284684],[15.6683347865394,45.9835503237851],[15.6685258845947,45.9833422591819],[15.668509384259,45.983054429599],[15.6685054857479,45.9827305355183],[15.6688907074334,45.982566323019],[15.6691195414927,45.9822770572809],[15.6692188839546,45.9819525586573],[15.6693436025403,45.9815919205311],[15.6695998680209,45.9814374585174],[15.6699493998745,45.9815253869394],[15.6705046589981,45.9815490336186],[15.670811347447,45.9812952984047],[15.6712105449099,45.9812209729429],[15.6715323091324,45.9811471011184],[15.6719424507365,45.9809107502877],[15.6722638854919,45.9808098852512],[15.6726152696588,45.9810507554389],[15.6728970070875,45.9808691430077],[15.6731649651203,45.9806156294824],[15.6733690492704,45.9804164778648],[15.6736123918283,45.9802619929818],[15.6740365148636,45.980115529141],[15.6743319125365,45.9799968164429],[15.6746917249415,45.9798687250099],[15.6749089245135,45.9796874885754],[15.675112999003,45.9794883338646],[15.6754977408805,45.9792881110297],[15.6758444221641,45.9791420981687],[15.6763185069576,45.9788603648773],[15.6761514909858,45.9785834142609],[15.6745381768805,45.9776077000927],[15.6736149988756,45.9770820111323],[15.6721564585985,45.9761130887398],[15.6710445877361,45.9754961721277],[15.6699959320435,45.9746402549334],[15.6698720584157,45.9744486101837],[15.6710307425792,45.9734951639398],[15.6714450866966,45.9730771261876],[15.6714861469703,45.9728228796666],[15.6713051859059,45.9724776210523],[15.6711918508753,45.9722396675361],[15.6712196414659,45.9718162521108],[15.6709490898645,45.9713713745405],[15.6705415719016,45.9705579440234],[15.6709465102912,45.9702707897685],[15.672042716365,45.9696333390821],[15.6727228821698,45.9692830152712],[15.6734547746955,45.9686552529942],[15.6736948937259,45.968430694405],[15.6737807199615,45.9682300792489],[15.6738777343084,45.9680370461059],[15.6741949468317,45.9677966457205],[15.6748766652845,45.9675771265904],[15.6752921885377,45.9672514740142],[15.6759237445114,45.9665473580583],[15.6764276900807,45.9662365643647],[15.6774296039249,45.966015134225],[15.678695067916,45.9656844276977],[15.6797389217973,45.9652857430573],[15.680210147622,45.9650135474806],[15.6804531640163,45.9648289071642],[15.6812298784323,45.9645013515362],[15.6815188999777,45.9643336203307],[15.6817813582478,45.9641567792138],[15.6820427793547,45.9639060723834],[15.6823185222651,45.9637291507316],[15.6827666901613,45.9635880890347],[15.6824188601917,45.9632949513664],[15.6821118037876,45.963075350591],[15.6818570626998,45.9628185461839],[15.6816417192544,45.9625337932196],[15.6813093536056,45.9624065678934],[15.6807112459543,45.9621979658064],[15.6803512920505,45.961987853019],[15.6800821478644,45.9616389036771],[15.6798116681487,45.9611699319649],[15.6796208999207,45.9608572259489],[15.6791861021207,45.9606553825459],[15.678534700198,45.9604225219477],[15.6775756448676,45.9602775904199],[15.6766941311195,45.9601537862539],[15.6758737613337,45.9599865145662],[15.6752694780831,45.9598179603376],[15.6748663191117,45.9596804272211],[15.6744571556024,45.9590584904197],[15.6743438299657,45.9586393251576],[15.6743391300168,45.9582625279699],[15.6743657838522,45.9579286448697],[15.6743449513576,45.9574981364019],[15.6743756076183,45.9570794710033],[15.6744627403802,45.9568180225529],[15.6745755426237,45.9565564225014],[15.675140722977,45.9563551347547],[15.6756035775627,45.9562264310603],[15.6756514580092,45.9559202250442],[15.6753003301951,45.9556883594166],[15.6748972800972,45.9554298061509],[15.6746708720903,45.95526972368],[15.6745460493584,45.9551889410611],[15.6741302162159,45.9549394582589],[15.6736619177985,45.9546183013416],[15.6733888551945,45.954439955992],[15.6731415925685,45.9542614580154],[15.6727739919393,45.9541057124694],[15.673004617712,45.9540289534668],[15.6747442539196,45.9536523972693],[15.6758221832325,45.9534413290912],[15.6756979084932,45.9533735911848],[15.675321545408,45.953186863424],[15.6749190595618,45.9529732954869],[15.6745680428585,45.9527594223196],[15.6743416294916,45.9526404588247],[15.6741785707974,45.9525547726797],[15.6739212551967,45.9524190749021],[15.6736722504933,45.952287826419],[15.6732956836257,45.9520830976778],[15.6728934312879,45.9518875166747],[15.6724654946364,45.9517011731099],[15.6720899149441,45.9515774142318],[15.6717274527674,45.9514715724934],[15.6713390864358,45.9513568840441],[15.6709248162928,45.9512333486173],[15.6704843172307,45.9510739746153],[15.6701604479786,45.9509589037201],[15.6698240068823,45.9508708988184],[15.6693708321313,45.9507295902957],[15.6689563555672,45.9505881434254],[15.6685937975299,45.9504732945525],[15.6681915732546,45.9502776967889],[15.6678931645639,45.9501444750966],[15.6674775069844,45.9499039646071],[15.6672304994484,45.9497434477092],[15.6669184635695,45.9495383210802],[15.6665542987952,45.949288508944],[15.6662027118388,45.9490116290812],[15.6658508051874,45.9487077567541],[15.6655254516941,45.9484667129053],[15.6652512624986,45.9481894692814],[15.6650159831458,45.9479299040778],[15.6647936036042,45.9476702633362],[15.6645832635095,45.9473385701639],[15.6643855869315,45.9469978052162],[15.6641882566824,45.9466750333895],[15.6641079714475,45.9464325607998],[15.663949551419,45.9461275578974],[15.6637276136511,45.9459039034326],[15.6634668788921,45.945671476034],[15.6631670258902,45.9454032840511],[15.6628676047347,45.9451710797642],[15.6626926595283,45.9450695200625],[15.6625167053454,45.9449481708907],[15.6621399077881,45.9447164132436],[15.6617113128402,45.9444670487635],[15.6614459222996,45.9443407271452],[15.6612443511289,45.9442448079528],[15.6609074300062,45.9441117907358],[15.6605706173489,45.9439877696473],[15.6601558696287,45.9438282068021],[15.6597412532436,45.9436686416897],[15.6593188946563,45.9434868053129],[15.6588855948183,45.9432956727924],[15.6585485785037,45.9431536513984],[15.6581334393988,45.9429490946843],[15.6577573130559,45.9427713951479],[15.6573161741541,45.9425489895942],[15.6568235594681,45.9423358759624],[15.6564084327755,45.9421313128852],[15.6560711114158,45.9419622926492],[15.6557853771694,45.9417929753867],[15.6553310396412,45.9415436446128],[15.655071420022,45.9414011690591],[15.6547205755661,45.9411782358032],[15.6541623164671,45.9408755991511],[15.6538382228179,45.9407334898387],[15.647849751579,45.9436739607718],[15.6474232092259,45.9437941586688],[15.6467979483568,45.9439285266165],[15.6460628449802,45.9442447268802],[15.6457322799635,45.9443338734293],[15.6454646157973,45.9444085372894],[15.6448520532419,45.9445823229681],[15.6437590897271,45.9448938688436],[15.6429441803133,45.9451261896222],[15.6413342313033,45.9456043787765],[15.6399820938979,45.9459709692484],[15.6392373149004,45.9461917135598],[15.6386361120834,45.9464258671616],[15.6383008347192,45.946634778507],[15.6377262052913,45.9470948922159],[15.6375354880331,45.9473017347919],[15.6372770608911,45.9472616966225],[15.6370288022957,45.9472422959988],[15.6369092826061,45.9472014825843],[15.636878301168,45.9470979112487],[15.6368868061883,45.9469733350524],[15.6368457351825,45.946855963406],[15.6367456323095,45.9467873285528],[15.6366265886264,45.9467879917958],[15.6364396608871,45.9469204900638],[15.636248092564,45.9466587326445],[15.636216954155,45.9465413054651],[15.636077336837,45.9464798182706],[15.6359873250317,45.9464249831102],[15.6360156146692,45.9462933685907],[15.635855503624,45.946176659038],[15.6358622509456,45.9459207255726],[15.6357618839547,45.9458174499902],[15.6357513997226,45.9457691004366],[15.6358499468536,45.9457132160052],[15.635947020121,45.9455397391288],[15.6360036291117,45.9452904564032],[15.6360416407254,45.9451518594772],[15.6359025805704,45.9451387768407],[15.6357046192141,45.9451745195719],[15.6355058953129,45.9451548400712],[15.6352872817483,45.9451215042423],[15.6351685570587,45.9451497872816],[15.6351087068906,45.9451155685691],[15.6350982233646,45.945067218946],[15.6351370272423,45.9449978105996],[15.6352252482935,45.9449074327351],[15.6352047538405,45.9448521205229],[15.6351250425604,45.944818012213],[15.6350060030551,45.944818673746],[15.6349063806611,45.9447916041891],[15.634875088,45.9446603209309],[15.6347359502675,45.9446403090383],[15.6345576141396,45.9446551559781],[15.6343783597445,45.944600815047],[15.6341585661429,45.9444637395587],[15.6341468497255,45.9443184909235],[15.6339968368499,45.9442155792267],[15.633856360332,45.9440779730998],[15.6338048946886,45.9439191783318],[15.6336131006965,45.943862026461],[15.6332258892714,45.9438371794685],[15.6330172680417,45.9438086427067],[15.6326575100173,45.9437594377629],[15.6320892335535,45.943690600434],[15.6316770610711,45.9436368235213],[15.6315596487247,45.9436215464525],[15.6309009957461,45.9435442049006],[15.6303067261947,45.9434575067048],[15.6298160395902,45.9434062255881],[15.629557816858,45.9433707576681],[15.6293122535675,45.9433370190008],[15.628886053322,45.9432854687284],[15.6282530995818,45.9431989727302],[15.6279674606597,45.9431568136463],[15.6108543898453,45.9372654344217],[15.6108810297367,45.9376244825569],[15.6108229895928,45.9379761552726],[15.6107794533378,45.9382393924376],[15.6105846458266,45.9389964250288],[15.6104172012307,45.9397911915786],[15.6104552499678,45.9408843954549],[15.6107299222612,45.941233840231],[15.6109656125455,45.9415564994881],[15.6112795738915,45.9419597193559],[15.6114630910392,45.9422286701073],[15.6117768618953,45.9426138940814],[15.6120516501217,45.9429723327107],[15.6122615610787,45.9432950372923],[15.612496971824,45.9435907015302],[15.6127454801925,45.9439042905391],[15.612955003089,45.9441910948611],[15.6131778219399,45.9445138184363],[15.6134394338672,45.9448453310727],[15.6137009496443,45.9451678458615],[15.6138970884762,45.9454097315383],[15.6141326163048,45.9457143894209],[15.6144076339842,45.9460908164598],[15.6146171737759,45.9463776175398],[15.614800920742,45.9466645569877],[15.6149334773118,45.9469877625738],[15.6149116616034,45.9473477897243],[15.6148905420304,45.9477707973043],[15.6148465113687,45.948454862644],[15.6148239982756,45.9487519092473],[15.61480367342,45.9492468943586],[15.6147720415995,45.9498859040895],[15.6147646143327,45.9503808197111],[15.6147191878277,45.9509389238671],[15.6147121874397,45.9514608303103],[15.614690269377,45.9518118599515],[15.6146677542758,45.9521089063608],[15.6146450400278,45.9523879583498],[15.6145962294196,45.9526401574653],[15.6143173249886,45.9530825461116],[15.6141390249238,45.9532904523419],[15.6136151292476,45.9537431532907],[15.613124167986,45.9536738065708],[15.6124398203199,45.953614492033],[15.6117683731771,45.9535551043369],[15.6111872220648,45.9534953197843],[15.6106196619591,45.9534983538166],[15.6100533142991,45.9534120310596],[15.6080189937787,45.9532807085822],[15.6072299562982,45.9530012053745],[15.6064148443708,45.9528258488882],[15.6054921068501,45.9527171902291],[15.6047231517358,45.9527047960157],[15.6042447335332,45.9527075965759],[15.6030423369543,45.9526820959165],[15.6018162417664,45.9526241356101],[15.6012097049276,45.9526603498483],[15.600812143624,45.9525892891115],[15.6007429833043,45.9526711721736],[15.6007444334187,45.9527934437635],[15.600944313999,45.9529306880244],[15.6010286476149,45.9531665250143],[15.6009505190201,45.9534928338047],[15.6009534653366,45.9537534826417],[15.6011306615043,45.9539398834861],[15.6010624687955,45.9541113790479],[15.6011806158282,45.9542410447424],[15.6012758554639,45.95441150059],[15.6011144897021,45.9545917642726],[15.6009998168267,45.9547716022151],[15.6007795741663,45.9549114153132],[15.6005802136078,45.9548229357801],[15.6004285173314,45.9548238228809],[15.6003243087638,45.9548977918392],[15.6000447504413,45.9549564856307],[15.5999523670186,45.9550384901147],[15.599742850855,45.9550967254528],[15.5995215024649,45.9551224506946],[15.5995109058676,45.9552284095755],[15.5996531024964,45.955423094224],[15.5996552529633,45.9556105056592],[15.5995988797135,45.9557900362316],[15.5993791562204,45.9559787015504],[15.599369742615,45.9561824595138],[15.5991842256514,45.9562894256094],[15.5991041515272,45.9564365983805],[15.5990602164887,45.9566812070062],[15.59887662898,45.956967487197],[15.5987274714292,45.9572046390615],[15.5985434406966,45.9574500713311],[15.5984168811297,45.9576055850045],[15.5981612701089,45.9577211943415],[15.5980821962842,45.9579497905459],[15.5979671154703,45.9581052436321],[15.5979466117014,45.9583579170804],[15.5977980589665,45.9586520201079],[15.5978694637281,45.9587657377196],[15.5978488302978,45.9590184117994],[15.597651036315,45.9590765819315],[15.597359972747,45.9591353292733],[15.5973129231968,45.9591030034381],[15.5971603853952,45.9590386570919],[15.5970448170677,45.9591371561708],[15.5970929160465,45.9592671919184],[15.597094666282,45.9594301315559],[15.5970028837529,45.9595691760167],[15.597029774921,45.9598867451471],[15.5970684519537,45.9602205385557],[15.5970117159928,45.9603674978435],[15.5971431413044,45.9604958385233],[15.5970768828488,45.9606450970242],[15.5972128102954,45.960916207939],[15.597370677236,45.9611638099231],[15.5972788925806,45.9613028545741],[15.5971390522795,45.9613281491369],[15.5971870664258,45.9614500872905],[15.597397834395,45.9615058512897],[15.5973106103308,45.9616131101638],[15.5969914108225,45.9618883987637],[15.5968254319037,45.9620748886692],[15.5967708856853,45.9622217463761],[15.5968137829723,45.9622997125401],[15.596661211093,45.9624372745607],[15.5965802415792,45.9627308429612],[15.5964843934386,45.9629364912637],[15.59650390775,45.9634444005651],[15.5963801423871,45.9636697195158],[15.5963264561529,45.96388495513],[15.5963007659585,45.964100044634],[15.5963726842735,45.9642852922397],[15.5965851344092,45.9645088563399],[15.5969519470424,45.9647608563922],[15.5969831959329,45.9650634662776],[15.5970569267448,45.9654050842358],[15.597159784505,45.9658636101886],[15.5970916164952,45.9660398716757],[15.5970804111563,45.9662939356691],[15.5969326332414,45.9666625341699],[15.5966671131537,45.9669409603415],[15.5964292771909,45.9669618168648],[15.5962631523733,45.9671483065449],[15.5961243157991,45.9672565535],[15.5959164419001,45.9674725929736],[15.5958208977772,45.9677075714989],[15.5958088490462,45.9678835395615],[15.5958398604276,45.9681764333052],[15.595856857014,45.9684498750691],[15.595745466497,45.9685188383951],[15.5953044758,45.9691855272644],[15.5951802997176,45.9693620792458],[15.595028412764,45.9695778254251],[15.5949603625718,45.9697540849098],[15.5946154047105,45.970244365806],[15.5945891824144,45.9704105999062],[15.5944928961524,45.9705771984912],[15.5944956944517,45.9708508041775],[15.5943421532884,45.9709004603448],[15.5943707797121,45.9709588865284],[15.5943449740466,45.9711641684263],[15.594318541703,45.9713108785097],[15.5941369989955,45.9713606800152],[15.5940818347192,45.9714391568521],[15.5939983323384,45.9714982559378],[15.5939294408311,45.9715963290674],[15.5938179368246,45.9716554835658],[15.5937511078875,45.9719586935255],[15.5936259815899,45.9720473410987],[15.5936408816958,45.9721254537474],[15.5935583411364,45.972262647576],[15.5935592801894,45.9723505502627],[15.5935315676611,45.9723897442268],[15.5935604035519,45.9724677845036],[15.5933788563831,45.9725175848164],[15.5933663810508,45.9726544146784],[15.5935642645994,45.9728292021811],[15.5936635847597,45.972945926347],[15.5937349043629,45.973062795901],[15.5936798174342,45.9731607971319],[15.5937364454064,45.9732190779833],[15.5936112357456,45.9732881109627],[15.5935146292766,45.9734254677699],[15.5931952388766,45.9736909386692],[15.5930568762473,45.9738577543416],[15.5931418441322,45.9739355033973],[15.5931996193393,45.9741012111006],[15.5932016011456,45.9742868233772],[15.5930347139011,45.9744049295517],[15.5929941075385,45.9745419952798],[15.5928550369227,45.9746306243442],[15.5928844981163,45.9747672365427],[15.5928019274252,45.9749142374088],[15.5929875489399,45.9752453794812],[15.5930453260492,45.9754111771922],[15.5929904683736,45.9755188943743],[15.5930362905186,45.975870376626],[15.5930821926541,45.9762413834263],[15.593099571075,45.9765636807259],[15.5928355658853,45.9767604805243],[15.5926403556308,45.9768494904775],[15.5927676831183,45.9769659801224],[15.5926710682516,45.9771033361694],[15.5926720060593,45.9771912387954],[15.5925619736913,45.9773774318377],[15.5926066233887,45.9776312052579],[15.5923565485742,45.9778279316746],[15.5922598266519,45.9779554804202],[15.5919089913558,45.9778890055576],[15.5916116410567,45.9775974903296],[15.5909466630669,45.9774677649354],[15.591184398165,45.977566409792]]]},"properties":{"fill-opacity":0,"stroke-opacity":1,"stroke":"#ff0000","lov":"0716","lov_naziv":"GLOBOKO","luo":"07","luo_naziv":"Posavsko","povrsina":2453.98},"id":"pregledovalniklovisca.1"}]}