<?xml version="1.0" encoding="utf-8" ?>
<kml xmlns="http://www.opengis.net/kml/2.2">
<Document id="root_doc">
<Schema name="pregledovalniklovisca" id="pregledovalniklovisca">
	<SimpleField name="lov" type="string"></SimpleField>
	<SimpleField name="lov_naziv" type="string"></SimpleField>
	<SimpleField name="luo" type="string"></SimpleField>
	<SimpleField name="luo_naziv" type="string"></SimpleField>
	<SimpleField name="povrsina" type="float"></SimpleField>
</Schema>
<Folder><name>pregledovalniklovisca</name>
  <Placemark id="pregledovalniklovisca.1">
	<Style><LineStyle><color>ff0000ff</color></LineStyle><PolyStyle><fill>0</fill></PolyStyle></Style>
	<ExtendedData><SchemaData schemaUrl="#pregledovalniklovisca">
		<SimpleData name="lov">0711</SimpleData>
		<SimpleData name="lov_naziv">KRŠKO</SimpleData>
		<SimpleData name="luo">07</SimpleData>
		<SimpleData name="luo_naziv">Posavsko</SimpleData>
		<SimpleData name="povrsina">5429.92</SimpleData>
	</SchemaData></ExtendedData>
      <MultiGeometry><Polygon><outerBoundaryIs><LinearRing><coordinates>15.4934938117969,45.9049642531067 15.4913994577237,45.9042241212485 15.4903601633422,45.9036564152436 15.4889496529737,45.9030086785825 15.4882146829208,45.9024840096026 15.4876455438041,45.9022185750009 15.4850987052279,45.9015914703066 15.4828994370092,45.9010011712108 15.4813959678852,45.9005099358388 15.4807194139089,45.9005000070641 15.4799518201286,45.9005286973893 15.4793478969631,45.9004674378292 15.4787986544051,45.9003803921964 15.4785589351219,45.9001390853048 15.4780014662559,45.899873823637 15.4776330609306,45.8997138533572 15.4771125889039,45.8994638189501 15.4762655290212,45.8993008029624 15.4754944972401,45.8992421089228 15.4752559148139,45.8992526391113 15.4748678558822,45.8993255150552 15.4746992234558,45.8994689210014 15.4744748590397,45.8996963277455 15.4742866251541,45.8998082321399 15.4738480105778,45.8998319164452 15.4731440552092,45.8997659100947 15.4720462534105,45.899668325093 15.47069262953,45.8995845604636 15.4699759751825,45.9012966442722 15.4684238258531,45.9036626923252 15.4677029589416,45.9049029330995 15.4674335381417,45.9054652284583 15.4673203492621,45.9072131543843 15.467310738917,45.9082336340806 15.4673036020737,45.9086733856514 15.4673604741571,45.9091530055945 15.4676733636834,45.9102037478147 15.4678624095242,45.9106736486254 15.4679571268498,45.9109315874671 15.4681574363714,45.9111614704517 15.4685734087966,45.9118980344712 15.4687094643767,45.9123497055418 15.4688856376563,45.9128657259755 15.4692740141337,45.9134454789992 15.4699280506628,45.9141902376765 15.4707162336994,45.9151559655584 15.4714908269962,45.9160664075343 15.4718390292006,45.9166001586391 15.4721753416435,45.9172816114046 15.4724175110133,45.9177605523162 15.4725382189162,45.917963043234 15.4712955389239,45.9179866205321 15.4662861343129,45.9181733596635 15.4647264248529,45.9182258718516 15.4629553203856,45.9182976648089 15.4615940004693,45.9183493303448 15.4605105322378,45.9184367512094 15.4597844778135,45.9185780606679 15.4593146074212,45.9186915227089 15.4583699754648,45.9188574556492 15.4581073066652,45.9191944860803 15.4576952217187,45.9195321144252 15.457265263578,45.9197190999721 15.454847435165,45.9203427576204 15.4506888318347,45.9212049354523 15.4493283322328,45.9212566315407 15.4480506681435,45.921284862393 15.4435366920467,45.9213372029792 15.4400852826006,45.92142009956 15.4376462736011,45.9214990191541 15.4363182506492,45.9214693659937 15.4350385817809,45.921242552003 15.4342564096156,45.9209791028167 15.4327910204645,45.9203591365143 15.4313585262434,45.9197042957694 15.4303134162142,45.9192431407753 15.4294828291413,45.9188470338994 15.4290818076343,45.9186685847508 15.4286419760739,45.9184722842096 15.4282669502241,45.9183207280225 15.4277757666177,45.9181516099193 15.4276578494691,45.9181234383216 15.4268106308887,45.9179578973593 15.4264470409968,45.917901309049 15.4252325962817,45.9178769517136 15.424111778338,45.9178738287079 15.4230212584172,45.917769267536 15.4221380700103,45.9176348674186 15.4212958478214,45.9174279672835 15.419415081604,45.9171161841162 15.416684574768,45.9169813087283 15.4151165696802,45.9168566375407 15.4113885871779,45.9165515074861 15.4092701775434,45.9163779886895 15.4081388651396,45.9163458637216 15.4077152464797,45.9166081316612 15.407126881819,45.9170303357992 15.4064537738563,45.9172355418903 15.4059873339902,45.9173024338828 15.4058841942185,45.9173897188327 15.406481162754,45.9181264047681 15.4072675644169,45.919202888492 15.4074701603438,45.9199337756344 15.4074646720202,45.9205929723615 15.4073661680661,45.9213846779503 15.4071233108594,45.922129839352 15.4067026303875,45.9227832260091 15.4067393346589,45.9235363888985 15.4067389229015,45.9237623244152 15.4064572567274,45.9240332597319 15.4063043838004,45.9242857409546 15.4064739606507,45.9245550710262 15.4062695806546,45.9248167331442 15.4063356871871,45.9250414423527 15.4061714283004,45.9255009125256 15.4061087359319,45.9257440750899 15.4061749086099,45.9259777818881 15.4060737331485,45.9262480744902 15.4059214431088,45.9265815329352 15.4057042909928,45.9268612348479 15.4055768658726,45.9270686357909 15.4051648025023,45.9271421695969 15.4050384880023,45.9275025280105 15.4050534750965,45.9277724078554 15.4047323798904,45.9279445030589 15.404399042923,45.9282066183225 15.4039878833609,45.9284060233931 15.403705984576,45.9286499592313 15.403720706064,45.9289018446068 15.4033614404368,45.9291460528697 15.4040393619577,45.9289786390412 15.4047856340873,45.9288311340892 15.4056371752428,45.9288860602402 15.4060423575804,45.92892808049 15.4067762736481,45.9285198512373 15.4071061368366,45.9282071739896 15.4074461752863,45.9278582884769 15.4079938779025,45.9275376335188 15.4086781632093,45.9274336936245 15.4094570963887,45.9274888509579 15.410008007731,45.927588280524 15.4105643990483,45.927731146953 15.4109391230194,45.9278746640879 15.4110248861854,45.9282438038856 15.4112862020322,45.9284819343074 15.411484332487,45.928597112264 15.411467482843,45.9291258815356 15.4111534884288,45.9301701222879 15.4108252089563,45.9306783267687 15.4108197070534,45.9313303242674 15.4110807148824,45.9315249069845 15.4111438511415,45.9316405709952 15.41116873275,45.9321982525539 15.4110782658025,45.9325897105667 15.411185676223,45.9330601767944 15.4112838215489,45.9336900264926 15.4114471446756,45.9347107737957 15.4116056504578,45.9350795608159 15.4117747114397,45.9354628859207 15.4119533015202,45.9357743743319 15.4118752136249,45.9359218590349 15.4121016463495,45.9362155391535 15.4123419094054,45.9365827705161 15.4123030021647,45.9366749578945 15.4115530418396,45.9369629798967 15.4111055580596,45.9371210614412 15.4109229386319,45.9374163046043 15.410990596183,45.9376368660899 15.4114562819417,45.9381781145606 15.4121131016062,45.9391023359502 15.4124152708206,45.9393986214195 15.4131159386436,45.9395892722947 15.4136258318928,45.9396187400605 15.4138971560558,45.9399452756755 15.4142025259207,45.9402018647261 15.4148129305683,45.9406689731068 15.4151438897182,45.9408279311674 15.4154869782697,45.9408320829531 15.4160277819494,45.9408024923811 15.4160073486119,45.9423986765609 15.4161577867363,45.9427853916576 15.416445297818,45.942875401448 15.4169541642291,45.9429700917232 15.4176098472044,45.9429673376361 15.4175215779453,45.9432354329544 15.4174334374909,45.9435036176987 15.4174352749607,45.9437656251983 15.4174460940385,45.9441245055383 15.4176378167791,45.9445623548734 15.4178909936609,45.9447160105097 15.4183373171526,45.9449296934391 15.4197738777419,45.9452370071009 15.420177227709,45.9454631675715 15.42056540757,45.9458660080269 15.4208964133038,45.946280484851 15.4215583971846,45.9471378684821 15.4222396370836,45.9483541865881 15.4226657304934,45.9496676300772 15.4223117888012,45.9499910573617 15.4223415968878,45.9504510911473 15.4225688432437,45.9508367035956 15.4226771433898,45.9511860448283 15.4228373024882,45.9514338796467 15.4231961533473,45.9517546700146 15.4234357973031,45.9520390103063 15.4234770799814,45.9522597515495 15.4235216574724,45.9529130012834 15.4237089006188,45.9532436034874 15.4236959620198,45.9535093542973 15.4256979554452,45.9544784374356 15.4272088809619,45.9553101273656 15.4279509549684,45.9557357324757 15.4278551545301,45.9569825454918 15.4278338087707,45.9576453074574 15.4276181185946,45.9587872053552 15.4275271654109,45.9589716389407 15.4270398410275,45.9601911218955 15.4266650821469,45.9606988230592 15.4263868448453,45.9614451421293 15.4257703482563,45.9623307460458 15.4254636373304,45.962933205359 15.4251166000059,45.9631054533272 15.424873599819,45.9633852860187 15.4249792218499,45.9636998131332 15.4251744013496,45.9639150321796 15.4253827597595,45.9641661926661 15.425487904012,45.9644177370887 15.4254896260626,45.9646426733823 15.4251821793097,45.9649317442869 15.4252159952028,45.9651355964982 15.4254457319323,45.9656505800081 15.4260818071446,45.9661520818246 15.4263449209748,45.9665759721958 15.426477860041,45.9670350789274 15.4267610142299,45.9672112766793 15.4270108523837,45.9674845934586 15.4270712023588,45.9676813276772 15.4272747288125,45.9681401695905 15.4275471359458,45.9683607642147 15.4280449215533,45.9688267813482 15.426159354568,45.9692650879711 15.4250319402784,45.9695809668642 15.4240240695022,45.9701425681939 15.4233912681765,45.9704977140996 15.4229448464418,45.9706058998629 15.422580065986,45.9706072492779 15.4223202198412,45.970493219216 15.4222365860473,45.9703211323346 15.4221293403421,45.9701492225821 15.4220577612974,45.9700181205419 15.4219278423521,45.969952917064 15.4217517102974,45.9699532972684 15.4216116527592,45.9701674194353 15.4212125150304,45.9703001676605 15.42066065086,45.9704744162841 15.4202042821499,45.9708207070509 15.419840745863,45.9710210722253 15.4190410744527,45.9710873509595 15.417832181972,45.9715264559493 15.417386481765,45.9717332320928 15.4167641919408,45.9719322827484 15.4162245167818,45.9721528935528 15.4155586944027,45.9728474192837 15.4153244294829,45.9729959230477 15.4149162650568,45.9735144131536 15.4147180816272,45.9737776851979 15.4137822062916,45.9745523597231 15.4127855154269,45.9750481377769 15.4120707952719,45.9754937633554 15.4118843345703,45.9757569881208 15.4114058396339,45.9763002825701 15.411128022204,45.9769495658003 15.411041363127,45.9775687384722 15.4110422738547,45.9776918235556 15.4109862801856,45.9780777557592 15.4108957138987,45.9785704347909 15.4109229047987,45.9790709682297 15.4109026868068,45.9795305526676 15.4110838509389,45.9801537105634 15.411685136227,45.9802747244305 15.4120152890678,45.9803638713882 15.412441429463,45.9806742839425 15.4127029423856,45.9810263189387 15.4132587755566,45.9813854773107 15.4136263237685,45.9817289387858 15.4138175576805,45.9821221649498 15.4141073769191,45.9821313725236 15.4144178227471,45.9821200798349 15.4147363753679,45.9822092609701 15.4152680082261,45.9824700627068 15.415575181902,45.9826249659051 15.4158472457292,45.9827963718091 15.4160973521656,45.9831893798557 15.4163590842899,45.9835659692013 15.4164312270591,45.9837544776307 15.4166684278689,45.9839916916202 15.4166580313663,45.9841886886758 15.4165884168381,45.9843202185584 15.4162368898553,45.9845348343014 15.4161909488802,45.9846909313427 15.4162507260653,45.984813801846 15.4164750161905,45.9848951334964 15.4168048955535,45.9849431481718 15.4171464044205,45.9849584578842 15.4172647308508,45.985040084729 15.4173128892874,45.9851794628361 15.4172076635522,45.9852782815872 15.4165715685029,45.985223016808 15.4155116752693,45.9851774779765 15.4143817400162,45.9851894984901 15.4134995755697,45.9852992261534 15.4129003062561,45.9854572325453 15.4110301215218,45.9856769489595 15.4100189778073,45.9858363308237 15.4077021932449,45.9861643065455 15.4067729487843,45.9862823380854 15.4063729387784,45.9863165126569 15.404657608396,45.9864148252411 15.4049673733575,45.9865367262089 15.4054204382109,45.9867150733463 15.4061637484549,45.9870631633573 15.4067805701224,45.9873580726761 15.4073767509807,45.9876888629599 15.4079468595145,45.9879837525024 15.4085045960168,45.9883506647715 15.4087388369489,45.9885033275093 15.4089715222972,45.9886549156094 15.4093931360014,45.9889402517925 15.4096590799166,45.9891203319263 15.4098915467405,45.989276597709 15.410172081225,45.9894393487852 15.4105121785555,45.9896094432775 15.4109627733087,45.9898145003028 15.4114386687625,45.9900017390582 15.4126265820344,45.990239673519 15.413432229838,45.9903312374215 15.4142514715818,45.9904624260824 15.4146262760214,45.9905240505893 15.4152465363997,45.9906116853169 15.4157115650571,45.9906549830746 15.4164215789173,45.9906613958901 15.4174545664128,45.990702615689 15.4179065539233,45.9907279568163 15.4184099031835,45.9907171174618 15.4193520604656,45.9906956689418 15.4200878232779,45.9906929668292 15.420771748976,45.9906634578412 15.4213653171993,45.9906342779374 15.4222558393755,45.9906129958407 15.4231464979499,45.9906097016338 15.4237658804353,45.9905804136804 15.4242045491416,45.9905517932815 15.4248627234382,45.9905313530571 15.4256755269975,45.9904923378725 15.4265656302912,45.9904170377465 15.4274558696471,45.9903597255126 15.4279978681276,45.9903397016955 15.4285787291409,45.9903375249133 15.428978738086,45.9903179388471 15.4293658394231,45.9902984898512 15.429843087574,45.9902517075233 15.4301914641419,45.9902324013722 15.4306172186219,45.9902038049657 15.4308365532444,45.9902065773939 15.4311723319073,45.9902107096803 15.4315343149423,45.9902813247808 15.4325280208756,45.9902505753089 15.4332364332588,45.9902341256174 15.4334701639379,45.9902290104463 15.4345023804654,45.9901711047301 15.4355729657581,45.9900680551209 15.4368886559256,45.9899460634264 15.4378169617266,45.9898075459267 15.4388356888902,45.9896776713864 15.4397386683581,45.989602219199 15.4407319285956,45.9895174140828 15.4409949587833,45.9894962446509 15.4417895956022,45.9894323513755 15.4423695859371,45.9893221358239 15.4429368815191,45.989238959538 15.4435299182413,45.9891465928919 15.4441099020754,45.9890363685262 15.4448059084384,45.9889076943664 15.4453214211784,45.9888067124237 15.4458234465367,45.9886337993996 15.4462737662286,45.9884520884097 15.4466205334321,45.9882347896751 15.4470446701934,45.9880081895911 15.4473527094116,45.9877910401002 15.4476219516578,45.98756504406 15.4478906111851,45.9872670682735 15.4480818246059,45.9869693955105 15.4482987049963,45.986653626384 15.4484646975109,45.9864460286239 15.448772286291,45.9861748909611 15.4491188112235,45.9859305924784 15.4495432115134,45.985739972691 15.4500848644878,45.985683854749 15.4506268813746,45.9856727211839 15.4513760664939,45.9857417460959 15.451996330604,45.9858292714012 15.4525006539988,45.9859442454802 15.4529791654966,45.9860593196425 15.4533673298866,45.9861747502403 15.4539623026635,45.9863253489237 15.4544149326698,45.9864315221964 15.4549709685589,45.9865552774111 15.455565802089,45.9866878729436 15.4561216213755,45.9867846303958 15.4565612780527,45.9868818492635 15.4568232458033,45.9869377576996 15.4571819324783,45.9870142432462 15.4578937572355,45.9872453329996 15.4582819400207,45.9873607468116 15.4587865131425,45.987502685146 15.4592002166379,45.9875820026885 15.4595492356649,45.9876435835051 15.4599201037503,45.9877248702108 15.4602345923508,45.9877937860276 15.460635541918,45.9878911450771 15.4616691807661,45.9880129416664 15.4621653620352,45.9880288415763 15.4626634811852,45.9880449114401 15.4631021836874,45.9880251392461 15.4635794578992,45.9879872135691 15.4642883330929,45.9878762738853 15.4651776614423,45.9877196970527 15.465822047701,45.987600102624 15.4666469820163,45.9874617721442 15.4671493822249,45.9873427498902 15.4678834281367,45.9871417982339 15.4682441472219,45.9870593418115 15.4691585813161,45.9868216520323 15.4697248208772,45.9866213772749 15.4703940070368,45.9863845953457 15.4710625013753,45.9860669232302 15.4716667593111,45.98578550302 15.4722063240024,45.9854863515652 15.4729900382707,45.985060219858 15.4735036220592,45.984743174404 15.4741461888369,45.9844165938901 15.4747885942134,45.9840720150543 15.4755077367408,45.9836461342066 15.4759056759379,45.9833925427443 15.4767258359329,45.9827232060961 15.477365035242,45.9820097210563 15.4777733062328,45.9814591563024 15.4782578415824,45.9807733056379 15.4786279981793,45.9802948786872 15.4790113642618,45.9798523858755 15.4794598724875,45.9794815999626 15.4799587521855,45.978966637728 15.4803937970938,45.9785329208116 15.4805726794371,45.9783252218995 15.4808280831522,45.9780272238838 15.481247714778,45.9773056424048 15.4814095528145,45.9766211362817 15.4816089299209,45.9758014162904 15.4817204679504,45.9752700822995 15.4820623296104,45.9745128344799 15.4824057444531,45.9739355328958 15.4827111710873,45.9734573653435 15.4829660444848,45.9730873829514 15.4832468004171,45.972726288222 15.4834997095648,45.9721313704362 15.4837530833441,45.9715904362576 15.4840569686562,45.970923319723 15.4843738284164,45.9702651450123 15.4846154591981,45.9698592240465 15.485086199969,45.9690924221572 15.4855946423581,45.9682264832796 15.485811079334,45.9678926483277 15.4863709236322,45.9669904964617 15.4865997021302,45.9665936234653 15.486839881352,45.9660256549835 15.4869914760433,45.9656561030374 15.4871543146323,45.965097551034 15.4872534291864,45.9646292475621 15.4873141020265,45.9642060964494 15.4873361977441,45.9637831097859 15.487332884306,45.9634052200049 15.4873017167966,45.9627935084295 15.4872981670604,45.9623886264478 15.4872703133973,45.962154804643 15.4872678682274,45.961875885915 15.4872629779958,45.9613180484177 15.4872580879083,45.9607602108653 15.4872144952155,45.9602025382658 15.4872245570267,45.9598785775305 15.4872325970013,45.959338680148 15.487267592327,45.9589156381403 15.4872744200838,45.9582227845846 15.4872829039374,45.9577188760353 15.487302316186,45.9569899777833 15.4874121068992,45.9562696917254 15.4875247352525,45.9558733114489 15.487636651761,45.9553959545462 15.487672775539,45.9551168709163 15.4878112779947,45.954729377586 15.4879110798748,45.9543420492971 15.4880623202814,45.95393650577 15.4881502466079,45.9536661983971 15.4883515001359,45.9530804862237 15.4885282160862,45.9526388422041 15.4887065899818,45.9523861431156 15.4889219188211,45.951935335571 15.4891499056302,45.9514574802113 15.4892820017303,45.9511943609204 15.4895808624496,45.9505918525085 15.4897835165337,45.9501680906944 15.4899230227561,45.9498975607012 15.4901637621602,45.9494196484725 15.4905060668099,45.9487433496257 15.4906962854167,45.9483736258445 15.4908739997442,45.9480488541401 15.4911278295063,45.9475798812305 15.4914835657089,45.9469665056774 15.4916992491234,45.9465606796323 15.4920300530104,45.9460463846771 15.492284580787,45.9456583856892 15.4925262872686,45.9452794391072 15.4926790639606,45.9450538370248 15.4936780654242,45.9437383747093 15.4946931653598,45.9425416039014 15.4968376792819,45.9408756353453 15.4987323423586,45.9394490671176 15.5022599618055,45.9375511976609 15.5045039529478,45.9369892108856 15.5076499862764,45.9367120943549 15.5098992820523,45.9367525576608 15.5128840143658,45.9365386409919 15.5155959293061,45.9359996189236 15.5174772491556,45.9351627817421 15.5191223661915,45.9338664813376 15.5214004825079,45.9321913440309 15.524286665102,45.9302939171488 15.5262377940379,45.9292784587191 15.5284644735505,45.9280810176215 15.5316731703196,45.9270726902143 15.5347953871438,45.9266973106395 15.5356203501329,45.9266734718835 15.535022417257,45.9232208573957 15.5344609732702,45.9233188610724 15.5329856734667,45.9221101516312 15.5329139956451,45.922029865816 15.5326465696826,45.921931957098 15.532371276409,45.9219145245539 15.5320602734726,45.9218973475929 15.5317490446417,45.921843010007 15.5313492856756,45.9218199456341 15.5308599336482,45.9217167659707 15.5304140458091,45.9215204354096 15.5301996555517,45.9213726970082 15.5299292282441,45.9209587038119 15.5297483464038,45.9206061996091 15.5297459873445,45.9203583216604 15.5297893907339,45.9202589648891 15.5297074577479,45.9200486166511 15.5295079659242,45.9196095496263 15.5292449262302,45.919021953206 15.529037194177,45.9186510366748 15.5287591997538,45.9183609750511 15.5283928593488,45.9181208990711 15.5280616310604,45.9178310818607 15.527833478158,45.917181416026 15.5274794785267,45.9163649717754 15.5273214841607,45.9156219437492 15.5273414168697,45.9149091368426 15.5274089795893,45.9145432448089 15.5275394350614,45.9142575926207 15.5276526295181,45.9140278062808 15.527703692013,45.9137982167766 15.5276399178692,45.9136250338274 15.5276379797541,45.9134205229532 15.5275101970343,45.9130492341132 15.527381594493,45.9125912101575 15.5272432192559,45.912040193914 15.5271703196437,45.9118422188395 15.5256265012269,45.9119420076892 15.5248910712153,45.9120878231849 15.5233834121566,45.912236993473 15.522531723418,45.9123027059545 15.5211580160793,45.9125380629913 15.5192525400113,45.9128810052627 15.5181266306903,45.9130408778111 15.5172798580742,45.9131104878725 15.5159635283837,45.9131711454574 15.5147739845164,45.9131283720427 15.5134560060517,45.9130105819421 15.5128362705298,45.912944711702 15.512108453093,45.9128861608336 15.5116467964602,45.9129087437424 15.5111171258238,45.9130207971397 15.5105873276207,45.9131191720047 15.5100183459481,45.9132603688332 15.5097520954241,45.9131551129491 15.509410293686,45.9130201406333 15.5091248227843,45.9128144636182 15.5087351665299,45.9124922784412 15.5086517055356,45.9124292155272 15.5083327893341,45.9121881440943 15.5084697319058,45.9115158494977 15.5085638185335,45.9110488951337 15.5085237537513,45.9109667436013 15.5082969826408,45.9108921710355 15.5077358720721,45.9107779641038 15.5075977792901,45.910716852708 15.5070281832694,45.9107604113549 15.5065372756944,45.91081063667 15.5063603738978,45.9107482561531 15.505829374015,45.9104716761645 15.5054151180082,45.9102755575853 15.5052072564051,45.9100965208021 15.5051712794787,45.9097255207179 15.5050421783588,45.9095751083214 15.5045398042269,45.909440021111 15.5040084175613,45.9093461795913 15.5031706564152,45.9090821870077 15.5021362324465,45.9087778426913 15.5007073448041,45.9083379116663 15.4999584068139,45.9081009495552 15.4991650168926,45.9077787875853 15.4979881035645,45.9071882680731 15.4970570855634,45.9067941688234 15.496707812323,45.9066518126809 15.4963837555959,45.9064462713407 15.4958915112084,45.9061694766326 15.4955935572267,45.9059998109709 15.4953213016357,45.9058210353366 15.4934938117969,45.9049642531067</coordinates></LinearRing></outerBoundaryIs></Polygon></MultiGeometry>
  </Placemark>
</Folder>
</Document></kml>
