{"type":"FeatureCollection","features":[{"type":"Feature","geometry":{"type":"GeometryCollection","geometries":[{"type":"Polygon","coordinates":[[[15.4011094954284,45.8014837445168],[15.4012319587285,45.8012495405131],[15.4012560703035,45.8012033931877],[15.4011094954284,45.8014837445168]]]},{"type":"Polygon","coordinates":[[[15.4046995371612,45.7927609594824],[15.4045598739471,45.7930133974483],[15.4046375327544,45.7932933194624],[15.4047183920381,45.793588796573],[15.4048363050325,45.7938853120679],[15.4048338864357,45.7939776398704],[15.4048439050658,45.7940111668227],[15.4048784477149,45.7941273882519],[15.404807587778,45.7943426909358],[15.4046734541392,45.7944887533152],[15.4045078655912,45.7947142890334],[15.4042014331235,45.7950123066296],[15.4041573561318,45.7951429331714],[15.4041132789362,45.7952735596939],[15.4041415414553,45.795624380699],[15.404363076424,45.7960195077139],[15.4048149144821,45.7962428570835],[15.4045204286838,45.7964328574645],[15.4042648559888,45.7966677092653],[15.4041820578582,45.7967804768294],[15.4040992593948,45.7968932443324],[15.4039982384395,45.7971545427262],[15.403911118754,45.7975417634626],[15.4038725929723,45.7976220715599],[15.4037710829457,45.7978337926347],[15.4037347110784,45.7979095940849],[15.40372102572,45.7979383459641],[15.403296203498,45.797894856376],[15.4029482389295,45.7978061043393],[15.4026920700394,45.7979599729405],[15.4023334441737,45.7981771875666],[15.4020140535971,45.7984842427065],[15.4016811492209,45.7987013647623],[15.4015411991705,45.7989178079074],[15.4014923935508,45.7992868960891],[15.4015470807165,45.7997366022664],[15.4015502478081,45.8001774914877],[15.4014370551485,45.8005198119284],[15.4013877306288,45.8008169180652],[15.4012744716547,45.8011682365036],[15.4012319587285,45.8012495405131],[15.4011933801231,45.8013233762289],[15.4011094954284,45.8014837445168],[15.4009441301023,45.8017452658585],[15.4008555586497,45.8018980921047],[15.4007662212954,45.8020518207607],[15.4006779756581,45.802304073206],[15.4007057044395,45.8025829128009],[15.4007979501883,45.8028705240455],[15.4010061739566,45.8032027180326],[15.4012407112625,45.8036158008669],[15.4013716861374,45.8039392674287],[15.4013650749219,45.8040218919252],[15.4013536400379,45.8041673391231],[15.4013480884128,45.8042362829948],[15.4012744513187,45.8047314293835],[15.4011234923142,45.8052088512378],[15.4007531741797,45.8055790669443],[15.4005229523909,45.8057688312858],[15.4003057878001,45.805985543283],[15.3998976996872,45.8064908578251],[15.3994741665545,45.8066363966224],[15.3990872348889,45.8065026894233],[15.3985990501317,45.8066033710126],[15.3982271674854,45.8067757188563],[15.3976622331528,45.8069396495895],[15.3971095218165,45.8070135554938],[15.3962480964191,45.8070975276909],[15.3959024439418,45.8073416706417],[15.3955821378949,45.8075317370617],[15.3955073629851,45.8078739181662],[15.3951625295993,45.8082350294008],[15.3947148286141,45.8085874970203],[15.3945755258782,45.8089029064872],[15.394398067581,45.8092814331359],[15.3939099768518,45.8094000902135],[15.3935501029261,45.8094553180005],[15.3929477310292,45.8097903153437],[15.3927309641039,45.8100699970672],[15.3920108889251,45.8101354554382],[15.3914073659888,45.8103084854731],[15.3908551793139,45.8104633408205],[15.3907673792417,45.8107875672982],[15.3902173852672,45.8112573402473],[15.3900909203136,45.8115547043547],[15.3897081191497,45.8120149059192],[15.3895690306291,45.8123663001419],[15.3895873556366,45.8131490589522],[15.3891369448544,45.8131415958403],[15.3877471119062,45.8131193268491],[15.3862416006191,45.8131154279308],[15.3854437791672,45.8131091240911],[15.3840282758836,45.8130958944015],[15.3830245198235,45.8130812676739],[15.3820208257512,45.8130756298664],[15.380760403318,45.813160818489],[15.3802474336683,45.8134144691835],[15.3798513654445,45.8138296919895],[15.3799049758011,45.814144441783],[15.3799861025175,45.8147020444834],[15.3799895294968,45.815205917846],[15.3797344407273,45.8155396897167],[15.3794159268524,45.8160086407313],[15.3791208231308,45.8161355914274],[15.3786087943968,45.8165331985407],[15.378521035813,45.81687541099],[15.3787546722062,45.8171715687575],[15.3785263465325,45.817640218166],[15.3785923945909,45.8178919415989],[15.3781727393184,45.8186312520977],[15.3784438284221,45.8187563256649],[15.3799995570792,45.8185531178422],[15.3801042799281,45.8188137996517],[15.3803268409221,45.8193709310758],[15.3800982746905,45.8198035925087],[15.3797654641067,45.8200656392216],[15.379110259733,45.8202297777998],[15.3783385621588,45.8202953211287],[15.3781726694364,45.8205028227703],[15.377866009426,45.8208277628935],[15.3773797276524,45.8212342769478],[15.3770214613841,45.8215413893277],[15.3764830236119,45.8218490943524],[15.3759707422202,45.8222196962747],[15.3761788384188,45.8225249409982],[15.3760016971755,45.8229754205348],[15.3758858049355,45.8233290605348],[15.3755815462542,45.8236517369794],[15.3751346782784,45.8241840826975],[15.3746362623482,45.8247075977124],[15.3746507014084,45.8249414964574],[15.3746142122346,45.8252385476519],[15.3749871371425,45.8251923347759],[15.3753220564669,45.8252362247844],[15.3756074330971,45.8255682102952],[15.3757772248727,45.8259365669544],[15.3758202300007,45.8262261586844],[15.376025693709,45.8265206146251],[15.3762972408287,45.826708677076],[15.3765058335963,45.8271038985618],[15.3765846330527,45.8273375848763],[15.3766253146748,45.8276253843065],[15.3767043581588,45.8278950613997],[15.3768474516579,45.8281195375975],[15.3769776757039,45.8283440560668],[15.3770828885679,45.8286766319676],[15.3772522133613,45.8289730044197],[15.3773828058844,45.8292515086953],[15.3774030592189,45.8296391621421],[15.3779330856278,45.8295236765907],[15.3783095253774,45.8294984964156],[15.3786261555182,45.8294794518279],[15.3792331525787,45.8293457993058],[15.3794308824385,45.8294827210718],[15.3798184622576,45.8298465689488],[15.3803867386167,45.829999352782],[15.3812092339617,45.8303417718656],[15.3817649334656,45.830536341129],[15.3822006032405,45.8309648951622],[15.382370124398,45.8313413407168],[15.3826615370383,45.8317545392484],[15.3828230321832,45.8320672157394],[15.3827789229292,45.8322797143076],[15.3825982075786,45.8325246129353],[15.3827212434204,45.8327471692188],[15.3828366670632,45.8329857671525],[15.383113290199,45.8333803882853],[15.3830605307249,45.8335328098577],[15.3829316057235,45.833840880629],[15.3828489102409,45.8340767230777],[15.3828151435345,45.8342020871446],[15.3826071227639,45.8343328037024],[15.3823744603715,45.8345495323955],[15.3822725597703,45.8347069768793],[15.3821793826509,45.8347661349036],[15.381787841221,45.8350161460695],[15.3816020281905,45.8352328065965],[15.3815843528047,45.8353964476302],[15.3813236653206,45.8356198362014],[15.3811284510754,45.8358364373289],[15.3809056652581,45.8361252032784],[15.3807116968904,45.8365249969344],[15.3809003810261,45.8367468863797],[15.381117128912,45.8369686819052],[15.3814180603073,45.837170580599],[15.381841861735,45.8375505864319],[15.3821293113319,45.8381704810163],[15.3823129822045,45.8386737493238],[15.3820071092595,45.83912466754],[15.3815290831734,45.8388743233375],[15.380616447714,45.8390753208574],[15.3807865656275,45.8394616639357],[15.3809175076227,45.8397851520185],[15.3809840231645,45.8400998568597],[15.3809729921122,45.8403698307093],[15.3807440944956,45.8407844971316],[15.3804799713334,45.8409801814746],[15.3802188562987,45.8411641579195],[15.3798856746474,45.8413902136132],[15.3794239983019,45.841652686671],[15.3791423054149,45.8418785691944],[15.3788477975417,45.8421134914022],[15.3786301029484,45.8422851730456],[15.3784394968522,45.8426547183266],[15.3784028271305,45.8429427725115],[15.3783661027953,45.8432038331582],[15.3783041110539,45.8435549564087],[15.3783458440186,45.8440137109649],[15.3782964816382,45.8443288007604],[15.3782216138816,45.8446799665241],[15.3781596190409,45.8450309996364],[15.3780724844966,45.8454721847956],[15.3779074304561,45.845814650753],[15.3778581859101,45.8461477356553],[15.3774865841772,45.8464099027614],[15.3773342840558,45.8467163341313],[15.3771296850223,45.8469239610953],[15.3770410197203,45.8471402030925],[15.3769323613787,45.8472939756228],[15.3768752253095,45.847374695209],[15.3769673559727,45.8476713216999],[15.3766460866158,45.847762360027],[15.3763388441966,45.8480243111636],[15.3761111545524,45.8486279194309],[15.3760616543622,45.84892501268],[15.3754314883227,45.8490350595365],[15.3753538805284,45.8491738819748],[15.3753919641589,45.8492653553679],[15.3755329637624,45.8493434436265],[15.3760019973241,45.84947282047],[15.3762280861208,45.8496814571282],[15.3762964505146,45.8501196990479],[15.3763814923229,45.8502241543613],[15.3763068211745,45.8502637210588],[15.3761102132357,45.8502839837572],[15.3757924147938,45.8503766278345],[15.375624488584,45.8504687784557],[15.3756529986076,45.8505341893426],[15.3758779409295,45.850553065013],[15.3761871792716,45.8505847996673],[15.3761973318138,45.8507155955024],[15.3762547060225,45.8508986935254],[15.3763864882282,45.8510029949059],[15.376592148152,45.8509499496],[15.3766493028255,45.8511002958395],[15.3768000174852,45.8512241497216],[15.3770909033185,45.8513213570664],[15.3771668141976,45.8514650726832],[15.3771776771677,45.8517006014394],[15.3772350556236,45.8518836989253],[15.377189027434,45.8520082016251],[15.3771336432791,45.8521392136591],[15.3772467596929,45.8522435756298],[15.3774149538831,45.8521906525403],[15.3776032800836,45.8523537018555],[15.3779309732386,45.8523329131368],[15.3780531404617,45.8524044920764],[15.3782596469215,45.8524757917263],[15.3783529864269,45.8524166365502],[15.3784932876932,45.8523899880685],[15.3786337708461,45.8524091380369],[15.3787560678952,45.8524807157939],[15.3788215190317,45.8524674518967],[15.3790374754191,45.8525649026505],[15.3790855893799,45.852747939933],[15.3791427080041,45.852891716545],[15.379368600365,45.8530676852089],[15.3798099601387,45.8532495058907],[15.3799885350705,45.8533405106261],[15.3800363463398,45.8534974546346],[15.3801868567206,45.8536081677728],[15.3805066745438,45.8538100054546],[15.3810322556934,45.8539914509285],[15.3810798415581,45.8540960275703],[15.3812675583514,45.8541673844267],[15.3815016541587,45.8541666030956],[15.3816321498884,45.8540614320086],[15.381726165495,45.8541200540922],[15.3817735341149,45.8542114942635],[15.3820360090591,45.8542368008497],[15.3821954772162,45.8542820667904],[15.3823371266996,45.8544517428336],[15.382462598282,45.85457180455],[15.3826379969391,45.8547053757273],[15.3829001537092,45.8547777403022],[15.3833715577229,45.8548494024333],[15.3838595083141,45.854799175748],[15.3841732749514,45.8547738270025],[15.3848367123019,45.8548693115328],[15.3849594176722,45.85494214095],[15.3852555038739,45.8548924645432],[15.3854131448466,45.8549894699552],[15.3859353160139,45.8548415819656],[15.3861091609898,45.8547679318937],[15.3863535565931,45.8548037271895],[15.3865462245114,45.8549007025825],[15.3866689717725,45.8549978242962],[15.3869485187091,45.8550701207326],[15.3872269660107,45.8549838775795],[15.3874720850468,45.8551050579038],[15.3876807397516,45.8550190502857],[15.3879083475124,45.8551402890836],[15.388031735203,45.855310559911],[15.3884855531095,45.855370113521],[15.3890792557024,45.8554535733588],[15.3894477298006,45.8557571662338],[15.3897281796957,45.8559392268952],[15.3899208983984,45.8560604906771],[15.390269310319,45.8559984755874],[15.3905996966554,45.8558633683049],[15.3910181976448,45.8558620269571],[15.3916995144522,45.8560061789412],[15.3921183172422,45.8560293067575],[15.3926762347604,45.8560031865624],[15.3928330332525,45.8559782633726],[15.3930268326724,45.8562336765565],[15.3933769608432,45.8564153985889],[15.3937623754729,45.8566336193115],[15.3940614752991,45.8569739676707],[15.3946388116217,45.85721599762],[15.3950056876907,45.8572879726838],[15.3952152025383,45.8573238695853],[15.3953210181423,45.8574820461242],[15.3954432237267,45.8574816232753],[15.3955287189993,45.8572619591598],[15.3958419329717,45.8571756646769],[15.3960691340822,45.8572358829878],[15.3961221501243,45.8573209990777],[15.3960015002722,45.8575042540965],[15.3961430811513,45.8577841371483],[15.3964493165634,45.8579659119012],[15.3962375244176,45.8583169337722],[15.3960046705014,45.8588216219253],[15.395722691142,45.8592821201834],[15.3956088576033,45.8596283025865],[15.3955144412742,45.8604428468295],[15.3957699546072,45.8614422553667],[15.3971580304334,45.8627665144466],[15.3986316197762,45.863846705907],[15.3988281299907,45.8644556255704],[15.3984822835024,45.8648467096115],[15.3969842590285,45.8651318473147],[15.3946124029491,45.8651880214555],[15.3925366339522,45.8652067782557],[15.39115694381,45.8649794545514],[15.3893387966537,45.8644487613042],[15.3882707463841,45.8639156727635],[15.3861950212299,45.8639342242455],[15.3846101480985,45.8642560245825],[15.3836915366656,45.8650511047797],[15.3837139222816,45.8657214603698],[15.3843450136552,45.8684866313103],[15.3844605843697,45.8699490241105],[15.3833371860857,45.8713785982996],[15.3826328223912,45.8728556170354],[15.3826920378539,45.8737696903066],[15.3829235688697,45.874415050213],[15.3827163850019,45.8747081743785],[15.3821245818714,45.8748928112439],[15.3815650900467,45.874736048784],[15.3813353699247,45.8743345218246],[15.381056900006,45.8744328974799],[15.3807448147061,45.874701983667],[15.3805720280895,45.8749219267885],[15.3806080182322,45.875080259015],[15.3806093122757,45.8752509438687],[15.3805070896234,45.8755803355671],[15.3803166975912,45.8757881897983],[15.3801439427761,45.8760324263079],[15.380163169855,45.8762639668934],[15.3800081822715,45.8765448552746],[15.3801320090311,45.8767760479482],[15.3805166359187,45.8768846314832],[15.380971795529,45.8770782781557],[15.3811996452634,45.8772238232353],[15.3817400107555,45.8771612838794],[15.3822115194554,45.8772208031112],[15.3827013014657,45.8773899429176],[15.3828774874722,45.8776088101278],[15.3834203761123,45.8778753954877],[15.3840846750193,45.87805618071],[15.3841207223358,45.8782023644658],[15.3842431808133,45.8782507210623],[15.3846270690541,45.8782496095204],[15.3860620686956,45.8788302599827],[15.3863244282968,45.8789148527974],[15.3866906313772,45.878889319983],[15.3869011972377,45.8790471492034],[15.3874611706363,45.8792647991801],[15.3881066215387,45.8792506416754],[15.3881775062072,45.8793844687332],[15.3883348826594,45.8794327922924],[15.3885437121106,45.8793590199514],[15.3886307557202,45.8793343398027],[15.3888232137187,45.8794069275221],[15.3889455941428,45.8794431322507],[15.3891543373911,45.8793571220234],[15.3892953884811,45.879539567684],[15.3893656365928,45.8796002437234],[15.3896097174482,45.8795751176117],[15.3899966262702,45.8796545983855],[15.3902662035487,45.8797014565543],[15.3906327994922,45.8796212028979],[15.3908514038319,45.8795638589742],[15.3910574257783,45.8797513889352],[15.3912248673182,45.8798199192072],[15.391358896432,45.8799552376661],[15.391231778402,45.8802723069394],[15.3913042417645,45.8803911902168],[15.3917063536439,45.8803780253626],[15.3918692625941,45.8804611467202],[15.3920056024631,45.8807414116681],[15.392252285999,45.8809025262522],[15.392388770072,45.8809283313564],[15.3926585343904,45.8809822915226],[15.3928489699549,45.8810588384411],[15.3931229238413,45.8810856096348],[15.3932900354507,45.8811064494578],[15.3934842579352,45.8810987625158],[15.3937057409663,45.8810837830534],[15.3937809537844,45.8811168158942],[15.3938570368181,45.8812547604797],[15.3939895652588,45.8813404129276],[15.3941774637869,45.8813310370225],[15.3944246363587,45.8812322876536],[15.3947326806131,45.8811972121435],[15.3949822933288,45.8812248727651],[15.3952191257653,45.881067131596],[15.3955564578968,45.8810565166637],[15.3957738191501,45.8809510292037],[15.3960134464033,45.8809332830725],[15.3962418005678,45.8808883120779],[15.3964836340951,45.8808728967481],[15.3966298200278,45.880795367934],[15.3971067275816,45.8810998180819],[15.3972125069189,45.8812457552871],[15.3974921119268,45.881305788363],[15.3989050510405,45.8812403992286],[15.4008512693272,45.881289645178],[15.401070448977,45.8812949046571],[15.4037200356665,45.8812655091663],[15.404789998879,45.8812683823609],[15.407611831217,45.8812744576495],[15.4095641903582,45.8796509248432],[15.4091911453587,45.8718459989026],[15.4142007035568,45.871815893061],[15.4191730678296,45.8717907428345],[15.4240728221714,45.8717712243905],[15.4270416293491,45.8717897710038],[15.427527197386,45.8713978083597],[15.4278275136947,45.8711039841364],[15.427942575846,45.8709409620352],[15.4280333297132,45.8706317257344],[15.4282385183042,45.8700782186264],[15.4286363722136,45.8693711149417],[15.4285891942983,45.8688804587281],[15.428552384936,45.8684986376666],[15.4284693682142,45.8677521266067],[15.4283578398861,45.8666638035198],[15.4282616731101,45.8658813499118],[15.4285437015856,45.8657093331523],[15.4291991531501,45.865526915836],[15.4298933069389,45.8653533470207],[15.4307285002064,45.8650982616456],[15.4316153408265,45.8648609708118],[15.4323864731185,45.8646511045748],[15.4333889992983,45.864386368547],[15.4342629383729,45.8641491060615],[15.4348926762089,45.8639936573686],[15.4355609653135,45.8638111546366],[15.4362034927138,45.8636287463342],[15.4366056740844,45.8635260743208],[15.4370261049229,45.8634186522036],[15.4377073292486,45.8632450852924],[15.4383113488903,45.8630808083516],[15.4390696234436,45.862879944124],[15.4401107209286,45.8626150008106],[15.4404441386384,45.8624337587585],[15.4407130914475,45.8622437665071],[15.44046705325,45.8620737556488],[15.440130229836,45.8618231131419],[15.4396894751054,45.8614738930178],[15.4392229568395,45.8611067744637],[15.4386786107415,45.8606679698182],[15.4389220884813,45.8605140710097],[15.439203915179,45.8603240327943],[15.4395748921875,45.8600076807382],[15.4399973049723,45.8596821315391],[15.4403839211545,45.8597166336778],[15.4411055015954,45.8597678376866],[15.4396286236966,45.8581812654133],[15.4385452020809,45.8565249603422],[15.4382145942523,45.8560929808366],[15.4388261032845,45.8558594785369],[15.4394023455956,45.855596055655],[15.4397515603639,45.8555778862136],[15.4401130778156,45.8555848623845],[15.4408727631775,45.855657695986],[15.4415703248336,45.8555117562221],[15.4417399393304,45.8556121468356],[15.4420408601707,45.8555772410704],[15.4426533404145,45.8553390356075],[15.4433258766177,45.8550752198402],[15.4437462520869,45.854921883842],[15.4439388140561,45.8548958518335],[15.4442259492056,45.8546504434391],[15.4444054671764,45.8545065891005],[15.4447564798108,45.85469885782],[15.4450955877962,45.8548997198146],[15.445541847093,45.8549569167812],[15.4456363474896,45.8547290818299],[15.4458516467617,45.854551343612],[15.4460546328651,45.8543315429606],[15.446512948008,45.8538682515496],[15.4469403744035,45.8534721133165],[15.4473106381018,45.8532063966243],[15.4476403414212,45.8529733199851],[15.4479910879474,45.8528756680282],[15.4484035586045,45.8529280374653],[15.4487880341571,45.8527015809443],[15.4490833880484,45.8526014438079],[15.4497658205225,45.8525987597116],[15.4501646887232,45.852561197483],[15.4504595308954,45.8523980736046],[15.4507286193458,45.85223505055],[15.4510371341567,45.8521708479826],[15.4514997230139,45.8520520485776],[15.4519102960762,45.8518704678216],[15.4520747514412,45.8519211952312],[15.4525428204168,45.8520658280245],[15.4529175377538,45.852226305317],[15.4532777731397,45.8521888853401],[15.4534833643871,45.8520249379315],[15.4536743680716,45.8518723854032],[15.4540986872454,45.8517987168377],[15.4547556509755,45.8518320956939],[15.4547269661254,45.8514722943802],[15.4545313369065,45.8511671445605],[15.4545164823102,45.850924260681],[15.4544113518765,45.8506637400558],[15.4542159646949,45.8504035781351],[15.4540724297845,45.8501702034963],[15.4541724313666,45.8498008926012],[15.4545192617998,45.8497005367422],[15.4547512236384,45.8495667149907],[15.4550062528683,45.8494196639932],[15.4553513907417,45.8491123608569],[15.4557384571099,45.8492097945328],[15.4560166271742,45.8491061987643],[15.4560864619639,45.8488915902808],[15.4560322829814,45.8487531490167],[15.4559133927844,45.8485423529504],[15.4557283768955,45.8484169405601],[15.4555705600476,45.8482795422124],[15.4556495296671,45.8479221009903],[15.4556264470661,45.8475865716276],[15.4558495126512,45.8473265426217],[15.4560583484473,45.8470585618375],[15.4562455469104,45.8467112156469],[15.4562958466516,45.8465171101652],[15.456341859158,45.8463025965545],[15.4565505215753,45.8459826976558],[15.4566677254004,45.8457203005542],[15.4567466529473,45.8453747358035],[15.4566670329531,45.8452108424197],[15.456168495751,45.844624911146],[15.4560773263833,45.8442919929294],[15.4561691362367,45.8439786795297],[15.4563996879634,45.8437072820427],[15.4565195145469,45.8433567850732],[15.4566810464524,45.8431157157069],[15.4569905864037,45.8427591510632],[15.457228006755,45.8424943828215],[15.4574098651358,45.8422364949526],[15.4577418544611,45.841996901055],[15.4580058074144,45.8417815133316],[15.4582653164536,45.8414327938928],[15.4584064361527,45.8411846055432],[15.4584418841267,45.8409392704569],[15.4583904110148,45.8406911348129],[15.4584183571616,45.8405512852468],[15.4586715506726,45.8403593336465],[15.4586806277452,45.8403673053448],[15.4591835529554,45.8401735400472],[15.4595618945951,45.8400779909106],[15.4600164730919,45.8399544200754],[15.4605527548689,45.8397321710378],[15.4607709627066,45.8394984255207],[15.4610185785333,45.8388820599141],[15.4610165937909,45.8386417338199],[15.4609595635126,45.8383920920084],[15.4607460713041,45.8378708044552],[15.4608390548167,45.8376884917664],[15.4610199501855,45.8374270026483],[15.4612726131528,45.8372359471059],[15.4617718245509,45.8369711917839],[15.4619359701158,45.8368486966067],[15.461993317405,45.8367629846062],[15.4620550416563,45.8365373373658],[15.4622446664184,45.8363984524823],[15.4626219091314,45.8362827422681],[15.4630061192037,45.8362002048666],[15.4632269598893,45.8361470319261],[15.4634704829287,45.8359575381759],[15.4637919000269,45.8356615523956],[15.4639981131043,45.8354749982901],[15.4641669665885,45.8353005627995],[15.4644884316849,45.8350421861065],[15.4647785058002,45.8346935071543],[15.4650936184407,45.8344922913236],[15.4653612620181,45.8343103435315],[15.4656082786232,45.8341094035809],[15.4660309779417,45.8337363364085],[15.466122334572,45.8336549825306],[15.466356065572,45.8336517793408],[15.4665163411969,45.8333765986724],[15.4665235707456,45.8331942713766],[15.4665346744684,45.8330904800667],[15.466465993807,45.8329584910954],[15.4664526400245,45.8328083703807],[15.466577691291,45.8326620935681],[15.4668267984047,45.8324970440765],[15.4671948604708,45.8323652499126],[15.4674020871835,45.8323025867332],[15.4674890074854,45.8321069763319],[15.4676241588833,45.8319683952413],[15.4679620093052,45.8316266208328],[15.4680797802338,45.8314571575299],[15.4682372032756,45.8311351968434],[15.4684748573867,45.8310485625249],[15.4687490345278,45.8308355370705],[15.4691358852393,45.8306745062715],[15.4692317828378,45.8303075372187],[15.469293722592,45.8299739998448],[15.4692911109326,45.8296479258931],[15.4692070016592,45.8293650167217],[15.4691134246301,45.8291653771299],[15.4690457550676,45.8288780813179],[15.4689854473029,45.8285017657717],[15.468847159306,45.8282500314986],[15.4686000088107,45.8280010830119],[15.4684116263505,45.8278685061846],[15.4681821783816,45.8277195411318],[15.4680558384058,45.8275720428635],[15.4679483167995,45.8274277066384],[15.4679408249804,45.8272709034802],[15.4678808752041,45.8270283849411],[15.4677561290721,45.8267789332937],[15.4675326594535,45.8265131493485],[15.4673815480898,45.8263733099183],[15.467056841874,45.8262366094382],[15.4666438148983,45.8259266987438],[15.4664602811111,45.825741460974],[15.4663916816045,45.8255872465769],[15.4663488488825,45.8254515526852],[15.4663579220848,45.8253205058158],[15.4664083988912,45.8252465167713],[15.466407663267,45.8251584300519],[15.4663523099792,45.8250491511902],[15.4661977204894,45.8248926781867],[15.4660662454035,45.8246527898636],[15.466064735474,45.8244718476559],[15.4661074576837,45.8242860460926],[15.4661600771831,45.8240525150978],[15.4661587059101,45.8238882184786],[15.4660239076217,45.8236507730643],[15.4659674347978,45.8234224559215],[15.4659039529422,45.8231561060693],[15.4660687324763,45.822915009317],[15.4661971836194,45.8227931031927],[15.4662626582597,45.8224809676844],[15.4662063246166,45.8222692962218],[15.4661197110986,45.8220840222171],[15.4661112416684,45.8218864621414],[15.4661471014837,45.8216959195674],[15.4662850901797,45.8215144080814],[15.4665140967724,45.8212135721482],[15.4665672288437,45.8210419445418],[15.4666096875402,45.8208251008767],[15.4666929403715,45.8206081805542],[15.4667664037784,45.8204364697935],[15.4667979597166,45.8201316707528],[15.4667505134002,45.8193510235768],[15.4666558757659,45.8190521387016],[15.4664808938345,45.818871184831],[15.4661279891699,45.8186036766483],[15.4659185783948,45.8183985679132],[15.4660619440943,45.818106629944],[15.4660261925829,45.8180014098885],[15.4661133209543,45.8177248177292],[15.466188072794,45.8175226889577],[15.4663072907697,45.8173598796315],[15.4663454634022,45.8172618262414],[15.4663835402739,45.8171677323218],[15.4665031422131,45.8170048312343],[15.4666491860327,45.8168802432416],[15.4667021000042,45.8165444038871],[15.4668758902112,45.8163525776089],[15.4669745631176,45.8161339742725],[15.4671230946023,45.8158917723688],[15.4671273004593,45.8157945773851],[15.4670794129267,45.8157461842552],[15.4669936992066,45.8157446450367],[15.4668864250649,45.8156422369264],[15.4669847890982,45.8153868332243],[15.4670640794961,45.815251180056],[15.4671030816129,45.815160321341],[15.4672517702879,45.8150603760929],[15.4673362330503,45.8150355562563],[15.4673448359972,45.8149564291347],[15.4672706039946,45.8148659434657],[15.467498965537,45.8146764124245],[15.4677418832766,45.814535050322],[15.4679437722827,45.8142885797688],[15.4679120419455,45.8140797774042],[15.4679222062814,45.8139567338532],[15.4679807039975,45.8138125271335],[15.4679798112437,45.8136137661445],[15.4682697561638,45.8134650119153],[15.4683460395528,45.8133090347727],[15.4684808069157,45.8132530549371],[15.4687485840685,45.8130083822665],[15.4692595940414,45.8129373604562],[15.4693234930537,45.8129005663416],[15.4693331416966,45.8128390707234],[15.4694611535537,45.8126837801243],[15.4695451506271,45.8125887765578],[15.4696338111248,45.8125128294119],[15.4697154876843,45.8124479783838],[15.4698894937209,45.8124069521186],[15.4700347445378,45.812373962077],[15.4700827988624,45.8123351631847],[15.4701025878423,45.8122708364122],[15.4702455215218,45.8119014223037],[15.4704158453151,45.8118206394485],[15.4705309836644,45.811741613259],[15.470579772418,45.8116678990824],[15.4705774840046,45.8116253482028],[15.4705883087289,45.8114897944897],[15.4707017498295,45.8113315931481],[15.4707534882058,45.8112567869867],[15.4707597396832,45.8111893665788],[15.4707851554375,45.8110141617349],[15.470801671104,45.8108821837191],[15.4707883361005,45.8107655352335],[15.4707429146945,45.8104140824167],[15.4707384336369,45.8103709107078],[15.4707341483067,45.8102440572357],[15.47072424826,45.8098325316654],[15.4707262202502,45.809745873253],[15.4706345699052,45.8095272406097],[15.4706094826184,45.809466427795],[15.4705089886943,45.8092211975208],[15.470499531959,45.8091982916792],[15.4704772294067,45.809147275135],[15.4704495041173,45.8090787349027],[15.4702800374585,45.8088934448129],[15.4701756494932,45.8087814899588],[15.4701607194969,45.8086891423989],[15.4700802407578,45.8085438866152],[15.4700649901181,45.8085051681708],[15.4700383403354,45.8084573187035],[15.4699389396893,45.8082803778703],[15.4699263781489,45.8082554152175],[15.4699154106654,45.8081446055112],[15.4699651749389,45.8080647689283],[15.4700268489915,45.8079630182977],[15.4701399085768,45.8078671748209],[15.4700971700152,45.8077573956421],[15.4700516337142,45.8076362005501],[15.4700316828421,45.8075740167646],[15.4699878957958,45.8074619023839],[15.4699956198118,45.8073706313305],[15.4700029956718,45.8072838606857],[15.4700103858879,45.807198799592],[15.4700214806354,45.8070646843903],[15.4700354163416,45.8069318172115],[15.4700443094603,45.8068418910306],[15.4700647973616,45.806662027548],[15.4700726732632,45.80655824869],[15.4700848643889,45.8065392128426],[15.4702224011349,45.806279325751],[15.4703172793343,45.8060873687116],[15.470335765878,45.8060520206169],[15.4704782233845,45.8058267550824],[15.470579061415,45.8056704951692],[15.4706220403695,45.8055950052308],[15.47064093752,45.8055626247191],[15.4706605522729,45.8054779631015],[15.4707005133491,45.80530386792],[15.4707298901149,45.8051409737958],[15.4707386258958,45.8051089050666],[15.4707384968781,45.8050783125326],[15.4707069266331,45.8048738289689],[15.4706932139833,45.8048037913438],[15.4707648996715,45.8046387433457],[15.4708924431334,45.8043236490483],[15.4709183082792,45.8042632561053],[15.4709302175876,45.8042261354183],[15.4709946452187,45.8039633093247],[15.4710226285901,45.8038337132917],[15.4710309277765,45.8038262107702],[15.4711113441963,45.8037051265714],[15.4712134972815,45.8035529097003],[15.4713161864044,45.8034032999319],[15.4714156838553,45.8032566725634],[15.4715380968685,45.8030662204332],[15.4716092748234,45.8029635298395],[15.4716866058182,45.8028429978299],[15.4717589955519,45.8027162775718],[15.4719050336384,45.8024748889838],[15.4719837984132,45.8023414837512],[15.4720027602648,45.8022865178362],[15.4720552889537,45.8021389141626],[15.4721194073269,45.8019469925832],[15.4722708005596,45.8017916918995],[15.4725157527389,45.8015489938084],[15.4726020767502,45.8013666079292],[15.4726796379846,45.8012129617436],[15.472766191377,45.8011338714399],[15.4730753981915,45.8008685013003],[15.4732081294821,45.8007736529708],[15.4733209428624,45.8006510832778],[15.4734005132592,45.8006135020432],[15.4734448102872,45.8005882141732],[15.4737503772735,45.8004405506832],[15.4738179474508,45.8003835833011],[15.4739196916709,45.800290932164],[15.4740251203233,45.8001928668684],[15.4740735708305,45.8001113242189],[15.4742383544373,45.7998069589543],[15.4743249984836,45.7996935848111],[15.4746159074103,45.7993051941668],[15.4746375873873,45.799267762535],[15.4746427079646,45.7992496553446],[15.4747160091021,45.7990346592588],[15.4749409671264,45.7987881697878],[15.4751607691892,45.7986315010536],[15.4753060965297,45.7985213013145],[15.4758504548107,45.798243697626],[15.4759192256905,45.7980563433694],[15.4758680305416,45.7980265033737],[15.4754204797205,45.7978129550166],[15.4752046678177,45.7977121756993],[15.4748578542271,45.7974996457915],[15.4748201090934,45.7974781175393],[15.4747926867493,45.7974603255282],[15.4747720435218,45.7974531229495],[15.4745452473406,45.7973612960155],[15.4734515707995,45.796920883316],[15.472827246388,45.7967171450719],[15.4723636639573,45.7965675366529],[15.4721442223418,45.7964317644215],[15.4716465956928,45.7961191604828],[15.4712803896442,45.7958923029498],[15.4711857574573,45.7958515724917],[15.470732918538,45.7956779785166],[15.47020943407,45.7954550946462],[15.4699642747308,45.7953498371949],[15.4694005187715,45.7951557288065],[15.4686411352938,45.7951325719088],[15.4680547128603,45.795118779303],[15.4677786371285,45.7951151409707],[15.4670651789195,45.7949382800965],[15.466815753984,45.7948757737063],[15.4664073069134,45.794778374007],[15.4661037046954,45.7946665983296],[15.4654670439116,45.794442624673],[15.465429457787,45.7944240619929],[15.4653936469931,45.7944024327569],[15.4649486065558,45.7941730865735],[15.4647403580568,45.794065238233],[15.4638573935455,45.7938579136277],[15.4635108949074,45.7936907876588],[15.4628851391641,45.7935850787582],[15.4626321719592,45.7935439927613],[15.4621999924271,45.7936700938934],[15.4620424233104,45.7937169807917],[15.4617303278799,45.7938677888184],[15.4615502934169,45.7939513875878],[15.4612273378575,45.79411141604],[15.4611406128727,45.7941547764209],[15.4596268635805,45.7946989547979],[15.4578835674144,45.7950030673937],[15.4574312661652,45.7948578521324],[15.4566278412928,45.7945913064605],[15.4565607869637,45.7945709690527],[15.4559150075783,45.7947067177131],[15.4557806044209,45.7947561129396],[15.4555965995928,45.7948274809024],[15.4554341158075,45.7948879652163],[15.4547681476318,45.795072736844],[15.4544326327991,45.7950992660837],[15.4544049143401,45.795139057395],[15.454154487376,45.7951890920287],[15.4534851312213,45.7953694606252],[15.4531859068964,45.7953189094742],[15.452491751141,45.7953283190999],[15.4514028409319,45.7948782284804],[15.450520315293,45.7948804519492],[15.449621360143,45.7947751174625],[15.4491669661525,45.795199089665],[15.4486313619042,45.7952819957565],[15.4478970217887,45.7950924100486],[15.4476928886086,45.7950610872989],[15.4469232283584,45.7952314627516],[15.4464410162621,45.7954932094189],[15.4457027296709,45.7956147750035],[15.4450352116699,45.7958362076483],[15.4446835400883,45.7958056340468],[15.4444144411752,45.7956280712416],[15.4438978884636,45.795438692302],[15.4436514850976,45.7953000907261],[15.4432348403477,45.7953484072274],[15.4420369457606,45.7956168684462],[15.441607359578,45.7956069222014],[15.4409831095939,45.795298183236],[15.4404438056274,45.7953539813167],[15.4400050810874,45.7954247761067],[15.4397792553249,45.7954152978541],[15.4394896545003,45.79532742218],[15.4391315696916,45.795003612149],[15.4390237723012,45.7946100050442],[15.4383760747827,45.7942441147474],[15.4379996247404,45.7939879463769],[15.4375151591817,45.7939163790053],[15.4372106995659,45.7939008081851],[15.436214211352,45.7939839790463],[15.4358774901988,45.7941200537636],[15.4352598818948,45.7947573953282],[15.4346059381293,45.7951239426754],[15.4338308445892,45.7953619153588],[15.4334039935029,45.7953558869943],[15.433261833034,45.7952867818206],[15.4331135321861,45.795222018773],[15.432958765403,45.7951527810463],[15.4328164933909,45.7950857452731],[15.4326218149417,45.7950782943966],[15.4325683846467,45.7950721081261],[15.4324304627907,45.7950684911262],[15.4322230001372,45.7950546094112],[15.4320596891518,45.7950446994413],[15.4319841515298,45.7950407560061],[15.4316138716329,45.795147521624],[15.4314195655949,45.7952216789235],[15.4301742112906,45.7954143420289],[15.4293940562968,45.7954652357711],[15.4292420793164,45.7955242936422],[15.4286776903461,45.7955984862819],[15.4285033586815,45.7955102402221],[15.4281048348908,45.7954407400832],[15.4276651759142,45.7951728972099],[15.4273789849915,45.7949394808219],[15.4271510355255,45.7948030241239],[15.4265412270043,45.794942431369],[15.4258769711665,45.7952295151135],[15.4253192301001,45.7956535976012],[15.4249181319656,45.7960743055311],[15.4246868745941,45.7961626256163],[15.424185806398,45.7961410022114],[15.4221387322081,45.7962799540005],[15.4208907094747,45.7960913716064],[15.420156876908,45.7960266776076],[15.4195241827624,45.7956402899608],[15.4186870953688,45.7950815269113],[15.418518373748,45.7947781034758],[15.4184112010254,45.7946547738291],[15.4182397888215,45.794593135414],[15.41709886132,45.7946318582452],[15.4160869244273,45.7947017728955],[15.4151099107645,45.7947113552568],[15.4149598929169,45.7947415035185],[15.4148471374714,45.7948008496968],[15.414427509688,45.7948487120605],[15.4140258656306,45.7950149210644],[15.4138820979743,45.7950207507299],[15.4134933144728,45.7950826247486],[15.4132417132019,45.7951527294141],[15.4125909295608,45.7950961445174],[15.4121579398123,45.7948500829656],[15.4116957614042,45.7945874786846],[15.4115742294163,45.7943112287793],[15.4113538780415,45.7939431052877],[15.4111987575457,45.7932794330096],[15.4111533433263,45.7932607906661],[15.4105956042459,45.7930320881497],[15.4098577152734,45.7929333301985],[15.4096910648241,45.7927120377339],[15.4096230016448,45.7926215821442],[15.4093164641919,45.7923377147065],[15.4090923721655,45.7919474651019],[15.4086131486574,45.7917408766847],[15.4081802012268,45.7913184393627],[15.4079858247414,45.7912267243337],[15.4079543442258,45.791195883685],[15.4075120312055,45.7912696258813],[15.4073085248353,45.7913722986336],[15.4068012844992,45.7918744833568],[15.4066444008943,45.7919682608724],[15.4063433445954,45.7921351646777],[15.4055258607363,45.792285365909],[15.4052409965907,45.7924686756297],[15.404799963738,45.7926322925684],[15.4044252484222,45.7927176606177],[15.4047602835825,45.7926413411395],[15.4046995371612,45.7927609594824]]]}]},"properties":{"fill-opacity":0,"stroke-opacity":1,"stroke":"#ff0000","lov":"0725","lov_naziv":"KOSTANJEVICA","luo":"07","luo_naziv":"Posavsko","povrsina":4998.31},"id":"pregledovalniklovisca.1"}]}