{"type":"FeatureCollection","features":[{"type":"Feature","geometry":{"type":"Polygon","coordinates":[[[15.4208282975401,46.0675834270814],[15.421073823653,46.0675735252833],[15.4215514009779,46.0674816994591],[15.4218602542387,46.067300609013],[15.4220786926296,46.0671288491912],[15.422451553866,46.0668665428258],[15.4229023867484,46.0666759271431],[15.4236241674671,46.0664033278489],[15.4241158970958,46.0664734846714],[15.4243872002239,46.0664544825529],[15.4246591240936,46.0665164554146],[15.42483987784,46.066488791062],[15.4250589943363,46.0664069984766],[15.4251619167878,46.0663436328395],[15.4252507387895,46.0661273612502],[15.4253791662919,46.0660189127759],[15.4259331010827,46.0657739160547],[15.4265518665487,46.0655556673599],[15.4267589525924,46.065590884539],[15.4269146834381,46.0656712809174],[15.4272258688518,46.0657960838713],[15.427472635865,46.065948119564],[15.4278481743652,46.0660366899261],[15.4284569330777,46.0661963654308],[15.4290014151304,46.0664012667019],[15.4292092729147,46.0665354495687],[15.4293913498672,46.0666787264579],[15.4299893591495,46.0671172681581],[15.430326621191,46.0672689571794],[15.4307934947663,46.0674651444983],[15.4312993599493,46.0676881754163],[15.4317922329563,46.067902255624],[15.4321558484322,46.0681168224885],[15.432482304343,46.0685384723363],[15.432965980206,46.0692114570101],[15.4330953848195,46.0692289618359],[15.4332507126995,46.0692553657993],[15.4335878557689,46.06938905051],[15.4340547587309,46.0695852243307],[15.4342619350952,46.0696294250959],[15.4346240178419,46.0696460439236],[15.4348958980248,46.0696989950258],[15.4353753095874,46.0698410406152],[15.4360352002355,46.0699195030026],[15.436591254569,46.0699443729979],[15.437095106002,46.0699064571313],[15.4376501650803,46.0698053601783],[15.4379735415152,46.0698311141383],[15.438839204037,46.0697918036068],[15.4398091926463,46.0698510581051],[15.4407014808323,46.0698926089015],[15.4414130138926,46.0699618435682],[15.4419953548853,46.0700405710102],[15.4431452423232,46.0699640482595],[15.4435981038692,46.0700162768367],[15.4440768193933,46.0700684031734],[15.445199839264,46.0698660885049],[15.4457689682281,46.0699088580101],[15.4466741154267,46.0699413144847],[15.4488130076596,46.0706431118161],[15.4498945518734,46.0698871151124],[15.4506243731071,46.0694859188341],[15.4517543968917,46.0687521171108],[15.4526900088724,46.068686422261],[15.4541048463058,46.0687986777359],[15.4550257268514,46.0688282163243],[15.4560157376704,46.0687287168279],[15.4568045765572,46.0686412598678],[15.4576581193363,46.0686095931116],[15.4592283376221,46.0686588099118],[15.459784761612,46.0687284633411],[15.4605092288836,46.0687975271104],[15.4614414177333,46.0689737184146],[15.4620887829014,46.0690970686911],[15.4627102230714,46.0692115227083],[15.4643141445316,46.0693309839717],[15.4657628804382,46.069442057665],[15.4660988149253,46.0694226931542],[15.4674433851489,46.0694441048528],[15.4680005121945,46.0695947832844],[15.4689201923463,46.0698159525166],[15.4695826466014,46.0701911296677],[15.4707655410386,46.0709600524784],[15.4715618092464,46.071273393604],[15.4727111556897,46.0717258110679],[15.4731757545378,46.0716338232598],[15.4746601860069,46.0713757371488],[15.4756792402842,46.0711195694667],[15.47642759862,46.0709544967743],[15.4772271938974,46.070735219998],[15.4781301956915,46.0705155050959],[15.479201025285,46.0702707861756],[15.4798711819231,46.0700493342118],[15.4804642394575,46.0698668918724],[15.4809154124247,46.0697356097286],[15.4814055239513,46.0695930048472],[15.4825404587193,46.0692913000318],[15.4826952608014,46.0692546562028],[15.4832060230443,46.0691686409147],[15.4837796466279,46.0692350456513],[15.4844110887564,46.0694679270058],[15.4848604553801,46.0698256535371],[15.4854121949927,46.0700784820639],[15.4856988473558,46.0701002080601],[15.4858811560984,46.070001449946],[15.4859335431035,46.0695927386777],[15.4859792272502,46.0694219509756],[15.486042574448,46.0691133357064],[15.4865296246954,46.0687568501602],[15.487356845062,46.068497345731],[15.4876279214568,46.0682337310946],[15.4880559813138,46.0675954174879],[15.4882690599521,46.0671614553877],[15.4882669775885,46.0669252786015],[15.4882850400173,46.0668334264288],[15.4885564507586,46.0666091273773],[15.4888742269126,46.0662927643716],[15.4896320157867,46.065787997118],[15.4899933721286,46.0657234656883],[15.491116611249,46.0655746839988],[15.4918267908729,46.0654906522948],[15.492639090893,46.0652622152236],[15.4928702259663,46.0650902652548],[15.4928156424942,46.064766588696],[15.4927969840002,46.0641368403595],[15.4928450815244,46.0637317430047],[15.4930699312069,46.0635079037909],[15.4933772550838,46.0633434519156],[15.4939556446997,46.0631380588691],[15.4946479919531,46.0629861551024],[15.4953055200142,46.0628579716295],[15.4960268374361,46.0625212141069],[15.4965284814028,46.0622491092372],[15.4972239083849,46.061967161744],[15.4978414577185,46.0616495590069],[15.4984062497761,46.0612152147099],[15.4988550712307,46.060835359168],[15.4991374602465,46.0606181848657],[15.4993663657415,46.0602032972017],[15.4992727338374,46.0598528013543],[15.4991145642045,46.0595115848163],[15.4988794202067,46.0592336869814],[15.498720363757,46.0587935005383],[15.4984617568101,46.0581625498022],[15.4987739982415,46.0575875928954],[15.4984330734323,46.056669618891],[15.4991609424297,46.0561243389902],[15.4993546189622,46.0556026237826],[15.4991766908113,46.0544871625804],[15.4986516826414,46.0538197651366],[15.498184430913,46.0527905910185],[15.498220713787,46.0517380766725],[15.4981719512227,46.0505689643489],[15.4981557949869,46.0504679919866],[15.4977393231859,46.0499807881382],[15.49750091265,46.0497799205069],[15.497681292006,46.0494760967977],[15.4973059959251,46.0484785492604],[15.4968393362664,46.0479687064779],[15.4960861143703,46.0475490919837],[15.495825274969,46.0472802964122],[15.4955908435233,46.0470743687997],[15.4953047303825,46.0468687546545],[15.49495409385,46.0466723268313],[15.494500252598,46.0464943396589],[15.4941378234794,46.0464239264962],[15.4937500343508,46.0464076072363],[15.4932328757482,46.0463738498592],[15.4927285587043,46.0463310371994],[15.4919387040491,46.0461454903443],[15.4914709983756,46.0458595798068],[15.4912491908638,46.0456175986256],[15.4909617463134,46.0452590203575],[15.4905845772076,46.044981714791],[15.4903745035463,46.0446047177364],[15.490191815594,46.0444165521174],[15.4901111100162,46.0440569947979],[15.4900185192941,46.0438144569793],[15.4898871684815,46.0435720852161],[15.4897045353168,46.043374920964],[15.4897539107383,46.0431137793693],[15.4898796136752,46.0427173467963],[15.4901211175718,46.0422664319979],[15.490299769044,46.0420137332616],[15.490281676054,46.04142896755],[15.4904972521333,46.0409691654811],[15.4904693427998,46.0407353478863],[15.4905693855796,46.0403750148675],[15.4907226678958,46.0401764098239],[15.4908363940264,46.0398879985252],[15.490640292885,46.0396279103321],[15.4910108106997,46.0391584443101],[15.4910990137136,46.0389061327207],[15.4911614573443,46.0386629293474],[15.4913009365848,46.0383654092397],[15.4913243026725,46.0380863833453],[15.4912187181474,46.0378349045092],[15.4911385738359,46.037538328265],[15.4911613027044,46.0371873243281],[15.4909909675193,46.0369181282897],[15.4910141752383,46.0366211078735],[15.4908314815253,46.0364149478508],[15.4908419520402,46.036152982801],[15.490930239593,46.03591065818],[15.4909399710905,46.0355507124163],[15.490832242509,46.0350563071254],[15.4906094463451,46.034697359698],[15.4904513234239,46.034347131908],[15.4902550847788,46.0340690481954],[15.4903032561817,46.0336729470684],[15.4902103649322,46.0333945098251],[15.4898778104682,46.0332736582792],[15.48962254236,46.0330980391993],[15.4894707715076,46.03280761681],[15.4892138556028,46.0324448536978],[15.4889141356414,46.0323109922067],[15.4885684392975,46.03203174523],[15.487952269641,46.0315353703554],[15.4871260113652,46.0309150909363],[15.4868259780776,46.0307293090818],[15.486674136825,46.0304284459401],[15.4865671730374,46.0301481760097],[15.4861755862758,46.0297444102054],[15.4857108399322,46.0294968825256],[15.4850953608341,46.0290732797684],[15.4846750444408,46.0287943375592],[15.4841209806777,46.0285679665895],[15.483761566232,46.0284135598661],[15.483312783662,46.0282907516698],[15.4827616262122,46.0283970034618],[15.4824334624515,46.0284191736189],[15.4821647417404,46.0283995231158],[15.4818058755227,46.0283074613662],[15.4814917031929,46.0282153001851],[15.4812666824566,46.0280810138545],[15.4811016095055,46.0279777864332],[15.4807877998118,46.0279271007723],[15.4805485593381,46.027865753488],[15.4803689038919,46.0277937180519],[15.4800688704792,46.0276182656216],[15.4799164453354,46.0272446951],[15.4797945777049,46.0269540440374],[15.4795687577943,46.0267262724966],[15.4791789525787,46.0265199726324],[15.4788169627335,46.0260641410581],[15.4782565446388,46.0251099511406],[15.4775360886263,46.0228777756709],[15.4771541953746,46.0218605702365],[15.4767247706711,46.0205108295574],[15.47642098867,46.0198779438272],[15.4762096566649,46.019587661477],[15.4757431275206,46.0191321651918],[15.4752296468081,46.0183962262725],[15.4750303299067,46.0177732494654],[15.4750860766589,46.0173155783961],[15.4751714760896,46.0168369994618],[15.4751800515759,46.0166922819476],[15.4750280960217,46.0166526942311],[15.474821210296,46.0165929099189],[15.474647831848,46.0164946561825],[15.474444036987,46.0164035466019],[15.4740933390304,46.0161837502037],[15.4733057392348,46.015932291711],[15.4730335669785,46.0157729907965],[15.4729510836728,46.0156412469534],[15.4729627133253,46.015414818457],[15.472959447819,46.0150469188617],[15.4728765320289,46.0148491341267],[15.4727655656475,46.0145571701842],[15.4727079533067,46.0141612427588],[15.4725843624273,46.0139636260095],[15.4724315658459,46.0135208543766],[15.4722672208793,46.01331404818],[15.4722521364051,46.0131348776507],[15.4721622378358,46.0129049996326],[15.4720953421794,46.0128135900871],[15.4720279240947,46.0127214628479],[15.4715764475627,46.0126283115905],[15.4713654441405,46.0126896461355],[15.4711284183139,46.0127584656242],[15.471014698397,46.0125360629452],[15.4705790939797,46.0122736867962],[15.4701707710635,46.0120300917807],[15.4697673160115,46.0117509346272],[15.4695785825584,46.0113308008151],[15.4693830261985,46.0108059621866],[15.4692601421841,46.0106132875294],[15.4687964013283,46.0096772768584],[15.468669917218,46.0091495442002],[15.4684513365941,46.0089239697395],[15.4681653671005,46.0087459085329],[15.4678240245624,46.0084170928682],[15.4674158217495,46.0081829348881],[15.4670481363131,46.0079297148237],[15.4667355861253,46.0077988162991],[15.4664694338612,46.007734220127],[15.4659790800062,46.007772211028],[15.4652427181893,46.007730222757],[15.4645048512237,46.0075082830173],[15.4640661457992,46.0075460557847],[15.4636275149333,46.0075928242072],[15.4632538938901,46.0076933133062],[15.462893709611,46.0078568202284],[15.4624704617324,46.0082004440628],[15.4620715414288,46.0086284557967],[15.4615750422759,46.0091398184728],[15.4614546402449,46.0093195376507],[15.4614964127133,46.009451454324],[15.4615790440324,46.0096209060758],[15.4617701407582,46.0097899195728],[15.461838666363,46.0098934754301],[15.4615579135764,46.0103095806668],[15.461397747318,46.0105837555682],[15.4612239939324,46.0108391800037],[15.4611309387317,46.0110470410007],[15.4610116791986,46.0113493928212],[15.4608523689054,46.0117273061917],[15.460800300593,46.0119727916733],[15.4606539198618,46.0122752524169],[15.460615408957,46.0125206831452],[15.4605898299135,46.0126905715868],[15.4604428981164,46.0129269916125],[15.460377188829,46.0131629943133],[15.4602992240314,46.0135406690641],[15.4601694462596,46.0142108854203],[15.4601495042655,46.0147959916817],[15.4597886675442,46.0148874202083],[15.459480155066,46.0150596159175],[15.4590166755605,46.015232433281],[15.458514228675,46.0153784122086],[15.4581959475293,46.0154631866672],[15.4574404957228,46.0155453019963],[15.456363419994,46.015589197448],[15.4556266014093,46.0156448633261],[15.4548139113262,46.0156613268161],[15.4539824739573,46.0156909955348],[15.4536428400231,46.0157714332838],[15.4530956347884,46.0158789661913],[15.4523400624128,46.0159479117364],[15.4517915440564,46.0159105817761],[15.450922049789,46.0159141055861],[15.4504110497918,46.015837121379],[15.449767150525,46.0156948852995],[15.4490468329064,46.0154607201673],[15.4481931147474,46.0150823018434],[15.447715582526,46.0150704071404],[15.4467210027809,46.0153515159145],[15.4463255154123,46.0155374224776],[15.4459113829872,46.0157497634637],[15.4452518118545,46.0160025589743],[15.444493625416,46.0162946939679],[15.444196247348,46.0165740567735],[15.4435162552383,46.0168432072969],[15.4427639780311,46.0170530695323],[15.4426670067442,46.0170714404141],[15.4399360221909,46.0162007578318],[15.4396299668957,46.016235406694],[15.439352156103,46.0163142144892],[15.4393030971183,46.0164303824855],[15.4391217562422,46.0166397343413],[15.4386266201426,46.0171632280661],[15.4384455488169,46.0174073086211],[15.4380161763594,46.0178377818115],[15.4377351805071,46.0180707271677],[15.4375027522007,46.0181411687755],[15.437287530534,46.0182810057352],[15.4370914346365,46.0187338864466],[15.4368773051326,46.0190128216944],[15.4366630450434,46.0192918470021],[15.4366656911299,46.0196279880599],[15.4367186834453,46.0200103644564],[15.4365552203989,46.0203934778249],[15.4363584720242,46.0207651110905],[15.4362439454597,46.0210321477722],[15.4361141625174,46.0214615595938],[15.4359681189192,46.0219257640705],[15.4358378764924,46.0222972326048],[15.4357408245477,46.0226684844543],[15.4355088674447,46.0227852578762],[15.4352101357793,46.0229022851159],[15.4348197794674,46.0228977424881],[15.4344382967683,46.0228388191918],[15.4339010176686,46.0227924530327],[15.4327412455898,46.0228689210834],[15.4319283375444,46.0230045310055],[15.4311084986563,46.0234121592176],[15.4305917304199,46.0233961120775],[15.4301646048119,46.0232807514674],[15.4297249138644,46.0232104245851],[15.4294532138848,46.0231506219458],[15.4291826891165,46.0230089359385],[15.4288810249526,46.0230325623817],[15.4283435767237,46.0232148001609],[15.4279176231312,46.0233342645362],[15.4274787666993,46.023371897279],[15.4271015782843,46.0230313980316],[15.4267657718728,46.0230326524337],[15.4262376138331,46.0232145756891],[15.4257615206162,46.0234322930176],[15.4254009154065,46.0235686000192],[15.4250265652364,46.0235969856125],[15.4245096591105,46.0235629162539],[15.4240446917686,46.0235646423267],[15.4237092944074,46.023619871921],[15.4233356984105,46.0237472229449],[15.4230009854358,46.0238924240715],[15.4226923081635,46.0240645207703],[15.4221887258472,46.024084377326],[15.4218654181074,46.0240315854708],[15.4215288532035,46.0239338535235],[15.4212812650944,46.0236468427341],[15.4209052051786,46.0234502807495],[15.4209796180579,46.0247456631466],[15.4208281073933,46.025205099379],[15.4207534091643,46.025574276502],[15.4203434311953,46.026016668031],[15.4202160403601,46.0262510743684],[15.4201431017991,46.0268361871979],[15.4199772310605,46.027106725121],[15.4196836220787,46.0275666817092],[15.4195397553109,46.0277925100225],[15.4194538436719,46.0279274295734],[15.4192096490587,46.0280902824576],[15.4190959135782,46.0284236110551],[15.4191753873101,46.0286842502169],[15.4191762748688,46.0288016657325],[15.4191772916574,46.0289361762244],[15.4192827367437,46.0292147152457],[15.4194913158912,46.0294658828484],[15.4197002374314,46.0297620368296],[15.4199734068849,46.0300129663248],[15.4200913663983,46.0302374729358],[15.4200673720901,46.0304804964467],[15.4203658969172,46.0306503533448],[15.420490786136,46.030834344815],[15.420548787934,46.0309196086419],[15.4206313287125,46.0310382532146],[15.4211929599656,46.0311863548587],[15.4215822595182,46.0313502055098],[15.421766873967,46.0315222783614],[15.4218652415753,46.0317171632941],[15.4221033817893,46.0318439600234],[15.4226755899777,46.0319544953002],[15.4233016680966,46.0320649181831],[15.4236157690954,46.0322590023843],[15.4240065185724,46.032610529338],[15.4243333590522,46.0330674741766],[15.424614814978,46.0332316248124],[15.424842648621,46.0334110000768],[15.4250697792643,46.0335153375154],[15.4253504334192,46.0335743973473],[15.425738968127,46.0336180286959],[15.4260305901753,46.0336920719922],[15.4263218663877,46.0337210378607],[15.4265694764797,46.0336825939963],[15.4269792255291,46.0336960899667],[15.427584394742,46.0338890754576],[15.4281258921963,46.0342175301725],[15.4289239127954,46.0345898279393],[15.429099364795,46.0346419852611],[15.4293709936313,46.0349189009383],[15.4296331823116,46.0353609573504],[15.4297867487746,46.035705887697],[15.4298853977502,46.0359157905207],[15.4298003234001,46.0360737483567],[15.4302026198034,46.0365229243697],[15.4304096098769,46.0367924328192],[15.4305948409233,46.0370546448324],[15.4306622478877,46.0373998084966],[15.430707718915,46.0377150927811],[15.4308746564713,46.0381330315912],[15.4307997287012,46.0384662249554],[15.4307416874985,46.0386616014819],[15.4306738218751,46.0388895862736],[15.4306243113298,46.0391686981539],[15.4304321972997,46.039385364001],[15.4303977004021,46.0399343469166],[15.4304028239423,46.0400783790337],[15.4304142528471,46.0404021592347],[15.4305166405484,46.040892412123],[15.4303152887685,46.0413512375895],[15.4301245413787,46.0417950867623],[15.4301703748657,46.042140331617],[15.4301493227237,46.0422079827223],[15.4300529336752,46.0422909432856],[15.4299670356271,46.042343902339],[15.4298165939379,46.04240448209],[15.4296881366206,46.0425176148709],[15.4294845028065,46.0426835759205],[15.4294105614425,46.0428791013477],[15.4294443169736,46.0430667541199],[15.4294265953785,46.043347635321],[15.4294286058526,46.0436071180956],[15.4293704904327,46.0437942162495],[15.4292977088098,46.044022938291],[15.4291064411989,46.0443350628957],[15.4288988180645,46.0444708059469],[15.4287509989625,46.0446374559263],[15.4285731399207,46.0447626495255],[15.4283350251776,46.0448154581909],[15.4282166492595,46.0449300810751],[15.4279197211932,46.0450972885201],[15.4275198510207,46.0454206284207],[15.4273420177372,46.045566604401],[15.4268087713831,46.0460046196871],[15.4265566692605,46.0461716561555],[15.426305843263,46.0465047826193],[15.4261273654408,46.0465678014047],[15.4260390683892,46.0467134414721],[15.4261007592333,46.046972701672],[15.4259241639447,46.047264071653],[15.4259417363576,46.0476169811455],[15.426182070483,46.047834096543],[15.4262443231551,46.0481661449161],[15.4262467183901,46.0484775421045],[15.4262183069188,46.048664527712],[15.4261464337093,46.0489970761805],[15.4262098847395,46.0494847780801],[15.4259470758721,46.0497573945692],[15.4255670936405,46.0503541794771],[15.4252191230183,46.0507620748981],[15.4251031312519,46.0513920664868],[15.4250171480401,46.051587993457],[15.4250724425741,46.0521082973008],[15.4247902922538,46.0525236843892],[15.4247441957114,46.0527478052092],[15.4245020891223,46.0530772958905],[15.4246363307428,46.0534782687406],[15.4244581112904,46.0536793965462],[15.4241168765564,46.0538736611002],[15.4239636358373,46.053978691385],[15.4237496360179,46.0541994755039],[15.4234330261605,46.0543868085477],[15.4230261297945,46.0545975986522],[15.4226268424652,46.0548744912748],[15.4224802311231,46.0552056038624],[15.4224369651854,46.0556329681732],[15.4225709646526,46.0560202678653],[15.4226533209515,46.0563633103915],[15.4227639570726,46.056737019905],[15.4226969282442,46.0569293657823],[15.4224715483912,46.0575750543571],[15.4222855993874,46.0579178288109],[15.4218831054622,46.0583203364613],[15.4216414675021,46.058801697833],[15.4215263920045,46.0591519474023],[15.4213805642631,46.0593675267824],[15.4213167880758,46.0594617863789],[15.4211442480459,46.0599380331928],[15.4208748195489,46.0604378502156],[15.4206561194251,46.060793428991],[15.4206843405415,46.0610376087801],[15.4209734444266,46.0613403918],[15.4211285057183,46.0615904025042],[15.4205711469999,46.0624371451673],[15.4207038072463,46.0626646549656],[15.4208123918302,46.0629385006676],[15.4211594461029,46.0634667283661],[15.4212539918585,46.0641205019727],[15.4210792898291,46.0646713459595],[15.4205477027232,46.0653584665483],[15.4203711773091,46.0656705210962],[15.4203730690651,46.0659197462385],[15.4204489895164,46.0660959089119],[15.4205561094206,46.0664484886254],[15.4205292975032,46.0668327825501],[15.4204430030427,46.0672483367983],[15.4202647328753,46.0675357442191],[15.4208282975401,46.0675834270814]]]},"properties":{"fill-opacity":0,"stroke-opacity":1,"stroke":"#ff0000","lov":"0708","lov_naziv":"SENOVO","luo":"07","luo_naziv":"Posavsko","povrsina":2975.94},"id":"pregledovalniklovisca.1"}]}