<?xml version="1.0" encoding="utf-8" ?>
<kml xmlns="http://www.opengis.net/kml/2.2">
<Document id="root_doc">
<Schema name="pregledovalniklovisca" id="pregledovalniklovisca">
	<SimpleField name="lov" type="string"></SimpleField>
	<SimpleField name="lov_naziv" type="string"></SimpleField>
	<SimpleField name="luo" type="string"></SimpleField>
	<SimpleField name="luo_naziv" type="string"></SimpleField>
	<SimpleField name="povrsina" type="float"></SimpleField>
</Schema>
<Folder><name>pregledovalniklovisca</name>
  <Placemark id="pregledovalniklovisca.1">
	<Style><LineStyle><color>ff0000ff</color></LineStyle><PolyStyle><fill>0</fill></PolyStyle></Style>
	<ExtendedData><SchemaData schemaUrl="#pregledovalniklovisca">
		<SimpleData name="lov">0703</SimpleData>
		<SimpleData name="lov_naziv">SEVNICA</SimpleData>
		<SimpleData name="luo">07</SimpleData>
		<SimpleData name="luo_naziv">Posavsko</SimpleData>
		<SimpleData name="povrsina">2912.63</SimpleData>
	</SchemaData></ExtendedData>
      <MultiGeometry><Polygon><outerBoundaryIs><LinearRing><coordinates>15.2825628565641,46.0550859551282 15.2825841843356,46.0548587139833 15.2826395304478,46.0546627002226 15.2828289938334,46.0543096171035 15.2829409941101,46.0541996596202 15.2832896775582,46.0541518286528 15.2835257513147,46.0541199317749 15.2837051765891,46.0539784047708 15.2838730281649,46.0537977668282 15.2840862210556,46.0536640732016 15.2844008406119,46.0535770941241 15.2850655878801,46.0537243477995 15.2857185300335,46.0537619468237 15.2859659729329,46.0537300164819 15.2862080781808,46.0535654748873 15.2865526707565,46.0535525547489 15.2868796414655,46.0534558205108 15.2871888582911,46.0532750027246 15.2874295682685,46.0531664268831 15.2876008382014,46.0529500545107 15.2880303076657,46.0527090079999 15.2883230789633,46.0526722795772 15.2885809126067,46.0525275778655 15.2887526095199,46.0524191734481 15.2897327287686,46.0520087435088 15.2901115629699,46.0519477688037 15.2904324641674,46.051904125418 15.2907183526427,46.051738923096 15.2907427025434,46.0517248249549 15.2910250372006,46.0514984474466 15.2911239953654,46.0514191068216 15.2911952269227,46.051326070475 15.2912934574373,46.0511330023043 15.2914225261277,46.0509803444729 15.2916609706894,46.0508131013068 15.2917697039507,46.0507008940452 15.2919255383383,46.0504291294748 15.2920441442838,46.0502289005056 15.2922034355276,46.050025058348 15.2924965353438,46.0499068903728 15.2926107560702,46.0498067249926 15.292633265618,46.0497869626864 15.2926873475468,46.0496773237854 15.2926551438239,46.0494274537555 15.2925895557815,46.049315781877 15.2925430652935,46.0492968260304 15.2925224747586,46.0492884210142 15.2924560413232,46.049261328382 15.2918780093865,46.049231854318 15.29166285184,46.0492800906847 15.2915225858434,46.0492684817624 15.291434416156,46.0492361354079 15.291403343436,46.0492247877189 15.2914668617094,46.049066268518 15.2920965864536,46.0485576477953 15.292334779838,46.0483451460063 15.2925147113197,46.0481114685893 15.2926193363143,46.0478588188731 15.2926711481607,46.0475154288095 15.292675393222,46.0474873455112 15.2926916574527,46.0473373143161 15.2928486659191,46.0471436442581 15.2929099026675,46.0470680876731 15.2929606117141,46.0470054245699 15.2931942590187,46.0467170830309 15.2935610355793,46.0461437158684 15.2937150724496,46.0459513118714 15.2943365663065,46.0461417213409 15.2950277005694,46.0464758189096 15.2955810370428,46.0468224154482 15.2978805734867,46.0481962233431 15.2986589778781,46.0487461030554 15.2990908913598,46.0489249250632 15.3001612186898,46.0492580885115 15.301337815125,46.0497166578473 15.3022851847595,46.0500323102835 15.3028911431284,46.0505346599129 15.3035146255579,46.051072950025 15.3042744234768,46.0513467952799 15.3044730903005,46.0513552637945 15.3051887043264,46.0515123422554 15.3060683519018,46.0516300176291 15.3064316404969,46.0518929428574 15.3069664527051,46.0519755450365 15.3075867309329,46.0519498539712 15.308671818872,46.0518509246776 15.3091372927833,46.0518736901655 15.3097760299156,46.0520758456528 15.3105550051586,46.0526736894571 15.3111089041197,46.0530920994877 15.3115595633208,46.0535348117668 15.3118537410667,46.0537499510318 15.3124930454142,46.0540241602103 15.3130108476499,46.0541787610916 15.3137180234222,46.0542727362744 15.3145102412619,46.0541625883228 15.3146287695435,46.0538023595658 15.314679438855,46.0536221788203 15.3148524173519,46.0533156053095 15.3150550751088,46.053024425526 15.3154169917653,46.0526059403076 15.3155139384958,46.0525195660243 15.3158122350624,46.0522539438228 15.3163293797549,46.0518872125302 15.3167202943522,46.0515937090273 15.3169995784974,46.0514174822121 15.3172728401525,46.0511827872346 15.3175172089035,46.0509803831569 15.3176586847333,46.0508632016089 15.3180708605437,46.0504940547587 15.318238963397,46.0500859969307 15.3185629806937,46.0496910007281 15.3190136398387,46.0494099193288 15.3188826292188,46.049121462886 15.3192411081934,46.0488334396457 15.319491625649,46.0485799078759 15.3195128403342,46.048202850284 15.3196457059732,46.0479838377592 15.3197811432639,46.0475164848419 15.3200131349158,46.0471442357174 15.3204705999226,46.0469723599458 15.3207261041365,46.046868441076 15.3213718782434,46.0466601327922 15.3217883702915,46.0464431091233 15.3220567617769,46.0462452162922 15.3223648106044,46.0459346512985 15.3228078067644,46.0456331518575 15.3230894643579,46.0454070566863 15.3238835256847,46.0452171198174 15.3248139607477,46.0452801617386 15.3259331547794,46.0453614628996 15.3262304095229,46.0454826219904 15.3263659126182,46.0455854373586 15.3265011767512,46.0456695382868 15.3267036675953,46.0457158370405 15.3271076905103,46.0456677141113 15.3274702244751,46.0456177291647 15.3285043877105,46.0456957396812 15.3289247139264,46.0456081540809 15.3293096815375,46.0455719550049 15.3299325815543,46.0456097479408 15.3302941363784,46.045721173397 15.3307879944923,46.0457872269945 15.3310814987318,46.0455812324149 15.3314698295531,46.0455459160779 15.3317821578414,46.0456574795805 15.3319441143368,46.0459899196787 15.3322396173868,46.0462472015489 15.3323237972253,46.0465375785274 15.3325471790629,46.0468770371657 15.3328135846534,46.0471290936005 15.333367358898,46.047508077152 15.3339313731409,46.0478267443351 15.3342150842044,46.0479896709236 15.3345988618914,46.0480110420009 15.3349885061722,46.0480836807644 15.3352212698435,46.0483682213959 15.335435975166,46.0486150247338 15.3361192441782,46.048352087819 15.3369351993213,46.0481292448158 15.3372194781383,46.0480015406434 15.3377036471529,46.0476815970036 15.3381712103686,46.047394091696 15.3387082137163,46.0471368804796 15.3391344005352,46.0469520661718 15.3389366143197,46.0464731720521 15.3387339346482,46.0459330185542 15.3384385735469,46.0455766897069 15.3381199214045,46.0453625907112 15.3380515336648,46.0452721873921 15.3379398997448,46.0451246873084 15.3379194972708,46.0448089326257 15.3377624348114,46.0444791857309 15.3380958004392,46.0440562136081 15.33811071035,46.0438951128191 15.3381321801193,46.0436656110052 15.3380965752061,46.0432724320741 15.338060808683,46.0428738550338 15.3380523521368,46.0427795853882 15.337868751556,46.0421862878402 15.3380566586746,46.042066334285 15.3383642112158,46.0418622587758 15.3385179503697,46.0417542824127 15.3385172206315,46.0416347966629 15.3383967720328,46.0415873761727 15.3381908090066,46.041564052216 15.3379153834526,46.0414215353372 15.3377251654805,46.0411831217248 15.3373798286092,46.0408256778499 15.3376699028806,46.0405739685531 15.3379428468879,46.040310252395 15.3379545189418,46.0401691357352 15.337886361136,46.0395218709194 15.3379183967745,46.0391394687209 15.3380538533491,46.0388523150285 15.3381376871935,46.0385533471045 15.3381531207895,46.0382665482872 15.3383041696298,46.0377404621142 15.3384552712131,46.0372023187647 15.3385548182132,46.0368961958184 15.3386579334749,46.036687955993 15.3389798778444,46.036053841051 15.3396301300744,46.0351531410488 15.3395363066081,46.0348946490019 15.3394876509023,46.0344383455515 15.3394980342336,46.0337711429908 15.3395142639681,46.0332570620872 15.3395495689489,46.0331788580641 15.3396556163363,46.0329448753612 15.3396090414117,46.0327648818576 15.3394431825968,46.0324502786838 15.3395567852302,46.0321423133424 15.3396413637563,46.0318624166584 15.3400405614017,46.0316566242699 15.3403850469339,46.0313348344188 15.3406695857381,46.0310124124231 15.3407002359978,46.0305976216352 15.3407978575188,46.0305285889164 15.3410394637588,46.0307668445291 15.3414843479257,46.0305982507677 15.3419978950204,46.0304414166404 15.3424078045855,46.0301534357694 15.3428004746214,46.0298774719321 15.3430396474997,46.0297214557072 15.3435700660155,46.0295167865778 15.3439639666631,46.0294200472694 15.3443475638686,46.029245238447 15.3448094886207,46.029057775359 15.3452802065245,46.0288515688167 15.3456619485449,46.0286705528213 15.3459372891623,46.0285579695135 15.3463463074778,46.0284636955466 15.3465949427545,46.0283361655729 15.3467073185695,46.0280875808086 15.346743945373,46.0276238230711 15.3469566268418,46.0273041225125 15.3470501337321,46.0270132159149 15.3471821342601,46.0265576260572 15.347202207804,46.0262359005906 15.3472173553239,46.0259939088811 15.3473188903664,46.0257273611274 15.3475393879101,46.0253580587945 15.3473567181839,46.0250645722173 15.3471726975499,46.0245549668258 15.346999403658,46.0242109745566 15.3469231903317,46.0239000685067 15.3469015019436,46.0238811493765 15.3466495569782,46.0236618322136 15.3462914754968,46.0234476048527 15.345834263698,46.0230154842431 15.3455794426119,46.0228100297174 15.3454513184922,46.0227066745627 15.3451497591422,46.0223789927735 15.3450561170837,46.022295597711 15.3447666208147,46.022037789936 15.3445158645725,46.0218199940108 15.344386435278,46.0215057374719 15.3444935769432,46.0212468230993 15.3444615076361,46.0211366089827 15.3443939696693,46.0209926707 15.3444376412816,46.020849836897 15.3445348838776,46.0207440917292 15.344525715922,46.020682035809 15.3445334576735,46.0205144768411 15.3445951442842,46.0204026304381 15.3446740228666,46.0202100235239 15.3448153192082,46.0200234366087 15.3448498080118,46.0198372618075 15.3447776821713,46.0196823604672 15.3447860398865,46.0196140433292 15.3447678067473,46.0195272713114 15.3446962462329,46.0194840286573 15.3446957833007,46.0194095297687 15.3446686256703,46.019341409719 15.3446061444618,46.0193043479835 15.3445524068937,46.0192610514973 15.344551906156,46.0191804343381 15.3444266610049,46.0190814781254 15.3444530483258,46.0190256133608 15.3445061166566,46.0189819949074 15.3445146423105,46.0189198856324 15.3446204069081,46.0187520310888 15.3448066028159,46.0186211839643 15.3449037636251,46.0185030219709 15.3449207372391,46.0183664768439 15.3448755640881,46.0182672794308 15.344866087976,46.0181556475496 15.3449184994993,46.0180065787602 15.3449262530795,46.0178203945747 15.3450231419571,46.0176587747707 15.3451898899301,46.0172674145656 15.3451882299707,46.0170006400693 15.345267217637,46.0168266573799 15.3453107678534,46.0166651984244 15.3456223118994,46.0166518400015 15.3459341805519,46.0169390903364 15.3463643267737,46.0171397841978 15.3470685761464,46.017286648395 15.3479527218827,46.0176997401986 15.3482754805233,46.0180524536241 15.3488993508664,46.018168419659 15.3495155370762,46.0184582398193 15.3502024704393,46.0186609228758 15.3506128592302,46.0187961585555 15.3508805255344,46.0188884624858 15.3509973020388,46.0190556395978 15.3510607801649,46.0192291886686 15.3510080977434,46.0193534276488 15.3509914251098,46.0195148061635 15.3511001951605,46.019824709972 15.3512796291602,46.0200351527653 15.3514768086845,46.0202331239859 15.3516643586366,46.0203379991465 15.3521368288445,46.0204234614087 15.3525017819922,46.0203975029648 15.3527420315179,46.0202590081973 15.3530359308796,46.0198852394473 15.3531450264127,46.0199400578099 15.3536125072543,46.0201749798319 15.3537401259442,46.0204406444744 15.3537907636764,46.0207863561481 15.3540699636114,46.020578906247 15.354540297897,46.0203292939085 15.3549400513185,46.0201915592801 15.3551171174864,46.0200296819564 15.3553746136121,46.0199234295063 15.3558016535399,46.0198725240027 15.3562370059726,46.0197284656392 15.3562564223554,46.019976559441 15.3564005099693,46.0202305628609 15.3565525526155,46.0203355407205 15.3569537080352,46.0203963721032 15.3573282008014,46.0204883272215 15.3584621785336,46.0209687580905 15.3589514750771,46.0209176455501 15.3593159059303,46.0208110483394 15.3592981633559,46.02082352083 15.3596271878965,46.0207541940859 15.3598054815848,46.020803299779 15.3598864498079,46.0209209136362 15.3600121289656,46.021081845095 15.3602090213619,46.021230225258 15.3605587674494,46.0214475845666 15.3606329762493,46.0209621989422 15.3604968287073,46.0205818492917 15.3603978646423,46.0202986464609 15.3602507530334,46.0200790285142 15.3600553379259,46.0199188568596 15.3599086128119,46.0197584415737 15.3597852166392,46.0194710862268 15.3593284388218,46.0192566703437 15.3589439841412,46.0189616767644 15.3586018857158,46.0186453146027 15.3583274624781,46.0184684722984 15.357998684993,46.0183340884185 15.3577367522519,46.018191036618 15.3573164462211,46.018001871778 15.3571454009219,46.0178331611366 15.3569622233754,46.0176855425631 15.35673099944,46.0175974579747 15.3566512010382,46.0174792083318 15.3564259661479,46.0173783278099 15.3563766738541,46.0172642117137 15.3564062885689,46.0171498495565 15.3564362297843,46.0170863229415 15.3564231387871,46.0169382628903 15.3564270604019,46.0166038989701 15.3561578581878,46.0162117219663 15.3560778343318,46.0158968744971 15.3559521779915,46.0157560032035 15.3559359145436,46.0156365653913 15.3559195566607,46.0155225264436 15.3558641294137,46.0153978119966 15.3555674205832,46.0153064198271 15.3554409662091,46.0150405734134 15.355588053904,46.0148988531459 15.3561597817402,46.0146203958989 15.3564694259471,46.0144542341125 15.3570172124747,46.0144101454413 15.3576534306642,46.0144418073964 15.3581152297896,46.0144609659043 15.3584468058519,46.0144523684631 15.359085232898,46.0143262871127 15.3594752917503,46.0140958913576 15.3599865826837,46.0141600547199 15.3602777209123,46.0143678822958 15.3606583813702,46.0143214236395 15.3606733771633,46.0140655737609 15.3605918937092,46.0139269974738 15.3604151843404,46.0137606488598 15.3602056534501,46.0135909843166 15.3602072486339,46.0133195208258 15.360190142048,46.0130913948609 15.3601804314299,46.0128089898685 15.3602566410012,46.0125533969298 15.3602633894262,46.0123795414376 15.3602305522185,46.012135179314 15.3602062272399,46.0119885945947 15.3602980604445,46.0117329523496 15.3604055298915,46.0114990349817 15.3605674314744,46.0112159986707 15.3607531403284,46.0110198940805 15.3609005215835,46.0109270230914 15.3611722400203,46.0107523304754 15.3613038183825,46.0106323360471 15.3613575555391,46.0104963918664 15.3613880320087,46.0103975014854 15.3609350537005,46.0103000489244 15.3607100872467,46.0102570306619 15.360264694615,46.0102336920049 15.3598127487432,46.0102352057132 15.3592241163281,46.0102662996691 15.3589221336822,46.0102146122732 15.358679022077,46.010140965063 15.3583766576703,46.0100299830138 15.3581050642659,46.0098847127411 15.3578582961608,46.0097642875384 15.3575378218225,46.0096477814333 15.3567986661995,46.0093430920718 15.3564075350637,46.0091216209908 15.3561772355776,46.0089907935047 15.3558673960373,46.0087795944271 15.3554737327991,46.008524476854 15.3552399597234,46.0083949179394 15.3551613340695,46.0080336372469 15.3551134793465,46.007859951594 15.3549641602229,46.0076702953681 15.3547527894629,46.0075297787165 15.3545496772725,46.0074488903924 15.3542676346222,46.0073218185841 15.3541453418175,46.0071983900899 15.3539869234125,46.0070591475389 15.3537826016275,46.0069298542946 15.3534544521742,46.0068004938206 15.3531813368766,46.0067361952309 15.3528151283352,46.0067536120434 15.3524803047975,46.0067927051786 15.3523305624645,46.0068802640476 15.3522139747808,46.0068411237689 15.3521070272806,46.0067950254894 15.3519488817661,46.0066774635747 15.3517608815502,46.0065350698686 15.3515978609163,46.0064426258824 15.3514546968315,46.0063660464249 15.3513193640219,46.0062414852937 15.3510917200708,46.0060571933528 15.3507611231244,46.0059065082386 15.3505409297213,46.0058178372443 15.3502906738109,46.0056098592749 15.3501257541355,46.0054202444712 15.3500074993081,46.0051979150607 15.3499127520443,46.0049971978669 15.3498497046766,46.00488878934 15.3497939933274,46.0047151254175 15.3495903851694,46.0045527111203 15.3494571273704,46.0044282313754 15.3489874604941,46.0041091704502 15.3486201765651,46.0039528326229 15.3482983807979,46.0033704065252 15.3481401135951,46.0032100108558 15.3482168771686,46.0030359425003 15.3485097902928,46.0025352304758 15.3486013552011,46.0022307408135 15.3486617016944,46.0019100605636 15.3486754883442,46.0016383795437 15.3486117307033,46.0014158822695 15.3485164907937,46.0011554209086 15.3484913487417,46.000872971425 15.3483794583745,46.0004278389639 15.3483229725142,46.0001292891779 15.3482048453685,45.9999449273928 15.34789872228,45.9995927918678 15.3478749120104,45.9995222327895 15.3478268834774,45.999315972866 15.3478333357221,45.9991094571405 15.3478155360489,45.9987618420639 15.3477973284829,45.9983490852027 15.3478650127292,45.9979631498423 15.3479638087361,45.9975771196963 15.3477831981524,45.9973712632701 15.3477435230485,45.9972410079912 15.3477418288356,45.9969911482886 15.3477567687111,45.996882411164 15.3478565169313,45.9966485284873 15.3479799977074,45.9964525435614 15.3480568208187,45.9962893620876 15.3480636808946,45.9961480780019 15.3480540692882,45.9958710694465 15.3480212547663,45.9955995301292 15.3479410012487,45.9952358192624 15.3478301477717,45.9949536302524 15.3477655920066,45.9946225329441 15.3477796807415,45.9943780236957 15.347926359226,45.99417656956 15.3480501067378,45.9940240423539 15.3481605824679,45.993525595429 15.3468609986726,45.9934601750852 15.3460598032281,45.993471961464 15.3457112316239,45.9934678877343 15.3446940684854,45.9935008322862 15.3437504671055,45.9935515418707 15.3434335854351,45.9935993723464 15.3428726996102,45.9937065989782 15.3422348680789,45.99389683176 15.3416015749179,45.9941539899908 15.3411151051425,45.9944403088644 15.3406523077779,45.9947563373421 15.3400362549953,45.9953440093871 15.3396754793628,45.9957102970971 15.3389309133412,45.9965028616639 15.3384825073872,45.9970667239283 15.3379529731275,45.9977082041196 15.3375647934572,45.9982222175144 15.3371525990035,45.9987796690689 15.3367793696967,45.9993557193794 15.336401505148,45.9998499034448 15.3360651288608,46.0002673042602 15.3356030644214,46.0006959603551 15.3350623922394,46.0011076595247 15.3348299340145,46.0012685888913 15.3345891177127,46.0014353907201 15.3340896579855,46.0017037220402 15.333501528823,46.0019993028795 15.3329091643398,46.0022571029012 15.3322185040923,46.0025304816084 15.3314471813886,46.0028321627352 15.3306662526148,46.0031265783401 15.3299219631687,46.0033523207845 15.3290138297606,46.0035795199018 15.3280979628363,46.0037228759601 15.3271693659873,46.003897842843 15.3263476482837,46.0040030352344 15.3254982536506,46.004078878252 15.3251668572827,46.0041084340999 15.3240352751913,46.0042172803122 15.3228875480886,46.0043037568024 15.3217944147721,46.0043646947121 15.3212097524681,46.004427703319 15.3203056718152,46.0045385722683 15.3194650685941,46.0045743962687 15.3185178105947,46.004609701589 15.3178633736746,46.0045972173449 15.3169075166963,46.0045287904267 15.3157496356285,46.0044222239697 15.3144661422313,46.0043408249627 15.3134780171655,46.0042728180464 15.3123115533841,46.0042221156519 15.3116618312605,46.0041974361958 15.3111275089603,46.0041903442609 15.310145975934,46.004145504506 15.3094519527624,46.0041410874157 15.3085034993206,46.0041701945764 15.3077018197608,46.0041938601201 15.3068435426153,46.0042562718904 15.3062161117962,46.00431652934 15.3054822438509,46.0044157577463 15.3046306841069,46.0045269021556 15.3038067138588,46.0047254239518 15.3034624296124,46.0048093868426 15.3030559920248,46.0049084496044 15.3023485229112,46.005115739509 15.3016561248413,46.0053411604806 15.3011046925069,46.0055140196399 15.300428007543,46.0057339931717 15.2999109231274,46.005908645768 15.2991929100928,46.0061286304365 15.2983816449052,46.006320691473 15.2977090469466,46.0065361393823 15.2970532956993,46.0068362972837 15.2965048464624,46.0071137689638 15.295954881575,46.0074228236263 15.2954336619875,46.0077479970677 15.2950378011735,46.0080459416395 15.2944477358963,46.008563837634 15.2941951530362,46.0088782355988 15.2937570920661,46.0095982732939 15.2932914180582,46.0104221227746 15.2927338203459,46.0114479325874 15.2924705698087,46.0119477050655 15.2921555137763,46.0124196267077 15.29187440636,46.0127671135327 15.2915402602628,46.0130730759367 15.2912884051603,46.0132871418255 15.2910880261932,46.0134920784309 15.2905184844239,46.0140015335633 15.2902921733149,46.014162896177 15.2897473024239,46.0144782059679 15.2893548100985,46.0147437305023 15.2889262576485,46.0149794727283 15.2884433372974,46.0152409038135 15.2878017724666,46.0155667955243 15.2875131044538,46.0157096845152 15.2869530145302,46.0160348265867 15.2863647653817,46.0163601264283 15.2859901051489,46.0165832158362 15.2855429144898,46.0168164725976 15.2846372351406,46.0171975315824 15.2840802787771,46.0174346549555 15.2833326928374,46.0177217352497 15.282747314404,46.0179084459138 15.2819040317591,46.0181477962322 15.2810962106671,46.0183268590366 15.2802187469162,46.0184752250632 15.2794009135953,46.018617230233 15.2785152437249,46.0187278132364 15.2774480422364,46.018875630451 15.2765563167058,46.0189907117769 15.275715908354,46.0190894666455 15.2751416258266,46.0191778575544 15.2742668763829,46.0193848357873 15.2734079698642,46.0196106644133 15.2726879639712,46.0197979153881 15.2717592203761,46.0200334356803 15.2709109969702,46.0203087969713 15.2701280073167,46.0205615937304 15.2691919889134,46.0208731401624 15.268338725845,46.0212333416882 15.2674723203715,46.0216023852376 15.2666811206121,46.0219813240649 15.2657251411545,46.022448907187 15.2650466552177,46.0228780491282 15.2643336682124,46.0234146082993 15.2638964504979,46.0238200612242 15.2634326632174,46.0243436223199 15.2631964166281,46.0246414475894 15.2630556913539,46.0249270857246 15.2630099519622,46.0254141415114 15.2630263035885,46.0258116181541 15.2631005606457,46.0262171493056 15.2633115829622,46.0268622415304 15.2635947468117,46.0274926807935 15.2639236478781,46.0281510862012 15.264234668347,46.0286337187838 15.2644967249226,46.029140847302 15.2646128517782,46.0293843235189 15.2647990018146,46.0297108652019 15.2650207908464,46.0301692287439 15.2653016323773,46.0308196434721 15.2654381765779,46.0312520209469 15.2655427952886,46.0317341391413 15.2657168852255,46.0322638729474 15.2658901084982,46.0327738137454 15.266128527707,46.0332205293082 15.266355526509,46.0336824768887 15.2666242328683,46.034220176407 15.2669524766759,46.0347262446259 15.267300969796,46.0352241666701 15.2676793947041,46.0360067912621 15.2678793320485,46.0364511636931 15.2680271686835,46.0367804887881 15.2681523551206,46.0372878391213 15.2682581557945,46.0377933452806 15.2682898578067,46.0382573664289 15.2681815605625,46.0387849691423 15.2681847896489,46.0392120769678 15.2681577529351,46.0397124061392 15.2681542802362,46.0403299184957 15.2681404536277,46.0409437660674 15.2681287756861,46.0417080480972 15.268093700643,46.0422029973427 15.2679955859179,46.0427808721005 15.2678009484915,46.0433581631319 15.2674822910922,46.0439940483852 15.2673888449767,46.0441221226174 15.2672342980484,46.0443338371655 15.2670960094083,46.044514381887 15.2668440821139,46.0448431119634 15.2664839849695,46.0452758357687 15.2664562355931,46.0453091914946 15.2660125412488,46.0457439081513 15.2655594675861,46.0460563678053 15.2661004360491,46.0463960277156 15.2663915971173,46.0465658535013 15.2667264166232,46.0467050748909 15.2669079100126,46.0467743824019 15.267210991446,46.0469500266749 15.2674429299297,46.0472437948108 15.2677680480233,46.0475132307084 15.2682345957783,46.0477955602752 15.2685698565527,46.0479166900816 15.2688726605002,46.0479795010184 15.2691041083346,46.0481695248887 15.2696673762344,46.0484625078747 15.2697065841744,46.0486330093056 15.2700194104306,46.0487626454966 15.2705493698541,46.0491125674344 15.2706611438831,46.049403194232 15.270839604407,46.049536565345 15.2712341892745,46.0497094626845 15.2716730497879,46.0500829891827 15.2719383036136,46.0503906150787 15.2721512148722,46.0506436597765 15.2724062627368,46.0507667687529 15.2726514998971,46.0508129713607 15.2729004798941,46.0508319018765 15.2729889776214,46.0508538245565 15.2732089603043,46.0508885693971 15.2734778083664,46.0508746100413 15.2735921972634,46.0509058277713 15.2739580422203,46.050881557788 15.2745062835235,46.0510260029819 15.2748521068668,46.0508991159796 15.2751303855041,46.0510147850018 15.2761909573023,46.0514078501318 15.2776174427005,46.05219914922 15.2787992595966,46.0528723495995 15.2797479794557,46.0534189728684 15.2810857455346,46.054177064562 15.2819551866335,46.0546779767674 15.2820842778988,46.0547515282245 15.2825497689055,46.055180461871 15.2825628565641,46.0550859551282</coordinates></LinearRing></outerBoundaryIs></Polygon></MultiGeometry>
  </Placemark>
</Folder>
</Document></kml>
