{"type":"FeatureCollection","features":[{"type":"Feature","geometry":{"type":"Polygon","coordinates":[[[15.4936061341929,46.0633546104001],[15.4937501230735,46.0633835904329],[15.4939271615919,46.0635385731971],[15.4941694032231,46.0638303965339],[15.4943513099134,46.0639222847218],[15.4945484200917,46.0639362779865],[15.4951180570495,46.0639227448266],[15.4954747221214,46.0639138212523],[15.4962050414008,46.0640033278165],[15.4966530462637,46.064090367802],[15.4977090151027,46.0642860600031],[15.4980554159753,46.064314153021],[15.4983856572468,46.0643275594637],[15.4985826369955,46.0643267903499],[15.4986996669776,46.06430396585],[15.4988160344075,46.0642219402119],[15.4989115087194,46.0641881425737],[15.4989914530809,46.0641952615552],[15.4990719309385,46.0642615820614],[15.4991100864073,46.064350401266],[15.4991053932592,46.064432029579],[15.4989843944532,46.0645882155747],[15.4989642035314,46.0647143594524],[15.499002726374,46.0648439360008],[15.4990996051636,46.0649658797321],[15.4992920808058,46.0650674312476],[15.4998425167833,46.0652740385755],[15.5004739463809,46.0655745829802],[15.501066586166,46.0660159256796],[15.5012031768467,46.0662117433564],[15.5013029824016,46.0663991745337],[15.501550010959,46.0665858697052],[15.5017120911875,46.066883967029],[15.5021826831777,46.0673771255499],[15.5024304428559,46.0676578399696],[15.5025908784914,46.0677596166996],[15.5035865132028,46.0680199422368],[15.5040300070972,46.0682314092327],[15.5042892043499,46.0684181347426],[15.50478052702,46.0685013526684],[15.5053077049833,46.0684905655427],[15.5057481679717,46.0683690399945],[15.5061522074547,46.0683075077474],[15.5065094940567,46.0684766984613],[15.506855311759,46.0687484209866],[15.5073318674343,46.0689827622529],[15.5077976441864,46.0690138948148],[15.5085834597037,46.0688027375129],[15.5089288816943,46.0687347081054],[15.5094069086058,46.0687907927472],[15.5101245479776,46.0689537767947],[15.5107323224801,46.068851369772],[15.5111133182881,46.0687583415641],[15.5123443378813,46.0689273825195],[15.5132548331893,46.0692972356373],[15.5136370352629,46.0693204419209],[15.5141843936518,46.0691435184108],[15.5144932081868,46.0689759440357],[15.5148743523505,46.0688994581115],[15.515757054068,46.0688788329438],[15.5167003259171,46.0689076835996],[15.5173692287015,46.068971059664],[15.5181687369125,46.0689424246972],[15.5183832589733,46.0689082510045],[15.5192799010862,46.0690785533526],[15.5205340317089,46.0691724515227],[15.5214507376721,46.0689189509165],[15.5226286039497,46.068506432067],[15.5234259320911,46.0682618291007],[15.5236278492956,46.0681529336432],[15.5240613818171,46.0679182700434],[15.5241679317536,46.0678264563191],[15.5244276715539,46.0674083183564],[15.524754540695,46.0668313347281],[15.525216747127,46.0663914808162],[15.5256102399303,46.0661486275218],[15.5262443516043,46.065953881877],[15.5265461237142,46.0657310622695],[15.5265882854687,46.0657063047078],[15.526626273849,46.0652290793598],[15.5267356279892,46.0648351123808],[15.5267828388094,46.0645938502923],[15.5269929394927,46.0643961951965],[15.5275426474604,46.064231253423],[15.5280297581331,46.06418473612],[15.5282675483677,46.0639229781133],[15.5286815964842,46.0636160464925],[15.5289330937957,46.0633149043433],[15.5292008722468,46.0632299875358],[15.5296813811558,46.0632375690714],[15.5298094081684,46.063325511655],[15.530001260896,46.0634377214792],[15.5303549555487,46.0634704514923],[15.5307991918942,46.0633749046728],[15.5314125755529,46.063234301827],[15.5317014056216,46.0631346152588],[15.5319113406111,46.0629221058632],[15.5321701617453,46.0626454857997],[15.5323959170336,46.0626000764812],[15.5326435437919,46.0626382420914],[15.5327780681814,46.0626622684129],[15.5328556502265,46.0626520094325],[15.532897759197,46.0626223011171],[15.532890401595,46.0625830160884],[15.5328685897226,46.0625191451362],[15.5328887456293,46.0624109005026],[15.5329656649965,46.0623318132076],[15.5330995254406,46.0622869209426],[15.5334592942736,46.0622262183543],[15.5339325779824,46.0622091624242],[15.5343149650578,46.0622959114563],[15.5347541178741,46.0624118156533],[15.535121659166,46.0624199027977],[15.5354594222048,46.0622757096125],[15.5358739890272,46.0620277733945],[15.5361278200615,46.0619725076971],[15.5363968198717,46.062015513581],[15.5366367184198,46.0619897341597],[15.5368265172127,46.0618757435372],[15.5371853245699,46.0617166004171],[15.5375592679106,46.0616656256349],[15.538236380529,46.0615296350223],[15.5383996526135,46.0616124533744],[15.5387072909988,46.0617344503408],[15.5392293397653,46.0618546253459],[15.5394506688357,46.061833426403],[15.5398239644779,46.0615835111996],[15.5399570661935,46.0614085097443],[15.540013333154,46.061240619346],[15.5401269806275,46.0610456450328],[15.5403183080438,46.0609039288746],[15.5405491952341,46.0608692762469],[15.5408774157366,46.0609415035032],[15.5412050463325,46.0609532689933],[15.5413782954788,46.06094579031],[15.5417153571643,46.0609306969303],[15.5420921145805,46.0610361615732],[15.5423245139696,46.0611692127403],[15.5425176744078,46.0612151733433],[15.542613960521,46.0612147162704],[15.5428059389848,46.061140024695],[15.5431883189884,46.0608431780238],[15.5435612625775,46.0605597813026],[15.5438475470866,46.0602834539243],[15.5439908502059,46.0601486182937],[15.5441824967582,46.0600538614033],[15.5444044099989,46.0600930237277],[15.5447903978761,46.0601514682437],[15.5450307109421,46.0601033552575],[15.5452414112404,46.0599749448161],[15.5454609478094,46.0597727117885],[15.5456891192034,46.0594631861374],[15.5458514118165,46.0593149410921],[15.545858990158,46.0591003129746],[15.5458575361393,46.0589527598484],[15.5460101967357,46.0587978123903],[15.546432309666,46.0586147640768],[15.5465574736949,46.0586074174401],[15.5468753996539,46.0586193030583],[15.5474520882139,46.058489136755],[15.5477115154112,46.0584275201866],[15.5480285787642,46.0583653567596],[15.5518292756426,46.0589036592561],[15.5515733420174,46.0583683697705],[15.5512227307691,46.0579810964175],[15.5510350014169,46.0575192567452],[15.5507869746417,46.0568028961682],[15.5505424861194,46.0564419219311],[15.5504420104028,46.056019879982],[15.5503890148189,46.0555507319379],[15.5502393405952,46.0550283338003],[15.5502358148709,46.0546863530611],[15.5498143193053,46.0539506704426],[15.5496578238665,46.0537166764614],[15.5491981497854,46.0534171075385],[15.5487739968295,46.0530631108316],[15.5484330167265,46.0527948202572],[15.5482908203558,46.0525944966543],[15.5481078569929,46.0524402560127],[15.5479089796856,46.0523493443229],[15.5477828161798,46.052097297126],[15.5476074864134,46.0518913729958],[15.5475645621215,46.0517192750536],[15.5475214113892,46.0515242343533],[15.547445820132,46.0513809951123],[15.5472537995475,46.0511464480866],[15.5467389484627,46.0508043048583],[15.5459021258934,46.0504408437257],[15.5449842123586,46.0503846705579],[15.5440443593007,46.0500416616578],[15.5436945775851,46.0497281408884],[15.543461699517,46.0495548753503],[15.5427194729675,46.0494913702152],[15.5419554369004,46.0491664040179],[15.5416433280205,46.0487789181216],[15.5414684131469,46.0486120320022],[15.5413407809262,46.0483644832909],[15.5411370581058,46.0482246358653],[15.541010345304,46.0480710171747],[15.5407228231013,46.048056632032],[15.5405542325569,46.0479944464322],[15.5405145035261,46.0478956609185],[15.5404853265071,46.0475538907554],[15.540456283895,46.0472391126796],[15.5405062130317,46.0470589248987],[15.54063235107,46.0467434128698],[15.5407979526774,46.0464996946402],[15.5409752440775,46.0461299546384],[15.5412304967219,46.0458048331112],[15.5414466328484,46.0454439059643],[15.541688695217,46.0450918530985],[15.5417254341255,46.0448847344679],[15.5416837293911,46.0445970093339],[15.5418986263242,46.0441101208902],[15.5420391659884,46.0439474978684],[15.542512108455,46.0434233937742],[15.5427683089302,46.043197237643],[15.5429847775742,46.0428722961996],[15.5431105395154,46.0425207926209],[15.5428352552697,46.0421172088097],[15.542782166117,46.0419734994775],[15.5429089438145,46.0417389599413],[15.5431881528663,46.0412247705334],[15.543417001771,46.0408457837557],[15.5436070009195,46.0404579836862],[15.5436554137439,46.0401248424144],[15.5435878168879,46.0398192457024],[15.5435871110349,46.0397472682971],[15.543623486537,46.0395041602057],[15.5435285998018,46.0390637292801],[15.5435763061445,46.0386586105444],[15.5437008195773,46.0381811456237],[15.5437127677975,46.0380821152072],[15.5436311955872,46.0376686137134],[15.5435616611469,46.0371650788888],[15.5434554008786,46.0368686634149],[15.543337240368,46.036689273204],[15.5432965456348,46.0364916094267],[15.5431912578258,46.0362941626598],[15.5429707621417,46.0362052343813],[15.5427123044945,46.0361974643525],[15.5425179990564,46.0361444012364],[15.5422193783836,46.0359928591137],[15.5419212870349,46.0358952993056],[15.5418559035468,46.035814630894],[15.5418385004595,46.0353558357092],[15.5418112570199,46.0352120032264],[15.5416936741246,46.0350775965421],[15.5416928829378,46.0349966218682],[15.5416400151554,46.0347026508103],[15.5416870810051,46.0344028075574],[15.5417888895397,46.0342583633288],[15.5419299324862,46.0341497233931],[15.5419026894308,46.0340058909002],[15.5421324855412,46.0337258753731],[15.5422480426937,46.0336533463406],[15.5423500655939,46.0335178981803],[15.5425958570027,46.0335527219764],[15.5427232741664,46.0333721648925],[15.5428133465493,46.0333357467189],[15.5428643130328,46.033263523805],[15.5432379593043,46.0331627747785],[15.5433139670797,46.0330094541827],[15.5433780266818,46.0329551640051],[15.5437007049787,46.032926636615],[15.5439435817336,46.032664550375],[15.5441220448428,46.0324207655008],[15.5441849550008,46.0322495114455],[15.5442869706015,46.0321140615555],[15.544284762576,46.0318891318824],[15.5443858055766,46.0316547128391],[15.5444107570045,46.0315646179075],[15.5444870244349,46.0314382880757],[15.5444860117443,46.0313483168152],[15.5446526999037,46.0312215560652],[15.5446511974813,46.0310686038738],[15.5446892422457,46.0309964416936],[15.5448047903741,46.0309239100814],[15.5445305241052,46.0306192984081],[15.5445422042627,46.030493276221],[15.5446841160806,46.0304746047707],[15.544761176948,46.0304292494406],[15.5448129338632,46.0304380003426],[15.5448770774541,46.0303927065087],[15.5448630110093,46.0302758046367],[15.544679962223,46.0300517368839],[15.5447301278067,46.0298985384147],[15.5448969879035,46.0297897716775],[15.5449733402443,46.0296724386873],[15.5450500460139,46.0295910944037],[15.5450879123748,46.0295009376995],[15.5452032799558,46.0294104113023],[15.5452147814275,46.029266394648],[15.5452522049579,46.0291312519364],[15.5452379611345,46.0289963557064],[15.5452882127202,46.0288521541655],[15.5453257242807,46.0287260086127],[15.5454153042729,46.028653600254],[15.5453997328225,46.0283837461713],[15.5455011188744,46.0281853148126],[15.5455250933688,46.0279962504933],[15.5455755203593,46.0278700431913],[15.5455482710899,46.0277262114378],[15.5456114372102,46.027581948076],[15.5454927994556,46.027339578782],[15.5454786440472,46.0272136797329],[15.5455928555291,46.027006189423],[15.5456550469304,46.0267629568987],[15.5458990390378,46.026617829895],[15.5459883897377,46.0265094316897],[15.5463467640663,46.0261748072894],[15.546513077849,46.0260120550271],[15.5468193864433,46.0256506852171],[15.546946328229,46.0254251373509],[15.5467005702453,46.0253903227127],[15.5466610242199,46.0253095333093],[15.5466685302731,46.024760642674],[15.546639772213,46.0244638587904],[15.5466121672418,46.0242840384273],[15.5467522885258,46.0240854205484],[15.5467899710322,46.0239772688308],[15.5467378650762,46.0239325300048],[15.5466857592043,46.0238877911543],[15.5466978766198,46.0238067546082],[15.5469680390602,46.0236974905383],[15.5469802447562,46.0236254511578],[15.5468374641515,46.0235541534359],[15.5467207809952,46.0235097235602],[15.5466938857449,46.0234018807615],[15.5467948629552,46.0231764571698],[15.546909327482,46.0229959570489],[15.5469056013275,46.0226180747524],[15.5468529643155,46.022519352775],[15.5467620251815,46.0224658021287],[15.5466818731604,46.0221962568636],[15.5466426841741,46.0221514561944],[15.5465127343399,46.0220710990569],[15.5463574863201,46.0220448484501],[15.5463049394524,46.0219551234034],[15.5463814554317,46.0218557837729],[15.5463425328,46.0218379745957],[15.546213115749,46.0218116003084],[15.5462124069322,46.0217396227067],[15.5462241701852,46.0216225973778],[15.5461457938317,46.0215329956954],[15.5460675948874,46.0214613883586],[15.5460667091138,46.0213714163486],[15.5461552538071,46.0211820431414],[15.5461528618674,46.0209391187028],[15.546176524899,46.0207320602444],[15.5459931484275,46.020472005294],[15.5459521901159,46.0202472603097],[15.5460409105796,46.0200758815665],[15.5460772632069,46.019832771963],[15.5461004351926,46.0195627324371],[15.5460987522366,46.0193917855608],[15.546045942637,46.0192750687272],[15.5458507196063,46.0191230416179],[15.5456426716893,46.0189800730291],[15.5454350671791,46.0188820900832],[15.5453697873379,46.0188104205813],[15.5454591266393,46.0187020226931],[15.5457291782627,46.018583764348],[15.5459217426917,46.0184658755192],[15.5460111689207,46.0183664744063],[15.5459841890801,46.0182496341201],[15.545905995011,46.01817802661],[15.5456730955726,46.0181341506793],[15.5455304201974,46.0180719383645],[15.5454000392815,46.017946593818],[15.5452953104565,46.0178031314722],[15.5451518397139,46.0176598538303],[15.5449307082255,46.0174989510578],[15.5447228454873,46.0173739751348],[15.5445671698511,46.0173027359643],[15.5442701461806,46.0173041508453],[15.5439089049756,46.01734186111],[15.5435866700336,46.0174063776068],[15.5434318771253,46.0174251089962],[15.5432124254691,46.0174351498852],[15.5430966389312,46.0174806883082],[15.5428638326408,46.0174458038363],[15.542734251425,46.0174014311122],[15.5426391446403,46.0173430382121],[15.5424211459931,46.0170790028546],[15.5422437714661,46.0169146480415],[15.542160491376,46.0168373036007],[15.5417971428172,46.0166590740399],[15.5413693149499,46.0164901463978],[15.5407231828057,46.0164483070214],[15.5402470339097,46.0166215137841],[15.5401687728208,46.0157196911258],[15.5398358426481,46.0146845568386],[15.5387328704502,46.0137155873873],[15.5380661251256,46.0133689902295],[15.537338942674,46.013088086151],[15.5369537682618,46.012425150995],[15.5364468686591,46.0116994425089],[15.5354842649414,46.0108388336878],[15.5346637382507,46.0105683371746],[15.5341453343918,46.0102121152369],[15.5337495485427,46.0097689409792],[15.5334412957229,46.009941335364],[15.5330563443412,46.010195065442],[15.5325777457077,46.0104597578816],[15.5321049657601,46.0106314755878],[15.5320004396972,46.0106388004016],[15.5316791103573,46.010660450423],[15.5312659086239,46.0106623719304],[15.5306079705377,46.0107284119309],[15.5304684195278,46.0108001410994],[15.5303252698253,46.0108736863234],[15.5301427639311,46.0109367967185],[15.5299905471108,46.0109534285204],[15.5299463842683,46.0111021843403],[15.5296007839194,46.0115442207823],[15.5291578664722,46.0118837737843],[15.5289805967445,46.0120496110945],[15.5285823544913,46.0122673969634],[15.5281579840374,46.012440313997],[15.5277206543579,46.0126222869252],[15.5276560289507,46.0126977155804],[15.5274652166058,46.0129203881255],[15.527313509792,46.0132630883402],[15.5272269641395,46.0136682912503],[15.5270891920598,46.0141188084792],[15.5269494531443,46.0143624789653],[15.5265129582159,46.0146344196958],[15.526393823914,46.0147907175095],[15.5262582728877,46.0150134933226],[15.5260926146529,46.015248194458],[15.5257583949537,46.0154116898335],[15.5253848357127,46.0155123816499],[15.5249206236751,46.0155864957438],[15.5244818976097,46.0156245004676],[15.5238891848904,46.0157531857905],[15.5235684637873,46.015979596289],[15.5229757856148,46.0161262719694],[15.5226158931342,46.0163078708608],[15.5224242182871,46.0165246903232],[15.5223263101139,46.0168384353194],[15.5223008814818,46.0170181442271],[15.5186049500258,46.0169736110164],[15.5173402310907,46.0162266011229],[15.5172823783048,46.0173627237992],[15.5168365084863,46.0179806286516],[15.5167286742184,46.0190348283811],[15.5166161208233,46.0195827527739],[15.5161898877855,46.0194544830092],[15.5159542354174,46.0191821092376],[15.5155837379634,46.0189359865974],[15.5151381738777,46.0185193361812],[15.5147944908987,46.0185036992823],[15.5143170127098,46.018599874195],[15.5137407780123,46.0186451146222],[15.5132502371532,46.0186558663365],[15.5129435188972,46.0186572433322],[15.5125384928165,46.0186419649234],[15.5123921069561,46.0187194610393],[15.5118620446385,46.0185201994093],[15.5113292932445,46.0184771461546],[15.5105983121922,46.0181549700331],[15.5098364651703,46.0180145890226],[15.5085457534426,46.0182397016581],[15.5078174838311,46.018197501848],[15.5063024444266,46.017674533169],[15.5055627840343,46.0175718154122],[15.5039003801097,46.0175412770001],[15.5034231803651,46.01762660803],[15.5033805517555,46.0177251398667],[15.503396670254,46.0182774332235],[15.503520713336,46.0187535810608],[15.5038010564253,46.0192040264456],[15.504069754157,46.019424183268],[15.5046527305655,46.0200046566803],[15.5047392017083,46.0201256527816],[15.5047486684364,46.0202150473572],[15.5047618221927,46.0203405960949],[15.5047729918917,46.0204468087002],[15.5048188295992,46.0206299778123],[15.5049044746909,46.0209722289754],[15.5049159339126,46.0211102018843],[15.5048269027409,46.021815019011],[15.5047229677034,46.0220177445806],[15.5044838364262,46.022451316007],[15.5042558838043,46.0228646829103],[15.5041026046676,46.0231809955813],[15.5039877385908,46.0234179595979],[15.5038026267269,46.0237138976336],[15.5037327818765,46.0239164719557],[15.5037267145004,46.0240021560221],[15.5036610915757,46.0242999064771],[15.5033843609779,46.0246629198441],[15.5032665088317,46.0248561678076],[15.502464993884,46.0250074352464],[15.5015790151883,46.0252031560888],[15.5004182996979,46.025485280731],[15.4992849763082,46.0258988190381],[15.4988987513812,46.025796493199],[15.4976626416328,46.0258699942878],[15.4970236112642,46.0260237550399],[15.4963946984599,46.0262692439363],[15.4955318532777,46.0266733820515],[15.495241701671,46.0268715074742],[15.4945754652837,46.0271631258421],[15.4939002144449,46.0274876205493],[15.4928352619601,46.0274069203336],[15.4923543138233,46.0273434006269],[15.4913548784457,46.0272361313279],[15.4910438749638,46.0272111949277],[15.4906941111205,46.0270683754235],[15.490184011254,46.0269065378526],[15.489994646059,46.0267892112075],[15.4896920183097,46.0266592330726],[15.4892785877495,46.026766005857],[15.4891088930211,46.0267404591618],[15.4886742766709,46.0265979965616],[15.4883238287405,46.0263763536209],[15.488373817512,46.0260390894095],[15.4882756590839,46.0257173042336],[15.4879992395444,46.0254820275058],[15.4875790404122,46.0253178149006],[15.4872029968693,46.0252540958435],[15.4868703954703,46.0251951391851],[15.4864935145897,46.0250357767061],[15.4860944954553,46.0248261204903],[15.4856819369072,46.0247072163829],[15.4852335226316,46.0246235537225],[15.4848560322263,46.0243787110607],[15.4846967278359,46.0243290900902],[15.4844067588775,46.0240779363016],[15.4839057987307,46.0236556408489],[15.4831323131824,46.0234256049332],[15.4823277985252,46.0231319016135],[15.481512666036,46.022774624186],[15.4802798183939,46.0222352756728],[15.4796161274201,46.0217783743462],[15.4792479369502,46.0214686911537],[15.4788395096314,46.0211804097323],[15.4785525638258,46.0208704738277],[15.47816332355,46.0204547932644],[15.4779987206577,46.0202079572064],[15.4777001877266,46.0197211742951],[15.4775555071214,46.0194176592418],[15.4776231889523,46.0190284091145],[15.4776704716504,46.0186250279317],[15.4774850524337,46.018314574866],[15.477276563883,46.0181445807917],[15.4770166510753,46.0179567157468],[15.4766665717389,46.0177962190764],[15.4763557008417,46.0176895436778],[15.4759925564301,46.0175111041364],[15.4758094424645,46.0172420277807],[15.4758331871691,46.0169989929793],[15.4757796015031,46.0167742753659],[15.475605741587,46.0166653179119],[15.4754324780468,46.0166710774725],[15.4751800515759,46.0166922819476],[15.4751714760896,46.0168369994618],[15.4750860766589,46.0173155783961],[15.4750303299067,46.0177732494654],[15.4752296468081,46.0183962262725],[15.4757431275206,46.0191321651918],[15.4762096566649,46.019587661477],[15.47642098867,46.0198779438272],[15.4767247706711,46.0205108295574],[15.4771541953746,46.0218605702365],[15.4775360886263,46.0228777756709],[15.4782565446388,46.0251099511406],[15.4788169627335,46.0260641410581],[15.4791789525787,46.0265199726324],[15.4795687577943,46.0267262724966],[15.4797945777049,46.0269540440374],[15.4799164453354,46.0272446951],[15.4800688704792,46.0276182656216],[15.4803689038919,46.0277937180519],[15.4805485593381,46.027865753488],[15.4807877998118,46.0279271007723],[15.4811016095055,46.0279777864332],[15.4812666824566,46.0280810138545],[15.4814917031929,46.0282153001851],[15.4818058755227,46.0283074613662],[15.4821647417404,46.0283995231158],[15.4824334624515,46.0284191736189],[15.4827616262122,46.0283970034618],[15.483312783662,46.0282907516698],[15.483761566232,46.0284135598661],[15.4841209806777,46.0285679665895],[15.4846750444408,46.0287943375592],[15.4850953608341,46.0290732797684],[15.4857108399322,46.0294968825256],[15.4861755862758,46.0297444102054],[15.4865671730374,46.0301481760097],[15.486674136825,46.0304284459401],[15.4868259780776,46.0307293090818],[15.4871260113652,46.0309150909363],[15.487952269641,46.0315353703554],[15.4885684392975,46.03203174523],[15.4889141356414,46.0323109922067],[15.4892138556028,46.0324448536978],[15.4894707715076,46.03280761681],[15.48962254236,46.0330980391993],[15.4898778104682,46.0332736582792],[15.4902103649322,46.0333945098251],[15.4903032561817,46.0336729470684],[15.4902550847788,46.0340690481954],[15.4904513234239,46.034347131908],[15.4906094463451,46.034697359698],[15.490832242509,46.0350563071254],[15.4909399710905,46.0355507124163],[15.490930239593,46.03591065818],[15.4908419520402,46.036152982801],[15.4908314815253,46.0364149478508],[15.4910141752383,46.0366211078735],[15.4909909675193,46.0369181282897],[15.4911613027044,46.0371873243281],[15.4911385738359,46.037538328265],[15.4912187181474,46.0378349045092],[15.4913243026725,46.0380863833453],[15.4913009365848,46.0383654092397],[15.4911614573443,46.0386629293474],[15.4910990137136,46.0389061327207],[15.4910108106997,46.0391584443101],[15.490640292885,46.0396279103321],[15.4908363940264,46.0398879985252],[15.4907226678958,46.0401764098239],[15.4905693855796,46.0403750148675],[15.4904693427998,46.0407353478863],[15.4904972521333,46.0409691654811],[15.490281676054,46.04142896755],[15.490299769044,46.0420137332616],[15.4901211175718,46.0422664319979],[15.4898796136752,46.0427173467963],[15.4897539107383,46.0431137793693],[15.4897045353168,46.043374920964],[15.4898871684815,46.0435720852161],[15.4900185192941,46.0438144569793],[15.4901111100162,46.0440569947979],[15.490191815594,46.0444165521174],[15.4903745035463,46.0446047177364],[15.4905845772076,46.044981714791],[15.4909617463134,46.0452590203575],[15.4912491908638,46.0456175986256],[15.4914709983756,46.0458595798068],[15.4919387040491,46.0461454903443],[15.4927285587043,46.0463310371994],[15.4932328757482,46.0463738498592],[15.4937500343508,46.0464076072363],[15.4941378234794,46.0464239264962],[15.494500252598,46.0464943396589],[15.49495409385,46.0466723268313],[15.4953047303825,46.0468687546545],[15.4955908435233,46.0470743687997],[15.495825274969,46.0472802964122],[15.4960861143703,46.0475490919837],[15.4968393362664,46.0479687064779],[15.4973059959251,46.0484785492604],[15.497681292006,46.0494760967977],[15.49750091265,46.0497799205069],[15.4977393231859,46.0499807881382],[15.4981557949869,46.0504679919866],[15.4981719512227,46.0505689643489],[15.498220713787,46.0517380766725],[15.498184430913,46.0527905910185],[15.4986516826414,46.0538197651366],[15.4991766908113,46.0544871625804],[15.4993546189622,46.0556026237826],[15.4991609424297,46.0561243389902],[15.4984330734323,46.056669618891],[15.4987739982415,46.0575875928954],[15.4984617568101,46.0581625498022],[15.498720363757,46.0587935005383],[15.4988794202067,46.0592336869814],[15.4991145642045,46.0595115848163],[15.4992727338374,46.0598528013543],[15.4993663657415,46.0602032972017],[15.4991374602465,46.0606181848657],[15.4988550712307,46.060835359168],[15.4984062497761,46.0612152147099],[15.4978414577185,46.0616495590069],[15.4972239083849,46.061967161744],[15.4965284814028,46.0622491092372],[15.4960268374361,46.0625212141069],[15.4953055200142,46.0628579716295],[15.4946479919531,46.0629861551024],[15.4939556446997,46.0631380588691],[15.4933772550838,46.0633434519156],[15.4936061341929,46.0633546104001]]]},"properties":{"fill-opacity":0,"stroke-opacity":1,"stroke":"#ff0000","lov":"0709","lov_naziv":"VELIKI KAMEN","luo":"07","luo_naziv":"Posavsko","povrsina":2172.35},"id":"pregledovalniklovisca.1"}]}