{"type":"FeatureCollection","features":[{"type":"Feature","geometry":{"type":"Polygon","coordinates":[[[15.3753647442577,46.072328270731],[15.3754249929116,46.0723101677577],[15.3758872394111,46.0721708962514],[15.3760722149812,46.0721684882804],[15.3762303901921,46.0722552438451],[15.3762437479938,46.0722614981513],[15.3765666752774,46.0724133928279],[15.3766143013212,46.0724211537433],[15.3769016115807,46.0724680735957],[15.3776927028301,46.0724762592853],[15.3779127600314,46.0725186301135],[15.3783523228232,46.0726549282074],[15.3786943418583,46.0725728177227],[15.3789126272609,46.0725828013647],[15.3791257434851,46.072668560992],[15.3792906923999,46.0727996477003],[15.379468510462,46.0729409486345],[15.3795222694399,46.0730134702343],[15.3797898980408,46.0733753619135],[15.3800558302771,46.0735084512737],[15.3805811983357,46.0737505363678],[15.3816023367872,46.0737273371669],[15.3819731302886,46.0737494922197],[15.3824390719892,46.0736966482113],[15.3827458213139,46.0733186247154],[15.382945765632,46.0732369771838],[15.3832177552813,46.0731982759449],[15.3835917034259,46.0732656727753],[15.384094703718,46.0733563882785],[15.3847642617668,46.0732119752588],[15.3850767788583,46.0730339412823],[15.3852455910327,46.0729377286189],[15.385416439794,46.0728741698936],[15.3856263639734,46.0728526775304],[15.3858105913613,46.0728539453138],[15.3857966968308,46.0726038606996],[15.3857171479521,46.0724304767146],[15.3856928244489,46.0723162900746],[15.3857633786169,46.0722377734009],[15.3861811069224,46.0721139962858],[15.3863910256051,46.0719810230428],[15.3864779005625,46.0717036051608],[15.3866030094907,46.0715700184986],[15.3867766562181,46.0714451750228],[15.3868791863114,46.0713180527066],[15.3870669499065,46.0712526347323],[15.38712197023,46.0711345806364],[15.3871362020632,46.0709698774672],[15.3871672913269,46.0709420597412],[15.3872934483871,46.0708294330214],[15.3873422670074,46.0707858994524],[15.3873497186215,46.0707793059959],[15.3873502306594,46.0707785844575],[15.3874072668383,46.0705792755979],[15.3875682665496,46.0704951426431],[15.3876939939124,46.0703398685881],[15.387963930194,46.0701213021614],[15.3883386448915,46.0698761963001],[15.3885322109844,46.0696990966993],[15.3887742942811,46.0696569748232],[15.3888657509006,46.0696292212064],[15.3890774299973,46.0695650681719],[15.3893048326429,46.0694023381088],[15.3894885703929,46.0690966954695],[15.3895529495594,46.0687113812468],[15.3895670815266,46.068570341582],[15.3895762579881,46.0684782654382],[15.3897462875859,46.0683009740291],[15.3897728511271,46.0682733509638],[15.3951465268402,46.0666763704225],[15.403497224729,46.0685036592668],[15.4074618803889,46.0681261836545],[15.4084881587223,46.0664496067654],[15.4083939059563,46.0662714322351],[15.4083250825776,46.0661410337331],[15.4082342379677,46.0659691451698],[15.4078976190908,46.0652461342822],[15.40783120267,46.065003437454],[15.4078123696581,46.0649033619248],[15.4074348462792,46.0646098585871],[15.4070255465991,46.0643538069856],[15.406687369894,46.0642952670289],[15.4066358415823,46.0641429418784],[15.4061738669275,46.0640176290626],[15.4057545878073,46.0638623809227],[15.405323490792,46.0635579037706],[15.4045914743273,46.0631797209106],[15.4046117496087,46.0627349900908],[15.4044705579721,46.0617726616022],[15.4045881315336,46.0617312166297],[15.4048770171268,46.0616443570024],[15.4054501218786,46.0615751137177],[15.4058405856685,46.0614692663372],[15.4063325577292,46.0612996240351],[15.4067128577443,46.061253463593],[15.4072158896441,46.0611472108922],[15.407434528386,46.0609822263318],[15.4074543441555,46.060776921442],[15.4074146125165,46.0604710561817],[15.4071965833075,46.0599978418428],[15.4072282435366,46.0599268282931],[15.407377031716,46.059754624682],[15.4072894584602,46.0595160516143],[15.4071318136831,46.0592217632756],[15.4071080287995,46.0589046840488],[15.4072361287488,46.0588370159387],[15.4068263243815,46.0585062854295],[15.4065469800126,46.0584289106359],[15.4057800519584,46.0583755811796],[15.4046215723364,46.0582938514525],[15.4040747620109,46.058295695927],[15.4039801332891,46.058062093868],[15.4040144427011,46.0574501384679],[15.404217610965,46.0569545542436],[15.4045395833915,46.0568004565582],[15.4045635250106,46.0565394425061],[15.4044310082059,46.0561080284611],[15.4045964494473,46.0557565379575],[15.404800855463,46.0554319018917],[15.4050946026975,46.0549539902232],[15.4051446502342,46.0547288736977],[15.4050910502133,46.0544681342741],[15.405502478704,46.0541787532238],[15.4059926267983,46.0540510472848],[15.4064436080025,46.0538694931254],[15.4069466079041,46.0537327398176],[15.4070354151398,46.0535074844051],[15.4072923492136,46.0532996250568],[15.4077301325045,46.0530821225516],[15.4081032992799,46.0528648490972],[15.4084224403861,46.052681958244],[15.4087079445008,46.0525117833767],[15.4088223220534,46.0522504448082],[15.4091168150516,46.0518804906992],[15.4094246918054,46.0515734708597],[15.4097458865991,46.0513203878562],[15.4100537567649,46.0510133663141],[15.4103606240323,46.0505713839435],[15.410500633902,46.050282958854],[15.4105757659527,46.0499587763597],[15.410636708452,46.0494636908739],[15.4106860659739,46.0491665935826],[15.4107351520577,46.0488155117798],[15.410823469207,46.0485272719576],[15.4101142461668,46.0487277656476],[15.4094412568384,46.0485862172802],[15.4088348038587,46.0487053566513],[15.4079307523786,46.0487715698953],[15.4074530447675,46.0488092641791],[15.4073291564914,46.0486204867589],[15.4070347298402,46.0481719268149],[15.4066488668303,46.0484162348642],[15.4062719063041,46.0486238898245],[15.4060569768003,46.0487422519125],[15.4054133294723,46.0490774470478],[15.4048595354198,46.0493313421268],[15.4036966398777,46.049344542989],[15.4027444875204,46.0490176910936],[15.403133869426,46.0483837888422],[15.40341473815,46.0479149238962],[15.4034235986279,46.0473570428715],[15.4035488808687,46.0468167459493],[15.4036111934488,46.0465016106856],[15.4037095812859,46.0458174472047],[15.4038111790413,46.0455741536471],[15.4038400236281,46.045312312129],[15.4038717840454,46.0450250871105],[15.40397278942,46.0447008172374],[15.403918680349,46.0443680979559],[15.4038776236336,46.0440533276723],[15.4039396709893,46.0437201978477],[15.4038473263487,46.0434595942674],[15.4035565446634,46.043131309788],[15.4036792542439,46.0427536977314],[15.4041712846515,46.0422240705616],[15.4040946336844,46.0418828832242],[15.4038943670953,46.041776429857],[15.4037510340465,46.0416459314273],[15.4036643548845,46.041399793706],[15.4037276473098,46.0412023430541],[15.4037654205516,46.0410845211834],[15.4038214970269,46.0408366194951],[15.4038530408514,46.0406973153631],[15.4038229725373,46.0403475054134],[15.4038106764559,46.0402025977109],[15.4038837545076,46.039752550038],[15.4039218414913,46.0395183881467],[15.4039611367821,46.0393082455272],[15.4039840128844,46.0391852575942],[15.4040666886574,46.0390242683793],[15.4041368814026,46.038887796686],[15.4045348208908,46.0385354828631],[15.4044927148004,46.0380767547284],[15.4042838426676,46.0377805732155],[15.4042183213428,46.0376183984204],[15.4041785874521,46.0375200153012],[15.4042092331085,46.0372756222808],[15.4042396398057,46.0370339293649],[15.4040894226519,46.0367372700469],[15.4040168049945,46.0365938351918],[15.4039414508224,46.0363052787617],[15.4040073354638,46.0360389870153],[15.4039635211115,46.0358413747439],[15.4038302686012,46.035585144243],[15.4034425014069,46.0352559420036],[15.4030172510816,46.0350301630168],[15.4025491268643,46.0349484949993],[15.4021559799667,46.0349267551918],[15.4019786188829,46.0349286387863],[15.4017476643158,46.0349688603115],[15.4014636128361,46.0349198317799],[15.4010876216803,46.0348765237794],[15.4008646282649,46.034802895985],[15.4005335774054,46.0343994346735],[15.4002624772165,46.0341575392492],[15.3999771329359,46.0340180856865],[15.3996117703834,46.0339069837164],[15.3995592057415,46.0338909718136],[15.3995361265554,46.0338613604203],[15.3994556744979,46.0337579892979],[15.3993421719279,46.0336933332982],[15.3992773128798,46.033656309841],[15.3990818044824,46.0335593687288],[15.3987380735233,46.033293969579],[15.3986368934061,46.0332360180829],[15.3985355836731,46.0331779769727],[15.3982704199207,46.0331130388552],[15.3981041274027,46.0330724091996],[15.3976987107427,46.0328868505065],[15.3976344246536,46.0328573821022],[15.3976172343437,46.0328201018687],[15.3975926970961,46.0327671013909],[15.3976150583621,46.032552700769],[15.3975395644508,46.0324554293945],[15.3975357840774,46.0324506738154],[15.3974790109388,46.0324239684458],[15.3971859434643,46.0322861543028],[15.3970933963125,46.0322426575666],[15.3967706143804,46.0320319750462],[15.3966404328668,46.0319824002392],[15.3965794095329,46.0319754139167],[15.3964590435059,46.0319616152962],[15.3962543106335,46.0320003851425],[15.3961413347272,46.03197225438],[15.3958464766047,46.0318542377217],[15.3955962371856,46.0317432639538],[15.3953222425773,46.0316703416824],[15.3949726380988,46.0315192209848],[15.3945744152992,46.0314338595875],[15.3944591405392,46.0314091541849],[15.3944569394207,46.0314084419735],[15.3941577579344,46.0313173386993],[15.3938090271708,46.0313066639892],[15.3935153877504,46.0313409665079],[15.3932248704578,46.0313419664034],[15.3929717240731,46.0313118853239],[15.3928834459205,46.0312685504463],[15.3926733156064,46.0311653502762],[15.3925460384493,46.0311420338193],[15.3924302739555,46.0311209270923],[15.3920780850003,46.0310959527869],[15.392015046736,46.0310595487794],[15.3918736660781,46.0309780654591],[15.3918687377016,46.0309752931001],[15.3916761171835,46.0307902428479],[15.3915147514097,46.0306956010904],[15.3911004907526,46.0305875185808],[15.3907952749728,46.0305369163562],[15.3906077490266,46.0305058858378],[15.3903514765879,46.030453045699],[15.3901012846772,46.0304014438959],[15.3900054249375,46.0303816164109],[15.3898923604534,46.0303583384728],[15.3891103106584,46.0295282754004],[15.3886737690014,46.0291144313364],[15.3881963475019,46.0286724719506],[15.3878285569463,46.0283904759265],[15.3872049220602,46.0283548904364],[15.3864055612379,46.0283859382122],[15.3855915840523,46.0282470649257],[15.3848914711408,46.0278934794516],[15.3848834944133,46.0277491846957],[15.3850586961749,46.0276069722234],[15.385234093921,46.0274931012823],[15.385259251994,46.0272098617621],[15.3851889484498,46.026851454052],[15.3852678308248,46.026492453506],[15.3851446536896,46.0263135463036],[15.3847088217106,46.0259940694126],[15.3840694302558,46.0256374851061],[15.3837155049591,46.0253933090533],[15.3836055052349,46.0251576709671],[15.3836587097633,46.0250253174698],[15.3840232522125,46.0248258757958],[15.3844680523876,46.0244845405828],[15.3849398400851,46.024124307714],[15.3851411047091,46.0238309373116],[15.3839219791719,46.0238917239935],[15.3828117351935,46.0240087280169],[15.3817956407808,46.0240499168083],[15.381753460301,46.0238140503136],[15.3816400948533,46.0230876016681],[15.381650603511,46.0226438941916],[15.3818250183654,46.0223884991727],[15.3810532517448,46.0224760123752],[15.38063459749,46.0226756248847],[15.3804457087969,46.0227989812684],[15.3802017965431,46.0227903454305],[15.379889819002,46.0227442353259],[15.3795090659187,46.0225567303],[15.3788319648885,46.0226061241357],[15.3780196993196,46.0227220935662],[15.3778811278851,46.0222695218799],[15.3766858811701,46.0218486900193],[15.3759259490916,46.0216624221138],[15.3751264862104,46.0216650489013],[15.3746788453026,46.021591027266],[15.3741940152731,46.0214988604794],[15.3744162147469,46.0211810567534],[15.3745950381198,46.0208857088445],[15.3746887402825,46.0205511401867],[15.3751444820203,46.0201436726407],[15.3757190239506,46.0201156022738],[15.3766679731433,46.0199343259153],[15.377187241386,46.0197362853337],[15.3778393931174,46.0194988434633],[15.3781731504278,46.0192000083415],[15.3782659867534,46.0188367371007],[15.3782956929315,46.0185718387862],[15.378231301985,46.0182578549488],[15.3780876666409,46.0180272712659],[15.3776174860054,46.0178826143485],[15.3772702045454,46.0178062917106],[15.3769030152791,46.0176890045097],[15.3762791851419,46.0173583279469],[15.3758197895414,46.017145606077],[15.375447255074,46.017210623618],[15.3750679237094,46.0172255454871],[15.3749175271079,46.0172533917199],[15.3743626954885,46.0174420910684],[15.3742255016031,46.0174744819304],[15.3738073077643,46.0175488211913],[15.3734280897602,46.0176001776177],[15.3733099789551,46.0175321815324],[15.3729760551901,46.0175013301842],[15.3726101931708,46.0175799930839],[15.3723030673022,46.0176356995074],[15.3719628931132,46.0176549823185],[15.3713350456963,46.0176843767148],[15.370766384837,46.0177773688156],[15.3702166298196,46.0177427105608],[15.3698830711982,46.0177665545385],[15.3694324912022,46.0179047757351],[15.3689361608901,46.0180385540576],[15.3681142449519,46.0184059678645],[15.3673107022966,46.0186046112963],[15.3669967454901,46.0186055298894],[15.3667219207884,46.018606412041],[15.3661928347763,46.0187494611012],[15.3658795690663,46.0188552866676],[15.3653696283518,46.018925299917],[15.3647810443162,46.0189772967525],[15.3643168981186,46.0190198063664],[15.3636116949915,46.019250051804],[15.363826165408,46.0190258683936],[15.3638839207272,46.0188524803329],[15.363791308345,46.018693157368],[15.3634615993156,46.0183202652346],[15.363250165093,46.0181992895884],[15.3630924039736,46.0182082486547],[15.3629527693973,46.018204463294],[15.3628129780354,46.0181964493784],[15.3627579338685,46.0181331008929],[15.3626905012945,46.0180317317544],[15.3626170826473,46.0179431581899],[15.3624830296537,46.0178842890999],[15.3623493000294,46.0178551109797],[15.362228013931,46.0178724109716],[15.3621738366862,46.0179614791699],[15.3621322041659,46.0180927964156],[15.3619997441949,46.018258232418],[15.3619587180797,46.0184825830749],[15.361922795907,46.018558906684],[15.3618870109855,46.0186562842787],[15.3618817968524,46.0187874860973],[15.3619371993627,46.0189058093232],[15.3621017420207,46.0189857268563],[15.3621020732691,46.0190364723847],[15.3621083922543,46.0190746022738],[15.3621631323378,46.0190913443535],[15.3621876054633,46.0191208689709],[15.3621756864096,46.0191547377929],[15.3621333622611,46.0191802451937],[15.3620786861673,46.0191931050668],[15.3620238080172,46.0191552189774],[15.3619389939895,46.0191808608875],[15.3618723070495,46.0191937586973],[15.361823664507,46.0191812260565],[15.3617688416998,46.0191517974322],[15.3617142119728,46.01915197034],[15.3616598666544,46.0192155755422],[15.36162979304,46.0192580494917],[15.3615816190937,46.0193174062471],[15.3616486646579,46.0193594829285],[15.3616911821779,46.0193635772647],[15.3617157297595,46.01938473396],[15.361728145509,46.0194269834771],[15.3617042239735,46.0194820346405],[15.3616800911113,46.0195244898001],[15.3615526208899,46.0195248931147],[15.361467668297,46.0195293907061],[15.3614132586127,46.0195633938228],[15.3614074090109,46.0195972433688],[15.3616081337131,46.0196601316599],[15.3616023669202,46.0197066675963],[15.3615423838157,46.0198168982394],[15.3615001691071,46.0198593205798],[15.3613423478769,46.0198598196552],[15.3612510853953,46.0198474215109],[15.3610995819969,46.019885960209],[15.3610818398068,46.0199579072371],[15.3611856646907,46.0200549334079],[15.3613988529656,46.0201473848381],[15.361399073378,46.0201812151861],[15.3613995698937,46.0202574234428],[15.3616377840954,46.0204639750593],[15.3618147563942,46.0206073768355],[15.3618943302237,46.0207086180256],[15.3619324676698,46.0209122033169],[15.3617444576467,46.0208984923319],[15.3613931023137,46.021009194845],[15.3607770422502,46.0213682565932],[15.3605587674494,46.0214475845666],[15.3602090213619,46.021230225258],[15.3600121289656,46.021081845095],[15.3598864498079,46.0209209136362],[15.3598054815848,46.020803299779],[15.3596271878965,46.0207541940859],[15.3592981633559,46.02082352083],[15.3593159059303,46.0208110483394],[15.3589514750771,46.0209176455501],[15.3584621785336,46.0209687580905],[15.3573282008014,46.0204883272215],[15.3569537080352,46.0203963721032],[15.3565525526155,46.0203355407205],[15.3564005099693,46.0202305628609],[15.3562564223554,46.019976559441],[15.3562370059726,46.0197284656392],[15.3558016535399,46.0198725240027],[15.3553746136121,46.0199234295063],[15.3551171174864,46.0200296819564],[15.3549400513185,46.0201915592801],[15.354540297897,46.0203292939085],[15.3540699636114,46.020578906247],[15.3537907636764,46.0207863561481],[15.3537401259442,46.0204406444744],[15.3536125072543,46.0201749798319],[15.3531450264127,46.0199400578099],[15.3530359308796,46.0198852394473],[15.3527420315179,46.0202590081973],[15.3525017819922,46.0203975029648],[15.3521368288445,46.0204234614087],[15.3516643586366,46.0203379991465],[15.3514768086845,46.0202331239859],[15.3512796291602,46.0200351527653],[15.3511001951605,46.019824709972],[15.3509914251098,46.0195148061635],[15.3510080977434,46.0193534276488],[15.3510607801649,46.0192291886686],[15.3509973020388,46.0190556395978],[15.3508805255344,46.0188884624858],[15.3506128592302,46.0187961585555],[15.3502024704393,46.0186609228758],[15.3495155370762,46.0184582398193],[15.3488993508664,46.018168419659],[15.3482754805233,46.0180524536241],[15.3479527218827,46.0176997401986],[15.3470685761464,46.017286648395],[15.3463643267737,46.0171397841978],[15.3459341805519,46.0169390903364],[15.3456223118994,46.0166518400015],[15.3453107678534,46.0166651984244],[15.345267217637,46.0168266573799],[15.3451882299707,46.0170006400693],[15.3451898899301,46.0172674145656],[15.3450231419571,46.0176587747707],[15.3449262530795,46.0178203945747],[15.3449184994993,46.0180065787602],[15.344866087976,46.0181556475496],[15.3448755640881,46.0182672794308],[15.3449207372391,46.0183664768439],[15.3449037636251,46.0185030219709],[15.3448066028159,46.0186211839643],[15.3446204069081,46.0187520310888],[15.3445146423105,46.0189198856324],[15.3445061166566,46.0189819949074],[15.3444530483258,46.0190256133608],[15.3444266610049,46.0190814781254],[15.344551906156,46.0191804343381],[15.3445524068937,46.0192610514973],[15.3446061444618,46.0193043479835],[15.3446686256703,46.019341409719],[15.3446957833007,46.0194095297687],[15.3446962462329,46.0194840286573],[15.3447678067473,46.0195272713114],[15.3447860398865,46.0196140433292],[15.3447776821713,46.0196823604672],[15.3448498080118,46.0198372618075],[15.3448153192082,46.0200234366087],[15.3446740228666,46.0202100235239],[15.3445951442842,46.0204026304381],[15.3445334576735,46.0205144768411],[15.344525715922,46.020682035809],[15.3445348838776,46.0207440917292],[15.3444376412816,46.020849836897],[15.3443939696693,46.0209926707],[15.3444615076361,46.0211366089827],[15.3444935769432,46.0212468230993],[15.344386435278,46.0215057374719],[15.3445158645725,46.0218199940108],[15.3447666208147,46.022037789936],[15.3450561170837,46.022295597711],[15.3451497591422,46.0223789927735],[15.3454513184922,46.0227066745627],[15.3455794426119,46.0228100297174],[15.345834263698,46.0230154842431],[15.3462914754968,46.0234476048527],[15.3466495569782,46.0236618322136],[15.3469015019436,46.0238811493765],[15.3469231903317,46.0239000685067],[15.346999403658,46.0242109745566],[15.3471726975499,46.0245549668258],[15.3473567181839,46.0250645722173],[15.3475393879101,46.0253580587945],[15.3473188903664,46.0257273611274],[15.3472173553239,46.0259939088811],[15.347202207804,46.0262359005906],[15.3471821342601,46.0265576260572],[15.3470501337321,46.0270132159149],[15.3469566268418,46.0273041225125],[15.346743945373,46.0276238230711],[15.3467073185695,46.0280875808086],[15.3465949427545,46.0283361655729],[15.3463463074778,46.0284636955466],[15.3459372891623,46.0285579695135],[15.3456619485449,46.0286705528213],[15.3452802065245,46.0288515688167],[15.3448094886207,46.029057775359],[15.3443475638686,46.029245238447],[15.3439639666631,46.0294200472694],[15.3435700660155,46.0295167865778],[15.3430396474997,46.0297214557072],[15.3428004746214,46.0298774719321],[15.3424078045855,46.0301534357694],[15.3419978950204,46.0304414166404],[15.3414843479257,46.0305982507677],[15.3410394637588,46.0307668445291],[15.3407978575188,46.0305285889164],[15.3407002359978,46.0305976216352],[15.3406695857381,46.0310124124231],[15.3403850469339,46.0313348344188],[15.3400405614017,46.0316566242699],[15.3396413637563,46.0318624166584],[15.3395567852302,46.0321423133424],[15.3394431825968,46.0324502786838],[15.3396090414117,46.0327648818576],[15.3396556163363,46.0329448753612],[15.3395495689489,46.0331788580641],[15.3395142639681,46.0332570620872],[15.3394980342336,46.0337711429908],[15.3394876509023,46.0344383455515],[15.3395363066081,46.0348946490019],[15.3396301300744,46.0351531410488],[15.3389798778444,46.036053841051],[15.3386579334749,46.036687955993],[15.3385548182132,46.0368961958184],[15.3384552712131,46.0372023187647],[15.3383041696298,46.0377404621142],[15.3381531207895,46.0382665482872],[15.3381376871935,46.0385533471045],[15.3380538533491,46.0388523150285],[15.3379183967745,46.0391394687209],[15.337886361136,46.0395218709194],[15.3379545189418,46.0401691357352],[15.3379428468879,46.040310252395],[15.3376699028806,46.0405739685531],[15.3373798286092,46.0408256778499],[15.3377251654805,46.0411831217248],[15.3379153834526,46.0414215353372],[15.3381908090066,46.041564052216],[15.3383967720328,46.0415873761727],[15.3385172206315,46.0416347966629],[15.3385179503697,46.0417542824127],[15.3383642112158,46.0418622587758],[15.3380566586746,46.042066334285],[15.337868751556,46.0421862878402],[15.3380523521368,46.0427795853882],[15.338060808683,46.0428738550338],[15.3380965752061,46.0432724320741],[15.3381321801193,46.0436656110052],[15.33811071035,46.0438951128191],[15.3380958004392,46.0440562136081],[15.3377624348114,46.0444791857309],[15.3379194972708,46.0448089326257],[15.3379398997448,46.0451246873084],[15.3380515336648,46.0452721873921],[15.3381199214045,46.0453625907112],[15.3384385735469,46.0455766897069],[15.3387339346482,46.0459330185542],[15.3389366143197,46.0464731720521],[15.3391344005352,46.0469520661718],[15.3387082137163,46.0471368804796],[15.3381712103686,46.047394091696],[15.3377036471529,46.0476815970036],[15.3372194781383,46.0480015406434],[15.3369351993213,46.0481292448158],[15.3361192441782,46.048352087819],[15.335435975166,46.0486150247338],[15.3352212698435,46.0483682213959],[15.3349885061722,46.0480836807644],[15.3345988618914,46.0480110420009],[15.3342150842044,46.0479896709236],[15.3339313731409,46.0478267443351],[15.333367358898,46.047508077152],[15.3328135846534,46.0471290936005],[15.3325471790629,46.0468770371657],[15.3323237972253,46.0465375785274],[15.3322396173868,46.0462472015489],[15.3319441143368,46.0459899196787],[15.3317821578414,46.0456574795805],[15.3314698295531,46.0455459160779],[15.3310814987318,46.0455812324149],[15.3307879944923,46.0457872269945],[15.3302941363784,46.045721173397],[15.3299325815543,46.0456097479408],[15.3293096815375,46.0455719550049],[15.3289247139264,46.0456081540809],[15.3285043877105,46.0456957396812],[15.3274702244751,46.0456177291647],[15.3271076905103,46.0456677141113],[15.3267036675953,46.0457158370405],[15.3265011767512,46.0456695382868],[15.3263659126182,46.0455854373586],[15.3262304095229,46.0454826219904],[15.3259331547794,46.0453614628996],[15.3248139607477,46.0452801617386],[15.3238835256847,46.0452171198174],[15.3230894643579,46.0454070566863],[15.3228078067644,46.0456331518575],[15.3223648106044,46.0459346512985],[15.3220567617769,46.0462452162922],[15.3217883702915,46.0464431091233],[15.3213718782434,46.0466601327922],[15.3207261041365,46.046868441076],[15.3204705999226,46.0469723599458],[15.3200131349158,46.0471442357174],[15.3197811432639,46.0475164848419],[15.3196457059732,46.0479838377592],[15.3195128403342,46.048202850284],[15.319491625649,46.0485799078759],[15.3192411081934,46.0488334396457],[15.3188826292188,46.049121462886],[15.3190136398387,46.0494099193288],[15.3185629806937,46.0496910007281],[15.318238963397,46.0500859969307],[15.3180708605437,46.0504940547587],[15.3176586847333,46.0508632016089],[15.3175172089035,46.0509803831569],[15.3172728401525,46.0511827872346],[15.3169995784974,46.0514174822121],[15.3167202943522,46.0515937090273],[15.3163293797549,46.0518872125302],[15.3158122350624,46.0522539438228],[15.3155139384958,46.0525195660243],[15.3154169917653,46.0526059403076],[15.3150550751088,46.053024425526],[15.3148524173519,46.0533156053095],[15.314679438855,46.0536221788203],[15.3146287695435,46.0538023595658],[15.3145102412619,46.0541625883228],[15.3137180234222,46.0542727362744],[15.3130108476499,46.0541787610916],[15.3124930454142,46.0540241602103],[15.3118537410667,46.0537499510318],[15.3115595633208,46.0535348117668],[15.3111089041197,46.0530920994877],[15.3105550051586,46.0526736894571],[15.3097760299156,46.0520758456528],[15.3091372927833,46.0518736901655],[15.308671818872,46.0518509246776],[15.3075867309329,46.0519498539712],[15.3069664527051,46.0519755450365],[15.3064316404969,46.0518929428574],[15.3060683519018,46.0516300176291],[15.3051887043264,46.0515123422554],[15.3044730903005,46.0513552637945],[15.3042744234768,46.0513467952799],[15.3035146255579,46.051072950025],[15.3028911431284,46.0505346599129],[15.3022851847595,46.0500323102835],[15.301337815125,46.0497166578473],[15.3001612186898,46.0492580885115],[15.2990908913598,46.0489249250632],[15.2986589778781,46.0487461030554],[15.2978805734867,46.0481962233431],[15.2955810370428,46.0468224154482],[15.2950277005694,46.0464758189096],[15.2943365663065,46.0461417213409],[15.2937150724496,46.0459513118714],[15.2935610355793,46.0461437158684],[15.2931942590187,46.0467170830309],[15.2929606117141,46.0470054245699],[15.2929099026675,46.0470680876731],[15.2928486659191,46.0471436442581],[15.2926916574527,46.0473373143161],[15.292675393222,46.0474873455112],[15.2926711481607,46.0475154288095],[15.2926193363143,46.0478588188731],[15.2925147113197,46.0481114685893],[15.292334779838,46.0483451460063],[15.2920965864536,46.0485576477953],[15.2914668617094,46.049066268518],[15.291403343436,46.0492247877189],[15.291434416156,46.0492361354079],[15.2915225858434,46.0492684817624],[15.29166285184,46.0492800906847],[15.2918780093865,46.049231854318],[15.2924560413232,46.049261328382],[15.2925224747586,46.0492884210142],[15.2925430652935,46.0492968260304],[15.2925895557815,46.049315781877],[15.2926551438239,46.0494274537555],[15.2926873475468,46.0496773237854],[15.292633265618,46.0497869626864],[15.2926107560702,46.0498067249926],[15.2924965353438,46.0499068903728],[15.2922034355276,46.050025058348],[15.2920441442838,46.0502289005056],[15.2919255383383,46.0504291294748],[15.2917697039507,46.0507008940452],[15.2916609706894,46.0508131013068],[15.2914225261277,46.0509803444729],[15.2912934574373,46.0511330023043],[15.2911952269227,46.051326070475],[15.2911239953654,46.0514191068216],[15.2910250372006,46.0514984474466],[15.2907427025434,46.0517248249549],[15.2907183526427,46.051738923096],[15.2904324641674,46.051904125418],[15.2901115629699,46.0519477688037],[15.2897327287686,46.0520087435088],[15.2887526095199,46.0524191734481],[15.2885809126067,46.0525275778655],[15.2883230789633,46.0526722795772],[15.2880303076657,46.0527090079999],[15.2876008382014,46.0529500545107],[15.2874295682685,46.0531664268831],[15.2871888582911,46.0532750027246],[15.2868796414655,46.0534558205108],[15.2865526707565,46.0535525547489],[15.2862080781808,46.0535654748873],[15.2859659729329,46.0537300164819],[15.2857185300335,46.0537619468237],[15.2850655878801,46.0537243477995],[15.2844008406119,46.0535770941241],[15.2840862210556,46.0536640732016],[15.2838730281649,46.0537977668282],[15.2837051765891,46.0539784047708],[15.2835257513147,46.0541199317749],[15.2832896775582,46.0541518286528],[15.2829409941101,46.0541996596202],[15.2828289938334,46.0543096171035],[15.2826395304478,46.0546627002226],[15.2825841843356,46.0548587139833],[15.2825628565641,46.0550859551282],[15.2825497689055,46.055180461871],[15.2825085085797,46.0554778432606],[15.2824303642333,46.0555877166415],[15.2821947134752,46.0557293804346],[15.2819029633765,46.0558945757701],[15.2817683512649,46.0559811043177],[15.2813533484047,46.0562563722419],[15.2810058425393,46.0565393005967],[15.2806470097322,46.0568065099665],[15.2803555270956,46.057026585765],[15.2800522439734,46.0571370094995],[15.2798167782309,46.0573178072703],[15.2796938778564,46.057498329151],[15.2796275912744,46.0577570811217],[15.2795392220758,46.0580706821687],[15.2795178308451,46.0583136684929],[15.27934963518,46.0584315877712],[15.2790908840122,46.0584557034982],[15.2787764253446,46.0585818068519],[15.2787205098565,46.0586681397967],[15.2785633979919,46.0587547193901],[15.2784508285236,46.0587549936852],[15.27818016226,46.0586458825853],[15.2777858137421,46.0585371614778],[15.2774606042091,46.0586334154539],[15.2771905692638,46.0588049342196],[15.2767528387701,46.0590411010498],[15.2761457539497,46.0591913889364],[15.2756170362578,46.0592474602074],[15.275349572973,46.0593660627854],[15.2752466560051,46.0594364016156],[15.2750441580294,46.0594682005681],[15.2746727126559,46.0594690938011],[15.2741661042999,46.0594232529149],[15.2735580795594,46.0593854804271],[15.2726916196934,46.0594110345195],[15.2721877978683,46.0593794843271],[15.2719640020852,46.0594435397813],[15.2718365816722,46.0594992678284],[15.2717696541556,46.0595826543537],[15.2717296834756,46.0598919053161],[15.2726413012014,46.0599538869773],[15.2729499976909,46.0603851227123],[15.2744421333566,46.0607721334122],[15.2753062444465,46.0617781409329],[15.2754148962434,46.0621064696977],[15.2756793513631,46.0623676608466],[15.2759646787745,46.0622518036718],[15.2762200464394,46.0621674196364],[15.276585035843,46.0621901105807],[15.2771722246373,46.0622935096169],[15.2775219468047,46.062261259564],[15.2779903902779,46.0622427559326],[15.2783721617277,46.0622868145199],[15.2791826296516,46.0623502499506],[15.2795404722148,46.0622881020226],[15.2797516925965,46.0622671608078],[15.2803738183201,46.0622492608897],[15.2806560592405,46.0623425925976],[15.28102052478,46.0624397703722],[15.2814909059261,46.062573576138],[15.2819021262274,46.0626379748397],[15.2823185844596,46.062563346992],[15.2822247770653,46.06292429039],[15.2820107962199,46.0637741870645],[15.2818009374331,46.0643685427407],[15.2816094537243,46.0649169652168],[15.281551271655,46.0654731568266],[15.2814088218255,46.0661078344824],[15.2813790286203,46.0665787492609],[15.2815071983822,46.066669128894],[15.2817105860306,46.0668331928423],[15.2821389079792,46.0669497342429],[15.282376124565,46.0671057956533],[15.2825903222939,46.0671836348676],[15.2827481413925,46.0672068181309],[15.2830972577713,46.0672529211388],[15.2832322959192,46.0672447587345],[15.2836050773566,46.067494595862],[15.2843267417917,46.0677435644284],[15.2847923712988,46.0679736419972],[15.2850483321142,46.0679768728926],[15.2853637180024,46.0680231430626],[15.2860619743339,46.0680919383585],[15.2866326669172,46.0680395825589],[15.287079401513,46.0680386413452],[15.2873939965664,46.0680815788091],[15.2880108104007,46.0681238442536],[15.2883249357854,46.0680266886322],[15.2886325437571,46.0678945481699],[15.2889088387962,46.0678063040538],[15.2892613915815,46.0678404128147],[15.2900986050943,46.0679082918526],[15.2904884910503,46.0678635735855],[15.2909346793264,46.0677835303059],[15.2911992057949,46.0678179470913],[15.2919925044349,46.0679166057448],[15.2923696285079,46.0678543684569],[15.2932509344301,46.0679483844307],[15.293917861387,46.067933534982],[15.2946937854999,46.0683124929522],[15.2952486833301,46.068547606266],[15.2957521317339,46.06856375992],[15.2961671067505,46.0684970033684],[15.2967763068863,46.0682983770835],[15.2972272490353,46.0679249770702],[15.2975659398373,46.0677357772899],[15.2978800698433,46.0676430041814],[15.2982952361453,46.0676375126505],[15.2984530199858,46.0677246468402],[15.2986747000019,46.0679867959881],[15.2987316225058,46.0681870224648],[15.2991209096422,46.0684631286123],[15.299230123855,46.0685320338315],[15.2994245574236,46.0686547909479],[15.2997629286321,46.0688130705132],[15.3000752526636,46.0689590908293],[15.3004233626204,46.0691485643249],[15.3007609736175,46.0693323959317],[15.3013736684804,46.0697059794438],[15.3016381053881,46.0699583826464],[15.3019316356491,46.0700932005358],[15.3024692834373,46.0705929418654],[15.3028401862471,46.0707629129515],[15.303215919823,46.0709175742022],[15.3033174677113,46.0712370772084],[15.3030747032409,46.0716638444635],[15.3034828352569,46.0722799924341],[15.3039834933955,46.07258187892],[15.3046601285442,46.072888602822],[15.3051863490927,46.0729240888887],[15.3055797704869,46.0729770229596],[15.3061846410639,46.0729978980798],[15.3066114464113,46.0730327440997],[15.3067502229004,46.0730440685392],[15.3073896261749,46.0734634353101],[15.3077515724821,46.0736904588207],[15.3079709471982,46.0738280700415],[15.30903065267,46.0737604276243],[15.3094854440898,46.0738743655228],[15.3100019775654,46.0740708214888],[15.3108061156552,46.0742591154442],[15.3108603551481,46.074271834413],[15.3110430410318,46.0742973402856],[15.3117281131885,46.0743927372743],[15.312293782135,46.0744280830196],[15.3124039353341,46.0744751090179],[15.3126267046743,46.0745702336621],[15.3129221362351,46.0746892723479],[15.3130348668993,46.0747346711242],[15.3134754276885,46.0749125145699],[15.3145732227237,46.0749931755656],[15.3149561781757,46.074997519487],[15.3171565849016,46.0750273352053],[15.3188864484853,46.0750189231401],[15.3197680547526,46.0750254576788],[15.3206611346154,46.0748031460231],[15.321267103211,46.074652355327],[15.3225886785497,46.0743318300143],[15.3235786781693,46.0740844787402],[15.3237698615262,46.0740367902802],[15.3242944184279,46.0739167157259],[15.3250851506673,46.0741037775912],[15.3251812094172,46.0741265380291],[15.3260140259185,46.0738631472388],[15.3268706126576,46.0738391067403],[15.3273496418694,46.0738261290122],[15.3280234522227,46.0738062022026],[15.3286760747138,46.0725473719513],[15.3301909143841,46.0722639023668],[15.330336961133,46.0722365777413],[15.3311901731274,46.0723012303093],[15.331766871441,46.0723449054163],[15.3320373310984,46.072304530905],[15.3332889508593,46.0728811391573],[15.3332892099488,46.0728812283772],[15.3336302130621,46.0731555580764],[15.3338015513144,46.0733562426841],[15.3338799299468,46.0734480585286],[15.3341009249243,46.0736507570234],[15.3345766849117,46.0736107659614],[15.3351701772146,46.0734361845454],[15.3359163266956,46.0733656128662],[15.3359164559707,46.0733656124862],[15.336209286246,46.073687762962],[15.3371201999762,46.073478766473],[15.3380246518418,46.0732712214309],[15.3386869645995,46.0731064054568],[15.3387491620131,46.073087776195],[15.3397644512399,46.0727846949112],[15.3400530550006,46.0726681283538],[15.3406220058884,46.0724383467387],[15.3411103763744,46.0722444330308],[15.3420891939927,46.0722990019588],[15.3432434248067,46.072372020671],[15.3442553186823,46.0724229626765],[15.3455668633005,46.0724513960855],[15.3474869308375,46.0725040589244],[15.3481385425266,46.0723086290625],[15.3486207445781,46.0722891642639],[15.348811566902,46.0723527345154],[15.3501583492534,46.0728017324512],[15.3505561856722,46.0729327767475],[15.3508814764981,46.0730397490387],[15.3514855527793,46.0733806990909],[15.3517618034839,46.0732358887047],[15.3528001086538,46.0733703508431],[15.3540952861383,46.0732610746329],[15.3553554453262,46.0727119131568],[15.3562127912194,46.0723484432897],[15.3573551487452,46.0725617180585],[15.3577816214894,46.0730407623168],[15.3585306315776,46.0734172115173],[15.3586067153392,46.0741862619729],[15.3603444634297,46.0736661377958],[15.3604862629613,46.0735640185315],[15.3607248253446,46.0733923127361],[15.3611865669132,46.0733469465999],[15.3618163301998,46.0732166499721],[15.3624172208729,46.0730998477498],[15.3632801097666,46.0730159507106],[15.3636870927647,46.072940336826],[15.3640188225656,46.0732362894556],[15.3642138849278,46.0733909655092],[15.3644081927522,46.0734308350917],[15.364679305537,46.0733354063247],[15.3648330957616,46.073112046606],[15.3650826782205,46.0726925943687],[15.3651403170804,46.0726114324285],[15.3654013722794,46.0724619588715],[15.3659049412574,46.0723117985922],[15.3663121833071,46.0722766634338],[15.366807309287,46.0723357189556],[15.3670305176623,46.0723282542706],[15.3674566119107,46.0722119866921],[15.3679803709694,46.0721832190966],[15.3686393706191,46.0720797833236],[15.3689303097786,46.0720517620288],[15.3689585610682,46.0719069904421],[15.3689432439669,46.071781164339],[15.3689418674801,46.0715745853215],[15.3691219676439,46.0714228452079],[15.3693748663659,46.0713514875117],[15.3699525135579,46.0711278299852],[15.3706318400786,46.0709542260819],[15.370936758189,46.0710842410965],[15.3712196278974,46.0711840052015],[15.3714883187067,46.071309007796],[15.3717142591243,46.0715551656778],[15.3719462832332,46.0716097457313],[15.3721633559755,46.0715939232767],[15.3723525619455,46.0717594915776],[15.3726274467231,46.0717283640304],[15.372807842568,46.0716219647372],[15.3731239882472,46.0712682296448],[15.3733688058471,46.071111232922],[15.3736660840843,46.0711808021515],[15.3740002732296,46.0713560608863],[15.3740595401441,46.0715371673343],[15.3741269664217,46.0718543797813],[15.3744550728094,46.0721807257234],[15.3748801932787,46.0723622521233],[15.3753647442577,46.072328270731]]]},"properties":{"fill-opacity":0,"stroke-opacity":1,"stroke":"#ff0000","lov":"0704","lov_naziv":"ZABUKOVJE","luo":"07","luo_naziv":"Posavsko","povrsina":3798.36},"id":"pregledovalniklovisca.1"}]}