<?xml version="1.0" encoding="utf-8" ?>
<kml xmlns="http://www.opengis.net/kml/2.2">
<Document id="root_doc">
<Schema name="pregledovalniklovisca" id="pregledovalniklovisca">
	<SimpleField name="lov" type="string"></SimpleField>
	<SimpleField name="lov_naziv" type="string"></SimpleField>
	<SimpleField name="luo" type="string"></SimpleField>
	<SimpleField name="luo_naziv" type="string"></SimpleField>
	<SimpleField name="povrsina" type="float"></SimpleField>
</Schema>
<Folder><name>pregledovalniklovisca</name>
  <Placemark id="pregledovalniklovisca.1">
	<Style><LineStyle><color>ff0000ff</color></LineStyle><PolyStyle><fill>0</fill></PolyStyle></Style>
	<ExtendedData><SchemaData schemaUrl="#pregledovalniklovisca">
		<SimpleData name="lov">1114</SimpleData>
		<SimpleData name="lov_naziv">PLANOTA</SimpleData>
		<SimpleData name="luo">11</SimpleData>
		<SimpleData name="luo_naziv">Triglavsko</SimpleData>
		<SimpleData name="povrsina">4797.82</SimpleData>
	</SchemaData></ExtendedData>
      <MultiGeometry><Polygon><outerBoundaryIs><LinearRing><coordinates>13.8839025013688,46.0928339765383 13.8833960393767,46.0936876666569 13.8830467561683,46.0941283731412 13.8822711653276,46.0946093580793 13.8813473711058,46.095044529276 13.8803835467297,46.0953608930014 13.8795076620559,46.0955301009743 13.8785248837073,46.0957278553463 13.8772643134419,46.095982076619 13.8766845287077,46.0962428872112 13.8762968425693,46.096475981772 13.8761613984343,46.0968595654076 13.8757887265411,46.0974035813821 13.8754951143289,46.0982444834574 13.8751900882368,46.0985967952468 13.8747771300798,46.0990220035092 13.8738509225954,46.0995754978775 13.8731224148784,46.0998200687736 13.8722402300838,46.1003000242155 13.8718941369957,46.1005778720406 13.8710997393741,46.1009254313978 13.8700900569626,46.101389264801 13.8696405400557,46.1015181635478 13.8690223524289,46.10157134173 13.8682560968404,46.1015786925371 13.8673600838839,46.1016883141483 13.8666118273673,46.1018586879265 13.8657582233908,46.1019687175254 13.8655029464019,46.1019662738072 13.8651718728616,46.1019008139043 13.864718082587,46.1018401624868 13.8640821968446,46.1017155265345 13.863658128647,46.1016374411312 13.8631712233839,46.1015141912735 13.8627492890343,46.1013324719488 13.8623447384953,46.1013432917098 13.8612180031113,46.1012878926178 13.860388784551,46.1012501153941 13.8597103706636,46.1011250310248 13.858924920248,46.1010285659393 13.8580130618934,46.1008715385996 13.8572495668299,46.1007456794209 13.8565094274675,46.1005163070475 13.8554326101011,46.1001061269585 13.8541463349293,46.0995308912026 13.8534699739034,46.0993022284609 13.8525134667843,46.0992483610619 13.851769500447,46.099211467133 13.8510691808103,46.0991157132553 13.8501391174667,46.0988104302034 13.8491256464982,46.0984303397873 13.8479369565856,46.0982853798915 13.847151570379,46.098188744456 13.8449247276902,46.0978262428072 13.8435504371579,46.0973980976663 13.8421532829679,46.0970437542301 13.8405052410775,46.096479634844 13.8393857728773,46.0960836263923 13.8384980574535,46.0957934343818 13.8381810656785,46.095750443191 13.8374751206225,46.0968609415603 13.837064227473,46.0973039399904 13.8364902501519,46.0978569364668 13.83526679023,46.0987388318356 13.834125363074,46.099537603658 13.8331882622832,46.1001708257509 13.8327813079529,46.1004182419589 13.832536859148,46.1005833696282 13.8320124554412,46.1006899412512 13.8316905186997,46.1007146331527 13.8314944147084,46.1004891290971 13.8310236803504,46.0999534595777 13.8302827965411,46.0988842576303 13.8295781467512,46.0980110286609 13.8292668661959,46.0975329493036 13.8287104261378,46.0972478737828 13.8281098913131,46.0971580403367 13.8277867897789,46.0972385841428 13.8276616700085,46.0974608001573 13.8276941875948,46.0978243651694 13.8276446281839,46.0982709454943 13.8275536685284,46.0987729758969 13.8273387657027,46.0994413590205 13.8269323844107,46.0996607779222 13.8264830802228,46.1000193967177 13.8260679267475,46.1006578285728 13.8256497971536,46.1014359602875 13.8254808806641,46.1018254381338 13.8247881256523,46.1022933876107 13.8241796925917,46.1025666835937 13.8235755449358,46.1026443236857 13.8226139807603,46.1025228522951 13.8218909617601,46.1025154916247 13.8210080539758,46.1024785846967 13.8204055601838,46.1024724578769 13.8198775419309,46.1027464709232 13.8187328275555,46.1036847866889 13.8174303116916,46.104481816216 13.8162430355225,46.1055315059529 13.8159919354824,46.1060038854903 13.8151128120629,46.107671377556 13.8142082614075,46.1086400293353 13.8129830114635,46.1095774511262 13.811681603508,46.1103185512668 13.8109502048777,46.1107021574603 13.8096085191433,46.1114428148439 13.8089483818518,46.1122463457387 13.8083213548299,46.1133854662225 13.8075755600927,46.1144394869669 13.8069610101223,46.1149920005264 13.8066252397903,46.1156590813546 13.8061660176138,46.1164646933475 13.8056269295737,46.117241486485 13.8051310751379,46.1178789973254 13.804186080351,46.1188471455267 13.803572656212,46.1193437776384 13.8026347408206,46.1199767390205 13.8020218965688,46.1204453864964 13.8014930087406,46.1207472871485 13.8010061650606,46.1209657694649 13.8007571576972,46.1213263871212 13.8006636169416,46.1219401165675 13.8002534556848,46.1223270241845 13.799563132993,46.1226552034129 13.7979307778592,46.1238117738439 13.7973549147257,46.1244205165131 13.7964505143159,46.1253610447179 13.796196716577,46.1259451901429 13.7953720023616,46.1269145311612 13.7941818642902,46.1280477251061 13.7932785678394,46.1289324547665 13.7925239822939,46.1293886671347 13.7918070685661,46.1300626526814 13.7909078513293,46.1307518005351 13.7875287340111,46.1327283871948 13.7864741109879,46.1331644607827 13.7857453036689,46.1334082906857 13.7841712515561,46.1336991820735 13.7828383678482,46.1339925303489 13.7815469428348,46.1342304305241 13.7807012050109,46.1343054479962 13.780374863884,46.1345255542058 13.7795958965069,46.1352158958015 13.7788973927214,46.1359070917103 13.7782433095495,46.1364031523366 13.7769338709745,46.137451123154 13.7761555683339,46.1381134658982 13.7755354837677,46.138889337382 13.7754408798183,46.1395310154527 13.775541665708,46.1404261769641 13.775611627824,46.1409019045099 13.7754378976261,46.1414868602253 13.774665587151,46.1418698842986 13.7730455352487,46.1424116091622 13.7719152215009,46.1426231475175 13.7703453206764,46.1427182872558 13.7688117937463,46.1429815106162 13.7680451553623,46.143113070939 13.7674359961539,46.1433859656494 13.7670661825593,46.1437452959112 13.7664114046874,46.1442692630324 13.7662461750529,46.1444630851597 13.7671311051046,46.144895876234 13.7677489069985,46.1453386471644 13.7685050213015,46.1458313115788 13.7686750251162,46.1460269491907 13.7687355964427,46.146439596924 13.7689378445395,46.1467567776944 13.7693824313599,46.1471492673219 13.7696200410951,46.1474425343467 13.7699840849517,46.1483188493104 13.7704180315118,46.1491958250244 13.7710321311653,46.1498082306095 13.7713024206924,46.1501987483045 13.7720602474348,46.15061879741 13.7722941133997,46.1510817110334 13.7726535065072,46.1521759759794 13.7728493330185,46.1527839691497 13.7731523124094,46.1532718260767 13.7737262876097,46.1541260881611 13.7746504738914,46.1549113126634 13.7758537617347,46.1556994291534 13.7768509950693,46.1563400187038 13.7779453316703,46.1573209325121 13.7789345788611,46.158324916213 13.7801035859447,46.1590884179581 13.7810393119708,46.1593648161832 13.7820843251917,46.1594242725917 13.7826426583288,46.1594059274107 13.7837295677646,46.1591507235394 13.7849896373691,46.1589458465487 13.7856182720438,46.1589039409518 13.7866955717902,46.1590848041892 13.787596251054,46.1593607766591 13.7884949403178,46.159733713645 13.7892858562963,46.1602509010928 13.789732822628,46.1605463429422 13.7900439607603,46.160670742966 13.7905660185732,46.1607246745976 13.7915202288627,46.1603143157116 13.7923030525577,46.1598893616696 13.7927623439477,46.1595923485761 13.7935597472559,46.1593643145514 13.7946590217905,46.1591393687722 13.7956245302638,46.1589918208316 13.7970212479994,46.1589666708211 13.7979599785305,46.1591861880115 13.7988806743833,46.1593660990433 13.7997284733239,46.1594271903752 13.8005214150186,46.1594089718911 13.8010282398453,46.159532246311 13.8014358566069,46.1598774354714 13.8017864650898,46.1602483881229 13.8020106023317,46.1603555580584 13.8023690583132,46.1603592245575 13.803033538849,46.1601691405346 13.8040964137436,46.1598781312831 13.8047212214656,46.1597795764625 13.8052519434298,46.1596668085259 13.8059884701345,46.159634916066 13.8066107219874,46.1596542810197 13.8072335400552,46.1596474658621 13.8077779007043,46.1597841483515 13.808924203131,46.1600056503503 13.809166557373,46.1601392686786 13.809695139568,46.1601314582612 13.8103198132658,46.1600327814674 13.8107921048412,46.1600113337376 13.8116592647635,46.1600462653591 13.8123561467174,46.1601057838071 13.8126408249759,46.1600299236326 13.8128308494013,46.159966215969 13.8132266924135,46.1599833730242 13.8135641221267,46.1600916965465 13.8141011010148,46.1602775783773 13.8144682412301,46.1601663094077 13.8148322008804,46.1599076277802 13.8153906836589,46.1593752788162 13.8157192099309,46.1590778978845 13.8156543109958,46.1585120944686 13.8157176355323,46.1581978392033 13.8159481330376,46.158003362589 13.8162141779755,46.1579141641641 13.8166119766887,46.1578394656026 13.8170631003378,46.1579226832912 13.8174190138269,46.158044323072 13.818372782137,46.1584474664642 13.8189545502451,46.1585975287654 13.8193874955749,46.1586412304889 13.8198593204545,46.1586408845184 13.8216664510058,46.1583736792833 13.8229729160537,46.1579953906389 13.8247559822294,46.1575918470063 13.8259237406292,46.1576335397554 13.826961665293,46.1576738881789 13.8280472983755,46.1575040856228 13.8286932875133,46.1576609650686 13.8296052055998,46.1575195089231 13.8301714856017,46.1573444569549 13.8314258439334,46.1573869797756 13.8325459149997,46.1576387480174 13.8336734949866,46.1575295135177 13.8345415272969,46.1574177116795 13.8348506577719,46.1571198080399 13.8349040550176,46.1566388078356 13.8357732127236,46.1564667250666 13.837465868641,46.1562426413895 13.8386843123751,46.155923560851 13.8393396763963,46.1556289823754 13.8402490064273,46.1556078011521 13.8414544182974,46.1559205411006 13.8437077112956,46.1557921109088 13.8451802397881,46.1557462650857 13.8463170631421,46.1551855062168 13.8473303133147,46.154322704436 13.8487311361858,46.1535537727329 13.8499525907629,46.1530841645821 13.8504811665039,46.1526378985869 13.8512260225095,46.1521937140932 13.8519653654395,46.1520202933122 13.8526594661483,46.151936748249 13.8531341526869,46.1520015253381 13.8539519598454,46.1522200891272 13.8549453283351,46.1523199298036 13.8561624701414,46.1520608428822 13.8575921525968,46.1519843568234 13.8603614446182,46.1520111022562 13.8612707101494,46.1519897531432 13.8621238499709,46.1525998205071 13.8631649484833,46.1521432113307 13.8643111682129,46.1517991158746 13.8655330051713,46.1515923411055 13.8659650625677,46.1515964486783 13.8664009156674,46.1514093959657 13.8669995035037,46.1509507915306 13.8679077370979,46.1507136199702 13.8684967901549,46.150719272851 13.8689288411526,46.1507233691599 13.8692043188176,46.150698652574 13.8698796359547,46.1503226691142 13.8703940309705,46.1501363776945 13.8708669696325,46.1500589937426 13.8712646929153,46.1498169310989 13.8719483551461,46.1490312727481 13.872154055146,46.148568852954 13.8724753001528,46.1482168020026 13.8729537942096,46.1478663007936 13.8734791705317,46.14713377684 13.8736809512119,46.1468625119662 13.8744768789895,46.1463511078647 13.8772144328189,46.1449839627096 13.8781689525231,46.1443920335176 13.878447721782,46.1442034828017 13.8784525836525,46.1439577192832 13.8782677765284,46.1433823161654 13.8777665310482,46.1429132156017 13.8775778474505,46.1425290597337 13.877463836647,46.1423367435155 13.8774294903903,46.1420905948853 13.8777883397101,46.1418208650855 13.8784662626882,46.1413082741749 13.8793094603133,46.1403875542473 13.8801907329371,46.1395218157739 13.8832613608069,46.1371743614154 13.8843524818575,46.1356276407928 13.8842248888747,46.1345694594852 13.88397523808,46.1332752513985 13.8839885069516,46.1326056071388 13.8840185865951,46.1310909016896 13.8841456546649,46.1304701449755 13.8842641364628,46.1301911193915 13.8852118403104,46.1299268426488 13.8860830694143,46.1295526730326 13.8866811279271,46.1290938689609 13.8870910223651,46.1282236632715 13.8875777887091,46.1274360815131 13.8876649899293,46.1269998312945 13.888025339638,46.1266481160691 13.8885405513563,46.1264071354899 13.8887007818386,46.1262447589219 13.8886287120523,46.125916278917 13.8882475926925,46.1253390711497 13.8880975453458,46.1249825697853 13.887984081291,46.1247630063542 13.8879480484087,46.1245988110975 13.8880729218431,46.1242448942261 13.8883924028089,46.1239747474285 13.8890689088254,46.1235166934176 13.8900233462766,46.1228974001464 13.8922081578262,46.1216066694897 13.8928071709554,46.121093317142 13.8934142458461,46.1201702927482 13.894294971157,46.1193044376275 13.8951751239157,46.1184658325611 13.8958886476045,46.11811741553 13.8969161154968,46.1177718444619 13.8974279381183,46.1176946356779 13.8978253093508,46.1174525660928 13.8983892558401,46.1167202962223 13.8989548196047,46.1159060716329 13.899315982395,46.1154997131073 13.8999520141361,46.1150958193307 13.9006643784711,46.1148019761471 13.9011417314562,46.1144786067822 13.9014765310252,46.1139718454186 13.9006985340003,46.1136373950397 13.9002816438754,46.1133864024404 13.8999552035018,46.1130436043644 13.8999199254382,46.1125799821146 13.8999766260727,46.1119474617361 13.9002557134392,46.1113016055569 13.9004162739945,46.1110406024446 13.9007759218518,46.1108123755349 13.9009791297478,46.1106444563377 13.901139861334,46.1103680680494 13.9011243661012,46.1100281722788 13.9010433590274,46.1096259235208 13.9006935902257,46.1093447160644 13.900255101695,46.1090625639065 13.8999798048641,46.1083806008147 13.9000527327182,46.1080570315391 13.9003058697191,46.1075961843401 13.9004912967358,46.1071964982643 13.9004784403348,46.1067176156617 13.9003796237956,46.106099074012 13.9003475918591,46.1054656990237 13.9001792836256,46.1049854104524 13.8996573826217,46.1044246090236 13.8992186300128,46.1041579258508 13.898516239329,46.1037497784452 13.898476363926,46.1035177974136 13.8984160908986,46.1031929450741 13.8984001760818,46.1028685202382 13.8982748393812,46.102465931706 13.8986132483024,46.1021911692163 13.8989692870788,46.1021481723418 13.8993900796496,46.1021985626222 13.8997464257371,46.1021400905103 13.9001970091582,46.1018046799817 13.9005633479572,46.1012368604851 13.9007298840298,46.1006671182148 13.900543027719,46.1000013019132 13.9000421821061,46.09950251744 13.8994139918095,46.0987090044596 13.8993093640285,46.0983837251974 13.8994266352315,46.0980605828237 13.8998130487512,46.0976010192806 13.8999315425725,46.0972161649153 13.8999157492428,46.0968917411365 13.8997700180855,46.0963961927627 13.8995765570223,46.0960701483971 13.899495709101,46.095667899102 13.8995111151466,46.0948804915007 13.8991914149805,46.0941980972549 13.898913874667,46.0936395546945 13.8981561986971,46.0931049957837 13.8977298903166,46.0928871030785 13.8970030781177,46.0926023364113 13.8962308726048,46.0923633741755 13.8957027884356,46.0921266757473 13.8949579462841,46.0916255104335 13.8946949882301,46.0914531836844 13.8942770577506,46.0912638813099 13.8936419401748,46.0908254921047 13.8929425397276,46.0902783259737 13.8923287546866,46.0898864734672 13.8919329529952,46.0896973769204 13.8909684816801,46.0890859950231 13.8905064148882,46.0888808646295 13.8900616356509,46.08892288342 13.889549779961,46.0889952004005 13.8892804723253,46.0891470716505 13.8884532762904,46.0894480059496 13.8876266934948,46.0897179885987 13.8867767503808,46.0900495509896 13.8861923893457,46.0904145572234 13.8856947985319,46.0908884672087 13.885105884664,46.0914850207027 13.8845234715527,46.0921882556553 13.8839025013688,46.0928339765383</coordinates></LinearRing></outerBoundaryIs></Polygon></MultiGeometry>
  </Placemark>
</Folder>
</Document></kml>
