<?xml version="1.0" encoding="utf-8" ?>
<kml xmlns="http://www.opengis.net/kml/2.2">
<Document id="root_doc">
<Schema name="pregledovalniklovisca" id="pregledovalniklovisca">
	<SimpleField name="lov" type="string"></SimpleField>
	<SimpleField name="lov_naziv" type="string"></SimpleField>
	<SimpleField name="luo" type="string"></SimpleField>
	<SimpleField name="luo_naziv" type="string"></SimpleField>
	<SimpleField name="povrsina" type="float"></SimpleField>
</Schema>
<Folder><name>pregledovalniklovisca</name>
  <Placemark id="pregledovalniklovisca.1">
	<Style><LineStyle><color>ff0000ff</color></LineStyle><PolyStyle><fill>0</fill></PolyStyle></Style>
	<ExtendedData><SchemaData schemaUrl="#pregledovalniklovisca">
		<SimpleData name="lov">1110</SimpleData>
		<SimpleData name="lov_naziv">VOLČE</SimpleData>
		<SimpleData name="luo">11</SimpleData>
		<SimpleData name="luo_naziv">Triglavsko</SimpleData>
		<SimpleData name="povrsina">3859.35</SimpleData>
	</SchemaData></ExtendedData>
      <MultiGeometry><Polygon><outerBoundaryIs><LinearRing><coordinates>13.6643423191273,46.1707489972122 13.6644175965887,46.1708051427363 13.6645199865222,46.1708232543805 13.6645367672147,46.1708317873391 13.6646021208845,46.1708650195404 13.6646498376962,46.1708892833883 13.6646891653198,46.1709379798084 13.6647355914599,46.1709954656576 13.6647560549906,46.1710374908764 13.6648003633515,46.1711284851402 13.664812480674,46.1711551762655 13.6648421673478,46.1712205677232 13.6649241744308,46.1712621942199 13.6650299163696,46.1712748207873 13.6650402665247,46.1712760566861 13.6651865122972,46.1713229320012 13.6651962410895,46.1713510364827 13.6652183477675,46.1714148980255 13.6652607739812,46.1714866534357 13.6653328592209,46.1715315828093 13.6653975555971,46.1715973570089 13.6654375182144,46.1716379852963 13.6654926419469,46.1717844778934 13.6654942183298,46.1718177312031 13.6654990732875,46.1719201448383 13.6655125548415,46.1719678088785 13.665575305771,46.1720024619715 13.6656083102268,46.1720076391743 13.6656918108844,46.172020737354 13.6657156710701,46.1720516072884 13.6656993066021,46.1721124190873 13.6656592331912,46.1721628769361 13.6655648091677,46.1722329445368 13.6654795187975,46.172326961993 13.6654566017106,46.172373794864 13.6654382362337,46.1724113260991 13.6654384377631,46.1724208540602 13.6654398755601,46.172488830602 13.665440531925,46.1725198623664 13.6654712325888,46.172669488818 13.6654725413285,46.1726922098204 13.6654780730227,46.172788245282 13.6654204848883,46.1729470079957 13.665388764147,46.1730787262878 13.6653772921061,46.1731263630181 13.665398879583,46.1732351245371 13.6654594187838,46.173361256095 13.6656135979368,46.1734444832615 13.6658800674482,46.1735222728652 13.6661414830125,46.1736269952641 13.6662914966778,46.1736549330411 13.6663553826359,46.1736668307667 13.6663737467281,46.1736901891881 13.6663930775366,46.1737147772112 13.6665728669286,46.1739441508069 13.6666097403488,46.173979119098 13.6666779548307,46.1740438090136 13.6665056336361,46.1743198203699 13.666415226104,46.1743843570822 13.6664110392691,46.1743873490388 13.6663594780243,46.1744241952118 13.6663641524547,46.1744636096845 13.6663784127533,46.174583851217 13.6661535387999,46.1748061664828 13.6659832677666,46.1749744986061 13.665906216953,46.1752084219859 13.6658352399449,46.1754239036474 13.6657033127938,46.1755384296451 13.6652160912868,46.1759613812492 13.6648427542563,46.1766863550538 13.6644238896417,46.1772317461097 13.6642517247876,46.1778992327697 13.6642327743404,46.1779727029894 13.6634880206806,46.1784908880971 13.6634746905743,46.1787576868314 13.6632576282556,46.1789865630862 13.6631578809368,46.1792382250554 13.6628985575478,46.1793085294077 13.6625282576914,46.1794089189033 13.6625264680261,46.1794268868913 13.6624784342476,46.1799091343662 13.6624383647257,46.1799857736732 13.6620689320644,46.1804670425882 13.6619312923868,46.1806251362036 13.661665275193,46.1809598761628 13.6611947447508,46.1815338918082 13.6606517879924,46.1822041238225 13.6604870048593,46.1824075301944 13.6601714463076,46.1827972902486 13.6597836513401,46.1832756371021 13.6594880189407,46.1836392663298 13.6590265513989,46.1838972986521 13.6588121983317,46.1840184985922 13.6576869538945,46.1846549953791 13.6569427218533,46.1850763309469 13.6566567919418,46.1852372642526 13.6556197336884,46.1858252010557 13.6553921991759,46.1859539591068 13.6553103931392,46.1860002515414 13.6545010884756,46.1862519234592 13.652965957048,46.1867310410589 13.6520718554422,46.1870101939842 13.6515235997912,46.1871813633373 13.6512967275275,46.1872521933997 13.6507483944983,46.1874467248881 13.6492507882666,46.18797779087 13.6481300812623,46.1883738351471 13.6475512330227,46.1885793353131 13.6473241385318,46.1886599561751 13.6462860952236,46.1889501705349 13.6462478433025,46.188960864701 13.645336694949,46.1892150443183 13.6451741764797,46.1892467616379 13.643939787992,46.1894876577523 13.6426392459913,46.1896974266892 13.6398992240723,46.1901391101918 13.639824344631,46.190151108335 13.6390628951925,46.1902731144223 13.638748580451,46.1903349640097 13.6383743453876,46.1904086031617 13.6371413247034,46.1906533197075 13.6370186592859,46.190677664156 13.6366673806945,46.1907917581197 13.6363529778627,46.190946215692 13.6356303496529,46.1913011788572 13.6345942122015,46.1916028168274 13.6336497260396,46.1918913250806 13.6334375914658,46.1919560898857 13.6198612113808,46.1955533561363 13.6218954746679,46.1963580691052 13.6230832794326,46.1969104309485 13.6246827520459,46.1980598557651 13.6257037513828,46.1990946947931 13.6265303290279,46.2001541807283 13.6270543224645,46.2009140108611 13.6274738524802,46.2015660545662 13.627893500666,46.2025624296687 13.6279424229089,46.2029655618718 13.628747384652,46.203960349947 13.6294234720454,46.2048494867173 13.6295561350811,46.2059085446301 13.6292172081713,46.2067856880881 13.6289745874568,46.2076199882411 13.6286080133194,46.2081856672622 13.627698905664,46.2091690610784 13.6275326451326,46.2094754963653 13.6273599258178,46.2100462879387 13.627346886665,46.2105748195791 13.6278916274245,46.210594406271 13.6293191814738,46.2108389885776 13.6312395955485,46.2110325023608 13.6338220201976,46.2109494000007 13.6353821671743,46.2107973556085 13.6368604249009,46.2106442233922 13.6392811630517,46.2104738638229 13.6405478084292,46.2106025728679 13.6415721839053,46.2105862297421 13.6428935262751,46.2101468362324 13.643266900966,46.2099521558475 13.6434375374911,46.2096697728053 13.6433667288044,46.2092138431238 13.6431279574084,46.2089266006288 13.6431355301926,46.2086138503371 13.6434422846118,46.2077926980489 13.6443207778166,46.2070351910118 13.6452700696475,46.2067335158117 13.6471589774672,46.2065282530236 13.6490861525924,46.2064371386761 13.6498245728217,46.2063889997775 13.6511839053655,46.2060636863763 13.6535709810002,46.2055796966682 13.6548908516538,46.2051970106177 13.6560031132874,46.2049255957911 13.6569113691896,46.2046233413462 13.6572909636144,46.2046271712306 13.6585691138304,46.2047053403302 13.6606660542881,46.2049517166706 13.6656774022553,46.2056758657814 13.6680014124137,46.2059881896724 13.6712338934398,46.2064180100147 13.6732943693795,46.2064669570409 13.6766938407067,46.2064809909052 13.6794832606849,46.2062870552262 13.6814121213844,46.2057817140392 13.6826954773788,46.2050429777994 13.6839366587792,46.2045548594234 13.6861031092074,46.2031731265386 13.687942709581,46.2018378965818 13.6897456116451,46.2005273189339 13.6916728154096,46.1985399995874 13.6938061364275,46.1970070335453 13.6967334645355,46.1955332890006 13.6993702198079,46.1941063688815 13.7017125487124,46.1929021493391 13.7037479709341,46.1924479365487 13.7065081210718,46.1919264926417 13.7084409441031,46.1912198268033 13.710376523817,46.1903876451229 13.7117966377382,46.1899514478157 13.7129398283407,46.1889846852822 13.7142448196765,46.1872663758741 13.7154792196903,46.1854718592971 13.716016388828,46.1841216203315 13.7165140251504,46.1829215518802 13.716814628038,46.1824225995947 13.7179489447201,46.1818324993838 13.7205987487741,46.1813597727397 13.7216531801643,46.1810951688793 13.7225722567336,46.1804273066049 13.7234195046668,46.1797335317951 13.7238406159262,46.1787083861996 13.7239633928698,46.1780819148291 13.7236828268601,46.1777020589786 13.7236576102002,46.1772245525384 13.7241435268174,46.1765267366239 13.7249970794921,46.1755567082787 13.7259090643513,46.1751900643348 13.7274653176867,46.1751068096409 13.7288413842709,46.174996517065 13.7299294677072,46.1748327125112 13.7312373165542,46.1745457327963 13.7317437811756,46.1745262506888 13.7323999422119,46.1742823205321 13.7334611019202,46.1737162673961 13.734621972853,46.1735281217776 13.7357399346561,46.1736409045485 13.7366056001029,46.1737257850336 13.7377320589562,46.173461918746 13.7392583079042,46.173101860227 13.7400210044427,46.1730111183602 13.7415129246577,46.1728148548806 13.7421659610665,46.1725745231804 13.7431387310105,46.1722271252927 13.7436632987524,46.1719404749707 13.7445776184342,46.1712639251341 13.7454351885959,46.1707298946258 13.7460554450698,46.1705054662481 13.7468887066931,46.1702536783431 13.7479566942875,46.1699359851314 13.7490802520321,46.1697485435203 13.7512896098342,46.1701254023112 13.7524881525879,46.1700979114375 13.7532895982199,46.1694300469672 13.753859568433,46.1686147043086 13.7538504412254,46.1681071479625 13.753542079972,46.1673686029608 13.7531068760444,46.1666791491412 13.7527975836036,46.1662232021634 13.7524976068584,46.1653840639321 13.7523737004649,46.1650281213419 13.7522930019934,46.1646970334061 13.7520106196124,46.1640883309505 13.7513780881209,46.1633544272935 13.750943788577,46.1629879837897 13.7500184749355,46.1623930325808 13.7492373912126,46.1618968248998 13.7488991518885,46.161680782704 13.7482094707535,46.1612602474009 13.7472319126412,46.1607447787313 13.7470025782957,46.1606315959354 13.7461473321019,46.160324400627 13.7446930717807,46.159592149015 13.7443484145131,46.1593067421822 13.7438856721402,46.1588166936281 13.7436338074165,46.1584539363048 13.7435072454002,46.1582178008485 13.7435308643166,46.1580902963002 13.7444900492747,46.157298171496 13.7451483487951,46.1562481068627 13.7453496855998,46.1559345055444 13.7456821381949,46.1551039978679 13.7455390638615,46.1547740195198 13.7451304033064,46.1543664462779 13.7446581225012,46.1542289970849 13.7440358333363,46.1541636770162 13.7430975474101,46.1540912800276 13.7426140924661,46.1542344210135 13.7420061335745,46.1543186957541 13.7415640675564,46.1542930451508 13.7409381138341,46.1540819985832 13.7406601448338,46.1539061844922 13.7402195390782,46.1534252719984 13.7401665469851,46.1532852268697 13.7400347484879,46.1527124336395 13.7399005046008,46.1523546531983 13.7398979612236,46.1520577080587 13.7401470510647,46.1514278405594 13.7402641056356,46.1511205168803 13.740242787549,46.1507441868461 13.7397981269139,46.1503343979083 13.739336175511,46.1500188001769 13.7389994076808,46.1495958020746 13.7384877243874,46.1489756268944 13.7382427194606,46.1485257470251 13.7382086494397,46.147807370872 13.7379667022441,46.1475751734834 13.7373875681877,46.1470415240499 13.7367490910764,46.1468842108537 13.7365657261337,46.14680210634 13.7364809470364,46.1464961540105 13.7362032205281,46.1464138154866 13.7358479465728,46.1462074428649 13.7354789132005,46.1458219566667 13.7351268052165,46.1455850253095 13.7346928596304,46.1451573396669 13.7345308450241,46.1450420874925 13.7343510609076,46.1448719335177 13.7341039549238,46.1444651191825 13.7343098383182,46.1443549305526 13.7338816534236,46.1437105557156 13.7333009140951,46.1428609650602 13.7327541083639,46.1427163420731 13.7323571648649,46.1425787771937 13.7320321211324,46.1425175876317 13.7314754764422,46.1423620523542 13.7307437167485,46.1421101859895 13.7302058113391,46.141899967833 13.7297079014692,46.141560537612 13.7295303559184,46.1414011078428 13.729380013989,46.1411170048658 13.7292611784046,46.140937533072 13.7290839680894,46.1409211666687 13.7289262428507,46.1408680369366 13.7286723882469,46.1407006491147 13.7278525090262,46.139999618069 13.7275238024695,46.1397106479385 13.7273462859964,46.1394999292408 13.7272045590183,46.1393481826067 13.7269658647168,46.1392086720963 13.7268534432535,46.139189424839 13.7267188415081,46.1392059204115 13.7263984587186,46.1391682501911 13.7256561156152,46.1390861960774 13.7253421073654,46.1390584012529 13.7252795835533,46.1390307114094 13.7249383350592,46.1387307968844 13.7247086939505,46.1385302895389 13.7243910169933,46.1382748141381 13.7243124402762,46.1381408639405 13.7243038497653,46.1380588907053 13.7243256712803,46.1379546731603 13.7242549030553,46.1377236369432 13.7242820501153,46.1374953131793 13.7243297462489,46.1373915643789 13.7243446127933,46.1372017928233 13.7243084803465,46.1371411061994 13.7241648504468,46.137016327022 13.7240569654145,46.1368737717386 13.7237953455102,46.136713394287 13.7235827145041,46.1366174456931 13.7233486236374,46.1365428510295 13.7230164214162,46.1364797562569 13.7226356494895,46.1363846264019 13.7220908222141,46.1362255782399 13.7218168019338,46.1361316391912 13.721460771542,46.1360413708363 13.7209332131479,46.1359472924245 13.7204621272351,46.1357899614555 13.720377382953,46.1357440251124 13.7202881456135,46.1356350557906 13.7202066684978,46.1354146040981 13.7201719505771,46.1349579512969 13.7200875220264,46.1347420551771 13.720016983669,46.1347142726759 13.7199238074954,46.134719527402 13.7198638632838,46.1347260540241 13.7197779507799,46.1346971094487 13.7190710788943,46.1337525477974 13.7186953549824,46.1334910972008 13.7181592660389,46.1332862407969 13.7178629725539,46.1330543803469 13.7174182771591,46.1326481014654 13.7172763286752,46.1324520720186 13.7172539819264,46.1322997631139 13.7171540439389,46.1319387405802 13.7170906008933,46.1317616770372 13.7169305579635,46.1315313434116 13.716618326113,46.1314792511701 13.7164833699357,46.1313445723391 13.7160808038165,46.130663437017 13.7160234570478,46.1305305291894 13.7157766578042,46.1301579580922 13.7153106724765,46.1300177582871 13.7150650804841,46.1298161521598 13.7147472677726,46.1295705452472 13.7142385655815,46.129136451358 13.7140083136484,46.1289710955761 13.713831611874,46.128879131949 13.7134872107387,46.1286143274636 13.7131338917009,46.1279102521901 13.7127082475153,46.1271560546782 13.7125542040699,46.1264974098967 13.7123948257306,46.1263399571704 13.7121299426591,46.1262731801875 13.7121087671937,46.1262989444359 13.7117496577609,46.1262220172312 13.7112816229474,46.1261826400859 13.7109244803431,46.1264097590261 13.7104279139003,46.1265671024944 13.7101140141615,46.1266544353084 13.7097318208263,46.1267292995006 13.7094714736462,46.1267398563499 13.7090236584948,46.1267321896279 13.7084725822115,46.1266745876936 13.7079970563369,46.126584726274 13.7077570016089,46.1265631175009 13.7074982234492,46.1265232114465 13.7072111790937,46.1264912628067 13.706913937734,46.1264195189648 13.7067062262591,46.1263982739099 13.7062821420752,46.1264438604312 13.7054045282495,46.1262728670605 13.7046174135042,46.1260228146686 13.7037089646523,46.1257380898513 13.7030824269496,46.1254835497419 13.7029212030762,46.1254611157789 13.7025065618838,46.1252755588548 13.7019579159664,46.1257048095768 13.7018790750866,46.1258109847612 13.7018924596116,46.1258912148231 13.7022219733005,46.1262413619463 13.7024137620588,46.1262903267288 13.7023468176049,46.126567680365 13.7023437755896,46.1266972102774 13.70222343211,46.1268514111464 13.7017513268212,46.1272717225676 13.7015866492085,46.1275667703441 13.7014324334648,46.1279672078337 13.7012325946812,46.1281448876846 13.7011485154996,46.1282644990926 13.7008824573108,46.1283469517047 13.7008422495994,46.1284058783566 13.7014049418199,46.1285202435082 13.7015413330547,46.1284983995565 13.701953838329,46.1286380482134 13.7019964582827,46.1285755495579 13.7021395905623,46.1284925982563 13.7022788221785,46.1285040765348 13.702590531574,46.1290069782402 13.7028746402999,46.1291037773233 13.7030403005284,46.1291416474449 13.7030618852995,46.1291868800214 13.7031657416489,46.1292114520744 13.7034916432923,46.1294850753554 13.70359037777,46.1294852955958 13.7036303166913,46.1295425230125 13.7046916364052,46.129773106235 13.7052222725421,46.1299806635036 13.7054697973581,46.1299104974496 13.7059971416281,46.130048822853 13.7064805144446,46.1301307735345 13.7068553574112,46.1300836394263 13.7071154464412,46.130200940447 13.7079266994093,46.1302685085509 13.7088727636417,46.1302657036838 13.7092432362775,46.1304831295781 13.7103296809228,46.1305150988178 13.710409724996,46.1307284335591 13.7103161152575,46.1310296940927 13.7101608601248,46.1310279420635 13.7098636330085,46.1310596776572 13.7095987415688,46.1311475622129 13.7090644103458,46.1310803449694 13.7089672079638,46.1311584252248 13.7088479344206,46.1313281207756 13.7086095149433,46.1314405054247 13.7084465280987,46.1313874677977 13.7083668030862,46.1313046893725 13.7079014030428,46.131078989506 13.7074455929978,46.1310243491482 13.707178314784,46.1309375591603 13.7069661816164,46.1309441569168 13.7069784172915,46.1310406588282 13.7067795215788,46.1313884121524 13.7063442328731,46.1316345168899 13.7062545933941,46.1315939131305 13.7059697040442,46.1315627955911 13.7057226933603,46.1315996777 13.7055640154393,46.1315671991098 13.7049024987902,46.1315319026788 13.704854532732,46.131469186251 13.7045795756728,46.1315057491989 13.7042900146291,46.1314862712998 13.7039392286865,46.1314948904711 13.7031343775813,46.1312698200734 13.7023611361358,46.1314733850473 13.7020632334128,46.1314179066725 13.7018784459854,46.1312960509568 13.7014476248322,46.1312300636837 13.7014096567916,46.1311936421945 13.7007622099688,46.1315398867088 13.6999869222288,46.1313844111358 13.7000571630782,46.1316992236708 13.6996131179334,46.1318706137104 13.699553181488,46.1319428116912 13.6991383811652,46.1319712920589 13.6985354631394,46.1322227469734 13.6984939595821,46.1321331988713 13.6985385793217,46.1320410324811 13.6984671833592,46.131671230996 13.6983065793351,46.1316218050435 13.6982158458504,46.1316278796642 13.6980492592483,46.1316071772856 13.6979393302532,46.131554639085 13.6979871359714,46.1314481131575 13.6975992256234,46.1313132292894 13.697370483019,46.1312008526271 13.6971715561517,46.1309601507695 13.6973897389874,46.1307628926031 13.6974677918294,46.130641415816 13.6973666884304,46.1305933864233 13.6972021220841,46.1306572825741 13.6961422864068,46.1306002090165 13.6960206091338,46.1305466351776 13.6959496452278,46.1306034096761 13.6956566109722,46.130616261353 13.6953871175117,46.1306734688738 13.6955746634967,46.1315547577467 13.6954184559768,46.1316590556337 13.6952136446409,46.1318376578432 13.6952380335954,46.1319009189442 13.6953419821248,46.1319380956829 13.6954363411796,46.1320525415774 13.6955892637614,46.1320983748594 13.6958196674805,46.1322719571879 13.6961833067312,46.132426364748 13.6963632940416,46.1325318893906 13.6963163585905,46.1326123317325 13.6958938202946,46.1329683118696 13.6957244290745,46.1330059680294 13.6956794986993,46.1330891322428 13.6954926557198,46.1332300604021 13.6955690539902,46.1332831180057 13.6950976615489,46.1333947947038 13.6946941578108,46.1338976472935 13.6939798623839,46.1345391982044 13.6931663270448,46.1357751557143 13.6926372022286,46.136596966042 13.6920882331161,46.137086448386 13.6915212021917,46.1372671064596 13.6912057482953,46.1372850885729 13.6907585929905,46.1377047399412 13.6895712160433,46.1376281494865 13.6888872719463,46.1377498698369 13.6876005533221,46.1381283833099 13.6870815781936,46.1383608569884 13.6872966787877,46.1391020237346 13.6874093185725,46.1392149765597 13.6873359715539,46.1394092902684 13.6873613515545,46.1395994293062 13.6873091859937,46.1397193968626 13.6873093041156,46.139883242943 13.6873747640681,46.1399010000569 13.6874650052396,46.1402430421748 13.687499967684,46.1405746421217 13.6875899064004,46.1408042117273 13.6876029397935,46.1413451118415 13.6875216576887,46.1415682164956 13.6876347860412,46.1418133480899 13.6877673468833,46.1426679240593 13.687855264593,46.1432060847171 13.6877861795046,46.1433897404833 13.6878055519947,46.1435114292596 13.6880449411507,46.1439397595415 13.6880227634583,46.144110457602 13.6881767675617,46.1444388348183 13.6884389647755,46.1446919746165 13.6885032769306,46.14486186572 13.6884222021991,46.1453432016697 13.6884663227747,46.1456002268362 13.6883529640988,46.1460128111798 13.6881714119014,46.1464678007156 13.6876943558579,46.1474278462418 13.6875683098889,46.1475568627086 13.6875100610139,46.1477091513555 13.6875599657182,46.1485015045283 13.6875277018676,46.1490418837981 13.687457017722,46.1492543128298 13.6873349236568,46.1494292616335 13.6871443636949,46.1495980253794 13.6869416925564,46.1497316493959 13.6868083908143,46.1498442961506 13.6868677820508,46.1501176926945 13.6870004992038,46.1503072651234 13.6865137538221,46.1509539909774 13.6865448567363,46.1513988247504 13.6862710877629,46.1517996658819 13.686335818559,46.1520227380133 13.6862841381077,46.1525134072364 13.6861480946281,46.1527898660361 13.6860328528542,46.1531115512769 13.6855298230666,46.1533531982581 13.6854876862421,46.153437290086 13.6854922980227,46.1537927441083 13.685411882539,46.1540761399893 13.6852365234885,46.1542036868127 13.6847369553823,46.15475047504 13.6844368985042,46.1548351971196 13.6843342314315,46.1549491832399 13.684111408653,46.1552318385465 13.683824758328,46.155259129423 13.6834742469124,46.1555808916754 13.682800188502,46.156097679114 13.6820933451209,46.1567886358001 13.6818864171096,46.1570012895635 13.6816718466928,46.1578536661588 13.6814175451111,46.1581467499881 13.6807042034634,46.1585227108938 13.6798984721204,46.15891748472 13.6795753110525,46.1591656813886 13.6799711758258,46.1598837545933 13.6797361038209,46.160238239575 13.6802217207144,46.1611507943731 13.6789774441109,46.1621163356678 13.6780073849931,46.1628816922755 13.6785856908477,46.1639464833119 13.6791060823859,46.1649269253903 13.6793435076318,46.1653516506672 13.679098459116,46.1657160059611 13.678216309157,46.1658524665947 13.6783319593942,46.1664791285163 13.6782296365279,46.1669665081332 13.678176837472,46.1669595993012 13.6779289490271,46.1673067339842 13.6769082890193,46.1677475863524 13.6767075796489,46.1677955586558 13.6765652968895,46.1678047982061 13.6761234791101,46.1680030244714 13.6760240919057,46.1682322085522 13.6760734194869,46.1683190656972 13.675786453162,46.1687288152952 13.6750656481278,46.1696238980777 13.6741370468184,46.1699496353452 13.6736967418751,46.1704393877532 13.6737792006681,46.1707102686581 13.6738084054662,46.1709607371657 13.6736332810254,46.1712421253281 13.6721380963005,46.1710007276647 13.6714225389097,46.1709159338667 13.6708245402646,46.1708594951572 13.670190481361,46.1708377239046 13.6699725146316,46.1708433754249 13.6694184165318,46.1707280568959 13.6686620886657,46.170626485745 13.6676510890699,46.1705437150648 13.6668580562298,46.1704660872376 13.6663397108481,46.1704097443054 13.6651946116402,46.1704368657423 13.6648155839723,46.1704621303333 13.6640890859209,46.1704568309295 13.6641104294102,46.1704726054852 13.6641311428397,46.1705288886854 13.6641388630229,46.1705498661872 13.6641975296993,46.1706193824986 13.6642836448916,46.1707052350535 13.6643423191273,46.1707489972122</coordinates></LinearRing></outerBoundaryIs></Polygon></MultiGeometry>
  </Placemark>
</Folder>
</Document></kml>
