<?xml version="1.0" encoding="utf-8" ?>
<kml xmlns="http://www.opengis.net/kml/2.2">
<Document id="root_doc">
<Schema name="pregledovalniklovisca" id="pregledovalniklovisca">
	<SimpleField name="lov" type="string"></SimpleField>
	<SimpleField name="lov_naziv" type="string"></SimpleField>
	<SimpleField name="luo" type="string"></SimpleField>
	<SimpleField name="luo_naziv" type="string"></SimpleField>
	<SimpleField name="povrsina" type="float"></SimpleField>
</Schema>
<Folder><name>pregledovalniklovisca</name>
  <Placemark id="pregledovalniklovisca.1">
	<Style><LineStyle><color>ff0000ff</color></LineStyle><PolyStyle><fill>0</fill></PolyStyle></Style>
	<ExtendedData><SchemaData schemaUrl="#pregledovalniklovisca">
		<SimpleData name="lov">0812</SimpleData>
		<SimpleData name="lov_naziv">CANKOVA</SimpleData>
		<SimpleData name="luo">08</SimpleData>
		<SimpleData name="luo_naziv">Pomursko</SimpleData>
		<SimpleData name="povrsina">5036.51</SimpleData>
	</SchemaData></ExtendedData>
      <MultiGeometry><Polygon><outerBoundaryIs><LinearRing><coordinates>16.023502250801,46.7110617105467 16.0230668911375,46.7109951606113 16.0226816449199,46.7109365279656 16.023502250801,46.7110617105467</coordinates></LinearRing></outerBoundaryIs></Polygon><Polygon><outerBoundaryIs><LinearRing><coordinates>16.0048127686823,46.7166876659603 16.0055358670622,46.7164991411232 16.0052548676717,46.7165664672305 16.0048127686823,46.7166876659603</coordinates></LinearRing></outerBoundaryIs></Polygon><Polygon><outerBoundaryIs><LinearRing><coordinates>16.001871514911,46.7196520129249 16.0018070439086,46.7195400300923 16.0017640445219,46.719443153442 16.0018070455737,46.7195401200436 16.001871514911,46.7196520129249</coordinates></LinearRing></outerBoundaryIs></Polygon><Polygon><outerBoundaryIs><LinearRing><coordinates>16.0007981137771,46.724910912568 16.000761056151,46.7249303094262 16.0005858440429,46.7250203680272 16.0004866914492,46.7250777335319 16.000322033237,46.7251796648961 16.0000548735585,46.7253702085459 15.9999232439243,46.72548255659 15.9997438913813,46.725653169443 15.9996272232584,46.7257822999851 15.999537255057,46.7258978822431 15.9994091664254,46.7260887388697 15.9993003655759,46.7262826656717 15.9991851219314,46.7265740815442 15.9991177988687,46.7268179368162 15.9990866206702,46.7269220295308 15.9990415348569,46.7270523337306 15.9990009014694,46.7271545297227 15.9989061296453,46.7273360982873 15.998800548905,46.7275062455006 15.9987240676544,46.7276155916846 15.9985728094047,46.7277919851207 15.9983565759563,46.7280065509493 15.998126617546,46.728193526635 15.9980099073036,46.7282854100164 15.9979855897815,46.7283005564194 15.9978569124624,46.7284033399023 15.9976154688407,46.7285920340841 15.9973533470537,46.7288017800317 15.9971366387606,46.728983959988 15.9967729273826,46.7293113653164 15.9964113742654,46.729642529232 15.996241039867,46.7297997429948 15.9960963645295,46.729922276272 15.9959737785337,46.7300009837324 15.9958507517387,46.7300628713098 15.9957593330486,46.7301004628574 15.9956071400384,46.730148749258 15.9954165525239,46.7301867535086 15.9952053238629,46.7302051445111 15.9949391036358,46.7302071897009 15.9947341574685,46.7302185978481 15.9945475037318,46.7302499989565 15.9943415605278,46.7303139550334 15.9941707338803,46.7303878617316 15.9940133869645,46.7304833328099 15.9938392450431,46.7306189842743 15.9937244495868,46.7307160646133 15.993544735842,46.7308832520008 15.9934385476718,46.7310002296943 15.9932942587016,46.7311870815024 15.9932053079085,46.7313379163677 15.9931390430544,46.7314630040132 15.9930642665167,46.7316447538966 15.9930164197136,46.7317824567459 15.9929677571448,46.731904242727 15.9928283237694,46.7322774606399 15.992781481979,46.7324557291688 15.9927474408447,46.7326613261439 15.992732093692,46.7330157440449 15.9926913624356,46.7333487903833 15.9926302537225,46.7335910581926 15.9924784489975,46.7339250678985 15.9922600008855,46.7342640636141 15.992068052774,46.734592663028 15.9919686902673,46.7348041339683 15.9918992462862,46.7349845772322 15.9918525228057,46.7351267680544 15.9918094777698,46.7352840411946 15.9917661269641,46.7355174278738 15.9917428150076,46.7357018794927 15.9917324151222,46.7358483436739 15.9917355047566,46.736073950638 15.991750119236,46.7362572638411 15.9917704266728,46.7364084999417 15.9918056093847,46.736650202461 15.9918309835271,46.736842239005 15.9918391451677,46.7369733380958 15.9918363799094,46.7371008433058 15.9918073183726,46.7372286664035 15.9917676672115,46.7373356192915 15.991705726541,46.7374758726741 15.9916265833326,46.7375914445953 15.9915107576682,46.7377261371195 15.9913426168961,46.7378766668743 15.9911773121615,46.7379892063393 15.9909885000997,46.7380900736897 15.9908234249897,46.7381580776916 15.9906374038681,46.7382256330312 15.9906035705378,46.7382360020724 15.9905925168621,46.738239786351 15.9904102301729,46.7383040702309 15.9902753516868,46.7383632653467 15.9901754667766,46.7384182889831 15.9899880265738,46.7385442431933 15.989844437175,46.7386780946114 15.9897171428137,46.7388371751961 15.9896479364454,46.7389883760962 15.9896068981647,46.7391270980353 15.9895877388737,46.7393172709753 15.9895675755026,46.7394668781262 15.9894990657395,46.7396419137647 15.9894180853658,46.7397647872034 15.9893160597287,46.7398675103208 15.9892131985995,46.739946039837 15.9890882478553,46.7400260197138 15.9889549878697,46.7401024726438 15.9887789828659,46.7401958484408 15.9886336013177,46.7402750147349 15.9885028859667,46.740361881151 15.988429998603,46.7404193689836 15.9883599219318,46.7404874484252 15.9882890886258,46.7405642610141 15.9882131531612,46.740669816624 15.9881517762582,46.7407843329808 15.9881225119701,46.7408658245573 15.9881022696715,46.74093257384 15.9880844824005,46.7410190943348 15.9880774961628,46.7411595908397 15.9880933943195,46.7413134745317 15.9881097565241,46.7414426136933 15.9881587215013,46.7417445649618 15.9881958984273,46.7419456766938 15.9882518561954,46.742171906519 15.9883299774998,46.7424579518749 15.9884361622775,46.74278288975 15.9885399973534,46.7430508096861 15.9886710997469,46.7433713036741 15.9887336356538,46.7435419676729 15.9887669910563,46.7436698802774 15.9887868500993,46.7437897226325 15.9887922777166,46.7439076204784 15.9887851095816,46.7440452396353 15.9887647854538,46.7441791039512 15.9887302147355,46.7443139910126 15.9886948412497,46.744404981846 15.9886478116359,46.74450983809 15.9886045744642,46.744593069836 15.9885067182925,46.7447383097814 15.9883865365228,46.744886531406 15.9883174933838,46.7449613492468 15.9883085193639,46.7449715928506 15.9882814079118,46.7450062837739 15.9880956833582,46.7452132787779 15.9879829382061,46.7453388544204 15.9878562842443,46.7454839825591 15.9876570028012,46.7457084571956 15.9875122222437,46.7459002535287 15.9873807169048,46.7460808693759 15.9872604703903,46.7462975540375 15.987153276325,46.7465410256321 15.9870989207278,46.7466965049691 15.9870581231275,46.7468705801385 15.987025913234,46.7470490794867 15.9870139822492,46.7471913277727 15.9870151085128,46.7474609444366 15.9870238420504,46.7475808829791 15.9870463893009,46.7477190553126 15.9870730104124,46.7478437876509 15.9870970017976,46.7479750201746 15.9871276846442,46.7481429908216 15.9871405470369,46.7482596549698 15.9871468273955,46.74840291569 15.9871461901208,46.748547225701 15.9871346189295,46.7486876715515 15.9871165056224,46.7488210665647 15.9870461992251,46.7490994861773 15.9869486290117,46.7493686045482 15.986850989556,46.7496196403764 15.9867451560068,46.7498807329252 15.9866921361308,46.750016408074 15.9866663333182,46.7500799661852 15.9866615529142,46.7500977305833 15.986641269683,46.750140998886 15.9865426699033,46.7503825963307 15.9864360762744,46.7505663248881 15.986405066439,46.7506099555068 15.9863761044911,46.750651049434 15.9862936666669,46.7507527011432 15.9861801400348,46.7508721639658 15.9860687171351,46.7509706466144 15.9859363190455,46.7510745278652 15.9857726836628,46.7511809271906 15.9855935735317,46.7512785529918 15.9854244932242,46.7513591786522 15.9852438177095,46.7514499800146 15.9850625683052,46.7515667860179 15.984990832218,46.7516310090228 15.9849351895431,46.7516877163061 15.9848431734587,46.7518170687521 15.9848431734587,46.7518170687521 15.9847851656709,46.7519523360666 15.9847539215093,46.7520776085566 15.9847535721583,46.7520790092654 15.9847493387184,46.7521986996083 15.984769160957,46.7523096362287 15.9848069111688,46.752420328592 15.984871333354,46.7525293519451 15.9849634325223,46.7526487529485 15.9851059953583,46.7527719478369 15.9852303105655,46.752863451924 15.9855555651128,46.7531066163555 15.9860197663796,46.7534537521678 15.9864019713361,46.7537401465936 15.9866442222537,46.753917359052 15.9864019713361,46.7537401465936 15.9867467362273,46.7539964251645 15.9867740531271,46.754016730841 15.9871516530593,46.7543085603714 15.9875126581491,46.7546160958523 15.9878521338758,46.7549343419784 15.9881642450652,46.7552520136994 15.9884653740337,46.7555845337286 15.9887505563426,46.7559395920949 15.9890178922176,46.7563135167559 15.9892549477285,46.7566778063615 15.9894715887033,46.7570565764553 15.989583369538,46.7572847514335 15.9896791701197,46.7574980402996 15.9897591704022,46.7577777701426 15.98977386262,46.758043940257 15.9897303211424,46.7583040465655 15.9896296169433,46.7585594292187 15.9894045047361,46.7589697280552 15.9891896594378,46.759354657435 15.9889930329286,46.7597123493935 15.9887351731594,46.7601793380363 15.9885323352336,46.7605413111799 15.9883396558519,46.7608933899943 15.988243578078,46.7611732918503 15.9882134517336,46.7614158283306 15.9882265726166,46.7616326263535 15.9882269586825,46.7616390053387 15.9882933326088,46.7619110267074 15.9884006429944,46.7621306945513 15.9884006430041,46.7621306945711 15.9885601588936,46.7623486518442 15.9888746420766,46.7627647227014 15.989009320738,46.7630131222554 15.9891082958052,46.7632706468343 15.9891636708746,46.7634993095133 15.9891923956461,46.7638026037286 15.9891809483004,46.7641284665726 15.9891660019472,46.764520663969 15.9891423129628,46.764985988614 15.9891177814039,46.7654696733901 15.9891177814037,46.7654696733964 15.9891018809955,46.7658670069472 15.989087231048,46.7661538524712 15.9890872310477,46.7661538524766 15.9890790579655,46.7664011473159 15.9890663738932,46.766652349633 15.9890818422293,46.7668536478673 15.9891179636535,46.7670602554551 15.9891523554849,46.7671938262943 15.9892251029857,46.7673913906306 15.9892877511649,46.767559353733 15.989330282591,46.7677441342585 15.9893262868426,46.7678977392531 15.9892975433276,46.768058395537 15.9892529602268,46.7681977770402 15.9891732393157,46.768355995065 15.9890386331741,46.7685414969973 15.9889066617031,46.7687064639542 15.9888229377294,46.7688320589812 15.9887662528848,46.7689684860289 15.9887268885231,46.7691141197686 15.9887100391752,46.7692880779027 15.9887224346628,46.7694359633809 15.9887637077106,46.7696092393987 15.9888332552959,46.7697677867063 15.9889507361598,46.7699412138092 15.9891083230981,46.7701096159642 15.9892828567135,46.7702667157302 15.9894571559847,46.770439561141 15.9896070993483,46.7706122570442 15.9897208123335,46.7707584565025 15.9898237297638,46.7709014205136 15.9899162520563,46.7710630071539 15.9900042109184,46.7712256228097 15.9900926253163,46.7714130648095 15.990162940954,46.77157745235 15.9902125747661,46.771763610415 15.9902519708244,46.7719484176018 15.990280137403,46.7721563529962 15.9902924621708,46.772371532704 15.9902862826098,46.77251301123 15.9902658435139,46.7727337823815 15.9902403388766,46.7728925214774 15.990198304256,46.7730567115304 15.9901497842601,46.7732242863827 15.9900690139269,46.7734255172557 15.9899649124825,46.7736398148946 15.9897808596719,46.7739429696817 15.9894820738735,46.7743163893034 15.9892810834774,46.7745601328574 15.9890826522528,46.7748436184609 15.9889275567173,46.7751339264254 15.9888179755763,46.775414124682 15.9887424800285,46.7757036545817 15.9887041534884,46.7760278596783 15.9887070637614,46.7763585458203 15.9887398407308,46.7765967598002 15.9887866747398,46.776787350798 15.9888726543512,46.7770203368814 15.9889738467712,46.777261648132 15.9890775861746,46.7774560655237 15.9891756869707,46.7776142756736 15.9892891173778,46.7777585885783 15.9895467561879,46.7780473077711 15.9898016121015,46.778298355126 15.9899299524766,46.7784414588431 15.9900137243069,46.7785821590699 15.9900617939319,46.7787255072004 15.9900706380072,46.7788650562852 15.9900550411358,46.7790286575254 15.9900186286906,46.7792426392734 15.9899710893856,46.7794068766806 15.9899111563107,46.7795451314394 15.9898264131968,46.7796944865127 15.9897071474603,46.7798680707567 15.9896212707916,46.7800056500665 15.9895765751467,46.7801250601629 15.9895460825105,46.7802405689018 15.9895381608627,46.7803585814138 15.9895543427952,46.7805341429825 15.9896056380165,46.7806819616119 15.9896819993186,46.7808326222526 15.9898563770325,46.7810792373292 15.9901891239642,46.7815562315598 15.9905345507897,46.7820458900559 15.9906011682315,46.7821434651357 15.9924372134143,46.7819820842829 15.9931433250847,46.7822499917329 15.9941816398836,46.7824005739959 15.9952273157386,46.7829431498385 15.9958657753716,46.7831843694209 15.9972862622387,46.7834332575275 15.9977758231152,46.7836176466018 15.9981829431911,46.7839189873089 15.9982955944428,46.7842954073502 15.9980471742368,46.7845734064151 15.9979465946162,46.7848501158238 15.9985848210159,46.7850768378808 16.0006447820946,46.7854389461809 16.0014156378325,46.7854644108345 16.0017219239368,46.7854188170309 16.0018873662941,46.7853565525172 16.0022530641251,46.7851530885915 16.0026618602843,46.7850207679686 16.0030103832283,46.7850070080726 16.0032868288658,46.7850403009037 16.0035426514727,46.785077372509 16.0037293783062,46.7850400188779 16.0038945512484,46.7849634494022 16.0039855885592,46.7848232052119 16.0040660144217,46.7846687496312 16.0041414009043,46.7845250440278 16.004329573549,46.7842909235205 16.0046214472696,46.7840272835606 16.0049393127322,46.7837670131986 16.0050416226862,46.7836767795938 16.0053755962547,46.7834377781807 16.0058946902975,46.7830828033828 16.0063514491644,46.7827354816025 16.0066787160392,46.7824253730612 16.0069032058347,46.7821803128867 16.0071595223768,46.7819705982757 16.0075434262398,46.7819028940619 16.0078989666646,46.7819855898324 16.0080719078559,46.7821225225938 16.0079828032131,46.782442682938 16.0080489765629,46.7827673232504 16.0084176044054,46.7829964549685 16.0090872217806,46.7832968830458 16.0098507979529,46.7836488376949 16.0106861908144,46.7840376683717 16.0112701154034,46.7843836429324 16.0115986802711,46.7844164551163 16.011999183285,46.7844022083425 16.0128793014395,46.7844229409375 16.013524348941,46.7844029255772 16.0141177454337,46.7844012673138 16.0148303573356,46.784373448654 16.0154126042551,46.7843360765139 16.01571343225,46.7842797878345 16.0159953122138,46.7840448163446 16.016891255857,46.7835290967139 16.0175534709226,46.7833087341215 16.0179314579769,46.7832052416339 16.0179802899641,46.7833084468635 16.0180515651093,46.7835044761504 16.0182489399078,46.7837548018565 16.0183711870017,46.7838895611061 16.0184674748345,46.7840228419179 16.0185556220114,46.7841619528552 16.0186970890309,46.7848086209367 16.0189140710832,46.7851675384745 16.0191276552867,46.785353213454 16.0194713055153,46.785629493629 16.0198281161978,46.7860545473737 16.0200255186265,46.7864301907588 16.0201336673687,46.786559945736 16.0204417497672,46.7866514822492 16.0208418838781,46.7865754019601 16.0215496819845,46.7865617988792 16.0219734986382,46.7866160422705 16.0224306627747,46.7867643593261 16.0229886898298,46.786650425006 16.0236004594032,46.7865941245955 16.0241587657848,46.7865020435303 16.0246222656946,46.7864180057981 16.025011783041,46.7863419160053 16.0254211350684,46.786193045493 16.0258825715663,46.7860075407316 16.0262807610137,46.7858297984967 16.026679642956,46.785695501704 16.0267825617185,46.7855494649522 16.0266702602909,46.7852020383969 16.0265162084675,46.7848767577258 16.0261699677581,46.7844589170862 16.0261340032079,46.7842342372967 16.0265214312361,46.7841249639938 16.0273705435708,46.7840235109349 16.0282151064635,46.7836420316012 16.0287518849911,46.7835356371032 16.0290790972098,46.7835109236629 16.0294782248423,46.7833839019872 16.0299838618847,46.7833067505505 16.0304361657322,46.7831938212366 16.0310222538031,46.7830501764027 16.0314397557224,46.7831107391815 16.0330606049531,46.783754032745 16.0335434494065,46.7839641494658 16.0339091128848,46.7840323685878 16.0345127718556,46.7840197160363 16.034914155792,46.7840518929543 16.035509327732,46.7841430414751 16.0362978160892,46.7842752598219 16.0366987846722,46.7842788253905 16.036975040401,46.7843013327414 16.0380184151799,46.7844205235194 16.0389481038187,46.7845801415906 16.0399091697271,46.7847501728181 16.0403725409582,46.7847566670826 16.0410235077343,46.7847722489215 16.0412417810826,46.7842123905145 16.0413924924793,46.7839321277965 16.0416521312793,46.7833647848569 16.0417898732964,46.7829487925142 16.0420404016411,46.7824459464513 16.042177177731,46.7819869591036 16.0423362840324,46.781599380303 16.043041926578,46.7809421441761 16.0432969921589,46.7806752320373 16.0434424330551,46.7801232301666 16.0436503531838,46.7801141369782 16.0442230869074,46.7801232168043 16.0455344137703,46.7801040465734 16.0458697333695,46.7802154180422 16.0462280966624,46.7804481205985 16.0468298305861,46.78087885817 16.0471664047003,46.7810545393385 16.0475648843802,46.7812010439794 16.0478570575593,46.7812412823844 16.0501157647054,46.7812204883246 16.0514276810134,46.7812370512467 16.0522288832302,46.7812153828103 16.0524903133645,46.7812773037297 16.0532983241125,46.7821351530977 16.0537223997584,46.7825316833362 16.0538700926429,46.7826304543701 16.0546184898933,46.7831027134952 16.0549608299081,46.7835715144679 16.0552827756033,46.7840620040794 16.0560203088902,46.7845128525056 16.0565420827601,46.7845723614694 16.0573293562894,46.7843720255655 16.0579416749853,46.7842733428033 16.0588749622988,46.7840859507503 16.0593330203439,46.7840888187863 16.0600224904719,46.7842111743714 16.0607834943927,46.7842612506226 16.0618103976211,46.7840729668127 16.0631661950777,46.7836670522267 16.0644218721911,46.7829401580073 16.0652308982596,46.7827895858436 16.0661128144149,46.7825699555143 16.0658570464426,46.7820196828235 16.0654329481181,46.7812147563826 16.0650491636817,46.7806736804382 16.0649615888968,46.7803701436797 16.0649851791037,46.7797932481375 16.0648174812814,46.7795705257468 16.0643595601325,46.7794065510031 16.0639148736824,46.7793226102587 16.063274462591,46.778775906866 16.0624334450506,46.7781029521713 16.0610474966533,46.777587265982 16.0607279954959,46.7773419242561 16.0606508719741,46.7769822389299 16.0605071877769,46.7750132446768 16.0604388645654,46.774501256513 16.0606267300494,46.7739788872361 16.0606073725361,46.7735865487195 16.06052978411,46.7732028467021 16.0603698225029,46.7727718665147 16.0593555037011,46.7709870853087 16.0588199821051,46.7698387776776 16.0584683176547,46.7691451604388 16.0581105024773,46.7687320205074 16.0576315074066,46.7680877092553 16.057275742246,46.7677786374788 16.0565453062847,46.7673848584928 16.0558958806272,46.7663656986789 16.0550777463172,46.7650596619916 16.0545797407342,46.7646317894293 16.0541155726703,46.7641394577415 16.0538541455731,46.7638855545007 16.053569397878,46.7636239484188 16.0534131358213,46.7633850896955 16.0531117724034,46.762875241229 16.0528160312679,46.7626536789999 16.052132272124,46.7622515252106 16.0511085573121,46.7617563175012 16.0507572315378,46.7616714679558 16.0496380465926,46.7620697594688 16.0493217866561,46.7620041063464 16.0485155481794,46.7619742508193 16.0482927231573,46.7619132265887 16.0481315147931,46.7617688694954 16.0477999128426,46.7611615815871 16.0470469233009,46.7574669397667 16.0469329283049,46.7572451385269 16.0468241583838,46.7570429917849 16.0466811281074,46.7567953659301 16.04657662761,46.7565702387154 16.0465039801451,46.7562661903529 16.0464607531889,46.7560077552381 16.0464402078583,46.7556835279101 16.0462111164824,46.7556692489333 16.0461668164761,46.7554499584425 16.0461316435822,46.7552626121707 16.0461289556961,46.755123730161 16.0462119360187,46.7546700856698 16.0462503150269,46.7542115409207 16.0461703572982,46.7538811991984 16.0460792069657,46.7535067866952 16.0459695476637,46.7533731108469 16.0458603660878,46.753291160648 16.0457199753265,46.753226588982 16.0455489959256,46.7530693623394 16.0452604196547,46.752672372194 16.0451620982854,46.7522041904343 16.0452031369778,46.7516120228589 16.0456842140964,46.7516214824196 16.045939964017,46.7516073595904 16.0471706677524,46.7516445053419 16.0479514507114,46.7516453645863 16.0480177629698,46.7514605080192 16.0480940214266,46.7499860851415 16.0482059897326,46.7491520690527 16.048488304736,46.7486929077177 16.0487350560586,46.7482021338288 16.0488879843389,46.7476720947771 16.0488695256591,46.7473277859756 16.0484493513667,46.7460902020973 16.0483047854806,46.7458432216629 16.047283604345,46.7448594425106 16.0469614401199,46.7444699607796 16.0465979874471,46.7437523914444 16.0460184195302,46.7433092124287 16.0456999651837,46.7431038527081 16.0452014647007,46.7426359078493 16.0452090852562,46.7424275678906 16.0453514948077,46.7419616846547 16.0453008908076,46.7417539665204 16.04507034741,46.7412754760025 16.0446195316285,46.7408631415543 16.0443937924953,46.7406329108752 16.0441665333611,46.7403306311474 16.0437851119495,46.7398855423795 16.0435282352027,46.7392551569288 16.0436110386055,46.7387177566932 16.0436640069111,46.7384449475672 16.0435634354142,46.7380614415532 16.0439957977133,46.7381295601549 16.0444149707983,46.7381177280677 16.0454267418583,46.7380283294669 16.0468845105333,46.7381030782035 16.0488015372678,46.7384379190275 16.0492657358982,46.7383455870317 16.0498001081216,46.7382685332967 16.0502669462943,46.7383122910734 16.0506749412098,46.7383245594814 16.051269843948,46.7383591302617 16.0517379293949,46.7384669261341 16.0521384879276,46.7386955351366 16.0529901969903,46.7387597631846 16.0549738691767,46.7389256515073 16.0568157595479,46.7389807177569 16.0594716423501,46.7389640750714 16.0602969683813,46.7389167556387 16.0607727600578,46.7387757780206 16.0612219005772,46.7384971281972 16.06133466711,46.7383219987227 16.0625415363825,46.7374938199545 16.0632967718912,46.7367979371128 16.0634566398515,46.7366363124784 16.0637179759203,46.7368901057403 16.0639585761342,46.7372803892513 16.0642282697992,46.7379586517555 16.0649709471127,46.7389849980489 16.065243500091,46.7392226694575 16.0669882852253,46.7408483768307 16.0673134163901,46.7413819897978 16.0673564112852,46.7417900327989 16.0673334607432,46.7423909474485 16.0673862058126,46.742702816132 16.0675258697705,46.743870886414 16.0677888555227,46.7459749771283 16.0680207907366,46.7476788296814 16.0682875507112,46.7493823561787 16.0688168002275,46.7508030976267 16.0692217240897,46.7506551000785 16.0697630822258,46.7503376801529 16.0703588624163,46.7498274922734 16.0708973494926,46.7493658790251 16.0717466070803,46.7487091865485 16.0725093706687,46.7483975965629 16.0750320738181,46.7475249193241 16.0761663073246,46.74713775197 16.0776709653975,46.7466349882225 16.0790473300236,46.7461254075337 16.0796508103531,46.7460075281144 16.0804514392026,46.7458397425435 16.0810426270951,46.7456899440794 16.0823713909174,46.7451327313076 16.0828349458119,46.7450082415361 16.0847594401556,46.7448177297343 16.0851546383353,46.7447698994937 16.0857494205781,46.7448003336938 16.0861636287691,46.7448323890013 16.0864586164976,46.7447214498859 16.0867563334542,46.7444663591369 16.0869436398504,46.7442202334082 16.0870897999769,46.7439585743463 16.0872120222921,46.7436650247893 16.087352261445,46.7433954146777 16.0877124692964,46.7430595681312 16.087906863382,46.7428734704474 16.0879349815772,46.7425407799772 16.0878461372544,46.7421772636701 16.0878937298383,46.7416481728791 16.0881695074065,46.7411689124491 16.0884191677314,46.7408422116619 16.0893050765026,46.7405734208448 16.0897162690341,46.7404573184759 16.0900199466669,46.7410712309203 16.090113482106,46.7413746938151 16.0901810685127,46.7418385427639 16.0902644954059,46.7422182127684 16.0906612041718,46.7422464600306 16.0911570435305,46.7422778091287 16.0914254447612,46.7423032287258 16.0917326501357,46.7422282356415 16.0925653679176,46.7419238508798 16.093092416673,46.7417706438652 16.0932042419886,46.7418256242009 16.0934352708599,46.7420156734669 16.0937740213119,46.742348817664 16.0939327527547,46.7424193628067 16.0941265837202,46.7424976690333 16.0942571898646,46.7426204828106 16.0945829764526,46.742881686053 16.094876294831,46.74327140011 16.0949997703431,46.7433262672092 16.095116465443,46.7433371158881 16.0953139994965,46.7433072459213 16.0960721717613,46.7430636462901 16.0964007976829,46.74289631064 16.0965330773433,46.7428109252025 16.0967704073659,46.7427365881695 16.0969795328496,46.742710562708 16.0975357843581,46.7425649722576 16.0981879290989,46.7425467498974 16.0984025336644,46.7425006068998 16.098679738804,46.7423858483931 16.0989211605699,46.742223301222 16.0993047408821,46.7418952005078 16.1008928287569,46.7415034262397 16.1022611935181,46.7411898576453 16.1026275478802,46.7411543002218 16.1036812376426,46.7411201210963 16.104353003429,46.7409293899581 16.1059078864249,46.7403376926432 16.1072720922089,46.7398238404387 16.1077696542895,46.7396587956041 16.1075108707155,46.7392528560993 16.1072212742408,46.7387670546513 16.1070660053496,46.7380157234389 16.106819245812,46.7362079989568 16.1046780773292,46.7346188418958 16.1028087109516,46.7332112752472 16.10216582299,46.7325286909995 16.1010552886661,46.7312018601566 16.1003499991838,46.730311594965 16.1000490364356,46.7298338910131 16.0998062921789,46.7293557166408 16.0995043635311,46.7288299786841 16.0991463467426,46.7284089591991 16.0989752556272,46.7280180813069 16.0987236192814,46.727668101376 16.09826181508,46.7272961174005 16.0975764198082,46.7268141789552 16.0969243368338,46.7262517573871 16.0966038778475,46.725958481241 16.0962910070768,46.7254648672966 16.0960297064903,46.7252111475111 16.0957446688642,46.7249415505295 16.0952602742006,46.7246017985222 16.094809056844,46.724181567342 16.0947079868759,46.7240744852241 16.0943951690514,46.7238731648868 16.0940385200373,46.7235161718292 16.093817753854,46.7232539624196 16.0935993164372,46.7228155769327 16.0935551906567,46.722651810744 16.0934328263935,46.7223646391557 16.0932809109274,46.7220457218904 16.0931355117166,46.7217708254924 16.0928711994998,46.721372821678 16.0927691178982,46.7212216641274 16.0924457856032,46.7210685706157 16.0919209626459,46.7207452042362 16.0915727400647,46.7205122760243 16.0914247462929,46.7203934931792 16.0913107074153,46.7202264344127 16.091123274868,46.7198838320011 16.0911150973397,46.7197637153782 16.091092648159,46.7195196716961 16.0910562180634,46.71915961517 16.0909479868188,46.7189884521613 16.0904945615211,46.7184481200382 16.090196012519,46.7180825540235 16.0897193229169,46.7175424404183 16.0895584939215,46.7173637699922 16.0892033701117,46.7170788098361 16.088375562138,46.7164580040964 16.0882101131213,46.7163354245563 16.0878980592409,46.7161621484102 16.08749559025,46.71583759815 16.0872551118739,46.7154634654164 16.0870270799354,46.7151292488213 16.0866821769359,46.7147721208222 16.0862640684665,46.7142474501742 16.0860355361873,46.7138812083633 16.0858049493291,46.7134189017704 16.085389829287,46.7124617323328 16.0853035917154,46.7121529769143 16.0852802133447,46.7116457896835 16.0850763747959,46.7096133183751 16.0849542533604,46.7081727684541 16.0846850106745,46.7081032582546 16.0823098890641,46.707525135296 16.0818409213158,46.7073693405919 16.0816870735748,46.7072426832693 16.0810940602742,46.7067036325552 16.080988843662,46.7066806056761 16.0804876633079,46.7066533115821 16.0797413277093,46.7065963010529 16.0794604331042,46.7065188815166 16.0792581559124,46.7063045109235 16.0789718665725,46.7059628203516 16.0787475678778,46.7058047954177 16.0775319033842,46.7052431655365 16.0769548574333,46.7049053772516 16.0758703403066,46.7041432199754 16.0749752469591,46.7044893662113 16.0739043018297,46.7046998675952 16.0727646473941,46.7049940419776 16.0722322162603,46.7049990326959 16.0715724439291,46.705171111296 16.0710001493769,46.7051972518001 16.0702347592318,46.7051076099206 16.0697224688254,46.7051193279629 16.0692139944512,46.7053176879262 16.0683212764739,46.7059066684934 16.0672981812802,46.7065105331031 16.0660298618708,46.706902733903 16.0653613386648,46.7071440420957 16.0643911345998,46.7073742983699 16.0635344011366,46.7077555345477 16.0623828887285,46.7084712968106 16.0614884198591,46.708977381059 16.0599043981807,46.7096764375812 16.0588061928696,46.7100461098753 16.0575194749787,46.710534919819 16.0553907753167,46.7111422328371 16.053152463016,46.711791989444 16.052101830332,46.7120297188461 16.0514210968842,46.7121673266318 16.0512253377528,46.7119202791548 16.0509918487759,46.7117980009822 16.0507167388434,46.7116000832065 16.0504595885204,46.7114109065266 16.0501300038737,46.7112296813268 16.0501158807178,46.7111016992445 16.0500871670318,46.7108216284446 16.0500834520376,46.710036708376 16.0501236368832,46.7097079633051 16.0501056305213,46.7093797522724 16.0499796213105,46.7088843856902 16.0498047570456,46.708277279428 16.0493943464385,46.707528117664 16.049126082119,46.706905852837 16.0487838065028,46.7066686911062 16.0485501491081,46.7066307976612 16.0476317605888,46.7067033560126 16.0470592207288,46.7065964989597 16.0461109010966,46.7063248386222 16.0455037886367,46.7062423108301 16.0448268293834,46.7061524106589 16.0441010287877,46.7059507643894 16.0434513285304,46.705768481993 16.0426795290625,46.7055953156204 16.0418879282981,46.7056026165237 16.0413999517739,46.7056551008493 16.0403966066967,46.7058524376605 16.0399331330141,46.7059688387822 16.0396616634177,46.7060794450846 16.0392090669942,46.7063062228478 16.0385304317634,46.7067898347524 16.037288081353,46.7062413349004 16.0355143051771,46.7054486959206 16.0345823264543,46.7050562375114 16.033604416519,46.7051480243788 16.0324374441042,46.7053383125642 16.0319974642646,46.7054529401151 16.0316341137144,46.7056290416893 16.0312622719709,46.7058881674065 16.0311028201137,46.7059621171295 16.0309618610472,46.7059426950944 16.030531582707,46.7057772549783 16.0302790806909,46.7057103449222 16.0301732589987,46.7059567253341 16.030104553832,46.7060437113787 16.0296934547559,46.7060889760475 16.029137476138,46.7061769268482 16.0281141618023,46.7062621477202 16.0276098853588,46.7063732876009 16.0276948381393,46.7065564153489 16.0278333110192,46.7068651047942 16.0278996150935,46.7070096245027 16.0278333110192,46.7068651047942 16.0278990920498,46.7070096292015 16.0279100720556,46.7070368802586 16.0279100720556,46.7070368802586 16.0279366812062,46.7071502684023 16.0279485092733,46.7072152976007 16.0279912793234,46.7074772545061 16.0280332754798,46.707739758134 16.0280786316723,46.708006999748 16.0280786316897,46.7080069998544 16.028121097103,46.7082666201895 16.028167020551,46.7085567979093 16.0281670205654,46.7085567980001 16.0281893114552,46.7086768823503 16.0282181571832,46.7087771152522 16.0282601971379,46.7089109668543 16.0282942089816,46.7089939697861 16.0283708112565,46.7091778017647 16.0283952853625,46.7092406480172 16.0284197544006,46.7093032244113 16.0285237155814,46.7095640012615 16.0286283957375,46.7098212628665 16.0287227060882,46.7100558561836 16.0288060224489,46.7102624788555 16.0288472129186,46.7103446073649 16.0288971453803,46.7104187402359 16.0289255488394,46.710454291314 16.0289832054148,46.7105150397111 16.0290472261989,46.7105665543045 16.0291212513884,46.710614560171 16.0292903142614,46.7107150609756 16.0294588581016,46.7108157461313 16.0295608741334,46.7108775345764 16.0296582767593,46.7109443125783 16.0297351239606,46.7110168533825 16.0297904096005,46.7110903978846 16.0298339277227,46.7111641382379 16.0298609157645,46.7112352384083 16.0298741750625,46.7112859498823 16.0298810449661,46.711358310715 16.0298747480336,46.7114329492432 16.0298610882456,46.7114918200168 16.0298424146097,46.711548396798 16.0298180527195,46.7116016060618 16.0297784136712,46.7116630497569 16.0297349880094,46.7117179599943 16.0296889390018,46.7117656065733 16.0296250757743,46.7118118840138 16.0295438367914,46.7118592174238 16.0294526144674,46.7119043014794 16.0293992962081,46.7119273626475 16.0292574441412,46.7119855872395 16.0291144737642,46.7120400431395 16.0288890023633,46.7121236700126 16.0287245459407,46.7121831767914 16.0285737289691,46.7122308651402 16.0284653936372,46.7122564896431 16.0283980374988,46.7122635726002 16.0283265419262,46.712266194418 16.0282341815817,46.7122652251182 16.0281410580359,46.7122585047759 16.0280704002376,46.7122501430502 16.027991344871,46.7122334898864 16.0279150101762,46.7122154627361 16.0277703344705,46.7121733087574 16.0274130318654,46.7120646898271 16.0270550682817,46.7119556258831 16.0265954576517,46.7118178740207 16.0262343553657,46.7117086557358 16.0258719740732,46.7116008872342 16.0255147011262,46.7114934316644 16.0252756866096,46.7114215315596 16.0250478956014,46.71135519827 16.0248196876325,46.7112944461555 16.0246794057332,46.7112630448373 16.024422928438,46.7112082129486 16.0242370807629,46.7111741601871 16.0240675901566,46.7111474279109 16.0237808416945,46.7111033015652 16.023502250801,46.7110617105467 16.0226816449199,46.7109365279656 16.0223680159461,46.7108886798243 16.0221696998636,46.7108591434465 16.02206518371,46.7108446029221 16.0219673810502,46.7108323414572 16.0218669001695,46.7108237024688 16.0217749923951,46.7108188553749 16.0216718502054,46.7108216656676 16.0215727346551,46.7108299278453 16.0214726611639,46.7108428767229 16.0213858870842,46.7108605649622 16.0213858870841,46.7108605649622 16.0213719404603,46.7108631185393 16.0212914789359,46.7108826396452 16.0212914789357,46.7108826396452 16.0212914789356,46.7108826396452 16.021278342378,46.710886535471 16.0212082659607,46.7109088427374 16.0212082659595,46.7109088427378 16.0211307320308,46.7109379639675 16.0210447622442,46.7109775065168 16.0209642167037,46.7110203293448 16.0209037215655,46.7110582949878 16.0208340584621,46.7111094774337 16.0207816605983,46.7111537583581 16.0207218899078,46.7112093507832 16.020638336567,46.7112938544838 16.0205768566657,46.7113628670162 16.0204998173046,46.7114599077557 16.0203899779346,46.7116001547449 16.0202807034723,46.7117426457381 16.0201969132162,46.7118563002108 16.0200956931374,46.7119959302594 16.0199988646101,46.7121326421542 16.019924023415,46.7122492754873 16.0198319216319,46.7124008794592 16.0197372614558,46.7125555649976 16.0196174832435,46.7127516787149 16.0195502819254,46.7128573578234 16.0194825406409,46.7129552146591 16.0194215425537,46.7130360977672 16.0193842740815,46.7130851913707 16.0193078688069,46.7131814159315 16.0192315432305,46.7132749407496 16.0191147001196,46.7134048127952 16.0189484317518,46.7135842463015 16.0187353408885,46.7138125881124 16.018516853712,46.7140461955776 16.0183719679426,46.7142013270026 16.018161158594,46.7144260487703 16.0179508740064,46.7146509454027 16.0177414913044,46.7148752038546 16.0176271080031,46.7149971354543 16.0174173252188,46.7152211269572 16.0173177115364,46.7153286223221 16.0171726627968,46.7154824041471 16.0170310919637,46.7156333659258 16.016937250438,46.715734871892 16.0168819495013,46.7157921318867 16.0168060729866,46.7158681976512 16.0167508305834,46.7159146611463 16.0166284820912,46.7160027453353 16.0164969452942,46.7160821843209 16.0164270486275,46.7161214905984 16.0162955590573,46.7161825758771 16.0161547606584,46.7162355567717 16.01603087685,46.7162767816913 16.0158999414371,46.7163116815017 16.0158378191837,46.7163261777567 16.0156969278721,46.7163533386842 16.0155822851972,46.7163781972495 16.0154906064196,46.71639997299 16.0153565737144,46.7164371488138 16.0152227542775,46.7164787309191 16.0151159564008,46.7165173741677 16.0150233852072,46.7165543616941 16.0148953262007,46.7166241416206 16.0147678591453,46.7166976047564 16.0146855197273,46.7167431379962 16.0145971235887,46.7167865656992 16.0145051573298,46.7168279557706 16.0144043457094,46.7168650158547 16.0143319146666,46.7168878795464 16.0142530565358,46.7169098105372 16.0141562874735,46.7169322600869 16.0140740314868,46.7169473836589 16.0139883743747,46.7169555199687 16.013918047145,46.7169580324534 16.0138261777782,46.7169487702981 16.0136861778537,46.716960806569 16.0135152782802,46.7169852617706 16.013361570989,46.7170197306088 16.0132188405124,46.7170675969304 16.013072371936,46.7171324097643 16.0129425256708,46.7172117397065 16.0127912881007,46.7173293144289 16.0126696115097,46.7174048831427 16.012561229674,46.7174569429377 16.0124390489262,46.7174985987126 16.0122385181584,46.7175404976719 16.0120652779084,46.7175518363846 16.0118439249228,46.7175365205629 16.0116837977902,46.7175006005953 16.0115660908571,46.7174597171311 16.0110147154028,46.7172066579674 16.0103981440284,46.7169153965473 16.0103981439863,46.7169153965275 16.0098206742152,46.7166442989516 16.0096116831504,46.7165467124981 16.0093123818766,46.7164069552361 16.0088548011682,46.7161952522714 16.0087299345968,46.7161489410882 16.0085890471648,46.7161132970013 16.0084390904633,46.7160893382769 16.0082820496191,46.71607830691 16.0081087395126,46.716078664409 16.0079649359959,46.7160900974307 16.0077842747031,46.7161101317694 16.0071632489549,46.7161894618167 16.0065834110395,46.7162821009886 16.0061571645862,46.7163621410046 16.0057658764555,46.7164440313384 16.0055358670622,46.7164991411232 16.0048127686823,46.7166876659603 16.0043976312139,46.7168097958716 16.0039935339529,46.7169419035846 16.0037002630252,46.7170688093737 16.0035919437027,46.7171528879837 16.0035051297539,46.7172398367284 16.0034415124483,46.7173362083365 16.0033988118001,46.7174389639991 16.0033825719585,46.7175578614067 16.0033924340734,46.7176947030345 16.0034190399815,46.7179021110271 16.003416410886,46.7180495881942 16.0033576270803,46.7182232880267 16.003249542296,46.7183625133304 16.0031138666767,46.718474090984 16.0029495155983,46.7185559611825 16.0027362151492,46.7186223361517 16.0025739314484,46.718653446929 16.0023279584634,46.7187003149096 16.0022064857803,46.7187454622041 16.0020995797129,46.7188001981144 16.0019703553602,46.7188930049972 16.0018802596076,46.7189796213519 16.0018309489204,46.7190505863507 16.001794573119,46.7191207183546 16.0017668277934,46.7191906848218 16.001748053905,46.7193071750644 16.0017640445219,46.719443153442 16.0018070439086,46.7195400300923 16.001871514911,46.7196520129249 16.0021370786395,46.7200694681508 16.0024008562109,46.7204820802255 16.0027219259016,46.7209859547916 16.0030735161585,46.7215340040007 16.0033477214901,46.7219649653877 16.0035560988633,46.7222955617835 16.0036181080335,46.7223943401998 16.0036559242412,46.7224794760495 16.0036930391843,46.7226043829341 16.0037021801426,46.7227092928758 16.0036888111697,46.7228560544432 16.0036384379259,46.7229967530078 16.0035971732236,46.7230713367439 16.0035071372069,46.7231896217593 16.0033760925688,46.723311685008 16.0029941801549,46.7236200174211 16.0026206339161,46.7239211679339 16.0022556582869,46.7242049687032 16.0020128183353,46.7243658851314 16.001770250529,46.7244991791556 16.0014724227716,46.7246368248493 16.0009565308178,46.7248394435459 16.0008649377678,46.7248810892046 16.0008267922184,46.7248975969635 16.0008027695296,46.7249079929421 16.000761056151,46.7249303094262 16.0007981137771,46.724910912568</coordinates></LinearRing></outerBoundaryIs></Polygon></MultiGeometry>
  </Placemark>
</Folder>
</Document></kml>
