<?xml version="1.0" encoding="utf-8" ?>
<kml xmlns="http://www.opengis.net/kml/2.2">
<Document id="root_doc">
<Schema name="pregledovalniklovisca" id="pregledovalniklovisca">
	<SimpleField name="lov" type="string"></SimpleField>
	<SimpleField name="lov_naziv" type="string"></SimpleField>
	<SimpleField name="luo" type="string"></SimpleField>
	<SimpleField name="luo_naziv" type="string"></SimpleField>
	<SimpleField name="povrsina" type="float"></SimpleField>
</Schema>
<Folder><name>pregledovalniklovisca</name>
  <Placemark id="pregledovalniklovisca.1">
	<Style><LineStyle><color>ff0000ff</color></LineStyle><PolyStyle><fill>0</fill></PolyStyle></Style>
	<ExtendedData><SchemaData schemaUrl="#pregledovalniklovisca">
		<SimpleData name="lov">0826</SimpleData>
		<SimpleData name="lov_naziv">DOBROVNIK</SimpleData>
		<SimpleData name="luo">08</SimpleData>
		<SimpleData name="luo_naziv">Pomursko</SimpleData>
		<SimpleData name="povrsina">3842.29</SimpleData>
	</SchemaData></ExtendedData>
      <MultiGeometry><Polygon><outerBoundaryIs><LinearRing><coordinates>16.390562351263,46.6376684105323 16.3909329318114,46.6373481180188 16.3911227102483,46.6367618289767 16.391050605965,46.6364201981765 16.3910752398614,46.6364283555967 16.391135875613,46.6362817803149 16.3911691497583,46.6362448487088 16.3913208350724,46.6361650017711 16.3915783409835,46.6360708220379 16.3916768604524,46.6360111443985 16.3917276301997,46.6359841661473 16.3920185165894,46.6359234971847 16.3920114325541,46.6358917347628 16.3919254201931,46.6353339009597 16.3918767173313,46.6347182135707 16.3917644866988,46.6337184163645 16.3922443341279,46.6335909406268 16.3929638958337,46.6336232960343 16.3930064565764,46.6336378923672 16.3934771374115,46.6338352172484 16.3935511999403,46.6338406127774 16.3938095746875,46.6338317069538 16.3943662987355,46.6339210079113 16.3944861478122,46.6339089307502 16.3948174773283,46.6339080400993 16.3949738484114,46.6339550758499 16.395102876666,46.6339749146791 16.3951191999655,46.6339849719431 16.3952645053211,46.6340029026838 16.3954998823008,46.6340037201787 16.3958508673748,46.6339799148364 16.3960309518817,46.6340246804862 16.3963007237429,46.6341440141463 16.3966135627272,46.6342772162345 16.3966424575616,46.6342783929076 16.3968754010851,46.6343064075904 16.3970288961262,46.6343126302233 16.3971689121327,46.6343076813263 16.3972541284768,46.6342947647092 16.3972964593333,46.6343003654635 16.3974226542768,46.6343318421448 16.3974818817019,46.6343393056809 16.3980267864731,46.6343293186796 16.3980556575518,46.6343194292335 16.3983254030852,46.6343056959079 16.398824299495,46.6342741353966 16.3990485604975,46.6342287480447 16.3992703729354,46.6341998543314 16.3996278537095,46.6341544556081 16.3999383455804,46.6340241613126 16.4000393880651,46.6339159528479 16.4001436158374,46.6337287134713 16.4002740733294,46.6336469551924 16.4003711226959,46.633465021609 16.400518960202,46.633272299763 16.400736393,46.6330333817008 16.4009050076063,46.6330132333182 16.4010978465466,46.6329499632471 16.4011013202148,46.6329489486593 16.4011547533887,46.6329333418983 16.401153863091,46.6328786953324 16.4011538594591,46.6328784724082 16.4011550608932,46.6328779857578 16.401409006464,46.6327751226082 16.4016582205064,46.6326089573444 16.4021040699629,46.632319374639 16.4024487088181,46.6321683318083 16.4025129328985,46.6321401844943 16.4027312389394,46.6321009646748 16.4028370232752,46.6320819597972 16.4029971374754,46.6320716291047 16.4034627583154,46.6320824714646 16.4036606298517,46.6320498363782 16.4038107778055,46.6320250721206 16.4040126046838,46.6319917839907 16.4041175721593,46.6320093152949 16.4043031465251,46.6320403090182 16.404407055165,46.6323379721276 16.4044089400985,46.6323433717923 16.4044633924335,46.632318649087 16.4047401667806,46.6321929859515 16.4047745157898,46.6321773904736 16.4048069312128,46.6321610816899 16.4049586313822,46.632084758349 16.4050659642343,46.6320307568291 16.4057941754056,46.6316643723 16.4064602458819,46.6313315803476 16.4075012012582,46.6309065762498 16.4075514948859,46.6308860418243 16.4077623148087,46.630640444027 16.4076086934049,46.6302613200707 16.407533623767,46.6300507290585 16.4075753842999,46.6298530953337 16.407725825728,46.6296765262075 16.408308935804,46.6290871658432 16.4085554095468,46.6287262383918 16.4085637729312,46.6287169589604 16.4086978371696,46.6285682100673 16.4089793815072,46.6283863359679 16.4091012650629,46.6283375114468 16.4102535269323,46.6279966377419 16.412483456104,46.627636782464 16.4125051049393,46.6275954897178 16.4127023152947,46.6272146487829 16.4138587167384,46.625063709989 16.4146789849367,46.6239881663794 16.4149643112696,46.6237927353618 16.4153070822674,46.6236871007977 16.4155804061673,46.6236575379773 16.4172952465122,46.6203213379345 16.419045883527,46.6188177679614 16.4204570316234,46.6176019667398 16.4211259869178,46.6170300968556 16.4212209364575,46.6169812340253 16.4213507091916,46.6169706888392 16.4213856233141,46.6169678517312 16.4213894616621,46.6169418874331 16.4214125789825,46.6167855110744 16.4227924561522,46.6153668308143 16.424530609726,46.6135434033455 16.4248475146807,46.6131566412543 16.4248912350082,46.6131560066758 16.4252562596484,46.6131599530075 16.4253932059524,46.613040621062 16.4273977068372,46.6130125659488 16.4272705141416,46.6115953530684 16.4267752502678,46.6115677936468 16.426445061722,46.6114876114392 16.4262250092406,46.6113855423166 16.423159491569,46.6093480648863 16.4230145008784,46.6091505888886 16.4205062063795,46.6070161379762 16.421002491486,46.6067400686047 16.4212413013951,46.6066021490637 16.4215517661806,46.6063540269558 16.4181037829072,46.6042890467701 16.4187907639318,46.603817820214 16.4175107942662,46.60300463062 16.4171485929421,46.602880643764 16.4169516834037,46.6028380989829 16.4165647010054,46.6026597164584 16.4161395281735,46.6024432989664 16.4157571644949,46.6022616176583 16.4153950563725,46.6021408629534 16.4148017626229,46.6017337183694 16.4146728299801,46.6016196136587 16.4143661203111,46.6014755884449 16.4136351306063,46.601153631033 16.4133906448202,46.6010731616022 16.4132461955787,46.6010749464125 16.4127733351907,46.6011771439731 16.4121372815838,46.6012782055193 16.4118256928432,46.6013077828249 16.4116130785364,46.6011979463732 16.4113678432694,46.601088512037 16.4111886863118,46.6010103806916 16.4109514679476,46.6008527134434 16.4106388233751,46.60066052836 16.410424797037,46.6004960962676 16.4103488239373,46.6004455710971 16.4101271845755,46.6001687717647 16.4100549108539,46.6000796942985 16.4099574952761,46.5999170626113 16.4098679259883,46.5996996333112 16.4098450178246,46.5995360831296 16.4098600930065,46.5993977057799 16.4099175548278,46.5992781491809 16.4099480918124,46.5991974309416 16.4099470907683,46.5991588468145 16.408262781293,46.5980196327677 16.4074473506836,46.5974930973524 16.4028209278022,46.5945198819369 16.3998639460318,46.5927839092892 16.399147631184,46.5931559665635 16.3966680075279,46.5944435808636 16.3935199181984,46.5961037490641 16.3877567045872,46.5991155144215 16.384057562179,46.601095554226 16.3822680023423,46.6021626263215 16.3816311582353,46.6027435087401 16.377981841658,46.6065727663228 16.3761937904706,46.6088500666776 16.3747532960046,46.6111444839324 16.373208576607,46.6133697781651 16.371235376405,46.6166096301044 16.370792528564,46.6170609997805 16.3675164535643,46.6199800003241 16.366817199708,46.6206221826132 16.3635187692279,46.6235726423453 16.3633748881936,46.6237191157967 16.3616645670661,46.6252576072704 16.3602816978959,46.6264948351865 16.359553848512,46.6271334435734 16.3590591844988,46.6275619009936 16.3573322670434,46.6291200465956 16.3564650708386,46.6298660005732 16.3553424541466,46.6308496106116 16.3516977818448,46.6340855138284 16.3502865173986,46.6353386084139 16.3498059562282,46.63565727781 16.3493461023065,46.6358896917124 16.3420419194693,46.6386284946498 16.3365048850068,46.6407358559015 16.3354802778877,46.6411077826774 16.3336690950582,46.6418332693505 16.3298647338282,46.6432783549045 16.3258910170664,46.6447722393938 16.3207703277695,46.6467644283234 16.319859942514,46.6471740315868 16.3187278444909,46.6468740904412 16.3180414209715,46.6466785845562 16.3168659829119,46.6464652232698 16.315632414208,46.6461977282121 16.3145026340771,46.6459916447187 16.3130406485292,46.6456719559031 16.3120891484297,46.64532300292 16.3106967128723,46.6445877359224 16.3093008833177,46.6437156500817 16.3089437973837,46.6435123611807 16.3086238099496,46.6441972565701 16.3038071857274,46.6523103732435 16.310191079376,46.650800117628 16.3100520464269,46.6510967132172 16.3093795076533,46.6525220301792 16.309410005596,46.6526380090161 16.3096746405561,46.6529436580135 16.3107232938463,46.6537937159365 16.3116946208734,46.654783830407 16.3116872058778,46.6549850825757 16.3114954455864,46.6551707246672 16.3119666626114,46.655032799589 16.3125207826484,46.6549462824754 16.3128929772778,46.6549711610798 16.3128928750039,46.6550694966432 16.3127991877105,46.6555605343373 16.3128349044212,46.656010501308 16.3129399501927,46.6569332609487 16.3128497899461,46.6578885796982 16.3125054091687,46.6588680474453 16.3124946646959,46.6592879584078 16.3126027765946,46.659873035237 16.3128310928843,46.6604304620808 16.3130843735697,46.6608746029184 16.3135100952629,46.6614514444823 16.3137302083986,46.6617720796398 16.3144847609457,46.6628948411583 16.3148655271489,46.6634218123676 16.3149792827658,46.6636993135208 16.3153369784107,46.664169059186 16.3156686712307,46.6649564173423 16.3155929691158,46.6649710529152 16.3158686663749,46.6655400739897 16.3161090955708,46.6659588049272 16.3163140987801,46.6662208601198 16.3164475695212,46.6666154501552 16.3165928030607,46.6667732008072 16.3167092347784,46.6668642571674 16.3168621121015,46.6672344221329 16.3167136089983,46.6674049099716 16.3166414415074,46.6676136548515 16.3163794708778,46.6679983105423 16.3163955144522,46.6681746416428 16.3162457812599,46.668407670219 16.3162018507263,46.6686007055079 16.3162400711359,46.668818436289 16.3162382856943,46.669014045564 16.3162259272913,46.669231728477 16.3161548530056,46.6693726251264 16.3161647598896,46.6694846102963 16.3162415128485,46.6697821484845 16.3162749416322,46.6700985383943 16.3162966589383,46.6702824513795 16.316344754962,46.67044392891 16.3163432527512,46.6706350365156 16.3163781022287,46.6707622989722 16.3164654526821,46.6709094698065 16.3165013373888,46.6711008669119 16.3165272920806,46.6712331798659 16.3166371636735,46.6715003775108 16.3167060247861,46.6716987723226 16.3169392418035,46.6719375598207 16.3171406911515,46.6721382966026 16.3171307432862,46.6722398941021 16.3172808625686,46.6725334379271 16.3176225515655,46.673056530746 16.3177934515788,46.6734143409751 16.3177914898855,46.6737960042281 16.3179141693151,46.6740572951184 16.318092223776,46.6742844801082 16.3183023325874,46.6742871873027 16.3186610142783,46.6742184571706 16.3186059974338,46.6747453990694 16.3185167673798,46.6761011524663 16.3188465614944,46.676042651097 16.3194452785035,46.6758951289637 16.3196605759688,46.6758744723439 16.3202846200801,46.6758653829604 16.3211503560214,46.6764680647526 16.3218015387469,46.6768104251176 16.3212659711843,46.6802293331079 16.3222896576386,46.6803481381799 16.3232458421004,46.680015000595 16.3241611545521,46.679250755986 16.3254297434068,46.6794958008794 16.3256488731722,46.6798664454005 16.3255673441684,46.6800764735486 16.3253799082733,46.6809963991511 16.3254562108484,46.6814009966782 16.3255267982975,46.6819085826437 16.3255023443986,46.6821487181009 16.3254114638545,46.6822812128464 16.3253143491497,46.6824955597693 16.3252945853992,46.682697674738 16.3253212560405,46.6829115772761 16.3270046381407,46.6828432118895 16.3270938136234,46.6826038548271 16.3282620171024,46.6824029864818 16.3283978398442,46.6824136450055 16.3291122969159,46.6821170926054 16.3295980373222,46.6826965941295 16.3299027851938,46.6829160803074 16.3300008369647,46.6829430101863 16.3305840288009,46.6829759043984 16.3310321236291,46.6831980387141 16.3315174198886,46.6833805126802 16.331790488146,46.683688170339 16.3320952865059,46.6839941983487 16.3321444201918,46.6841369437178 16.3322848885067,46.6844798817132 16.3324578574175,46.6850492478371 16.3324475320595,46.6853045145305 16.3326437915709,46.6857363194001 16.3327306045302,46.6860076382493 16.3328673233372,46.6861659168736 16.3330906717833,46.686359442636 16.3335653028428,46.6867498558792 16.3341350934788,46.6871924179435 16.334254644383,46.6874602049664 16.3347406762576,46.6876174658557 16.3351156537098,46.6877881662659 16.3354999628586,46.6881092712596 16.3356847146586,46.6882266805653 16.3359828364816,46.688498588544 16.3364707850262,46.6886428644471 16.3365046806887,46.6886866422631 16.3368314946336,46.6888017602841 16.3370389823136,46.6889078357913 16.3377091722427,46.6892578901172 16.3380067122859,46.6893732570915 16.3383440122757,46.689642631447 16.3386353435088,46.6898081810066 16.33878389291,46.6898621323369 16.3387725726011,46.6892929539042 16.3387400626688,46.6890990056863 16.3383489692019,46.6887266198249 16.3381256658309,46.688091455968 16.3382555944978,46.6876405511539 16.3382544918595,46.6873683239508 16.3382988805048,46.6871488250593 16.3384246390956,46.6870902248605 16.3388530017533,46.6869555702783 16.3392541008739,46.6866118800288 16.3400552429577,46.68635284054 16.3407039037376,46.6857858259824 16.3407448162056,46.6856376206862 16.3408815131839,46.68531339689 16.3412164512637,46.6850864425462 16.3415590147296,46.6848877374076 16.3421550230115,46.6844341505163 16.3425828218088,46.6842726783022 16.342938972631,46.6841953550185 16.3432114597287,46.6841287293706 16.3434143327922,46.6840119991884 16.3438582674021,46.6837318460966 16.3441455819425,46.6835463774948 16.3444344793761,46.6833668273878 16.3446890323744,46.6832099020874 16.3448384854997,46.682968922933 16.3454740578244,46.6827944711221 16.3463445471745,46.6825624615116 16.346715095597,46.6824707421922 16.3472453202712,46.6827390789816 16.347473275204,46.6827588861116 16.3480025306369,46.6828093305447 16.3481776243714,46.6828744727431 16.3490991036168,46.6832154713568 16.350105653082,46.6830562313596 16.3506592223463,46.6830644519123 16.3512886990682,46.683049911236 16.351930656992,46.6829383250564 16.3524698439402,46.6826427080126 16.3528471216541,46.6824700988132 16.3528081292297,46.6822696633732 16.3528072155084,46.6820497945923 16.3528342103984,46.6818743994053 16.352912116361,46.6816909348921 16.3530657813313,46.6814108493405 16.3533450295124,46.6808884360889 16.3535203810577,46.6805766048482 16.3537032688715,46.6801793053422 16.3535350048204,46.6782678750333 16.3536300272333,46.6770638897582 16.35332338659,46.6761638871657 16.3530544722635,46.6753714880517 16.3529700592641,46.6750949375627 16.3529805891662,46.6749407891789 16.3528605727736,46.6745364563717 16.3532588153872,46.6746613890608 16.3540011409223,46.6749928617756 16.3542738244308,46.6751091105992 16.3550209804945,46.6751784450377 16.3555242440568,46.6752218751473 16.3558985862117,46.6751799227599 16.3566210315441,46.6753219632174 16.356920027228,46.6754395131253 16.3574364496978,46.6753975798015 16.3577069161818,46.6749553303044 16.3580837109152,46.6746931918688 16.3582861179544,46.6745970430626 16.3585853684662,46.6744901173854 16.3589478232339,46.6744330917087 16.359227325546,46.6743414234524 16.3596217858479,46.6741795634182 16.3597726095495,46.6740385015782 16.3599875004962,46.6740390061052 16.360060667551,46.6739597748321 16.3602534955926,46.6739040417242 16.3607525383126,46.6736703099494 16.3610391174755,46.6737045971751 16.3615289571992,46.6734793384385 16.3615624362877,46.6734124541977 16.3617829471867,46.6733454130264 16.3618866776291,46.6733331122602 16.3619380440451,46.6731562549238 16.3620302581424,46.6730081506073 16.362038053582,46.6728190365955 16.3626794950569,46.6725782028696 16.3626347359319,46.6724718548925 16.3628428949894,46.6724855694494 16.3629677045074,46.672396814315 16.3632157187952,46.672290666797 16.3632780129216,46.6723146654826 16.3636593138623,46.6720619913364 16.3638317402825,46.6719750068018 16.3637994544757,46.6719021583283 16.3641534194062,46.6715709970465 16.3644691116264,46.671194137912 16.3646489396478,46.6709548391967 16.3650492875818,46.6707221757751 16.3652041907592,46.6706869494906 16.3654580492581,46.6704812234914 16.365553342721,46.6703521525638 16.3656331941849,46.670445395154 16.3657348622293,46.6703618614007 16.3662274339279,46.6701639897643 16.366506590489,46.6702103175843 16.3664945660361,46.6701428957675 16.3668793276588,46.670033847211 16.3638063410784,46.6677808539575 16.3639964332023,46.6675446725848 16.3660317757127,46.6648212763445 16.367358260807,46.6630150780946 16.3675400207072,46.6629679217679 16.3680382622244,46.6630339386181 16.3684856090674,46.6631544526083 16.368853668433,46.6632400165938 16.3694662793995,46.6634310628933 16.3699469311006,46.6635867995695 16.3702244567125,46.6637094302194 16.3704490454427,46.6638057041396 16.3710863509431,46.6642028311566 16.3712848149296,46.6642994165345 16.3715742737985,46.6643769171603 16.3717452928368,46.6643752265075 16.3721689377307,46.6643742843938 16.3725641901795,46.6642222662213 16.3729380357864,46.6640713132927 16.3731102334806,46.6639871963037 16.3734952246455,46.663966830418 16.3738327789346,46.6641063652041 16.3738740380721,46.6641565213666 16.374339986172,46.6643036893263 16.3746197491896,46.6643851673282 16.3747456016805,46.6643390311919 16.3747740867682,46.6642976637438 16.374721047089,46.664133390858 16.3746949629127,46.664006580348 16.37452579869,46.6636174346684 16.3745409657672,46.6633651637174 16.3745583142852,46.6633226705801 16.3748988854743,46.6633183980396 16.3777697964817,46.6627023987713 16.3783894245391,46.662556744611 16.3790030261963,46.6624106199251 16.3802418093444,46.6621167814619 16.3812288628787,46.6618882266329 16.381562612892,46.661842271689 16.3828124247154,46.6613209243296 16.3831313611509,46.6614116245123 16.3834682525555,46.6614940995661 16.3838337448787,46.6615809959346 16.3846398251872,46.6619321018191 16.3871793647323,46.6615384972355 16.3878427253408,46.662158514468 16.393372027963,46.6617723667786 16.3935398304389,46.6619293157253 16.3934072965459,46.6618023462142 16.3931966683621,46.6611727174539 16.3931754442135,46.6611092714499 16.3931779824396,46.661108852707 16.3935870194631,46.6610413711581 16.3935867684393,46.6610401454703 16.3935363652337,46.6607940377766 16.3934441862964,46.6603952550474 16.3931636807322,46.6592373707327 16.3931432206115,46.6591733830851 16.3928557023546,46.6591919087053 16.3918805656006,46.6591631120158 16.3914970290379,46.6590705229634 16.3914312574436,46.658737723378 16.3914152455516,46.6584141249856 16.3914469783851,46.6583231157493 16.3914697073844,46.6582579291719 16.3914731798967,46.6582479700222 16.391242454418,46.6564766161415 16.3907863177383,46.6558144232514 16.3910887008232,46.6551331108404 16.3908203428148,46.6550194475096 16.3905493632385,46.6549046726777 16.3900299735462,46.6551689219702 16.389302546933,46.6547845102556 16.3888474550415,46.6544503285885 16.3888278940974,46.654435964522 16.3888186362477,46.6544291662588 16.3881505270309,46.6539980536048 16.3875291712666,46.6536620475721 16.3874046144992,46.6535946909985 16.3873543202329,46.6535972422972 16.3872931055945,46.6536003475283 16.3871650199159,46.6536068448154 16.3862532042864,46.6536530934818 16.3852568409447,46.6538854965852 16.3852544133239,46.6538860628181 16.3854189110179,46.6514153596453 16.3855244750394,46.6498211063557 16.3855521996377,46.6494023898476 16.385585034389,46.6489064892278 16.3855915207968,46.6488199603695 16.3856265125506,46.6483531653588 16.3857109569029,46.6472266373595 16.3857412318674,46.6468227451481 16.3857504989411,46.6466976204177 16.3857828988036,46.6462601511609 16.385924940487,46.6443422057741 16.3859324914584,46.6442402440864 16.3859356030722,46.6442396798389 16.3876162471126,46.6439349045628 16.3887146900381,46.6431774079392 16.3903469303721,46.6420517414607 16.390446467467,46.6420058176575 16.3920821083454,46.6408673554223 16.3920850049292,46.6408228057262 16.3920870727578,46.6407910023176 16.3920877523535,46.6407892132645 16.3920973603917,46.6407639198419 16.3920985747023,46.6407607231347 16.3920543899769,46.6407491287216 16.3918665918049,46.640699848784 16.3916858992423,46.6406270140456 16.3915689457224,46.64059469889 16.3914009657121,46.64055913566 16.3911619109434,46.6405178689092 16.3907852386906,46.6404534437674 16.3906399495625,46.6404214721597 16.390578749947,46.640423925512 16.390475553287,46.6404135740868 16.3903852121708,46.6403951491515 16.39012046833,46.6402586466528 16.3899958255744,46.640175951392 16.3899599224518,46.6401613630221 16.3896945566549,46.6398831678 16.3896730436078,46.6397214870943 16.3897370378565,46.6395221507069 16.3897302023669,46.6394592562813 16.3896743277328,46.6393431568503 16.3896377674385,46.6391906557016 16.3897388567243,46.6389198840529 16.3897395346454,46.6388851482384 16.3896935895075,46.6386364955392 16.3895896669634,46.6384140080015 16.3895704693409,46.638291705021 16.3896263490756,46.6382856281484 16.390196468283,46.6382334472073 16.3902468685034,46.6382362009236 16.3902732487266,46.6382376422506 16.3902787887628,46.6382334490065 16.39032603985,46.6381976847006 16.390406345989,46.6382244381849 16.3904430274007,46.6382366583384 16.3904436394333,46.6382311494453 16.3904744450504,46.6379538674236 16.390562351263,46.6376684105323</coordinates></LinearRing></outerBoundaryIs></Polygon></MultiGeometry>
  </Placemark>
</Folder>
</Document></kml>
