<?xml version="1.0" encoding="utf-8" ?>
<kml xmlns="http://www.opengis.net/kml/2.2">
<Document id="root_doc">
<Schema name="pregledovalniklovisca" id="pregledovalniklovisca">
	<SimpleField name="lov" type="string"></SimpleField>
	<SimpleField name="lov_naziv" type="string"></SimpleField>
	<SimpleField name="luo" type="string"></SimpleField>
	<SimpleField name="luo_naziv" type="string"></SimpleField>
	<SimpleField name="povrsina" type="float"></SimpleField>
</Schema>
<Folder><name>pregledovalniklovisca</name>
  <Placemark id="pregledovalniklovisca.1">
	<Style><LineStyle><color>ff0000ff</color></LineStyle><PolyStyle><fill>0</fill></PolyStyle></Style>
	<ExtendedData><SchemaData schemaUrl="#pregledovalniklovisca">
		<SimpleData name="lov">0819</SimpleData>
		<SimpleData name="lov_naziv">IVANOVCI</SimpleData>
		<SimpleData name="luo">08</SimpleData>
		<SimpleData name="luo_naziv">Pomursko</SimpleData>
		<SimpleData name="povrsina">2518.57</SimpleData>
	</SchemaData></ExtendedData>
      <MultiGeometry><Polygon><outerBoundaryIs><LinearRing><coordinates>16.1852725040136,46.7549214218851 16.185325720825,46.7550201927327 16.1856959276357,46.7556238953684 16.1859015218668,46.7559138833078 16.1861018588665,46.7561133299552 16.1864348728257,46.7563756361549 16.1868096958162,46.7568010652885 16.1872346500053,46.7573749561388 16.1873394258072,46.7575024298938 16.1875772486394,46.7579954026389 16.1878619896768,46.7584608081677 16.1881413078352,46.7588043658651 16.1884978935527,46.7591610650362 16.1888618710503,46.7594727034835 16.1890180800636,46.7596229423805 16.1894359342678,46.7600684277451 16.1896880402854,46.7603227486866 16.1898621721032,46.7605078866552 16.1900766792585,46.7607489229112 16.1904735033276,46.7612492322399 16.1906575633891,46.7614985011063 16.1909193491045,46.7618053484273 16.1911541992551,46.7620482401106 16.19126028036,46.7622340842595 16.1913594012565,46.7624842361795 16.1914659995798,46.7626934657858 16.1915624150181,46.7628267804277 16.1921255894715,46.7633057390711 16.1923492385943,46.7634261219049 16.1927356939348,46.7636031051226 16.1929642594053,46.7637029233627 16.1932514470138,46.7638606074672 16.1935884104209,46.7641082769977 16.1938486774912,46.7643450502035 16.1941703100127,46.7646629611019 16.1944223327209,46.7649115145412 16.1948998263169,46.7653621149197 16.1951084130843,46.7655644282756 16.1953768125222,46.7657894175117 16.1964269847614,46.7667597861214 16.1974071864609,46.7676374030211 16.1976810006725,46.7678635896534 16.1981858959186,46.7682484844496 16.1984534169636,46.7684267835088 16.1987973847344,46.7686041911356 16.1991234330467,46.7687410311416 16.1995676939983,46.7688356068167 16.1999838197306,46.7688777560383 16.2001661303442,46.7689154289103 16.2003588515254,46.7689266324025 16.2005133810923,46.7689514611739 16.2006486830549,46.7689830589596 16.2010167781323,46.7691085665724 16.2013131276613,46.7692342864201 16.2016914759117,46.7693791167643 16.2019771129519,46.7694587051313 16.2022677576239,46.7695514650975 16.2028456478067,46.7697900082076 16.2032148144943,46.7699513937023 16.2036483959841,46.7701946887767 16.2039126073056,46.7703936119494 16.2041540946319,46.770219147054 16.2042640003741,46.769962938367 16.2043827273165,46.7697559378011 16.20444789223,46.7695191825154 16.2045409851534,46.7693487976302 16.2046802171195,46.7692746398391 16.2050720265606,46.7690950816935 16.2054244142283,46.7689327610208 16.2057112843984,46.7688503892008 16.2059507204536,46.7688016238611 16.2061410964554,46.7687136103886 16.2063681876116,46.7685459499385 16.2066069956807,46.7681349887306 16.2069698299126,46.7678605460472 16.2074840329527,46.7676747404539 16.2080631844817,46.7675596795087 16.2083443494958,46.7673398040048 16.2089781763835,46.7671055864916 16.2095231367223,46.7667561592965 16.2098797964222,46.7663999938826 16.210301296275,46.7665071838071 16.2111380306863,46.7665995420775 16.2119954760534,46.7666986921833 16.2127267860387,46.76669625213 16.2132544744997,46.7667566932237 16.213603870732,46.7668301786413 16.2133478308898,46.7670309079494 16.2132509706067,46.7674285929785 16.2133501113762,46.767989466464 16.2134997998956,46.7686555132604 16.2136043331908,46.7693571252396 16.2136539541786,46.7698232500041 16.2136539466242,46.7702075826588 16.2136614131686,46.7707031233184 16.2138507532858,46.7706333710165 16.2139852069943,46.7706150311903 16.2142005207661,46.7706464838192 16.2143298058861,46.7706661638636 16.2144520493243,46.770652181439 16.214799638704,46.7705684227005 16.2148846616711,46.7705296446014 16.214950846461,46.7704741529387 16.2150853964816,46.7704601291389 16.2152322495691,46.7704458845607 16.2154028251683,46.770397740742 16.2155623636246,46.7704002745167 16.2157518681141,46.7703728910599 16.2160348838664,46.7704163060679 16.2161440995735,46.7703645848039 16.2162349505264,46.7703171970385 16.216282333031,46.7702408525148 16.2163233745227,46.7701562085799 16.2164500614647,46.770066335874 16.2166080797912,46.7700014102269 16.216778747942,46.7699574917443 16.2169195418808,46.7699475378035 16.2170433383491,46.7699967818348 16.2171354240105,46.7700042591716 16.2173602876817,46.7699133411671 16.2176098202642,46.769830616988 16.2178779645571,46.769760379318 16.21801080045,46.7696704394307 16.2181209638891,46.769660900003 16.218338436671,46.7695152697489 16.2186287170888,46.7693352166383 16.2188767250902,46.7691851217489 16.2191382705936,46.7690895811237 16.2194672897716,46.7690017776244 16.2195948610664,46.768945629054 16.2197090460648,46.7688475191611 16.2198511391731,46.7686227100916 16.2199851756696,46.7683136890302 16.2200331218913,46.7682626172227 16.2201055463865,46.7682112844007 16.2202376188373,46.7681690317673 16.2203163740471,46.7681661227243 16.2204898858326,46.768126756598 16.2205385676287,46.7681314553613 16.2205749334785,46.768129987885 16.2206821928011,46.7681079717516 16.2208321107708,46.7681022340011 16.2209393943204,46.7680812969541 16.2210172745628,46.7681034071825 16.221256399133,46.76801844696 16.2212974887017,46.7680232264278 16.2214047475051,46.7680012096214 16.2214411864429,46.7680029798488 16.221476310809,46.7680160997544 16.2216375031883,46.7680341714329 16.2217167299768,46.7680521283955 16.2217390346761,46.7680310182536 16.2217626986196,46.7680005371789 16.2217897610095,46.7679929610257 16.2218355968564,46.7680049768321 16.2218844772887,46.7680242473188 16.2219414816029,46.7680611542453 16.2219829476178,46.7680825730713 16.222023648021,46.768075930811 16.2220947768808,46.7680658147776 16.2221703542737,46.7680555612222 16.2222520859638,46.7680453318477 16.222339708113,46.7680350394934 16.222386972459,46.7680407422323 16.222427955658,46.7680466020169 16.2225037595121,46.7680405742022 16.2225460061899,46.76803283565 16.2226217971651,46.7680320258958 16.2227094788713,46.7680185838281 16.2227726706894,46.7679991057994 16.2228636459747,46.767998133629 16.2229033670181,46.7680060759388 16.2230299770314,46.7679713455927 16.223066603319,46.7679813901298 16.223130456749,46.7679911436322 16.2231698575455,46.7679907224773 16.2233417373033,46.7679430026708 16.2233836762387,46.7679216823022 16.2234311075017,46.7678711543615 16.2234699419681,46.7678457287372 16.2235037449582,46.7678640801504 16.2235490147876,46.767851090902 16.2236623197689,46.7677665712404 16.2237943368283,46.7677047025964 16.2239328827789,46.7676594075933 16.2239957436195,46.7676253580083 16.2243434861818,46.767492087497 16.2244223378684,46.7674414928516 16.224475446012,46.7674104262534 16.2244696471786,46.7673625366651 16.2244593308438,46.7673348476994 16.2244923306747,46.7673177609886 16.2245921373488,46.7673021185197 16.2246706545018,46.7672887730203 16.2249693272611,46.7672146832865 16.2251955975152,46.767158011628 16.2252668265992,46.7671177540839 16.2253760922994,46.7670977812655 16.2254730284254,46.7670883763893 16.2256130331863,46.7670902056731 16.2257705429103,46.7671018334521 16.2259161497648,46.7671024328034 16.2259248391011,46.7670814677028 16.2259750510585,46.7670266805248 16.2260148187636,46.7670366904631 16.2260911756783,46.7670608827707 16.2262059524102,46.7670529954603 16.2263027390269,46.7670427817929 16.2264302394824,46.7670301696582 16.2265149669209,46.7670251231285 16.2265932342626,46.7669950453909 16.2266283943516,46.7669405092317 16.2266697634954,46.7668941833335 16.2267431098636,46.7669184074791 16.2268095833899,46.7669051896216 16.2268632217397,46.7668629604955 16.2269464333032,46.7667911754486 16.227109049096,46.7667394108773 16.2273076737213,46.766670526276 16.2275603502855,46.7665719126498 16.2276737402803,46.7664915264905 16.2278702803757,46.7663309883517 16.228042413608,46.7661623450031 16.2282214195213,46.7660311432695 16.228364794575,46.7659337009723 16.2284221923514,46.765757471996 16.2286709887561,46.7654942605226 16.2288408754801,46.7653652249243 16.2291741193237,46.765211583189 16.2296153035197,46.7650088289821 16.2298970166372,46.764857718086 16.2303040477219,46.7646157434122 16.2306503399007,46.7643743305519 16.2308042665838,46.7642059687433 16.2309037631716,46.7640506074871 16.2309229821701,46.7638253067758 16.2306491015221,46.7634117117684 16.2305370408511,46.763239553128 16.2302211099823,46.7629453438147 16.2300802002547,46.7627307611912 16.2300415160126,46.7625266851409 16.230227222888,46.7620982516248 16.2303499190505,46.7618866827396 16.2304412387441,46.7614183292729 16.2304949416243,46.7611665676878 16.2304611763637,46.76080481899 16.2303887270366,46.7606069538333 16.2301681987245,46.7602588185979 16.2298389382078,46.7599820248156 16.2294231465418,46.7596418343433 16.229268555085,46.7595734119111 16.2284469450906,46.7593252033118 16.2282753415845,46.7592569621682 16.228183823988,46.7591527745994 16.228163359548,46.7590011321713 16.2281984565763,46.7588634678302 16.2282405334812,46.7586585241843 16.228307867259,46.7584417038285 16.2283841735026,46.7582510570893 16.228599320302,46.7578047665535 16.2289346206642,46.7575996427998 16.2291690295158,46.7574422940652 16.2295140983011,46.7571085926213 16.2297431202677,46.7568987605936 16.2298378940157,46.7567721498829 16.2299317338696,46.7565987669515 16.2300474633416,46.7563346431122 16.2301081193035,46.7561354367014 16.2302129948422,46.7558661213739 16.2303478827382,46.7556444349812 16.2304506836239,46.7554048304139 16.2305135133961,46.7550942227822 16.2306726735373,46.7546164123486 16.2307243093061,46.7544581470162 16.230804588446,46.7542528813338 16.2308322433069,46.7540647353528 16.2308321573465,46.753951739275 16.2309043333041,46.7537815573499 16.2310385041044,46.7535172339929 16.2311429571484,46.753344725405 16.2313189415775,46.7531462565873 16.2314176615577,46.753015193688 16.2315237487183,46.7528110891586 16.2316454328521,46.7526194118544 16.2317999896512,46.7524400657211 16.2319167800784,46.7523036797926 16.2320903768543,46.7519432970138 16.2321519691374,46.7517397609173 16.2322495819559,46.7514684524934 16.2323461027344,46.7512411490155 16.2323166191722,46.7510559570384 16.2322879054051,46.7509160095635 16.2324403450985,46.7508909766824 16.23275991704,46.7509284686937 16.2329384096471,46.7509323933573 16.2332171719491,46.7508563371161 16.2338177590897,46.7507329971612 16.2340999734934,46.7506247837415 16.2342593174713,46.7505295905915 16.2346006738108,46.7504091323867 16.2349392404378,46.7503499699974 16.2358703405951,46.7501821172552 16.2370458359897,46.7499299260674 16.2373118313069,46.7498569667167 16.2380745806292,46.7495798984391 16.2383185050095,46.7494692099545 16.238625284552,46.749319874984 16.2387891378233,46.7492392011455 16.239403694157,46.7489843304056 16.2398323221129,46.7487722256228 16.240185607475,46.7486136558374 16.2408557697354,46.7483756279397 16.2412927636191,46.7481635168934 16.2415993250208,46.7480053596057 16.2419036718649,46.7477508720656 16.242266884013,46.7474723535082 16.2425507652416,46.7472502042253 16.2430859386285,46.7466923607281 16.2432483005248,46.7465474609961 16.2436521420744,46.7461867174995 16.2440800153708,46.7457614756015 16.2443134740351,46.7453792808977 16.2444635604029,46.7450709548345 16.2445026758893,46.7447404444115 16.2443530274953,46.7441521652693 16.2441727136427,46.7436984485152 16.2439352937195,46.7433563702649 16.2434445224254,46.7427074720921 16.243240190258,46.7423241882339 16.2431748828274,46.7420678650225 16.2430901560491,46.7417125202649 16.2427455948701,46.7411379617219 16.2427630579024,46.7407931123596 16.2430476889091,46.7402351103437 16.2431449070285,46.7400295614439 16.2433325844784,46.739694558091 16.2437929276848,46.7393915875951 16.2442716185482,46.7391468936193 16.2449047573321,46.7385967920552 16.2453024641984,46.7381601775787 16.2454408443107,46.7378957906935 16.24546948163,46.7376675950043 16.2453847434968,46.7373064040052 16.2452375226817,46.7368173314385 16.2452973516158,46.7364661725556 16.2454103847939,46.7358399480661 16.2454721246911,46.735202496175 16.2453887696198,46.7345374745054 16.245111454239,46.7339330414708 16.2447907841498,46.7336561961275 16.2444438051404,46.7333503970309 16.2441636431486,46.7329912401786 16.2439614894507,46.7326955603319 16.2432662984762,46.7323935427856 16.242906218595,46.7322514397357 16.2425956799672,46.7320444717749 16.2423427941261,46.7317668833628 16.2420981396023,46.7314715716657 16.2420323168679,46.7311919517246 16.2421361486066,46.7309045523472 16.2422995004809,46.7306223544467 16.2423391978302,46.7304992995811 16.2432546764734,46.7304133345724 16.2438048015965,46.7303197287476 16.2440586754878,46.7302761241045 16.2444298425942,46.7301669174845 16.2454658579103,46.7297758979987 16.2459212366464,46.7296307730095 16.2464969925563,46.7295484807487 16.2469338777387,46.7293334695385 16.2472930297456,46.7290725216324 16.2474674942933,46.7289615806559 16.2473213119152,46.7287272829996 16.2472096201041,46.7284623805593 16.2471584277967,46.7281543545396 16.2471735772558,46.7280453303226 16.2473238789815,46.727317754702 16.2474042181325,46.7266030869846 16.247189485487,46.7264481668643 16.2467260933093,46.7261931246447 16.246431952328,46.7260269228713 16.2461369783273,46.7258244730243 16.2455975195979,46.7253222177466 16.2450696060658,46.7245537141364 16.2450316390302,46.7244331226828 16.2449886639934,46.7240948673966 16.2449801750617,46.7237259182144 16.2448771277695,46.7234548015354 16.2442181105074,46.722723976532 16.2439806015864,46.7223454619154 16.2436912141123,46.7219977393689 16.2434279876956,46.7216497317753 16.2430771479809,46.7213087931602 16.2426373216749,46.720926445806 16.2412917386299,46.7197917321793 16.2409591401472,46.7194807278092 16.2405650806443,46.7191704788292 16.2394142149469,46.718469158475 16.2388170279094,46.7181248471863 16.2385760744378,46.7179762223846 16.2378297416472,46.7172643884848 16.2375330503546,46.7169833042497 16.2373528719445,46.7167977630612 16.237079699372,46.7163893908124 16.23689814119,46.716143316459 16.2366534719321,46.7158314388154 16.2363556893612,46.7155019613705 16.2360572182436,46.7151421719108 16.2358226932463,46.7148846125106 16.2352600607791,46.7145156183681 16.2349123541193,46.7143076808617 16.23417412062,46.7139466942189 16.2338865028315,46.7136775580352 16.2336593784345,46.7133594569367 16.2335081975114,46.7129012686902 16.2334306805262,46.7125875818539 16.233264194894,46.7122324797808 16.2330830821261,46.7120045676505 16.232788509328,46.7118141342317 16.2323425519345,46.7115407622465 16.2321637854036,46.7114156549792 16.2319030185371,46.7111643977725 16.2313375565435,46.7106623543146 16.2310778975912,46.7104594852165 16.2305167174598,46.7101509093744 16.2299653998269,46.7098846889044 16.229281458249,46.709583544321 16.2288022821764,46.7093950838196 16.2281473796898,46.7092146254248 16.2276947682361,46.7090380205996 16.2272071169844,46.7088617898197 16.2244838381414,46.7082196373925 16.2237588848326,46.7080459312901 16.2235542839931,46.7079452878197 16.2230261534925,46.7075334900898 16.222634064429,46.7073078163123 16.2222768789276,46.7070697128178 16.2209166971581,46.7064188433726 16.2203135887963,46.7061893854462 16.2195072613713,46.7059197163474 16.2190085965309,46.7056468540196 16.2182875601338,46.7052612904131 16.2177972521044,46.7049640428555 16.2176029130672,46.7048360196465 16.215585767753,46.7063148351183 16.2001422309539,46.7098779698898 16.2000201340608,46.7097332351053 16.1997615308542,46.7095606925906 16.199349683394,46.7093722125023 16.1991173589337,46.7092344799481 16.198977787339,46.709446194038 16.1987613325341,46.709647107831 16.1985103634089,46.7098132958634 16.1980955942386,46.7100659469785 16.1979954738142,46.7101516536781 16.1977525609213,46.7104930101431 16.1976952626036,46.7105870849912 16.1976080209548,46.7106756254186 16.1974205305251,46.7108382676455 16.1972567275598,46.7109187923183 16.1970720010392,46.7110113212585 16.1968745227141,46.711106862214 16.1966774294175,46.7112198522702 16.1963219438472,46.7114630601135 16.196175267893,46.7115493419256 16.1960743030483,46.7115970899492 16.1958929817111,46.711654494502 16.1955341366418,46.7117458718147 16.1950987927114,46.7118380470626 16.1948318940624,46.7118642257801 16.1943018280049,46.7118960300752 16.1941492867062,46.7119122867311 16.1940053065675,46.7119312427996 16.1930794294535,46.7121103976341 16.192795913304,46.7121541983406 16.1923964289118,46.7121408188182 16.1919594700349,46.7121600362461 16.1917940488475,46.7121676072367 16.1916832961125,46.7121512173731 16.1914484630318,46.7120952748305 16.1910779587958,46.7120436231375 16.1908777669825,46.7120164678929 16.1907032685717,46.7119978616179 16.1905121564598,46.711996971376 16.1902829873107,46.7120022345729 16.1897320549614,46.7120488992664 16.1893764818465,46.7120992885442 16.1890460218336,46.7121378100836 16.1889357835689,46.7121448034564 16.1890552605869,46.7125524587759 16.1891130562686,46.7128672800092 16.1892567514451,46.7132221430575 16.1893919465437,46.7135770043001 16.1895082223822,46.7138386770435 16.1895186476433,46.7139261958274 16.1893612552013,46.7141089341514 16.1891948477842,46.7142683747149 16.1891546593856,46.71436811518 16.189326167982,46.7148277695979 16.1896591826044,46.7152975301688 16.1898891729375,46.7157097931459 16.1900730690674,46.7159649141881 16.1900865769453,46.7161925682578 16.1899571238504,46.7164801872712 16.1898344968559,46.7166975614648 16.1897391697609,46.716996520936 16.1897289720246,46.7173062008106 16.1897436355702,46.7175864730994 16.1897857253144,46.7179539973271 16.1898096593495,46.7182691700395 16.1898146660857,46.7184969124532 16.1898513665348,46.7186192447336 16.1900458284418,46.7189677307293 16.1901063240953,46.7190953933338 16.1900617595656,46.7192698515069 16.1900100031727,46.7193611657133 16.1899822993798,46.7195349986557 16.1900456503207,46.7197270473871 16.1901166769721,46.7199052514115 16.1901580452639,46.7199899291431 16.1902330311852,46.7201339947162 16.1905157016133,46.7205135901873 16.190456601597,46.7206457356694 16.1903817634152,46.7207165979464 16.1901163457765,46.7210085102751 16.1900628228368,46.7210849984311 16.1901778326932,46.7212941431045 16.1904589895612,46.7217176578852 16.1908642627432,46.7219908962575 16.1909762548569,46.7220626931704 16.1908606445272,46.7222128804543 16.1906998829853,46.7224336211293 16.1902049912569,46.7227133468209 16.190218768127,46.7227627748653 16.1904149405909,46.722801668677 16.1906578062382,46.7228341385053 16.1906981824889,46.7229330409793 16.1907039770799,46.7230001853968 16.19065482294,46.7232752736039 16.190337176858,46.7233165442981 16.1903935167861,46.723558326971 16.1903868791275,46.7236431441361 16.1903128695613,46.7237578112186 16.1902799574064,46.7238019671099 16.1904022528723,46.7239554366052 16.1904589897478,46.7240249299372 16.1904224697286,46.724101331282 16.1903642421614,46.7241603250862 16.1898638085652,46.724194769208 16.1896859834901,46.7242170405938 16.1895261876,46.7242917544595 16.1896882825424,46.7245120156382 16.189702510331,46.724581951319 16.1896491751884,46.7246671639926 16.1895725195905,46.7248520316621 16.1894864622764,46.7249901246621 16.1893962164191,46.7251400466952 16.189330900658,46.7252575916188 16.1891911196431,46.7254692952826 16.1891457095122,46.7255282452016 16.18883395443,46.7258323314413 16.1887714092558,46.7258855214762 16.1885240042037,46.7260341066035 16.1882845074228,46.7263462573999 16.1882852150391,46.7263725201523 16.1883751067372,46.7265993807343 16.1882802843309,46.7267318059833 16.1882567044579,46.7268138300402 16.1882409822433,46.7268723813073 16.1883101504777,46.7269300509817 16.1883405497643,46.7269619431294 16.1882243253968,46.7272756023621 16.1881005794674,46.7274434145745 16.1880469822938,46.7275169335841 16.1878881386165,46.7276296009051 16.18787557658,46.7276414269101 16.1879191779183,46.7276906355265 16.1879934968609,46.7277862175955 16.1879918090644,46.7279059799673 16.188001849898,46.7279759592897 16.1878810082362,46.7280795053123 16.1875495314025,46.7282669267147 16.186992938163,46.7284508348994 16.1868881373214,46.728510399982 16.1868421414911,46.7285488427636 16.1869036210734,46.7288285392971 16.1867270996868,46.7291078255489 16.1866606187353,46.7291786885601 16.1863615394188,46.7292927180424 16.1861930327974,46.7293529429807 16.1861392398848,46.72941773639 16.1864144517722,46.7295696247158 16.1867403180283,46.7295195530406 16.1868007316155,46.7295597710241 16.1868364473698,46.7298339769435 16.1868721863263,46.7299124164919 16.1869784034339,46.7299113146778 16.1871136747544,46.7298807623367 16.1871690045158,46.7298860360769 16.1872172410308,46.7299556191438 16.1872994649088,46.7302205256642 16.1872755623409,46.7302879783175 16.1871555532617,46.7303403242118 16.1869970301291,46.7303726472344 16.1868154113975,46.7304197840904 16.1867627186761,46.730439313454 16.1867622279033,46.7305123709643 16.1868348090322,46.730624075687 16.1868955746329,46.730686241675 16.1871917845924,46.7309240977504 16.1872330465894,46.7311587508562 16.1872325564643,46.7312318083537 16.1868112182337,46.7312902489131 16.1867722375974,46.7313563284172 16.1867956102986,46.731449560692 16.1869515196441,46.7314887880582 16.1874314702052,46.7314896561143 16.187574276578,46.7315101257447 16.1876427451726,46.731535685176 16.1875683268666,46.7317218775382 16.1875510565131,46.731805365314 16.1875152810388,46.7320174266414 16.187478034829,46.7321565407789 16.1874075364327,46.7324260008571 16.1874137087362,46.7325164426062 16.1873810330474,46.7326730526399 16.187370940128,46.7327914626674 16.1873481035279,46.73310424152 16.1873355615122,46.7332124208261 16.1873474940121,46.7333685679352 16.1872897374876,46.7334436590915 16.1872823241014,46.7334933972417 16.1872619859824,46.733627927495 16.1873081645414,46.7336989712932 16.1873842976825,46.7337814897768 16.1874347910787,46.7338583365355 16.1874462106661,46.7339910977852 16.1874161071763,46.7341695428289 16.1873950326939,46.7342705234224 16.1873644074165,46.7345205867747 16.1873430128607,46.7346069961861 16.1873676770833,46.7346695364975 16.1874742786593,46.7347808877097 16.1875377511094,46.7348707347467 16.1874852044204,46.7349924642483 16.1874026726689,46.7351013698594 16.1872696882241,46.7353320730408 16.1872644206839,46.7354795819074 16.1872936172757,46.7356472454029 16.1872543274112,46.7358901113302 16.187243880346,46.7359924210506 16.1871900190778,46.7360543366744 16.187051187612,46.7361141649237 16.1870888539668,46.736280211165 16.1871169266737,46.7364026334722 16.1870986803939,46.7365371419267 16.1870550533289,46.7366778514355 16.1872176451233,46.7367287046692 16.1875006306174,46.736851360621 16.1875066146293,46.7369272297708 16.1874761899773,46.7370911035921 16.1874401687214,46.7371907998029 16.1873272309435,46.7372679030135 16.1872484337655,46.7373563474487 16.1872987919443,46.7375222618984 16.1873019334279,46.7376653650928 16.1873747071222,46.7378807080981 16.1875267271443,46.7380339618432 16.1877699607684,46.7382767742992 16.1879770019969,46.7384147918378 16.187946321186,46.7385669728344 16.1879279499045,46.7386957248531 16.187968973726,46.738823770267 16.1882885551888,46.7390629100062 16.1883357593383,46.7392756389823 16.1884106724699,46.7393974844863 16.1885772686111,46.7394395674936 16.1887352956653,46.7394787704066 16.188950784828,46.7396138194899 16.1889235259049,46.7397251206464 16.1889129505681,46.7398274317889 16.1891043903924,46.7402256107975 16.1891538614451,46.7403448412826 16.1889304134126,46.7406158013806 16.1890821885403,46.740757359982 16.1892152864382,46.7408231812887 16.1892299695864,46.7409076865812 16.1891793812169,46.7411185525683 16.189173572731,46.7412412364247 16.1892852062481,46.7414854131466 16.1895170684786,46.7415968998258 16.1900182834439,46.7419771920439 16.1901410082771,46.7421482902408 16.1902508484858,46.7423107056742 16.189192448461,46.7425816216303 16.1890187516305,46.7426039389015 16.1887860369408,46.742644322448 16.1885621444339,46.7427050361314 16.18834752928,46.7427948919288 16.1882423779308,46.7428456450648 16.1881456677798,46.7428934315466 16.1880091616423,46.7430598462547 16.1879119599254,46.7431805999407 16.1878154947457,46.7433349031546 16.1877458705766,46.7434480831824 16.1876867134975,46.7435611545219 16.187586936666,46.7436600729499 16.1874812913751,46.743783792795 16.1874311517328,46.7439201615303 16.1872850359281,46.7441319278743 16.1872254604633,46.7442260205119 16.187133991021,46.7442921047769 16.1870488650625,46.7443610020672 16.1869578695727,46.744442735326 16.1867992097147,46.7445422638374 16.1863421865945,46.7448281462539 16.1859832849829,46.7450231340266 16.1858363740859,46.7451035566283 16.1853811449122,46.7452747101714 16.1852211558364,46.7453377241263 16.1850827144718,46.7454165286074 16.1846247481963,46.7455585585531 16.1839571503659,46.7457261469985 16.1835595300423,46.7458091604543 16.1831971414342,46.7459472271548 16.1830651547887,46.7461238452185 16.1828271353614,46.7465089303729 16.1826978898417,46.7468169596636 16.1826246663271,46.7469637309279 16.1824608228286,46.7472458474918 16.1823364380773,46.7473872994628 16.1822490509703,46.7474670123888 16.1825455707186,46.7478174238783 16.1825869108636,46.7479541944291 16.1827588615818,46.7484314848759 16.1828992524881,46.7488301113587 16.1829534425729,46.7491712410584 16.1829834634878,46.7495682194114 16.182999606883,46.7497257624526 16.1831060848282,46.7499261848325 16.1832426474352,46.7501495971433 16.1833196122367,46.7503649889043 16.1834372794051,46.7506937662995 16.1835259181302,46.7508564072226 16.1836792756843,46.7512608362217 16.1837228580132,46.7515057218806 16.1838179871813,46.7517733753623 16.1840742515894,46.7522205523976 16.1841682981561,46.7524386456627 16.1842705955137,46.7526449579119 16.1843838297986,46.7529620845584 16.1847270200227,46.753498865776 16.1850221525602,46.7539747870298 16.1852287466537,46.7544779845312 16.1852838820311,46.7546642721266 16.1852733625148,46.754769550953 16.1852725040136,46.7549214218851</coordinates></LinearRing></outerBoundaryIs></Polygon></MultiGeometry>
  </Placemark>
</Folder>
</Document></kml>
