<?xml version="1.0" encoding="utf-8" ?>
<kml xmlns="http://www.opengis.net/kml/2.2">
<Document id="root_doc">
<Schema name="pregledovalniklovisca" id="pregledovalniklovisca">
	<SimpleField name="lov" type="string"></SimpleField>
	<SimpleField name="lov_naziv" type="string"></SimpleField>
	<SimpleField name="luo" type="string"></SimpleField>
	<SimpleField name="luo_naziv" type="string"></SimpleField>
	<SimpleField name="povrsina" type="float"></SimpleField>
</Schema>
<Folder><name>pregledovalniklovisca</name>
  <Placemark id="pregledovalniklovisca.1">
	<Style><LineStyle><color>ff0000ff</color></LineStyle><PolyStyle><fill>0</fill></PolyStyle></Style>
	<ExtendedData><SchemaData schemaUrl="#pregledovalniklovisca">
		<SimpleData name="lov">0832</SimpleData>
		<SimpleData name="lov_naziv">PETIŠOVCI</SimpleData>
		<SimpleData name="luo">08</SimpleData>
		<SimpleData name="luo_naziv">Pomursko</SimpleData>
		<SimpleData name="povrsina">5560.02</SimpleData>
	</SchemaData></ExtendedData>
      <MultiGeometry><Polygon><outerBoundaryIs><LinearRing><coordinates>16.4412189121315,46.5149375554979 16.4406234588495,46.5150062373979 16.4406237194083,46.5150062341157 16.4412189121315,46.5149375554979</coordinates></LinearRing></outerBoundaryIs></Polygon><Polygon><outerBoundaryIs><LinearRing><coordinates>16.4413661936413,46.5207481933927 16.4414421423255,46.5215055905615 16.4414925308019,46.5220061764699 16.4416697715542,46.5234242032629 16.4417151245294,46.5240791503194 16.4418679666337,46.5252790376875 16.4419575996836,46.5262032450218 16.4421470133853,46.5277304296868 16.4422172016467,46.5282693620483 16.4421505869876,46.5289192425351 16.4420355798925,46.5294991070011 16.441920698428,46.5300788797395 16.4420066043436,46.5308618811423 16.4421369939533,46.5315671276108 16.4421958945305,46.532029098111 16.4423606444761,46.5329781781011 16.4425969233631,46.5345111571365 16.4427850242358,46.5359868027752 16.4426773695125,46.5375433726905 16.4424939276819,46.5383555013799 16.4422926516529,46.5391934958495 16.4422429911771,46.5394254334549 16.4420427270558,46.5403019214669 16.4419534811018,46.5411513680624 16.4418445718548,46.5419624655034 16.4418700149675,46.5422191872203 16.4421649976473,46.5428067465759 16.4425713536381,46.5433800347739 16.4431812625918,46.5438992906439 16.4435689952319,46.5444727202465 16.4436296844885,46.544651892878 16.4437865051677,46.5451223422451 16.4439468263361,46.5455476725404 16.4440656478004,46.5459863921917 16.4441160958785,46.5463102745134 16.4441246148102,46.5466314473402 16.4441203810356,46.5469978557945 16.4441280485129,46.547286920298 16.4441247573738,46.5475118850864 16.4441299484658,46.5478845623011 16.4441315519231,46.5484661034887 16.4441546372152,46.5495133241947 16.4441670009813,46.5498024192459 16.4442737207772,46.5501384563412 16.4446177345776,46.5511655190423 16.4448342082341,46.552300265534 16.4449542900333,46.552613640762 16.4457104831625,46.5526748003894 16.4466018276257,46.5529141840945 16.4471022780703,46.5531712830071 16.4474357207713,46.5534498368089 16.4475580003869,46.5538402850593 16.4476046847806,46.5541931831766 16.4476953607416,46.5548025664086 16.4476414500231,46.5552273635383 16.4475726132003,46.5557873032938 16.4474697747239,46.5564762392172 16.4474746998756,46.5570096040439 16.4475116574849,46.5573497595294 16.4476139460698,46.5580424869083 16.447682184281,46.5585043344777 16.447901675839,46.5590478485972 16.4481908329133,46.5594104519522 16.4487779260286,46.5597692809392 16.4499101449576,46.5603012258017 16.4510158919902,46.5608912554453 16.4525263356399,46.5616303425091 16.4534404492732,46.5620172028285 16.4537541318275,46.5622510044695 16.4535483069468,46.5625685122668 16.4531528543842,46.5631069640175 16.4527839651778,46.5636000024302 16.4527341592525,46.563825557734 16.4531069183368,46.5641806987252 16.4532248036951,46.5644041235945 16.4527581749038,46.5647250332742 16.451918131489,46.5653654836409 16.4515832545433,46.5657359982069 16.451330851062,46.5660540929423 16.4510909183999,46.5664877290476 16.4508965492126,46.5668886676866 16.4506836598616,46.5672898408698 16.450461891414,46.5677103795958 16.450119786068,46.5681580848011 16.4498118916684,46.5684897451355 16.4493323772947,46.5690292485796 16.4491234207708,46.5692310875668 16.4485678891115,46.569713700782 16.4483434906254,46.5700315239479 16.4482529573951,46.5704824251916 16.448209285335,46.5709393007192 16.4481562204345,46.5713962051531 16.4481457813757,46.5717048408346 16.4482017471818,46.5720576201804 16.448244862361,46.5722756087986 16.448132728978,46.5726111732062 16.4480105194385,46.5729211339374 16.4478737644713,46.5733855753438 16.4476839236318,46.5739535229432 16.4473768496174,46.5746707726594 16.4472910802825,46.5749482424402 16.4471459481705,46.5754512954913 16.4469526737969,46.5758907195832 16.4466824028721,46.5762412383214 16.4463295881706,46.5766376946826 16.4461604576458,46.5769354709491 16.4460481720033,46.5772710349513 16.4459658067572,46.5776769360849 16.4460010646686,46.5779528746415 16.446013021408,46.5784025676849 16.4460671016203,46.5786846560137 16.4462555090342,46.5794598744128 16.4463711860377,46.5799532401708 16.4466383131559,46.5808816688343 16.4468002314157,46.5817150710376 16.4468243545535,46.5819204345459 16.4470679171137,46.5823157351185 16.4475010045027,46.5828308143912 16.447742353961,46.5831426504678 16.4484702251778,46.5842259258242 16.4489837783083,46.5849585144128 16.4495437404052,46.5856839447657 16.4499263674785,46.5860518354866 16.4507732427514,46.5866964291308 16.4513390805428,46.5872933006832 16.4517330114739,46.5877317572659 16.4520689229782,46.588093755902 16.4536563680722,46.5892431850352 16.4546904954398,46.589917668254 16.456357287477,46.5908925009435 16.4570589535563,46.59133340808 16.4577839373781,46.591947473293 16.4584156149359,46.5925563358451 16.4590457977711,46.5931138418339 16.4593421940212,46.5933863542982 16.4598198735931,46.5941642454589 16.460124392682,46.5947387668464 16.4604462368278,46.595268081857 16.4608172111326,46.5958866471098 16.4611174736693,46.5963069239221 16.4613320783161,46.5966576689708 16.4614922058527,46.5968414082243 16.4615010848889,46.5968375016469 16.4615456360815,46.5967898032841 16.462240497305,46.5960467784817 16.4632899066656,46.5949531047784 16.4629564347077,46.5944194480029 16.4645831594329,46.5919107267921 16.4645849452928,46.5919101141965 16.4648863956322,46.5918067084352 16.4648874664274,46.5918051104552 16.4665341311798,46.5893476217154 16.4681732901219,46.5868807928682 16.4688938637929,46.5858126088042 16.4688964082279,46.5858107159559 16.4691369139427,46.5856317988461 16.4699824011308,46.5858307429877 16.4706057730496,46.5861591229934 16.4718151662112,46.586785044287 16.4722931854183,46.5870169495099 16.4725467871864,46.5871199379418 16.4734322238665,46.5875637770263 16.4734348382585,46.5875614157232 16.4749860773402,46.5861602997032 16.4749873905086,46.58615957353 16.4763398443938,46.5854116574795 16.4763425698088,46.5854095093872 16.477346558136,46.584618179387 16.4778162708933,46.5840882229836 16.4787526956316,46.5833076062835 16.4789009488245,46.5831212533407 16.4800189017337,46.5820694518467 16.4800836705006,46.5818123824181 16.4814002246094,46.5795749060789 16.4820708651708,46.579066890561 16.4820709497955,46.5790668623032 16.4829305746271,46.5787798126618 16.4833877950012,46.5785944856795 16.4833884620601,46.578593119062 16.4837694970706,46.5778124730034 16.4837722266611,46.5778106136346 16.4840592419753,46.5776151007012 16.4840591004066,46.5776149976457 16.4828770464375,46.5767544963968 16.4823289167741,46.5760548055456 16.482207713627,46.5757915976735 16.4819902578199,46.575203949239 16.4818965795471,46.5748542840522 16.4818425583557,46.5744325796456 16.4819829120949,46.5736271582033 16.4820434915454,46.5735665438672 16.4820442993215,46.5735662959642 16.4822292829278,46.573509525094 16.4822294646846,46.5735079930845 16.4822489102841,46.5733440876681 16.4822563706398,46.572942819241 16.4821376717166,46.5720721979638 16.4821664624699,46.5718169426616 16.4822874835825,46.571317395785 16.4825218221252,46.5707682465357 16.4826951828383,46.5697003160417 16.4825385406611,46.5692850701344 16.4824164842249,46.5684729720414 16.4822906625129,46.5682359148432 16.482000953938,46.5677674214835 16.4818945787276,46.5674204395407 16.4819846640812,46.5668772985525 16.4824800978537,46.566455850506 16.4827847383892,46.5661991782208 16.4827849573978,46.5661991968701 16.4829250320706,46.5662111245732 16.4829259283531,46.5662085608829 16.4829826332221,46.5660463640522 16.4829836753807,46.5660319554833 16.4829865864659,46.5660317161246 16.4841463339185,46.5659363519408 16.48464611873,46.5658808322834 16.4849882294122,46.5658934850443 16.4853086918372,46.5658585543549 16.4862338074696,46.5656580512546 16.4862355978966,46.565655921935 16.4863840250395,46.5654793997892 16.4863851971117,46.565479119387 16.4867844784734,46.5653835959037 16.4872055140496,46.5652629614111 16.4876558879436,46.56525170609 16.48788151939,46.5651931701371 16.488111881318,46.5651740686348 16.4883838986585,46.5651041318527 16.48873678165,46.5651864492486 16.4893839735408,46.5655175666779 16.4897255381272,46.5656961154327 16.4902223276136,46.5656410602461 16.4907378300152,46.5654311020694 16.4911197962908,46.5652512228745 16.4917431972647,46.565028067416 16.4920873528093,46.5649632088337 16.4924250148546,46.5647995578633 16.4928184258197,46.5645855152849 16.4930729301615,46.5645004111869 16.4930730832331,46.5644990058048 16.4931004365024,46.5642478685833 16.4931186402479,46.5638797470762 16.4930200243685,46.5635991610911 16.4929815647342,46.5632908889816 16.4930456878656,46.5628516321713 16.4930626346409,46.5625422768684 16.4930655625708,46.5625423843376 16.4931458066562,46.5625453296534 16.4936439798438,46.5625846191273 16.4940066279212,46.5625905888608 16.4943760212393,46.5625904413765 16.4947737495205,46.5625771467569 16.4952251349984,46.5624896444656 16.4954268505438,46.5624870971508 16.4958664517658,46.5627206664677 16.4962567496845,46.5630775070903 16.4964968913585,46.5631108926932 16.4966927046392,46.5632872790901 16.4971484919922,46.5633406933072 16.4976924392849,46.5630712215268 16.4980340175165,46.5630129464962 16.4982596974049,46.5629569085149 16.498446726551,46.5628851820261 16.4986719611717,46.562808276212 16.4988745338523,46.5627421033716 16.4992097479727,46.5627654203051 16.4995887386109,46.5625455153912 16.499998367822,46.5623725311785 16.5001602576061,46.5623495350031 16.5005961377016,46.562404906005 16.500949831129,46.562459824473 16.5012001523886,46.5624697645874 16.5014073587119,46.5625716788512 16.5015630746148,46.562717274032 16.5017495230069,46.5629082597875 16.5017858870625,46.562987584974 16.501925398402,46.5631178277625 16.5023323712343,46.5632786557612 16.5024571010246,46.5632939315065 16.5026418121657,46.5633320809771 16.5027402392037,46.5633915169746 16.5027814790275,46.5634158965764 16.5029730322008,46.5636639436782 16.5032049231201,46.5635684078164 16.503406552818,46.563501249683 16.5038159471332,46.563560645302 16.5041024981786,46.563578649766 16.504264466849,46.5636433667014 16.5044495692357,46.5638323864227 16.5045020464531,46.5639329114494 16.5044698941943,46.5641523193678 16.5047099765245,46.5643341376436 16.5049427487149,46.5643789385837 16.5054144681499,46.5642673766603 16.5056496560468,46.5642250542031 16.5059006805095,46.5641988071677 16.5061662835487,46.5641855930648 16.5063476133896,46.5641296733173 16.5065777198535,46.5641252928987 16.506799586588,46.5642001934506 16.5069147186051,46.5642267469593 16.5071055237592,46.5644187461917 16.5072804140547,46.5644882368858 16.5074307566303,46.5645379877301 16.5077200224937,46.5647290480433 16.5080768437725,46.5648960048266 16.5082434372864,46.5650707774051 16.508360691182,46.5652208291444 16.5084067241494,46.5652626874894 16.5084092143505,46.5652596652125 16.510019844602,46.5633048145548 16.5108762058973,46.562286569604 16.5116114504176,46.5613606978175 16.5121797892429,46.5606533141021 16.5131401114872,46.5594975535532 16.5131412991442,46.5594974946834 16.513417413763,46.5594838079 16.5134196882754,46.5594813819719 16.5136901375637,46.5591929268608 16.5135146643345,46.5590927741174 16.5144252993684,46.557948546212 16.5147856561174,46.5574327484094 16.5154000339844,46.5567142119314 16.5164786592793,46.555442053963 16.5174569841343,46.5543023016668 16.5177539639607,46.5539522488319 16.5187274829088,46.55273094687 16.5187639722873,46.5524355426963 16.518725269338,46.5522496400925 16.5187198645526,46.5521634312263 16.5188362181161,46.551851221799 16.5188949912701,46.5516580867098 16.5189505021589,46.551539669507 16.5189313288626,46.551366643098 16.518927317368,46.5511808196021 16.5188844683901,46.5510846715694 16.5188325595494,46.550990983041 16.5187147711481,46.5507983032968 16.5185903158989,46.5506377410577 16.5184012243303,46.5504133488348 16.5183304967637,46.5502714164027 16.5183061530389,46.550174752559 16.5181574096368,46.5493723105693 16.5182296813897,46.5487934775574 16.518266201977,46.548531901446 16.5183064443795,46.5482401361397 16.51828856323,46.5477579573693 16.5183375336441,46.5474658962059 16.5183693556259,46.5473725352903 16.518372247905,46.5473709403946 16.5183976092123,46.5473569553477 16.5183991361131,46.547355401489 16.5185687907255,46.5471827509016 16.5187089613597,46.5470655487866 16.5187100257491,46.5470648554245 16.5188935134079,46.5469453279073 16.5191027993923,46.5468470006533 16.519305303395,46.546734637903 16.519305649244,46.5467337450238 16.5193758518536,46.5465525021804 16.5193958942469,46.5463688781381 16.5193528972133,46.5462486203582 16.5188365830791,46.5457646948871 16.5186478623696,46.5452304430929 16.5185023830568,46.5448532433648 16.5181870031057,46.5444713712913 16.5180513408719,46.5441795116539 16.5179849748489,46.5441141749963 16.5176350519956,46.5438306466664 16.5172705523822,46.5434543721435 16.5171687718211,46.5431381300254 16.5170872541179,46.5429875227999 16.5169576561096,46.5428193794192 16.5169075287974,46.5426956164558 16.5167261525772,46.5424707590055 16.5166183961581,46.5423189699253 16.5165437051816,46.5422401574158 16.5164072141824,46.5421193387997 16.5162171861273,46.5417287813996 16.5162559875925,46.5413990684582 16.5161471580371,46.5412039278221 16.5161504605789,46.5412015712068 16.5161734942416,46.5411851349254 16.5164774772817,46.5411449368013 16.5168277654894,46.5410492423149 16.5170113231758,46.5410202666396 16.5172392557816,46.54093672025 16.5176440394736,46.5407239696512 16.5177566144034,46.540635475171 16.5178434610152,46.5405672052981 16.517720050083,46.540410406739 16.5174025436322,46.5401241981254 16.5171450633669,46.5399613503372 16.5170682179288,46.5397863892638 16.5169758375094,46.5394656135924 16.5169794853401,46.5394641939095 16.5171232651813,46.5394082367244 16.5173467997994,46.5393074742738 16.5175124607884,46.5392213346352 16.5178170354237,46.5390297062797 16.5178183176993,46.5390283439225 16.5179692451209,46.5388679901101 16.5179029457273,46.5387439923078 16.5178074524332,46.5386250603356 16.5175405711896,46.5387141630249 16.5172147233378,46.538876922733 16.5171651925548,46.538835294116 16.5169063408326,46.5384825381784 16.5168046654017,46.5383053870756 16.5168293270556,46.5382031244528 16.5168321869987,46.5382018235318 16.5170283701919,46.5381125840821 16.517282228361,46.5380989598989 16.5176880788164,46.5379767042718 16.5180719208755,46.5377244633683 16.5180719170836,46.5377240826084 16.5180691670305,46.5374479333859 16.5176776778217,46.5370841639715 16.5176128177375,46.5368152058349 16.5176571093961,46.5363741268733 16.5176582798591,46.5363459508521 16.5176614458572,46.5363437681785 16.5179294623162,46.5361589937772 16.5181622330554,46.5360907660417 16.5184148498177,46.5359908749406 16.5186547228096,46.5358267342547 16.5186546272415,46.5358263279465 16.5186149359979,46.5356575798684 16.5185665193693,46.5354126956569 16.5185700894632,46.5354119901231 16.5190321184657,46.5353206813214 16.5190328095663,46.5353185467146 16.5190519236603,46.5352595088194 16.5190545580691,46.5352589598538 16.5193355279234,46.5352004101581 16.5194930542451,46.5351456850727 16.519683694946,46.5350956480171 16.5199685533641,46.5350395001145 16.5201191981953,46.5350231926878 16.5203996097161,46.5350179356627 16.52082138105,46.535056052959 16.5212018128637,46.5351310663127 16.5213858722368,46.5352188574732 16.5215110442803,46.5352800810226 16.521909049285,46.5352187341654 16.5220195333548,46.5352208626268 16.5223226674947,46.535282235891 16.5225180452867,46.5352618210318 16.5226898043247,46.5352686212319 16.5229949604672,46.5352623985929 16.5231653296002,46.5352288202191 16.5232958327385,46.5354712596377 16.52345580895,46.5356999907846 16.5239981124606,46.535586511302 16.5240013852835,46.5355839573815 16.5240602804777,46.5355379989419 16.5242264914254,46.5354082968525 16.5242267130967,46.535408050983 16.5243430751863,46.5352789860955 16.5243441154353,46.535278946255 16.524494404721,46.535273190225 16.5246370535265,46.5352739876951 16.5252527990389,46.5352833213679 16.5256730841577,46.5352868022768 16.5261969261857,46.535194071707 16.5267026974919,46.5351218231404 16.526985184917,46.5350650596079 16.5272492251706,46.5351036396488 16.5272806135009,46.5351071791414 16.5275716409218,46.5350063049499 16.5277234187794,46.5349096294629 16.5278183981187,46.5348935156572 16.5279204731827,46.5349351574621 16.5279222959368,46.5349318952027 16.5280002937646,46.5347922988408 16.5281881651297,46.5345555975419 16.5282693002974,46.5344131710044 16.5283472747544,46.5342835623375 16.5284319119852,46.5340476103893 16.5284399619964,46.5340232109926 16.5284340325729,46.5338444305297 16.5284788619337,46.5336115296912 16.5284897082085,46.5335845737659 16.5285655206912,46.5334801853356 16.5287633578017,46.5332597243129 16.5289574593185,46.532794775268 16.5289594936218,46.5327951896827 16.5291145356349,46.5328267736782 16.5292325887505,46.5328664912598 16.5298679342634,46.5324420639712 16.5298704055389,46.5324399741137 16.5299223085165,46.5323960818232 16.529922609885,46.5323959768273 16.5301333889497,46.5323225416718 16.5303855059047,46.5322062562052 16.5306587354528,46.5321222566392 16.5309193851276,46.5321380212811 16.5312117224127,46.5321262801869 16.531490591155,46.5320713533107 16.5318493605403,46.5319696509337 16.5321549720211,46.5318273635126 16.5322354888415,46.5317700537098 16.5322365971935,46.5317689706729 16.5323372430501,46.531670623378 16.5323382689571,46.5316702064566 16.5324988702414,46.5316049390255 16.5324993206235,46.5316034495623 16.5325617232425,46.5313970764427 16.5321169567399,46.5309624540969 16.5320300319952,46.5308614129837 16.5319903515654,46.5306185764331 16.532014907142,46.5304904904719 16.5318756812988,46.5303421060154 16.5317226385918,46.5300963792515 16.5314826374457,46.529627702183 16.5310807552662,46.5296884146464 16.5306569284031,46.529817166622 16.5302570501304,46.5290118905993 16.5301356196257,46.5287170650374 16.5301277318172,46.5286311594897 16.5300951600167,46.5283393735172 16.5300357611858,46.5279371036915 16.5300244948593,46.5275080986348 16.5300498619715,46.5273855803035 16.5301105642756,46.5273098233333 16.5303627138485,46.5269310055455 16.5305123657923,46.5266760977939 16.5305941896517,46.5265959192738 16.5305704310807,46.5264508460769 16.5305916207561,46.5263235251422 16.5306107056708,46.5261862457241 16.5306102215995,46.5260437400532 16.5307128387558,46.5258407442807 16.5307810637811,46.5256709577728 16.5308933156284,46.525537199576 16.5309289013471,46.5253423884338 16.5309158623688,46.5251984313553 16.5304076983402,46.5252052328118 16.5301653320764,46.5251477463186 16.5299993700981,46.5250956250125 16.5299384255871,46.5250048510852 16.5298004081058,46.5249405695988 16.529573600386,46.524935775972 16.5295022602531,46.5249389793592 16.5292394811455,46.5248414574342 16.5290469036533,46.5247698073155 16.5289247496059,46.5247458890558 16.5288085179179,46.5246775363791 16.5287512356759,46.5246196418083 16.5283096551456,46.524077087884 16.5282101482385,46.5239125132904 16.5280823570083,46.5237572235531 16.5280857871551,46.5237547106375 16.5284895258504,46.5234589305251 16.5284903254327,46.5234581195443 16.5286147420613,46.5233319289209 16.5286177458662,46.5233295905958 16.5288210015413,46.5231713646836 16.5288209521097,46.5231713299052 16.5287473376383,46.5231195371319 16.5283407176025,46.5233443184173 16.528173105961,46.5234236624169 16.5274358655087,46.5226929698586 16.525922771072,46.5211630786445 16.5243763708139,46.5196275831062 16.5243799275786,46.5196250829739 16.5244645670609,46.5195655878228 16.5247025337875,46.5195042048967 16.524850536628,46.5194928747023 16.5250241413529,46.5194090470713 16.5250249995264,46.5194074886342 16.5251573494151,46.5191671410276 16.5252773149012,46.5190016159329 16.5256310430886,46.5186107468014 16.5256325742081,46.5186099712176 16.525840641378,46.5185045750499 16.525840287682,46.5185036885296 16.5257746224529,46.5183391015462 16.5257729369259,46.5181997606651 16.52547344283,46.5177297046568 16.5254786084225,46.5177297855158 16.5255510229153,46.5177309190233 16.525550630426,46.5177281134735 16.5254879691943,46.517280201172 16.5254913806599,46.5172780988351 16.5256555478711,46.5171769294536 16.5258417078733,46.5171601405649 16.5258404072052,46.5171577230918 16.5257095879243,46.5169145759943 16.5253762805508,46.5166051172093 16.5255787114502,46.5164247263391 16.5252969975065,46.5161332028025 16.5254221238288,46.5159427769302 16.5254248954351,46.5159408555795 16.525633322879,46.515796367588 16.5256337404286,46.515795717905 16.525834012984,46.5154841035337 16.5258354053297,46.5154843485044 16.5262827144116,46.5155630475233 16.5271936232393,46.5154679343317 16.5279102207858,46.5152195822047 16.5282494683091,46.5150621002525 16.5286653262374,46.5151595577551 16.5293937759178,46.5152085684991 16.5301635693913,46.5152818531245 16.5315371782169,46.5154162345842 16.5318040107005,46.5152885022412 16.5318033988123,46.5152876063001 16.5317753322378,46.5152465105269 16.5317788453554,46.5152437838334 16.531914989977,46.5151381153869 16.5319164913152,46.5151367842023 16.5320778744918,46.5149936908331 16.5320781249609,46.5149935712679 16.5322248611825,46.5149235243247 16.5322268744623,46.5149213093358 16.5323793374669,46.514753570551 16.5323812550131,46.5147522677155 16.5325040199759,46.5146688575023 16.5326511785043,46.5146002176268 16.5329020552862,46.5145541193529 16.5331877813311,46.5144589695348 16.5331870544691,46.5144574799875 16.5318874700957,46.5117941199375 16.5315806844288,46.5111857132418 16.5306916458218,46.5092770263668 16.5299161280716,46.507613061466 16.5274322219872,46.5081749289708 16.5252362368827,46.5086712731705 16.5244312678887,46.5088509702039 16.5240526278566,46.5071788853893 16.5236857935441,46.5055693507419 16.5235879534637,46.505374069684 16.5236315478221,46.5053487470955 16.524091634897,46.5050876410316 16.524571045305,46.5048094510823 16.5250512705954,46.5045372762326 16.5255849524368,46.5042199409918 16.5261739995935,46.5038745134481 16.5266299343518,46.50361489201 16.5270928073855,46.5033519371608 16.5276069218471,46.5030532075888 16.5280899196791,46.5027694666426 16.5285993402606,46.5024756536734 16.5290828714538,46.5021927110932 16.529368832854,46.5020197432334 16.5293703705471,46.5020188229674 16.5298922810303,46.5017155702199 16.5300380292709,46.501639574837 16.5305394471611,46.5013491891077 16.5309383173545,46.5011143360898 16.5314823793321,46.5008025022058 16.531662069217,46.5007104853378 16.5318808876126,46.5006060679764 16.5320581200175,46.5005379254958 16.532060833185,46.5005371188609 16.5322821685264,46.5004713147345 16.5325494139486,46.5004165405195 16.5327623287321,46.5003803080013 16.5329659835491,46.5003530162949 16.5331541852042,46.5003368177956 16.5335183634375,46.5003144805252 16.5340670163936,46.5002963253412 16.5346485903045,46.500281324539 16.5352669667469,46.5002592588744 16.5358651212285,46.5002316133958 16.536146550432,46.5002087596211 16.5363904372848,46.5001759730049 16.5366017896156,46.5001445227406 16.5368804638576,46.5000794181883 16.5368842706023,46.5000782077668 16.5371277478629,46.5000007895151 16.5373500333755,46.4999089108775 16.5375829987062,46.4997984443199 16.5377774966047,46.49969146359 16.5379504658408,46.4995741555801 16.5381071454906,46.4994521180434 16.5383466081724,46.499262658659 16.5384903724685,46.4991677853901 16.5385160804624,46.4991507950357 16.5388410737206,46.4989636926993 16.539265021446,46.4987375599942 16.5397547121445,46.4984866984107 16.5402897548431,46.4982041841354 16.5407996189151,46.4979391009327 16.5413943844846,46.4976312148649 16.5418572907081,46.4973875429656 16.5422273808044,46.4971973036998 16.5424473503344,46.4970841233678 16.5428857268959,46.496853283993 16.5431706385996,46.4967009886804 16.5434949958556,46.4965431219121 16.5440122597005,46.4962736058161 16.5441582524629,46.4961890418404 16.5446160379174,46.4959356210672 16.5449853964545,46.4957386349122 16.5454213950535,46.495498191042 16.5458173610673,46.495274931153 16.546355846797,46.4949828048607 16.5468200090127,46.4947022978682 16.5470062279416,46.4945986522144 16.5471461897992,46.4945452057246 16.5473471754461,46.4944891339505 16.5475441465275,46.4944431028531 16.5479134266799,46.4943680179728 16.548247593959,46.4942905282477 16.5485872577256,46.4942001873277 16.5490894381024,46.494043405199 16.5496610055107,46.4938483429079 16.5502101657719,46.4936625785367 16.5507916677397,46.4934644068731 16.5511680291718,46.4933226373855 16.5513705765608,46.4932210123486 16.5515788081422,46.4930948378986 16.5519910675332,46.4928321983144 16.5523026070829,46.4926421810003 16.5525018021827,46.4925373605154 16.5527050234022,46.4924367136192 16.5529274558608,46.4923474116447 16.5531524726137,46.492271119834 16.5534400703153,46.4921966765734 16.5536971146585,46.4921517981031 16.5541652246545,46.4920851569108 16.5547404390622,46.4919965444294 16.5554191960146,46.4918753010161 16.5557620166218,46.4917869650835 16.5557860651416,46.491780609891 16.555982133225,46.491717212218 16.5561616748759,46.4916453119819 16.556395574619,46.4915336245062 16.5568924264162,46.4912876298939 16.5575300483477,46.4910036377397 16.5580893725486,46.4907560672143 16.558600008674,46.4905325498474 16.5586263838913,46.4905210340313 16.5592856133592,46.4902370973944 16.5598380411559,46.4900040075591 16.5604003743598,46.4897530557084 16.5609450589892,46.4895319422427 16.5612368049498,46.4894212545742 16.5614501540102,46.4893613902991 16.5616268411707,46.4893313566436 16.5617437219972,46.4893189639848 16.5619567097602,46.4893102068832 16.5619591843907,46.4893103096124 16.5621638115927,46.4893188041087 16.5623213143244,46.4893421139902 16.5625284382757,46.4893969550384 16.5627373635865,46.4894555498509 16.5630627950137,46.4895795797903 16.5632491343589,46.4896409115884 16.5633544698959,46.4896756396592 16.5636093838758,46.4897207383753 16.5638492015024,46.4897390518576 16.5638519394417,46.4897390653103 16.5640427992457,46.4897400029325 16.5642242318347,46.4897346422179 16.5644007716186,46.4897085649893 16.5645665409271,46.4896703089044 16.5648737111096,46.489584412684 16.5654150832921,46.4894346697457 16.5661491636632,46.4892414385405 16.5665171770579,46.4891288830702 16.566817183226,46.4890159986563 16.5671376398059,46.4888759320369 16.5675160121867,46.4886979128484 16.5677847250106,46.4885841052827 16.5681073303391,46.4884555226829 16.5684966811696,46.488301641696 16.5689119204769,46.4881330988905 16.5692664418703,46.487977623802 16.5695679316716,46.4878171174097 16.5697171390544,46.4877106136502 16.5697885630187,46.4876351376627 16.5698765365532,46.4875418002239 16.5698884351223,46.4875252622538 16.5699944543969,46.4873755354212 16.5700547445527,46.4872436207122 16.5700995726636,46.4871040008701 16.5701013925935,46.4869726190243 16.5700892273005,46.4868486268347 16.5700474115602,46.4866538751148 16.5699417347172,46.486353745032 16.5698160097854,46.4859860523294 16.5697657319356,46.4858095007126 16.5697421121061,46.4856314135127 16.5697431043329,46.4855029220596 16.5697737753129,46.4853556692126 16.5698051191785,46.4852589705237 16.5698875308478,46.4850856356627 16.5699432932579,46.4849820338507 16.5700230862794,46.4848716242018 16.5701548151955,46.4847328804382 16.5703170144207,46.484598396558 16.5704850672018,46.4844908231985 16.5707804179629,46.484344073314 16.5712984520972,46.484164212844 16.5716307378554,46.4840563602978 16.5721946391363,46.4838638093005 16.5727700556279,46.4836551723522 16.573356462251,46.4834393635816 16.573938903833,46.4832217169832 16.574383628871,46.4830522983854 16.5748204638803,46.4829119572169 16.575133642991,46.4828059770473 16.5755712843192,46.4826260348602 16.5755963864899,46.4826157922315 16.5759527472847,46.4824402074191 16.5765056959819,46.4821987520638 16.5770787155813,46.4819534183874 16.5773796220546,46.4818152118977 16.5776686296135,46.4816889549195 16.5782335118037,46.4814508353626 16.5786250650889,46.481276735793 16.5790483222,46.4811136233447 16.5792071394575,46.481038913878 16.5793633188035,46.4809450768939 16.5794726632179,46.480853056233 16.5795675407269,46.480742701368 16.5797223337981,46.4804930540162 16.5798218501687,46.4803090389216 16.579872339765,46.4801770743004 16.5799078237002,46.4800396488331 16.5799007935133,46.4798912945162 16.5798196534804,46.4795178680288 16.579808978276,46.4794685316934 16.5797907552404,46.4792439469651 16.5798296575323,46.4790851512453 16.5799050660651,46.4789322390399 16.5799968279818,46.478786388441 16.5800747275525,46.4786925523763 16.5802101264035,46.4785649924445 16.5803888915098,46.4784463698897 16.5804072889689,46.4784340595628 16.5806745333478,46.4782901915153 16.5808170440813,46.4782283910253 16.5810034365069,46.4781618450064 16.5812617102552,46.4780950244719 16.5815422496753,46.4780235768137 16.5821278096983,46.4778492108784 16.5825210717408,46.4777308559476 16.5826497885544,46.4776920066256 16.5832409029025,46.4775207970364 16.5836577747415,46.4773994121677 16.5840947699366,46.477302848808 16.5842591887389,46.4772736697586 16.5844628573759,46.4772506944165 16.5845304912496,46.4772476879135 16.5848005033255,46.4772355787849 16.585244870534,46.4772404856877 16.5856358057966,46.4772396539105 16.5862109987705,46.4771932590263 16.5867584193497,46.4771995195674 16.5871495459247,46.4771918421894 16.5877188231041,46.4771749422215 16.5882089076457,46.4771352971438 16.5883367536124,46.4771248842222 16.5888913616099,46.4770649062939 16.5891888544478,46.4770484462359 16.5895262643466,46.4770253125334 16.5899914207638,46.4769660328403 16.5905177884284,46.4768889853798 16.590827723465,46.4768392387931 16.5911027805325,46.476803742187 16.5916804877501,46.476763492752 16.5918220228392,46.47675810368 16.5925762650971,46.4767292475586 16.5930867550802,46.4767063018096 16.5933605593416,46.476699337917 16.5935305885502,46.4766975083907 16.5937945243255,46.4767183019728 16.5940294627835,46.4767539844489 16.5941069620985,46.4767677492347 16.5941185305097,46.4767402368833 16.5949450970926,46.4766684305166 16.5953364436447,46.4765837971344 16.5958951627309,46.4761259675394 16.5959997370481,46.4760635978683 16.5966967620978,46.475908924388 16.5966885299463,46.4757566290181 16.5966753171403,46.4757145272959 16.5964104204173,46.4750997673683 16.5962414648637,46.4747373848676 16.596071273029,46.4743949928484 16.5958982288291,46.4740306875188 16.5957993504995,46.4736641772818 16.5957218487372,46.4733740236738 16.5956595103127,46.4731392603045 16.5956085794528,46.4729828821441 16.5956028600048,46.4729654176644 16.5955736796057,46.4729695136412 16.5955712723946,46.4729361680966 16.5955043597687,46.4729547360125 16.5954622456091,46.4727925666076 16.5937602428043,46.4731940884834 16.5938060470755,46.4732241300732 16.5935980394817,46.4736553796406 16.5933451362882,46.4738692553994 16.593082965335,46.4740066046779 16.5930226144702,46.4740715945638 16.5929246578738,46.474186682138 16.5928334930637,46.4743783300424 16.5927105053559,46.4746263828834 16.5925932914325,46.4747063799097 16.5925457736847,46.4747113602985 16.592441719413,46.4747201870252 16.5923471668001,46.4747243828092 16.5920368595347,46.4747251946849 16.5918174514925,46.4747304984907 16.5915503114274,46.4747379057708 16.5910257040573,46.4747450263359 16.5907613647264,46.4747636391371 16.5907067858747,46.4747676373435 16.5906344141907,46.4747688240279 16.5905710350151,46.474770245465 16.5904945501586,46.4747732886879 16.5901808419873,46.4748004142644 16.5899001670119,46.4748439042065 16.5893356096898,46.4748789235528 16.5891607884615,46.4748859417718 16.5887619393651,46.4747843290211 16.5884040606656,46.4746853847147 16.5882481652856,46.4746446341259 16.5871903164373,46.4743350679654 16.5869793772258,46.47433151778 16.5869510740885,46.4743255226623 16.5866874676409,46.4742662912407 16.5865424559556,46.4742369935212 16.5863842190186,46.4741648731137 16.5861034375428,46.4740702502304 16.5857605581798,46.4737162926363 16.5854792643512,46.4732004325852 16.5855313198978,46.4726299264236 16.5855376584815,46.4724670815454 16.5855456384518,46.4719527883421 16.5855420641151,46.4719014646313 16.5855442123896,46.4718543801645 16.5853902701316,46.4718491370193 16.5852944976147,46.4718470459407 16.5839094960498,46.4718163051511 16.5835016768021,46.4718038692827 16.5830593893415,46.4717928088568 16.582347310129,46.4717601086747 16.5818160941581,46.471965124021 16.5812907600056,46.4721530510874 16.5807943385811,46.4721883456254 16.580263179599,46.4722292464046 16.5796966817926,46.4722234882774 16.5794454869214,46.4722280378516 16.5791922740444,46.4722528581474 16.5786981457741,46.4723089851068 16.5785745341806,46.472321398138 16.5784412331899,46.4723184698289 16.5778669141776,46.4722403841939 16.5774583704672,46.4721939278391 16.5771398166232,46.4721792481234 16.5768268679882,46.4721647601382 16.5765136380848,46.4721540539428 16.576239779362,46.4721403749741 16.5760156231843,46.4721432847018 16.5757773502295,46.4719639279846 16.5756320802273,46.4719568427458 16.5755264653198,46.471943092943 16.5753931626114,46.4716693493438 16.5754601908475,46.4715508341783 16.5750707778514,46.4713683399441 16.5747819384417,46.4714355675422 16.57419374076,46.4715620679918 16.57052167033,46.4723717336267 16.5704803822508,46.4724212447322 16.5702001917055,46.4724228432972 16.5701519490188,46.4723754614056 16.5700522300613,46.4723538881099 16.5700357631626,46.4724695465675 16.5699585392358,46.4725645362161 16.5696831402536,46.4727056122198 16.569364796493,46.4728069700987 16.5688731505647,46.4729046769014 16.5686058984222,46.4728717252485 16.5683314762032,46.4728656825659 16.5677773842751,46.4728613146753 16.5674131264228,46.472864958683 16.5671549146382,46.4728747057494 16.5667399325747,46.4728850708105 16.5665190183983,46.4729420798191 16.566444855209,46.4729715265156 16.5662516979045,46.4730292344141 16.5662212729002,46.4729628029542 16.5661435045859,46.4728257631639 16.5660010690149,46.4728766579312 16.565750984586,46.4729563776557 16.5655175576243,46.4730402773415 16.5653072873612,46.473105235639 16.5649137388808,46.473259163719 16.5646583448858,46.4733309463201 16.5644868471742,46.4734084183067 16.5644296369111,46.4734342128614 16.564395157871,46.4734488999304 16.563811519157,46.4737224764326 16.563590091275,46.4739072450825 16.5625913642366,46.4744201441048 16.5626244904796,46.4745037239851 16.5626585924288,46.4745895397866 16.5627042057755,46.474704438712 16.5628626678045,46.4750537882364 16.5628993193348,46.4750648935075 16.5628988292864,46.4750750668843 16.5628983392378,46.475085240261 16.5629561695715,46.4751992523338 16.5630668984034,46.475373271467 16.5631468306634,46.4755723634239 16.5632420691896,46.4758329659041 16.5632699263295,46.476082613364 16.5632450426277,46.4762823283817 16.5631920122312,46.4763859796905 16.5631153464691,46.4765647196202 16.5630750571802,46.4766949179671 16.5629954420189,46.4768025313904 16.5628504098012,46.476913288111 16.5627622216141,46.4770080627728 16.5625447564088,46.4771407721266 16.5624463223931,46.4772507116307 16.5624032995794,46.4772764012649 16.56186501823,46.4774619864239 16.5616561956491,46.4775327662436 16.5615525795625,46.4775527151978 16.5612445207693,46.4776235897906 16.5611574628229,46.4776305364925 16.5607965901786,46.4776580453232 16.5605060786611,46.4776184644698 16.5601872269188,46.4775715320855 16.5600888570117,46.4775472325847 16.5598160981036,46.4774725891671 16.559517863496,46.4773905550724 16.5592012671994,46.4772994136294 16.5590001375101,46.4772019287063 16.5583865023667,46.4769290450893 16.5582598698364,46.4768909138293 16.5581131489716,46.4768698806477 16.5577844061484,46.4768959525002 16.5576402838865,46.4769066429231 16.5576344729875,46.4769311940725 16.5574241952549,46.4772888121524 16.5572878574727,46.4782888922988 16.5573295886988,46.4785418609783 16.5569977531229,46.4792861175214 16.5569649470711,46.4796928711267 16.5567567638872,46.4798413677795 16.5567261100945,46.4798899193236 16.5564788143174,46.4800142060259 16.5558776679303,46.4802028677719 16.5549374811346,46.4803862403408 16.5547417931368,46.4805347433278 16.5544946631783,46.4804822314059 16.5542665571371,46.4803294131663 16.5536804962597,46.4795524746397 16.5533585605907,46.4793241845352 16.5532612564131,46.479254969395 16.5526317820028,46.4793315357181 16.5522910204692,46.4794301811958 16.551871970749,46.4793314131692 16.5515987475342,46.4792266163421 16.5505550909914,46.4787247917305 16.5501768300994,46.4784661265888 16.549751703278,46.4781850628976 16.5492828540926,46.4778867758333 16.548814109471,46.4776241137563 16.5487125942624,46.4776173013578 16.5486265862527,46.4776108186827 16.5482844229582,46.4775818930049 16.5479510775527,46.4775102908706 16.5473787397968,46.477337106348 16.5470655118062,46.477258391642 16.5466712315561,46.4770676794201 16.5465557283389,46.4770267755258 16.5462465458663,46.4769114758191 16.546197980729,46.4769026855984 16.5459512592421,46.4768269372811 16.5454826580016,46.4767064130586 16.5452476693128,46.4765666255595 16.5435768110087,46.4758347890074 16.5434369270707,46.4758802229162 16.5426806267598,46.476380408144 16.540629703132,46.4771214347329 16.5401606071628,46.477509138892 16.5399237181849,46.4776201139262 16.5389703372703,46.4779963397176 16.5377949650867,46.4782272716737 16.537097298514,46.4784262196268 16.5367633031764,46.4785716924488 16.5350387209259,46.4795163338251 16.5345470156516,46.4798478167577 16.5338201935764,46.4803914528595 16.5333157944112,46.4809159973638 16.5328361970481,46.4810997589312 16.5324302355492,46.4811787058027 16.531829325218,46.4812260741069 16.5312072909895,46.4811658475357 16.5300937546646,46.4809301849826 16.5302756741603,46.4795915992949 16.5241505672289,46.4799508713697 16.5238876767326,46.4796639503909 16.5235983072981,46.479338154478 16.5233552451043,46.4790661730727 16.5231057726819,46.4788164092583 16.5229917519687,46.4786974574373 16.5227862980452,46.4785502128096 16.5223022395043,46.4783177862322 16.5219004053329,46.4781849402752 16.5215506273208,46.4781020536425 16.5209534021175,46.4779770223281 16.5208660736818,46.4779464242423 16.5206303432674,46.4779228379586 16.5203067144704,46.4778808962387 16.5200392364726,46.4778443252151 16.5197684841821,46.4778117557832 16.5195415223291,46.477794348651 16.5191057850169,46.4777438165171 16.5184012275897,46.4776832669823 16.5182658797691,46.4776679697064 16.5180087857827,46.4776581572349 16.5177414732368,46.4776133913266 16.5174405477203,46.4776618304009 16.5171891821221,46.4777175285463 16.5166824004328,46.4778425624392 16.5154597081704,46.4781548656367 16.514992699322,46.4781975817694 16.5149517845065,46.4782108996279 16.5149007528813,46.4782210225896 16.514843454773,46.4782305987487 16.5147890956548,46.478242835061 16.5147361560909,46.4782546026913 16.5146882139325,46.4782634250475 16.5146488341713,46.4782710543252 16.5145957219283,46.4782812946797 16.5145517327683,46.4782917740597 16.5145060286912,46.4783014664014 16.5144506782452,46.478310836627 16.5144027983815,46.4783219072998 16.5143559001027,46.4783308056624 16.5143015831945,46.4783445706812 16.5142474293103,46.4783548246675 16.5141819037367,46.4783682882014 16.5141268663731,46.4783748650402 16.5140695325875,46.4783878601605 16.5140112674992,46.4784001478188 16.5139494823248,46.4784123021102 16.5138903208369,46.4784251413972 16.5138328792047,46.4784389475604 16.5137798344567,46.4784469373803 16.5137133998304,46.4784605026495 16.5136537573922,46.4784747877076 16.5135830015527,46.4784875103952 16.5135078212956,46.4785050600325 16.5134423681718,46.4785164528623 16.5133746090455,46.4785292257298 16.513305735554,46.4785440826248 16.5132401696072,46.4785561066249 16.5131786619073,46.4785688866201 16.5130973046819,46.4785891268674 16.5130269695704,46.4785982448251 16.5129391706824,46.4786163209297 16.5128577758955,46.4786352119463 16.5127555907961,46.4786558174674 16.5125239187318,46.4786940604506 16.512409584061,46.4787086184013 16.5121981530577,46.4787488422766 16.5121631288776,46.4788149838592 16.5116974829784,46.4790623512499 16.5114184099463,46.4792560577287 16.5112407319572,46.4794053277222 16.5109359937362,46.479594153902 16.5107275295934,46.4797181882863 16.5106844317963,46.4798126867786 16.5105361918499,46.4798916597335 16.5104000858478,46.4801173039606 16.5103005680469,46.4802485356668 16.5101915307746,46.4803793531792 16.5101081302433,46.4806506357377 16.5100520743125,46.4808181811305 16.510096652893,46.480894787066 16.510103870537,46.4809438155972 16.5102515082644,46.4809559012316 16.5104984559913,46.4809703637078 16.5108105908735,46.4809683995452 16.5110640519308,46.480959382439 16.5111048585589,46.4809702694527 16.5111380790804,46.4809799971146 16.5113018269636,46.4809859304531 16.5115178568897,46.4809797462606 16.5118545198945,46.4810028266879 16.5120940671305,46.481036907139 16.5122901438618,46.4810391726357 16.5124033885756,46.4810509005929 16.5125739356525,46.4810671787527 16.5126605840217,46.4810732302314 16.5127657244242,46.4810838954181 16.5128402548033,46.4810897471866 16.512921024014,46.4810998349449 16.5130049358946,46.4811058323968 16.513088571924,46.4811159720762 16.5131841434584,46.4811244242601 16.5132648374539,46.48113649212 16.5133577428058,46.4811427301808 16.5134415270924,46.4811488189712 16.5135280275362,46.481158920419 16.5136029486703,46.4811647665185 16.5136928571375,46.4811709540041 16.5137764230664,46.4811832533983 16.51385413822,46.4811912216365 16.5139380503267,46.4811972184006 16.5140307503545,46.481205437982 16.5141144441054,46.4812176454663 16.5141978225993,46.4812278777147 16.5142848644525,46.4812340127226 16.514359450085,46.4812418421183 16.5144494889447,46.4812480272823 16.5145419158639,46.4812604786758 16.5145742640113,46.4812622095266 16.5152678343566,46.4813336347367 16.5156162902207,46.4813685138872 16.5157077868167,46.4818538611604 16.5160130855517,46.4831948716059 16.5159835073367,46.4832928816025 16.5163572890605,46.4833949905127 16.5164872738738,46.4834324039182 16.5168352318973,46.4834348066507 16.5169004182588,46.4834604832327 16.5169387412244,46.4834803081774 16.517505337445,46.4837385631732 16.5175759413481,46.4838185095894 16.5178362781107,46.4841077280292 16.5179114862146,46.4843765509169 16.5178840143256,46.4845829477326 16.5178284896848,46.4848531459975 16.5177870940857,46.4850132129039 16.5171209875113,46.4855003344979 16.516724304138,46.4856948042451 16.5161367674097,46.4860710240974 16.5160013423281,46.4862271186711 16.5156055468156,46.4866930132471 16.5158346052602,46.4867142691479 16.5160507903246,46.4867456819675 16.5163489663962,46.4867745676689 16.5165785389243,46.4870204711946 16.5168546571812,46.4872257200544 16.5170121675545,46.4873485994308 16.5171881577297,46.4874895873571 16.5173136681001,46.4876139705133 16.5175744739546,46.4878585578861 16.5176874108118,46.4879804083775 16.5177807339126,46.4881042285198 16.5178828864009,46.4882457455105 16.5180468853196,46.4885079913138 16.5181718320624,46.4887804721319 16.5182262239453,46.4889188441121 16.5182959394353,46.489209962135 16.5183190239979,46.4895105163354 16.5183237661239,46.4895732526435 16.5183368122734,46.4898454195217 16.5183237127281,46.4901282801187 16.5181969565884,46.4904415301513 16.5180809973694,46.4907308845396 16.517907971949,46.4910012028265 16.5177883995316,46.4911373854675 16.5176492384312,46.4912858839677 16.5173586665272,46.4915593808054 16.5171495530777,46.4917033186645 16.51688509035,46.4918431319478 16.5164125651649,46.4921461208075 16.5162662189365,46.4922238163069 16.5160468658074,46.492355741912 16.5158653275344,46.4924562160655 16.5155054163322,46.4925836158559 16.515416675995,46.4926154717196 16.515255798427,46.4926766240157 16.5152696525645,46.4927064005345 16.5152767555384,46.4927698254115 16.514743485684,46.4923214609165 16.5142916811892,46.4924845326702 16.5139624213624,46.4925195721129 16.5132736151098,46.492380778143 16.5128077399666,46.4923326001382 16.5120229746928,46.4922470708435 16.5114655989335,46.4921452153184 16.5108501940153,46.4920129040906 16.5101947410581,46.4919490459781 16.5095368628372,46.4919151762158 16.5094091905763,46.4919101137041 16.5092669212526,46.4919189191814 16.5086445447253,46.492000547373 16.5082225163156,46.4920255478258 16.5081779327183,46.4920291048449 16.5078681940874,46.4920776347238 16.5075437498716,46.4921267175077 16.507739467181,46.492491575659 16.5077901961208,46.4926019300735 16.5078121652984,46.4926426668321 16.5079034452078,46.4928203240648 16.5079612497205,46.4929415614669 16.5081105427382,46.4932196700216 16.5082868803244,46.4935806441264 16.5082952547212,46.4936196707187 16.5083024937295,46.4936506149656 16.5086570177039,46.4948300363624 16.5088082910255,46.4953253958353 16.5087879421943,46.495329173153 16.5084858808314,46.4953544810234 16.5081995103538,46.49538659883 16.5077187102068,46.4954354948188 16.5072370820496,46.4954874586836 16.506619006618,46.4955471562977 16.5061927496485,46.4955946074929 16.5057096423793,46.4956402864854 16.5055997452807,46.4956564885413 16.5055356787308,46.4956622803764 16.5048550295671,46.4957300798169 16.5047201949131,46.4957490383811 16.5040275040804,46.4958196004715 16.5032321414282,46.4959039239299 16.5030014684874,46.4959340369542 16.5025999366888,46.4959712530523 16.5025209835075,46.4959757992777 16.5024405234517,46.495977666141 16.5023551171127,46.4959796878997 16.5022733795115,46.4959824711307 16.5021899365199,46.4959848268546 16.5021068619179,46.495986367947 16.5020253500745,46.4959878884529 16.5019399436964,46.4959899099019 16.5018576851296,46.4959926996779 16.5017734607143,46.4959950653603 16.5016875333892,46.4959970934619 16.5016033089565,46.495999459019 16.5015197851878,46.4960036147177 16.5014425931806,46.4960058878192 16.5013628336924,46.4960095441291 16.5012854891564,46.4960110093955 16.5012045575728,46.4960146809823 16.5011297319594,46.4960177325393 16.5010486230924,46.4960196969097 16.5009726154854,46.4960224039981 16.5009011322337,46.4960285604915 16.500821444438,46.4960348246175 16.5007493322704,46.4960417990014 16.5006701628831,46.4960479662485 16.5005954584361,46.4960554244039 16.5005246485155,46.4960623815577 16.5004522634363,46.4960689094843 16.5003721016081,46.4960768889498 16.5002986276368,46.4960817216322 16.5002287654775,46.4960852473021 16.5001560283365,46.4960884507634 16.5000825295905,46.4960923839301 16.5000145961265,46.4960949844676 16.4999491246728,46.496097102821 16.4998787415428,46.4961006351102 16.4998088570669,46.4961033510846 16.4997392289417,46.4961106521328 16.4996739132528,46.4961184364062 16.4995156794574,46.4961582988491 16.4992544226941,46.4962133671921 16.4991549828914,46.4962309554399 16.4990808787778,46.4962460521985 16.4990031454508,46.4962618262724 16.4989244955152,46.4962774323675 16.4988436637322,46.4962942366175 16.4988046816021,46.4963026649146 16.4987659574508,46.4963109998471 16.4986896688378,46.4963272046238 16.4986148275517,46.4963439302035 16.4985372562995,46.4963608714481 16.4984648893177,46.496377564506 16.4983870229131,46.4963932499338 16.4983077535638,46.4964100333318 16.4982299018891,46.4964262582803 16.4981520081683,46.4964409542338 16.4980727534959,46.4964582770973 16.4980025557119,46.4964733219824 16.4979488546513,46.4964818528251 16.4978232063131,46.4964891667347 16.4973050422325,46.4965444462991 16.4972517736546,46.496554500644 16.496480930445,46.4966310785059 16.4962364032604,46.4966550612525 16.4957978902434,46.496698045533 16.4940958508213,46.4972423024797 16.4929245815935,46.4975499123101 16.492552106196,46.4981068310433 16.4925412753262,46.4981252363385 16.4922287020769,46.4985147474717 16.4920483958793,46.4987387864743 16.4917743842618,46.499076060377 16.4916445684768,46.4992408695298 16.4916026894138,46.4992864008318 16.4915234504872,46.4993902701706 16.4914471469827,46.4994633313948 16.4914175589185,46.4994961964836 16.4913273434696,46.4996465434342 16.4912519954069,46.4997259799412 16.4911817754727,46.4997976121002 16.4911501332393,46.499855425619 16.491091639948,46.4999461584119 16.4910354093764,46.5000195874138 16.4910124777123,46.5000481370111 16.4909469581896,46.5001296944163 16.4908466542513,46.5002113453815 16.4906663574145,46.5003074445452 16.4904217179639,46.5003852183884 16.4902908477039,46.500464028304 16.4902307498379,46.5004913526478 16.4874505747289,46.5007461754285 16.487360919978,46.5008220166901 16.4873335877361,46.5009424822189 16.4872747185072,46.5010292592394 16.4872422109258,46.5010459665921 16.4870759391235,46.5010977023672 16.4870015905751,46.5012188691559 16.4867777853607,46.5014685669649 16.4867016648161,46.5016968209561 16.4867492306256,46.5018739834015 16.4864351850648,46.5021735274665 16.4861482882018,46.5021642105515 16.486068308546,46.5022509913587 16.4859405666899,46.5024832444993 16.4856894099453,46.5027575874183 16.4854264924755,46.5027820558022 16.4853089133321,46.5029570452335 16.485340180921,46.5031530437041 16.4854586755735,46.5033560064615 16.4855815351375,46.50356610999 16.4858450916612,46.5036558049185 16.4860014154445,46.5038650233375 16.4863824083633,46.5042189624128 16.4870978412835,46.5050491715072 16.4866932246841,46.5058458084702 16.4871559480521,46.5060043471487 16.4877237667309,46.5061988543398 16.4880804975596,46.5063455425172 16.4880811163112,46.506363438494 16.48810331753,46.5064034561576 16.4882073737365,46.5066066938295 16.4882176115628,46.5068003559498 16.4882177282743,46.5068428202637 16.4882173773304,46.5082524743794 16.4881677131351,46.508270934726 16.4879373859568,46.5083302529516 16.4877783358565,46.508380006328 16.4877111671653,46.5084016632103 16.4874572708715,46.5084759521787 16.4874544075815,46.508476079391 16.487193899875,46.508484775697 16.4870820938831,46.5084894685458 16.4870271678375,46.5084918022258 16.4869282478563,46.5084959674857 16.4866636696869,46.5085083143063 16.4864018467827,46.5085165760546 16.4862215697969,46.5085238674291 16.4860999057606,46.5085254485136 16.4860669766225,46.5085268660913 16.485669430063,46.5084846172226 16.4855430361317,46.5084704244494 16.4854440040779,46.5084609144476 16.4853348316797,46.5084474874181 16.4852557272018,46.5084376284568 16.4851667498584,46.5084288873276 16.4850813361411,46.5084218092809 16.4850023620032,46.5084119484517 16.4849121560449,46.5084011537695 16.4848262903774,46.5083918321519 16.4846645232988,46.5083945621826 16.4845780172516,46.5084000037646 16.4843329756008,46.5084120016029 16.4840843403803,46.5084260248899 16.483905606329,46.5084373412367 16.483826057823,46.5084446713087 16.4837056684542,46.5084547804515 16.4836880214581,46.5084575285612 16.4835770059501,46.508467336013 16.4832792300726,46.5084999890239 16.4830877587351,46.5085173173435 16.4829821522066,46.5085295732287 16.4826258153349,46.5085746800151 16.4825913712011,46.5085826840388 16.4825467819565,46.5085865909851 16.4822901967995,46.5086197870579 16.4822259526477,46.5086244884565 16.4821702586355,46.5086321379828 16.4821090440381,46.5086428280372 16.4819677536926,46.5086654421366 16.4819136765271,46.5086750499241 16.4815429449314,46.5087371642415 16.4811984496816,46.5087961484746 16.4807535784112,46.5088681274912 16.4806960832086,46.5089150265135 16.4804387909465,46.5091286173015 16.4803508103194,46.5091949844159 16.480202468481,46.5093035189224 16.4800251868814,46.5094452667939 16.479967458491,46.5094836213184 16.4797551801131,46.5096322994982 16.4796828154064,46.5097219461789 16.4796746191828,46.5097320388894 16.4794507478643,46.5099721859618 16.480241421241,46.5101669959242 16.4803606654637,46.5101961321463 16.4806229139466,46.5102559859668 16.4806778218441,46.5102720994354 16.4806880147276,46.5103595081921 16.480745354939,46.5107098283658 16.4806122896831,46.510910744606 16.4805130407894,46.5109989404586 16.4802219210605,46.511306087447 16.4799082710367,46.5116426754811 16.4795152093599,46.511939173789 16.4787806457738,46.512482915856 16.4784145959697,46.5126899008863 16.4782189102364,46.5127061958618 16.4781075356247,46.5127175321124 16.4779590373501,46.5127342963765 16.4778761385106,46.5127432850502 16.4774085516227,46.5127574239673 16.4772573866631,46.5127286970135 16.4771071771583,46.5126823234236 16.4770542868279,46.5126830065528 16.476751830875,46.5125390920859 16.476600952317,46.5124679847541 16.4765397291546,46.5124304480692 16.4764489537897,46.5123747590922 16.4761062543214,46.512154618161 16.4760605641619,46.512055431297 16.4758315704461,46.5114815897641 16.4756990162708,46.5114999447362 16.4753709291639,46.5115449342276 16.4752211120472,46.5115754773484 16.4751177487488,46.5115890465635 16.4749144612354,46.5116228881005 16.4746672242786,46.5115832507907 16.474477481034,46.5115589762917 16.4741971927861,46.5115211136465 16.4740045864607,46.51149696524 16.4739642495705,46.5114895677882 16.4738234172263,46.5114716794456 16.473728651204,46.5114610246778 16.473635134417,46.5114483743964 16.4733572441636,46.5114172265337 16.4732479917293,46.5114057683323 16.4731790459021,46.5113957701472 16.473019342553,46.5113691269178 16.4728148993654,46.5113312736088 16.4726627887383,46.5108572917782 16.4723427508334,46.5108914625153 16.4708753451971,46.511067162801 16.4705258669724,46.5110728267635 16.470205971686,46.5110785591967 16.4701013349073,46.5116585906094 16.4701499898872,46.5118004774238 16.4701731845711,46.511877733276 16.4702282944771,46.512060833241 16.4703112000438,46.5122066881704 16.4704390816946,46.5124352768443 16.4705799317406,46.512666307733 16.4707903835075,46.5127673365715 16.4709476575242,46.5130129108255 16.4710854680541,46.5132374123697 16.4711471488236,46.5133451225659 16.4714034379771,46.5138067895499 16.4715168489779,46.5141652096934 16.4715537160338,46.5142564145776 16.4715622697272,46.5146794326547 16.4715703121182,46.5150883320183 16.4715640126054,46.5151832412759 16.4715423944196,46.5155892833515 16.4715161955658,46.5157243052798 16.4715158460076,46.5157258392646 16.4714080644438,46.5164450052255 16.47136318598,46.5167184610528 16.4712727548233,46.5168831895892 16.4711526664533,46.5170452405896 16.4710125737653,46.5171469990985 16.4707191609355,46.5173675100538 16.4702879471818,46.5176106649438 16.4697844514233,46.5177930279121 16.469060089293,46.5178949140235 16.4684405152549,46.5179002620579 16.4681872009631,46.517863297902 16.4681268495475,46.5178581346735 16.4680548435836,46.5178412450108 16.4678964259195,46.5178097197597 16.4677174650425,46.5177606439244 16.4675764637344,46.5177176484861 16.4672560177964,46.5176269320701 16.4668173882639,46.5175080406176 16.4667403444154,46.5172845541499 16.4664020921817,46.5170744038936 16.466309424232,46.5170064053173 16.46627565491,46.5169816467489 16.4660342157614,46.5168045325752 16.4658908717635,46.5166403757774 16.4657819975235,46.5165076263096 16.4657085863566,46.5164383907581 16.4655182981417,46.516287700812 16.4656901990344,46.5161762744861 16.4658081610801,46.5160363890439 16.4659154284954,46.5158090099727 16.4659358627218,46.5157692512962 16.4659894386221,46.5156292012961 16.4660587538344,46.5154880498008 16.4661461949706,46.5153230937917 16.4662026089177,46.515080261766 16.4662337399849,46.5148519690886 16.4662482753794,46.5145977979218 16.4662394041243,46.5142147301693 16.4662443877612,46.5140802513468 16.4662481544312,46.5139005332977 16.4661981234394,46.5136393625194 16.466188698744,46.5135554515213 16.4661740814995,46.5134916703671 16.4662086879866,46.5134507402603 16.4662714712251,46.5133333343952 16.466368168412,46.5131492758396 16.4664049740224,46.5130690006501 16.4664635932955,46.5129615447469 16.4665113819136,46.5128729414276 16.466547948368,46.5127934789834 16.4665577910952,46.5127330729611 16.4665707635529,46.5126824335157 16.4665797616579,46.5126487593683 16.4663930982708,46.512680843056 16.4662847204003,46.5127019360732 16.4660566593656,46.5127404879939 16.4658840063952,46.5127653735932 16.4657643234492,46.5127876906624 16.4649951120501,46.5130369567839 16.4636767092898,46.5134650003732 16.4635904006813,46.5134878776767 16.4635185070974,46.5135282944998 16.4633892974984,46.5135744830272 16.4632235122501,46.5136417424801 16.4630156385968,46.5137383304769 16.4627947608047,46.5138359841276 16.4625550118988,46.5139734654138 16.4623494759935,46.5140844174655 16.4620447314441,46.514257277168 16.4616906773698,46.5144624356758 16.4617685352484,46.5148046753666 16.461838461696,46.5151329810808 16.4618653636995,46.5152808174714 16.4619034891302,46.5154438052489 16.4619062394187,46.5154637433877 16.4619145915478,46.515556485456 16.4619209316479,46.51563251886 16.4619241693097,46.5156463328212 16.4619387772134,46.5158168187903 16.4619218355132,46.5160403403935 16.4621735594144,46.5160282152544 16.4623916237652,46.5161993386035 16.462615696809,46.5163612077679 16.462815401609,46.5165474101223 16.4629707193073,46.5166870357831 16.4629948942804,46.5167088590915 16.4636617469144,46.5173677221932 16.4642169446355,46.5179158186554 16.4643575089553,46.5180541917846 16.4643675675086,46.5180550526566 16.4643653218793,46.5180684869066 16.464396996799,46.5180929129741 16.4644518017088,46.5181584289409 16.4645014366343,46.5182303989401 16.4646450466703,46.5184044507043 16.464727256363,46.5185294454519 16.464834560384,46.5186861479509 16.4648859687027,46.5187852659306 16.4649465222967,46.5188997415368 16.4649694966471,46.5189495603959 16.4649502818013,46.5189523256868 16.4649616689181,46.5189783610201 16.4649693086,46.5189958972294 16.4650038923339,46.5190751674155 16.4650224821455,46.5191121767543 16.4650279862131,46.5191229925857 16.4650292240846,46.5191254059114 16.4650553835502,46.5191773432232 16.4650915860408,46.5192489452145 16.4651186314534,46.51934837519 16.4651158875063,46.5195032482831 16.4650995919654,46.519590367823 16.4651018237535,46.5196733813082 16.46543164455,46.5196858898751 16.465408799818,46.5199026498096 16.46539562949,46.5199944977372 16.4653469301499,46.5201513092088 16.4653008312158,46.5203030490318 16.4652810088601,46.5203607936702 16.4651297498443,46.5205908948292 16.4650634533429,46.5207186014703 16.4649214708681,46.5208817359914 16.4647648608229,46.5209953044232 16.4643857400134,46.521234080858 16.4640842533939,46.5213984468819 16.4638890807404,46.5214545672759 16.4636405457319,46.5215281046552 16.4628435524941,46.5214756830006 16.4624793018812,46.5214482224299 16.4623791759609,46.5214326784598 16.4622875818197,46.521404789431 16.4621868840753,46.5213679297816 16.4620432425542,46.5212510061871 16.4616810095718,46.5209682731894 16.4616084925106,46.5209081105689 16.4615352763463,46.5207829986969 16.4614805061967,46.5206895903027 16.4614610447228,46.5206588894196 16.4614596264377,46.5206060053458 16.4614044087218,46.5204181344188 16.4613496181167,46.5200371829575 16.4613311091439,46.5198670167893 16.4613295023626,46.519855701134 16.4612915247404,46.5194990065432 16.4612747783556,46.5194528861047 16.4612577932506,46.5193978617092 16.4612139644341,46.5193041334268 16.4608479250379,46.518533540396 16.4607522918426,46.5183352990071 16.4607057745854,46.5182433142805 16.4605623941232,46.5179946697153 16.4603179047307,46.5175767334085 16.460236722488,46.5174458743308 16.4597096783865,46.5165117887323 16.459638793685,46.5163857461118 16.459528928892,46.5163078849144 16.4595142799622,46.5163497278779 16.4594852735376,46.516390764402 16.4594512257622,46.5164090129296 16.4594141528166,46.5164213620465 16.4593576016642,46.5164558223679 16.4591778341886,46.5165562732378 16.4590561259098,46.5166153167677 16.4588508534156,46.5166734468395 16.4587555569156,46.5167113701073 16.4586409920044,46.5167256970659 16.4585165276532,46.5167450984998 16.4582511367876,46.5168603152718 16.4581394118453,46.5169320961989 16.4580352145141,46.5169978430397 16.4578096909051,46.5171077820975 16.4575765990818,46.517202792215 16.4574594575846,46.5172280371676 16.4573298146945,46.517268286318 16.4568923780182,46.5173393577511 16.45673025839,46.5172958082452 16.4565877460044,46.5172836781392 16.4565434292619,46.5172932395502 16.4564602325929,46.5173012267994 16.4563871980511,46.5173090845758 16.4562355304649,46.5173347679508 16.4561252369908,46.5173431899594 16.4558802309898,46.517363133586 16.45565003552,46.5173471701794 16.455559355924,46.5173433760093 16.4554671885524,46.5173326730304 16.4553749437693,46.517323950297 16.4551098269263,46.517352155509 16.455088513763,46.5173495476556 16.4548972575981,46.5172885522531 16.454759762125,46.51730811537 16.4542633624478,46.5173333224312 16.4541299003336,46.5173379884907 16.4540208013437,46.5173423446414 16.4537583841592,46.5173496394106 16.4534941940394,46.5173539871085 16.4533276923371,46.5173610514779 16.4531914693111,46.5173697101965 16.4531080873301,46.5173707696889 16.4530435190452,46.517373569418 16.4529660549978,46.5173766229203 16.4528443422008,46.5173820379018 16.4527252110911,46.5173865202616 16.4524912242209,46.5173945306111 16.4523662287073,46.5173941387423 16.4522314912718,46.5174047567848 16.4521539208012,46.5174087107856 16.4519002056518,46.5174149011244 16.451849810404,46.51741158224 16.4517066072708,46.5174322038091 16.4515715266497,46.5174446248248 16.4515506663402,46.5174590148471 16.4509433082849,46.5179181903131 16.4497919793859,46.5172226604224 16.4482939058575,46.5163122543 16.4467722671378,46.5159212521529 16.4463203905752,46.5158460850137 16.4451462822997,46.5156588555918 16.4443808141039,46.5155085596421 16.4437482810937,46.5153435348162 16.4428652386422,46.5151674521137 16.4422222715992,46.5150510441918 16.4419710220869,46.5150170548983 16.4412189121315,46.5149375554979 16.4406237194083,46.5150062341157 16.4408146276255,46.5154789594036 16.4408332046861,46.5155654562031 16.4409397554687,46.5162486036185 16.4410412840682,46.5172691106798 16.4411892549883,46.5186361353957 16.4412494537406,46.5195029546423 16.4413661936413,46.5207481933927</coordinates></LinearRing></outerBoundaryIs></Polygon></MultiGeometry>
  </Placemark>
</Folder>
</Document></kml>
