<?xml version="1.0" encoding="utf-8" ?>
<kml xmlns="http://www.opengis.net/kml/2.2">
<Document id="root_doc">
<Schema name="pregledovalniklovisca" id="pregledovalniklovisca">
	<SimpleField name="lov" type="string"></SimpleField>
	<SimpleField name="lov_naziv" type="string"></SimpleField>
	<SimpleField name="luo" type="string"></SimpleField>
	<SimpleField name="luo_naziv" type="string"></SimpleField>
	<SimpleField name="povrsina" type="float"></SimpleField>
</Schema>
<Folder><name>pregledovalniklovisca</name>
  <Placemark id="pregledovalniklovisca.1">
	<Style><LineStyle><color>ff0000ff</color></LineStyle><PolyStyle><fill>0</fill></PolyStyle></Style>
	<ExtendedData><SchemaData schemaUrl="#pregledovalniklovisca">
		<SimpleData name="lov">1503</SimpleData>
		<SimpleData name="lov_naziv">DESTRNIK</SimpleData>
		<SimpleData name="luo">15</SimpleData>
		<SimpleData name="luo_naziv">Ptujsko Ormoško</SimpleData>
		<SimpleData name="povrsina">3528.79</SimpleData>
	</SchemaData></ExtendedData>
      <MultiGeometry><Polygon><outerBoundaryIs><LinearRing><coordinates>15.8162383214252,46.4843073501802 15.8159210774679,46.4845975153828 15.8155975420603,46.4847981151948 15.8150344780351,46.4851471610651 15.8147528788718,46.4853217284139 15.8128778844075,46.4850305240595 15.8104348602847,46.4880258418673 15.8104254435411,46.4882688253752 15.8099365262946,46.4886771499752 15.8096904421429,46.4892635119931 15.8094836606884,46.4897599859837 15.8097490919828,46.4900819960173 15.8114863417233,46.4908579929862 15.8115240313037,46.4911849433164 15.8108078629563,46.4920807168842 15.8106432126666,46.49239677589 15.8098166635345,46.4928704705504 15.8089444509676,46.4946670277325 15.8095988204208,46.4957297906947 15.8097454549491,46.496191193606 15.8099691787795,46.496650071079 15.8099517637639,46.4967845181901 15.8104081687477,46.4967259542689 15.8114248950594,46.4967636402625 15.8119846284638,46.4967326771967 15.8123384845074,46.4968741149899 15.8128207302283,46.4968886826787 15.8134801139803,46.4965511093051 15.8138013436046,46.4962519262629 15.8140300438819,46.4958634318262 15.8142592820746,46.4955199176089 15.8145939304245,46.4952476274707 15.8151753965519,46.4949285929364 15.8156405632011,46.4946732732398 15.8158990627273,46.4945364758806 15.816636590554,46.4950710267911 15.8173115153002,46.4949042614833 15.8177322559213,46.4951621644647 15.8181011661142,46.4954384304496 15.8182740134214,46.4956711135637 15.8183954309985,46.4959490589836 15.8186458985999,46.4961451984627 15.8188443979452,46.4963507063623 15.8192141276206,46.4966719473714 15.8194143878224,46.4969944014221 15.819677214474,46.4971454655441 15.8201895750667,46.4974296934815 15.8206993679302,46.4975429063862 15.8214470295985,46.4978794214562 15.8217617017303,46.4980121145958 15.8220770532974,46.4981897865025 15.8225575490949,46.4980873659675 15.823027459701,46.4981469638515 15.8233422729624,46.4982886485278 15.8239584685376,46.4985450313519 15.824610215693,46.4985673250252 15.8252247884084,46.4987158398523 15.8255013469389,46.4989117759989 15.8262692506009,46.4988612465794 15.8268303584242,46.4989200800053 15.8274171131391,46.4989518244056 15.827706298051,46.4991206731672 15.8282148938798,46.499152979065 15.828670562545,46.4991316847631 15.8287316913988,46.499725037421 15.8293207810933,46.4999097024708 15.8297099247899,46.5002253704993 15.830009688047,46.5006603549691 15.8303422109816,46.5010987895298 15.830675157089,46.5015732076187 15.8308350500382,46.5018059656357 15.8314572176294,46.5024491312037 15.8318395487168,46.5027432488388 15.8322081697198,46.5029924804532 15.8327343649021,46.5033215358082 15.8331243200032,46.5037812264676 15.8340796761918,46.5035365655933 15.8345348281973,46.5034792641458 15.8349961202512,46.5029720711915 15.8352411685728,46.5028083378054 15.8355785121459,46.5027159048451 15.8360588836524,46.5026044316827 15.8363703071278,46.5025211827465 15.8369791571242,46.5022918064594 15.8371016529065,46.5026327921481 15.8373553951077,46.5030357951829 15.8374632093411,46.5032689251575 15.837545381757,46.5035291435153 15.8375363604091,46.5037901195878 15.8377097317546,46.5040497599206 15.8377266291816,46.5043015492533 15.8379638998676,46.5044797490829 15.838175660798,46.5046851260463 15.8384550623127,46.5050609477869 15.8386689107335,46.5054102588287 15.8389968346337,46.5055518041575 15.839323790988,46.5056303773853 15.8402788334769,46.5059823411278 15.8409256038784,46.5064192452379 15.8412941522924,46.506659451096 15.8417540438714,46.5069079804495 15.8423561430702,46.5070833956055 15.8427208093843,46.507071712458 15.8430979479125,46.507023948643 15.8438149465022,46.5070456519107 15.8446051018536,46.5067429223472 15.8454203292712,46.5063770237282 15.8459347831507,46.5059503659384 15.8465907161685,46.5053967021519 15.8473114670858,46.5056611819172 15.8473054276786,46.5061110713914 15.847025079012,46.5065090112161 15.8469641277882,46.5067793693828 15.8470354197599,46.5071747047308 15.8471949401271,46.5077385280986 15.8477367507777,46.5068170104934 15.8485739529527,46.5064075614803 15.8489230636662,46.5062340298621 15.8495187325294,46.5059956878905 15.849966876969,46.5054885323362 15.8500542892053,46.5052449665279 15.8503483288859,46.5048829049695 15.850588578442,46.5044222767973 15.8507271160612,46.5041153519232 15.8508874972181,46.5035383574077 15.8510468923805,46.5028983916465 15.851180649949,46.5022856070895 15.8513795519661,46.5016813343122 15.8517387006931,46.5013187842643 15.8519780697735,46.5007951811066 15.8522051100255,46.5003166537793 15.8525114332144,46.499909510276 15.8528303671879,46.4994842780791 15.8531383696119,46.4991850831801 15.8534334826574,46.4988949805177 15.853728170162,46.4985778895332 15.853992718388,46.4982498666474 15.8540860152767,46.4981343694582 15.8543819630918,46.4978982395019 15.8547416417389,46.4975806603389 15.8551396794127,46.4972088117791 15.8555377102647,46.496836871888 15.8559220051578,46.4964201387958 15.8567440666743,46.4965039530283 15.8567238071222,46.4968729780954 15.8567164324051,46.4972329097137 15.857113866979,46.497652786774 15.8570730582111,46.4983638483179 15.8570019656014,46.4988142263879 15.8571677584667,46.4994157767163 15.8571671662969,46.4994278370081 15.8571477837286,46.4998027933514 15.8572299044353,46.5000540912354 15.857533343641,46.5002946430426 15.8576031470078,46.5005910175091 15.8579296750493,46.5006425501069 15.8587904597994,46.5006990684343 15.8594688655316,46.5007569509114 15.8598688791777,46.5005110279031 15.8604236530116,46.5001649733973 15.861017216668,46.4998006303588 15.8616113535592,46.4996462676831 15.8620161797774,46.4995411024339 15.8628116740868,46.4995890856486 15.8633850001863,46.499593756104 15.8639971220431,46.4995801368123 15.8644264393304,46.4995409052789 15.8645767461022,46.4995958199124 15.8647324270121,46.4996527630054 15.8647325572812,46.4996527620205 15.8650292428678,46.4997612704554 15.8652927772377,46.4999481220717 15.8654640074257,46.5001720190697 15.8655322594143,46.5002612017418 15.865878103657,46.5007084293036 15.8660772251984,46.5009408411997 15.8663676822373,46.5011815578341 15.8664867407806,46.5012619879418 15.8667759596777,46.5014573685132 15.86684884508,46.5014771491407 15.8679013193836,46.5017636362553 15.868326210781,46.5014455196721 15.8685402050787,46.5014165442562 15.8691712651492,46.5013310481459 15.8696159144953,46.5014356311052 15.869958355705,46.5016669464512 15.8710523662045,46.5016405361921 15.871574898389,46.5017265245624 15.8721770352339,46.5019018725795 15.8725558379766,46.5019619616863 15.8731810093966,46.5019481037363 15.8732273576664,46.501587873721 15.8731324217529,46.5013546789761 15.8732320309731,46.5010660175605 15.8735676224795,46.5005272393064 15.8737717406196,46.5001993623228 15.8739956178077,46.5000314789127 15.8745972059216,46.5000839206755 15.8749744096424,46.5000449580641 15.8753403197983,46.5001141334949 15.8756533386793,46.5002565876486 15.8759402805299,46.5003490379185 15.8773891045141,46.5015743776794 15.8780106002645,46.5028782980546 15.8785406552364,46.5042467052224 15.8798018557966,46.5050989138047 15.8800209702987,46.5051525590532 15.8804526765314,46.5050494610154 15.8814591050796,46.5047034257415 15.8820046971362,46.5044722279105 15.8820977413324,46.5040541441079 15.8826841037184,46.5038630246528 15.8832826719047,46.5038224160663 15.8832813988626,46.503816218035 15.8836167932532,46.5038252334106 15.886599008387,46.5031778600388 15.8869488634196,46.5031228755289 15.8882689483492,46.5028961654817 15.8886369733991,46.5028770223046 15.8889073010976,46.5030031275586 15.8891445541061,46.5032102814948 15.8894409015024,46.5032459442588 15.8896538010733,46.5032299833635 15.8901997435417,46.5033824615716 15.8906045461786,46.50374026598 15.8909659613826,46.5039702010619 15.8914272262371,46.5044178016141 15.8918152497636,46.5050393416756 15.8920581225018,46.5051347941474 15.8922790992936,46.5051900208353 15.8924920055374,46.5051740546146 15.8926946516367,46.5051282983652 15.8932650627229,46.5049115180322 15.8937294496079,46.5047131972939 15.8939867420149,46.50446413158 15.8942463701991,46.5043576479231 15.8946674801653,46.5044445936195 15.8949449154772,46.5045896124507 15.8953745960033,46.5047857108744 15.8957969582393,46.5049485764596 15.8962650826279,46.5049781976492 15.8968029840944,46.5050594518622 15.8972294065722,46.5055082918196 15.897744683578,46.5062726738164 15.8981523455575,46.5067918333199 15.8989094425191,46.5072370800915 15.9000483278509,46.505518442636 15.9004043683019,46.5046858560019 15.9007656685088,46.5041723468978 15.9012780041498,46.5030694288766 15.9017320708876,46.5030297723176 15.9022633741845,46.5028546410673 15.9026787666079,46.5027613943597 15.9032885255689,46.5026035429558 15.9039567490786,46.5023336645883 15.9045631071882,46.5023640485489 15.9050899241363,46.5025083298225 15.9054504791113,46.5026440284101 15.9059383201297,46.5027947322164 15.9063270264511,46.5028601191502 15.9066564096455,46.5028916968232 15.9074151120822,46.5029313842986 15.9080868109731,46.5029729271439 15.9087934467857,46.5031562496038 15.9091984696127,46.5030745776463 15.9095683784397,46.5031374938865 15.9102272441206,46.5032842100853 15.9105044731268,46.5035474122132 15.9108469065706,46.5036266474985 15.9114529397168,46.5036832684877 15.9110469503354,46.5041439057796 15.9108570246234,46.5043650329177 15.911768256181,46.5045718987664 15.9128231697217,46.5045427015397 15.914135145694,46.5045439191375 15.9145764107294,46.5047274371498 15.9150436932414,46.5048694495169 15.9156507426846,46.5050786276312 15.9161410800632,46.5051810444971 15.9166536935335,46.505306312806 15.9178449264357,46.5056341434105 15.9186803521867,46.50586306508 15.9192998791627,46.5059993386365 15.9200618989131,46.5062711256364 15.9207120468425,46.5065304027822 15.9208834903821,46.5063587111719 15.9213684236202,46.5065641636674 15.9227825322768,46.505467736723 15.9263844777438,46.5025665365461 15.9281976335805,46.5004775084261 15.9290957998512,46.4989384011995 15.9294141685185,46.4983165567974 15.9292236511519,46.4986885978241 15.9296061335254,46.4977926356978 15.9299258273902,46.4966608336125 15.9300993004715,46.495144701519 15.9303571750633,46.493903278064 15.9305586705602,46.4928550266224 15.9307185288661,46.4917107563829 15.9310338064671,46.4903311205247 15.9314075698896,46.4888684153517 15.9318692492382,46.4878869580038 15.9332525924819,46.4879107664782 15.9319372629976,46.4878881132387 15.9326470769276,46.4863132618652 15.9333231548761,46.4854946036164 15.9332991488513,46.4854694281544 15.9337089094559,46.4850273929767 15.9341841088662,46.4844519370206 15.9342416907022,46.4844526362743 15.9343093411794,46.4843795683199 15.9354797266016,46.482995178852 15.9349918226729,46.4827363679471 15.9344754799264,46.4823377049384 15.9339112837051,46.481904972057 15.9333728364792,46.4814542122839 15.9327268681258,46.4810520106773 15.9325087413119,46.4808629642062 15.9320989418914,46.4808896968242 15.9317420326367,46.4808180203833 15.9314180627889,46.4805319473084 15.9311424989917,46.4803118766644 15.9307110561478,46.4800849767164 15.930114128985,46.4799676543154 15.9297939403296,46.4797651274782 15.9290396601936,46.4793016165671 15.9282061003195,46.4788163417114 15.9276632031726,46.4792409039013 15.9273444936177,46.4793162738472 15.926974438354,46.4791367257631 15.9267393534888,46.4789597716303 15.9264618406882,46.478730708515 15.926305414197,46.4784305778557 15.9262378385765,46.4781936057511 15.9261165233706,46.4777060539345 15.9258408268895,46.4774376578983 15.9251545460699,46.4768484231752 15.924611135738,46.4762896086316 15.9248699361092,46.4759996136634 15.9252651606758,46.4753685196899 15.92497403648,46.4750955678669 15.924213274345,46.4743890695677 15.9238344591992,46.4744587975843 15.9230119016718,46.4744322402763 15.9223251120719,46.4743945956093 15.9215821552291,46.4744933433793 15.9208846891282,46.4743091257703 15.9197191598621,46.474006400326 15.9187970439859,46.4737663958378 15.9179659048875,46.4735617315098 15.9169099667739,46.4733002934511 15.915856051809,46.4730191261076 15.9151736927963,46.4728482481 15.9147820862796,46.4727919112086 15.9143654652269,46.4727503480344 15.913985951699,46.4726850947181 15.9129553675135,46.4723802321265 15.9124720704271,46.4721979420997 15.9114536262153,46.4721277896226 15.9117272304353,46.4715516030726 15.9118083500394,46.471301740693 15.9116762741539,46.4710968532833 15.9114513460153,46.4708836188123 15.9110936242728,46.4705157944988 15.911040040979,46.4702778019852 15.910882767482,46.4699749575373 15.9106824459031,46.4696751547373 15.910607128488,46.4693986481287 15.9108364867907,46.4691521044334 15.9113637976531,46.4688528033666 15.9114455761291,46.4685957383087 15.9108551303452,46.468326125018 15.9102610406927,46.4679781741442 15.9097539874033,46.4677347922997 15.9092423477498,46.4675050300745 15.908927194299,46.4673455898766 15.9082382320925,46.467414042045 15.9077695456572,46.4674177631363 15.9073490503217,46.4671872689544 15.9070315132909,46.4668838910472 15.9065941215407,46.4664195170791 15.9057556948613,46.4661113565577 15.9056476656178,46.4658782910265 15.9054875626918,46.4656456376861 15.9051802303964,46.4651712314531 15.9049516118658,46.4647322793747 15.9045608152044,46.4639346410332 15.9040001368946,46.4638850924597 15.9038354516603,46.4633826539192 15.9033525906877,46.4633144932185 15.9023386460734,46.4634034703608 15.9018040128066,46.4633537954936 15.9012291370172,46.4632323695485 15.9004329565821,46.4631126833157 15.8997552773234,46.4630731219866 15.8991913532925,46.4628256420925 15.8986919319545,46.462541664693 15.8985518537664,46.4619489654449 15.8984536256437,46.4615178826521 15.8987440024549,46.4609667859335 15.8989155879468,46.4603176555033 15.8991806598228,46.4598117413097 15.8994106929628,46.459558017252 15.899960947132,46.458977882253 15.9002308957458,46.4587688272631 15.9007697483063,46.4582877447507 15.9010751183557,46.4581034203339 15.9007115039642,46.4577635898727 15.9001734792961,46.4568727168249 15.8997501667029,46.4562666827101 15.8995501831731,46.4558303729695 15.8992452025968,46.455737403463 15.8987220782932,46.4557416055532 15.8982782687999,46.45557378986 15.8981091521309,46.4553275212144 15.8980491376904,46.4550423384105 15.8977971628285,46.4548157035269 15.8973832764793,46.4547808946997 15.896970640258,46.4548221890164 15.8963529994204,46.4549126828126 15.8957649133373,46.4547733388745 15.8949807063852,46.4545816349551 15.8946029461091,46.4545665966123 15.8942618779802,46.4544073184414 15.8940376611994,46.454229131869 15.8936185011853,46.4540704622265 15.8931516922792,46.4541820725856 15.8927829816987,46.4539240390913 15.8922734511761,46.4538110548582 15.8913718338732,46.4536022481952 15.8909319362136,46.4537676216297 15.8905424864268,46.4538336337623 15.8901543549254,46.4539806071262 15.8896723259784,46.4539573670452 15.8892413360709,46.4538707492289 15.8885220958983,46.4536694088929 15.8882208296571,46.4535547883605 15.887738220441,46.4534955567131 15.8865650457297,46.4533967835307 15.885965589267,46.4533564441181 15.8854951250207,46.4532431270354 15.884632733631,46.4530428705273 15.884369360971,46.4528559708744 15.8840514528469,46.4525165435075 15.883556346568,46.4516837403221 15.8831855165537,46.4512907374427 15.8834927925232,46.4509734696366 15.8838891489565,46.4505385517406 15.8843777537303,46.4501658980069 15.8849581835718,46.4498374265988 15.8852019699021,46.4496196122284 15.8848937396612,46.4490731814202 15.8843108423222,46.4492487228605 15.8834690969937,46.4495161411336 15.8827694904463,46.4497194772147 15.8822471496645,46.4496155441337 15.8818824415519,46.4496003630911 15.8814276451022,46.4496488541536 15.8809913747771,46.4500390861305 15.880413803081,46.45053845807 15.8799766490964,46.4508747110074 15.8796175815767,46.4512103616828 15.8792057242673,46.4515014321451 15.8788567691351,46.4516570630059 15.8784411436585,46.4517142381155 15.8779060653969,46.4516283770335 15.8771644756633,46.4516520613492 15.8764363350267,46.4517027187029 15.8760458578555,46.4516967135031 15.8754662176693,46.4520790253866 15.8753542668462,46.4524037736353 15.8751040415636,46.4530354772165 15.8743437424877,46.4535181323144 15.8738571186869,46.4532069573722 15.8731334855577,46.4527266474646 15.8726240056131,46.452613575302 15.8722587066228,46.4525624701184 15.8715787351354,46.4523697206922 15.8710003470963,46.4528329731389 15.8705496574456,46.4531333050208 15.8703468507758,46.4534767338069 15.8700669487377,46.4538837276105 15.869643722532,46.4542828136655 15.8692692624488,46.4544745970084 15.8688162735058,46.4546399847895 15.8685332075569,46.4548490653115 15.8681746039396,46.4552117571295 15.8679607594812,46.4556812229821 15.8676271907549,46.4559896512084 15.8673342391659,46.4563967371228 15.8668431778237,46.4566253845603 15.8662502488653,46.4569897560984 15.8659540015607,46.4571899330037 15.8653992683398,46.4575090260104 15.864999164772,46.4577279801914 15.8645459934318,46.4578843553438 15.8638846913679,46.458051387983 15.8635867228489,46.4581436080667 15.8630156797975,46.4582558822879 15.8626097362788,46.4581059963672 15.8617818053588,46.4581503852411 15.8610229278549,46.4586195350149 15.8605123020972,46.459047135447 15.8607501141537,46.4595484563183 15.8613726278493,46.4601396385707 15.8614738653944,46.4604830999827 15.8608268482995,46.4607660680932 15.8589960436051,46.4613094851242 15.8582199127781,46.4619111808905 15.8580135209996,46.4621908256391 15.8580027046488,46.4627205580011 15.8575865064629,46.4630547678612 15.8573584748118,46.4631755973191 15.8569781273903,46.4633638753652 15.8562769621763,46.4638590117407 15.8560121476037,46.4640756616033 15.8548696229482,46.4642822305275 15.8542219234986,46.4644850032175 15.8534840835367,46.4647604206241 15.8524879687311,46.4651727130842 15.8522166813191,46.4653096892941 15.8519091429996,46.4656268740422 15.8516672569078,46.4659795568939 15.851364049543,46.4665666165671 15.851107033438,46.4667844564677 15.8506114675799,46.4667342515534 15.8498671382667,46.4665958337979 15.8490428043868,46.4661268272091 15.8483513679304,46.4657129699372 15.847674929614,46.4655013388693 15.8474942367625,46.4655703351115 15.8468919650104,46.4658001702864 15.8459764482392,46.4661497300512 15.8459094431607,46.466220221984 15.8455893951947,46.4663376598016 15.8452946642062,46.4665261654911 15.8450481023282,46.4668237174802 15.8444678061102,46.4677351666078 15.8440947688605,46.4691003288956 15.8436022297098,46.4701571460155 15.8436301085837,46.4702759700134 15.8435218873647,46.4703762745043 15.8432890388597,46.4709564054611 15.8427277736396,46.4713507401531 15.842128528455,46.4722633958973 15.8407356040762,46.4728489085534 15.8403076699866,46.4730416191483 15.8403247427071,46.4729579120921 15.8398619197798,46.4731091315306 15.8390702747403,46.473598617879 15.8389595588442,46.4737070335357 15.838833428725,46.4738377845881 15.8385751660112,46.4740986105212 15.8383730312016,46.4742833601467 15.8380309810244,46.4749566789833 15.8377920369016,46.4755519577606 15.8381002954437,46.4765026551252 15.8382101606932,46.477177969914 15.8379254925403,46.4778407909548 15.8370541515969,46.4786675120835 15.8364256283896,46.4796101308 15.8355469237337,46.480554663857 15.8352417705289,46.4816182607925 15.835142525512,46.4821373886537 15.8348658665389,46.4827318562946 15.8342273189177,46.4830326945417 15.8334821764319,46.4832622406676 15.8331453610527,46.4833816547711 15.8326300559397,46.4837452844683 15.83205114309,46.4842173376951 15.8316652413342,46.4845350368764 15.8314857919711,46.4847252770553 15.8310484741904,46.4850883325306 15.8307400174651,46.4853604811564 15.8304189446841,46.4856597113089 15.8301632556536,46.4859675528707 15.8297647171231,46.4863123280178 15.8291606613122,46.4868475272294 15.8281753446709,46.4871515645935 15.8275241420544,46.4871562781126 15.8268597802619,46.4871521761066 15.8260136250761,46.4871852810347 15.8249067152406,46.4872022668335 15.8238676414948,46.4873986917041 15.823204492716,46.4874665350867 15.822892998616,46.4875407520192 15.8224446178224,46.4871751034238 15.8220735791022,46.4867639125619 15.8218326440757,46.4863337918318 15.8214890123923,46.4860033743847 15.8210155537168,46.4857008786859 15.8206722015661,46.4853884505945 15.8203810842744,46.4850847336879 15.8196924558172,46.4851976341565 15.8191209021926,46.485300695136 15.8184585854926,46.4854313935683 15.818024623814,46.4851555935914 15.8175753517611,46.4847269536974 15.8172169825434,46.4842797586454 15.8169527436979,46.4840297324954 15.8167318039203,46.4838181732833 15.8167226859091,46.4838094214079 15.8167174224895,46.4838044410125 15.8162383214252,46.4843073501802</coordinates></LinearRing></outerBoundaryIs></Polygon></MultiGeometry>
  </Placemark>
</Folder>
</Document></kml>
