<?xml version="1.0" encoding="utf-8" ?>
<kml xmlns="http://www.opengis.net/kml/2.2">
<Document id="root_doc">
<Schema name="pregledovalniklovisca" id="pregledovalniklovisca">
	<SimpleField name="lov" type="string"></SimpleField>
	<SimpleField name="lov_naziv" type="string"></SimpleField>
	<SimpleField name="luo" type="string"></SimpleField>
	<SimpleField name="luo_naziv" type="string"></SimpleField>
	<SimpleField name="povrsina" type="float"></SimpleField>
</Schema>
<Folder><name>pregledovalniklovisca</name>
  <Placemark id="pregledovalniklovisca.1">
	<Style><LineStyle><color>ff0000ff</color></LineStyle><PolyStyle><fill>0</fill></PolyStyle></Style>
	<ExtendedData><SchemaData schemaUrl="#pregledovalniklovisca">
		<SimpleData name="lov">1517</SimpleData>
		<SimpleData name="lov_naziv">JOŽE LACKO-PTUJ</SimpleData>
		<SimpleData name="luo">15</SimpleData>
		<SimpleData name="luo_naziv">Ptujsko Ormoško</SimpleData>
		<SimpleData name="povrsina">5359.97</SimpleData>
	</SchemaData></ExtendedData>
      <MultiGeometry><Polygon><outerBoundaryIs><LinearRing><coordinates>15.8049587985951,46.4603964074696 15.8058100532667,46.4616715798713 15.8063982422178,46.4625338411334 15.8071354980534,46.463614393112 15.8078978141737,46.4650491531361 15.8087550571678,46.4650750335387 15.809405529138,46.4652143831294 15.8098948689003,46.4654189284903 15.8099633805689,46.4657278485128 15.8100479488803,46.4657761929854 15.8099476978331,46.4678658150458 15.8094625810074,46.4690543275855 15.8093696089876,46.4702313363124 15.8092157601451,46.4727044251807 15.808758304235,46.4730917403855 15.80843729748,46.4733020191803 15.8082084993068,46.4734956309462 15.8079167499429,46.4737297233375 15.8073351742369,46.4741259167659 15.8070520780729,46.4744525243382 15.8067828199736,46.4746847456616 15.806258499407,46.4750968140951 15.8057769875351,46.4753305291127 15.8054133342892,46.4763591012108 15.8053717500999,46.4766211148939 15.8052549740802,46.4769151472518 15.8048583359259,46.477765990185 15.8048096602368,46.4780860837192 15.8048410418914,46.4784478994534 15.8047080437191,46.4786579239985 15.8047990398737,46.4788761790698 15.8048649959144,46.4792421599493 15.8047637792079,46.4795673914892 15.8046497408937,46.4798004046237 15.8044774930969,46.4801046329255 15.8044569493779,46.480274819394 15.804530194525,46.4804373285439 15.8046086626226,46.4805477086805 15.8047048235338,46.4806920626385 15.8054895644175,46.4804835678903 15.8063346862608,46.4802368549635 15.8072372571871,46.4797802817751 15.8084539143896,46.4790492345266 15.8089304822591,46.4784804976068 15.8096413023471,46.4773656061398 15.8104501100256,46.4767212752099 15.8112758686215,46.4762023255019 15.8120888433942,46.4758405470706 15.8132460468291,46.4751936318716 15.8138215351354,46.4751686654382 15.8142317546499,46.4752389807939 15.8147941940374,46.4753605725187 15.8152076995497,46.4756507461257 15.8156504551962,46.4758674745575 15.8161520424679,46.4759686206626 15.816608968622,46.4761223556631 15.8177001925912,46.4761249955297 15.8183813411126,46.4760677614032 15.8183250549462,46.4763612843617 15.8181512770179,46.4768964958022 15.8181611619343,46.4775559904421 15.8181691647772,46.4780899012685 15.8184185128038,46.4785383238255 15.8192921628829,46.4791916339788 15.8198137668688,46.479617139951 15.8204704899595,46.4798729818193 15.8205965000058,46.4798430176956 15.8202998440389,46.4801826206763 15.8194220555888,46.4810425417967 15.818482367265,46.4819888196921 15.8172199395078,46.4832769402126 15.8167174224895,46.4838044410125 15.8167226859091,46.4838094214079 15.8167318039203,46.4838181732833 15.8169527436979,46.4840297324954 15.8172169825434,46.4842797586454 15.8175753517611,46.4847269536974 15.818024623814,46.4851555935914 15.8184585854926,46.4854313935683 15.8191209021926,46.485300695136 15.8196924558172,46.4851976341565 15.8203810842744,46.4850847336879 15.8206722015661,46.4853884505945 15.8210155537168,46.4857008786859 15.8214890123923,46.4860033743847 15.8218326440757,46.4863337918318 15.8220735791022,46.4867639125619 15.8224446178224,46.4871751034238 15.822892998616,46.4875407520192 15.823204492716,46.4874665350867 15.8238676414948,46.4873986917041 15.8249067152406,46.4872022668335 15.8260136250761,46.4871852810347 15.8268597802619,46.4871521761066 15.8275241420544,46.4871562781126 15.8281753446709,46.4871515645935 15.8291606613122,46.4868475272294 15.8297647171231,46.4863123280178 15.8301632556536,46.4859675528707 15.8304189446841,46.4856597113089 15.8307400174651,46.4853604811564 15.8310484741904,46.4850883325306 15.8314857919711,46.4847252770553 15.8316652413342,46.4845350368764 15.83205114309,46.4842173376951 15.8326300559397,46.4837452844683 15.8331453610527,46.4833816547711 15.8334821764319,46.4832622406676 15.8342273189177,46.4830326945417 15.8348658665389,46.4827318562946 15.835142525512,46.4821373886537 15.8352417705289,46.4816182607925 15.8355469237337,46.480554663857 15.8364256283896,46.4796101308 15.8370541515969,46.4786675120835 15.8379254925403,46.4778407909548 15.8382101606932,46.477177969914 15.8381002954437,46.4765026551252 15.8377920369016,46.4755519577606 15.8380309810244,46.4749566789833 15.8383730312016,46.4742833601467 15.8385751660112,46.4740986105212 15.838833428725,46.4738377845881 15.8389595588442,46.4737070335357 15.8390702747403,46.473598617879 15.8398619197798,46.4731091315306 15.8403247427071,46.4729579120921 15.8403076699866,46.4730416191483 15.8407356040762,46.4728489085534 15.842128528455,46.4722633958973 15.8427277736396,46.4713507401531 15.8432890388597,46.4709564054611 15.8435218873647,46.4703762745043 15.8436301085837,46.4702759700134 15.8436022297098,46.4701571460155 15.8440947688605,46.4691003288956 15.8444678061102,46.4677351666078 15.8450481023282,46.4668237174802 15.8452946642062,46.4665261654911 15.8455893951947,46.4663376598016 15.8459094431607,46.466220221984 15.8459764482392,46.4661497300512 15.8468919650104,46.4658001702864 15.8474942367625,46.4655703351115 15.847674929614,46.4655013388693 15.8483513679304,46.4657129699372 15.8490428043868,46.4661268272091 15.8498671382667,46.4665958337979 15.8506114675799,46.4667342515534 15.851107033438,46.4667844564677 15.851364049543,46.4665666165671 15.8516672569078,46.4659795568939 15.8519091429996,46.4656268740422 15.8522166813191,46.4653096892941 15.8524879687311,46.4651727130842 15.8534840835367,46.4647604206241 15.8542219234986,46.4644850032175 15.8548696229482,46.4642822305275 15.8560121476037,46.4640756616033 15.8562769621763,46.4638590117407 15.8569781273903,46.4633638753652 15.8573584748118,46.4631755973191 15.8575865064629,46.4630547678612 15.8580027046488,46.4627205580011 15.8580135209996,46.4621908256391 15.8582199127781,46.4619111808905 15.8589960436051,46.4613094851242 15.8608268482995,46.4607660680932 15.8614738653944,46.4604830999827 15.8613726278493,46.4601396385707 15.8607501141537,46.4595484563183 15.8605123020972,46.459047135447 15.8610229278549,46.4586195350149 15.8617818053588,46.4581503852411 15.8626097362788,46.4581059963672 15.8630156797975,46.4582558822879 15.8635867228489,46.4581436080667 15.8638846913679,46.458051387983 15.8645459934318,46.4578843553438 15.864999164772,46.4577279801914 15.8653992683398,46.4575090260104 15.8659540015607,46.4571899330037 15.8662502488653,46.4569897560984 15.8668431778237,46.4566253845603 15.8673342391659,46.4563967371228 15.8676271907549,46.4559896512084 15.8679607594812,46.4556812229821 15.8681746039396,46.4552117571295 15.8685332075569,46.4548490653115 15.8688162735058,46.4546399847895 15.8692692624488,46.4544745970084 15.869643722532,46.4542828136655 15.8700669487377,46.4538837276105 15.8703468507758,46.4534767338069 15.8705496574456,46.4531333050208 15.8710003470963,46.4528329731389 15.8715787351354,46.4523697206922 15.8722587066228,46.4525624701184 15.8726240056131,46.452613575302 15.8731334855577,46.4527266474646 15.8738571186869,46.4532069573722 15.8743437424877,46.4535181323144 15.8751040415636,46.4530354772165 15.8753542668462,46.4524037736353 15.8754662176693,46.4520790253866 15.8760458578555,46.4516967135031 15.8764363350267,46.4517027187029 15.8771644756633,46.4516520613492 15.8779060653969,46.4516283770335 15.8784411436585,46.4517142381155 15.8788567691351,46.4516570630059 15.8792057242673,46.4515014321451 15.8796175815767,46.4512103616828 15.8799766490964,46.4508747110074 15.880413803081,46.45053845807 15.8809913747771,46.4500390861305 15.8814276451022,46.4496488541536 15.8818824415519,46.4496003630911 15.8822471496645,46.4496155441337 15.8827694904463,46.4497194772147 15.8834690969937,46.4495161411336 15.8843108423222,46.4492487228605 15.8848937396612,46.4490731814202 15.8852019699021,46.4496196122284 15.8849581835718,46.4498374265988 15.8843777537303,46.4501658980069 15.8838891489565,46.4505385517406 15.8834927925232,46.4509734696366 15.8831855165537,46.4512907374427 15.883556346568,46.4516837403221 15.8840514528469,46.4525165435075 15.884369360971,46.4528559708744 15.884632733631,46.4530428705273 15.8854951250207,46.4532431270354 15.885965589267,46.4533564441181 15.8865650457297,46.4533967835307 15.887738220441,46.4534955567131 15.8882208296571,46.4535547883605 15.8885220958983,46.4536694088929 15.8892413360709,46.4538707492289 15.8896723259784,46.4539573670452 15.8901543549254,46.4539806071262 15.8905424864268,46.4538336337623 15.8909319362136,46.4537676216297 15.8913718338732,46.4536022481952 15.8922734511761,46.4538110548582 15.8927829816987,46.4539240390913 15.8931516922792,46.4541820725856 15.8936185011853,46.4540704622265 15.8940376611994,46.454229131869 15.8942618779802,46.4544073184414 15.8946029461091,46.4545665966123 15.8949807063852,46.4545816349551 15.8957649133373,46.4547733388745 15.8963529994204,46.4549126828126 15.896970640258,46.4548221890164 15.8973832764793,46.4547808946997 15.8977971628285,46.4548157035269 15.8980491376904,46.4550423384105 15.8981091521309,46.4553275212144 15.8982782687999,46.45557378986 15.8987220782932,46.4557416055532 15.8992452025968,46.455737403463 15.8995501831731,46.4558303729695 15.8997501667029,46.4562666827101 15.9001734792961,46.4568727168249 15.9007115039642,46.4577635898727 15.9010751183557,46.4581034203339 15.9007697483063,46.4582877447507 15.9002308957458,46.4587688272631 15.899960947132,46.458977882253 15.8994106929628,46.459558017252 15.8991806598228,46.4598117413097 15.8989155879468,46.4603176555033 15.8987440024549,46.4609667859335 15.8984536256437,46.4615178826521 15.8985518537664,46.4619489654449 15.8986919319545,46.462541664693 15.8991913532925,46.4628256420925 15.8997552773234,46.4630731219866 15.9004329565821,46.4631126833157 15.9012291370172,46.4632323695485 15.9018040128066,46.4633537954936 15.9023386460734,46.4634034703608 15.9033525906877,46.4633144932185 15.9038354516603,46.4633826539192 15.9040001368946,46.4638850924597 15.9045608152044,46.4639346410332 15.9049516118658,46.4647322793747 15.9051802303964,46.4651712314531 15.9054875626918,46.4656456376861 15.9056476656178,46.4658782910265 15.9057556948613,46.4661113565577 15.9065941215407,46.4664195170791 15.9070315132909,46.4668838910472 15.9073490503217,46.4671872689544 15.9077695456572,46.4674177631363 15.9082382320925,46.467414042045 15.908927194299,46.4673455898766 15.9092423477498,46.4675050300745 15.9097539874033,46.4677347922997 15.9102610406927,46.4679781741442 15.9108551303452,46.468326125018 15.9114455761291,46.4685957383087 15.9113637976531,46.4688528033666 15.9108364867907,46.4691521044334 15.910607128488,46.4693986481287 15.9106824459031,46.4696751547373 15.910882767482,46.4699749575373 15.911040040979,46.4702778019852 15.9110936242728,46.4705157944988 15.9114513460153,46.4708836188123 15.9116762741539,46.4710968532833 15.9118083500394,46.471301740693 15.9117272304353,46.4715516030726 15.9114536262153,46.4721277896226 15.9124720704271,46.4721979420997 15.9129553675135,46.4723802321265 15.913985951699,46.4726850947181 15.9143654652269,46.4727503480344 15.9147820862796,46.4727919112086 15.9151736927963,46.4728482481 15.915856051809,46.4730191261076 15.9169099667739,46.4733002934511 15.9179659048875,46.4735617315098 15.9187970439859,46.4737663958378 15.9197191598621,46.474006400326 15.9208846891282,46.4743091257703 15.9215821552291,46.4744933433793 15.9223251120719,46.4743945956093 15.9230119016718,46.4744322402763 15.9238344591992,46.4744587975843 15.924213274345,46.4743890695677 15.92497403648,46.4750955678669 15.9252651606758,46.4753685196899 15.9248699361092,46.4759996136634 15.924611135738,46.4762896086316 15.9251545460699,46.4768484231752 15.9258408268895,46.4774376578983 15.9261165233706,46.4777060539345 15.9262378385765,46.4781936057511 15.926305414197,46.4784305778557 15.9264618406882,46.478730708515 15.9267393534888,46.4789597716303 15.926974438354,46.4791367257631 15.9273444936177,46.4793162738472 15.9276632031726,46.4792409039013 15.9282061003195,46.4788163417114 15.9290396601936,46.4793016165671 15.9297939403296,46.4797651274782 15.930114128985,46.4799676543154 15.9307110561478,46.4800849767164 15.9311424989917,46.4803118766644 15.9314180627889,46.4805319473084 15.9317420326367,46.4808180203833 15.9320989418914,46.4808896968242 15.9325087413119,46.4808629642062 15.9327268681258,46.4810520106773 15.9333728364792,46.4814542122839 15.9339112837051,46.481904972057 15.9344754799264,46.4823377049384 15.9349918226729,46.4827363679471 15.9354797266016,46.482995178852 15.9364465779618,46.4818514925081 15.9375594575412,46.4794836459155 15.9376676354491,46.4777296137795 15.9364243628705,46.475189884319 15.9353326541442,46.4738738364315 15.9352167428144,46.4737438786354 15.9351865198179,46.4736976115156 15.9348224543583,46.4732587474266 15.934886440656,46.4732387010001 15.9345244536192,46.4726851077462 15.9346707564717,46.4724683450892 15.9342834170266,46.471414457412 15.934527358751,46.4694999805482 15.9359595386687,46.4669382593419 15.9377540859503,46.4639910870676 15.9385854216935,46.4613705568984 15.9405684865878,46.4586767644696 15.9426502415585,46.4563645845896 15.945436163326,46.45477962103 15.9455477181642,46.4547867060731 15.9454350610428,46.4547159314842 15.9477124980607,46.4530714157119 15.9482681588379,46.4527385095359 15.9481235819079,46.4527486152611 15.9444002533011,46.452357554076 15.9418976394532,46.4518031055691 15.9408346542398,46.4505854756644 15.9400016966126,46.4505922352228 15.9406026315767,46.4490544766318 15.9404752878562,46.4465261985347 15.9411297080728,46.4446813784283 15.9419010468981,46.4437553546472 15.943061473717,46.4429028620316 15.9457695296814,46.4409645860105 15.9467639666832,46.4402283197481 15.9480931372577,46.4397192336823 15.9475796992802,46.4376157594748 15.9479114308117,46.4374213739091 15.9490210320166,46.4372972793196 15.9496291821291,46.4369091380897 15.9501735897407,46.4352950501151 15.9510425260154,46.4333007457357 15.9505709994646,46.4321437806246 15.9493129817437,46.4311257810826 15.9467958694207,46.4288841669363 15.9458264978338,46.4264241239648 15.9456195362028,46.425726946249 15.9456946706659,46.4257229960351 15.9444894806732,46.4206083355786 15.9442500363853,46.420634604951 15.9438856628424,46.4206286160071 15.9431453042972,46.420697703741 15.9422362820027,46.4207861705832 15.9409629063803,46.4208776288063 15.9404295838433,46.4208820159334 15.940079146044,46.4209299724461 15.9394377422825,46.4207013204278 15.9389017959193,46.420552772351 15.9382365464043,46.4204502678918 15.9373899616913,46.4203942313197 15.9365693941233,46.420337975404 15.9357081135333,46.4201831692961 15.9347917304331,46.4198487764161 15.9345119606623,46.419464190381 15.9342024923689,46.418863917316 15.9342957953112,46.418233362268 15.9343116917699,46.4176484247365 15.9343173232414,46.4172165207278 15.9342545399085,46.4165872406984 15.9341239593882,46.4157965676057 15.9339578958322,46.4152131161002 15.9338189236571,46.4146924223946 15.9337834138588,46.414143892543 15.9337648797715,46.4138201501975 15.9338471702645,46.413306646515 15.933934527141,46.4130900039501 15.9340168150476,46.4125765001005 15.9339947479672,46.4120458544179 15.9339486679654,46.4116324564312 15.9337079638139,46.4112475488625 15.9331441198613,46.4109822397525 15.9325291794042,46.4107713268549 15.9314472727507,46.4106361915895 15.9308739607975,46.4105778805826 15.9300532422963,46.410503675018 15.9293503372468,46.4104734014474 15.9285294680168,46.410390099149 15.9277985711625,46.41024308165 15.9273149323407,46.4101030517433 15.9264533799512,46.409921096866 15.9257231050981,46.409810139237 15.9247972964528,46.4096736772928 15.9243416563285,46.4096503700542 15.923456387661,46.4096035400789 15.9227013245251,46.4095646497725 15.9225514411664,46.4091609916874 15.922346963417,46.4086049137946 15.9219841871874,46.4086888127557 15.9210638580013,46.4088761703202 15.9206352834858,46.4081418630677 15.9202115617702,46.4076954208379 15.9200517225396,46.4074717805863 15.9194734666389,46.4071165493624 15.9191463853654,46.4070022171047 15.9185428877014,46.4066922592901 15.9182927814143,46.4065143268642 15.9176888606566,46.4061862838366 15.9169031665331,46.4058686922945 15.9166010519496,46.4056911731483 15.9159324096263,46.4053726366274 15.9153442078272,46.4051974052565 15.9150427051782,46.4050559552844 15.9144563135021,46.4049886695578 15.9141355465787,46.4052431518336 15.9139841534014,46.4055232707529 15.9134273266855,46.4053729705162 15.9129295072317,46.4052122997385 15.9126705458805,46.4054221089008 15.9122997979043,46.4056671781022 15.912047637661,46.4058483209348 15.9116690553718,46.4058108530062 15.9107984832066,46.4057205320366 15.9103244386188,46.4057612846095 15.9102308197867,46.4061381067919 15.9099002824079,46.4063071828574 15.9093023589749,46.4066186485313 15.9088600920225,46.4068660745952 15.9085452271074,46.407094402713 15.9081777688161,46.407280861498 15.9077454375202,46.4074849284788 15.9073067795592,46.4076998404766 15.9066301383966,46.4080192941977 15.9063488271547,46.407329650767 15.9063628470769,46.4066134640903 15.9067283637108,46.4064981032499 15.9072366471049,46.4063175496377 15.9078218824523,46.4060717840226 15.9082886317774,46.405834154216 15.9088601808232,46.405501040573 15.9081130868386,46.405350517075 15.9075719838033,46.4053630001675 15.9070066196517,46.4052928102365 15.9066573133451,46.4051536067014 15.906228353631,46.404971577575 15.9067410264606,46.4046642227791 15.9064971715444,46.4044682208377 15.9061901462468,46.404235111276 15.9056887463761,46.4041940982163 15.9052859622441,46.4042178908587 15.9046299111802,46.404262579737 15.9039772615777,46.4043164149602 15.9035151595018,46.4043947425817 15.9031824254112,46.4044234625241 15.9028396327112,46.4044416443845 15.90222781539,46.4043060290764 15.9021733629632,46.4040166634389 15.9020635755059,46.40376300275 15.901777472324,46.4034169831314 15.901418915073,46.4030699144695 15.9012774074877,46.4028640974745 15.901378583882,46.4025952775784 15.9011095207391,46.4023435910484 15.9007388270739,46.4020486188476 15.9003797849627,46.4017185551226 15.8999780555855,46.4013547273534 15.899495326401,46.4009285558849 15.8992184591146,46.4006995088604 15.8988237916843,46.4003688206156 15.8987676463701,46.4003234668558 15.898694379375,46.4003679483534 15.8980582026109,46.3997350544392 15.8980466532596,46.3997271547976 15.8926420072958,46.4022302408275 15.8887754283402,46.405130149388 15.8865987208861,46.4075926253074 15.8854541154905,46.4096885393267 15.8838216406807,46.4108423533821 15.8812435329296,46.4117754498897 15.8790336141317,46.4122163992559 15.8751862168522,46.4134524121693 15.8720927722117,46.4146827279398 15.8717015139425,46.4149947593101 15.871143656823,46.4154396253284 15.8712813787545,46.4158870483118 15.8695492830804,46.4165409109412 15.8664528498799,46.4181845996117 15.8635318614393,46.4199767696683 15.8598037112246,46.4228551187956 15.8576090291888,46.4248712767338 15.8527735601418,46.4271531829392 15.8479198732198,46.4282946470629 15.845344797958,46.4291208330869 15.8430103474456,46.4299121683924 15.8426498007179,46.4301577449199 15.8422747158343,46.4303044602545 15.8402601194412,46.4317549330525 15.8389077074712,46.4329052325557 15.8388955257915,46.4337649858278 15.8385273228059,46.4345747175001 15.8373016712254,46.4357241578376 15.836448385985,46.4363444473673 15.8349145511259,46.4372679514671 15.8343658323637,46.4378860013217 15.8335926172074,46.438768937194 15.8326739384084,46.4400914404432 15.8321803273854,46.4410073285552 15.83166506138,46.4421689897325 15.8311082565776,46.4438099499266 15.8306974177941,46.4441728144043 15.8301375778434,46.4451802235583 15.82894155021,46.4466450610564 15.8277183500692,46.4479872734958 15.8271669232592,46.4484474101196 15.8256192734441,46.4501604620716 15.8240167959059,46.4516106360512 15.8224680360255,46.453271019999 15.821367482489,46.4543491192712 15.8200161874983,46.454830617362 15.8183654565573,46.4555988166284 15.8170548907306,46.4562222301982 15.8158248706157,46.4566969640437 15.8142710807354,46.4572427270762 15.8128465711916,46.4572836301128 15.811378586681,46.4573864530604 15.810086712817,46.4573648414012 15.8085301393369,46.4574990248601 15.8073282095269,46.45753828537 15.8062168083821,46.4576692939351 15.8050186317842,46.4579547506178 15.804400225062,46.4582976576063 15.8038274943991,46.4587016894562 15.8049587985951,46.4603964074696</coordinates></LinearRing></outerBoundaryIs></Polygon></MultiGeometry>
  </Placemark>
</Folder>
</Document></kml>
