<?xml version="1.0" encoding="utf-8" ?>
<kml xmlns="http://www.opengis.net/kml/2.2">
<Document id="root_doc">
<Schema name="pregledovalniklovisca" id="pregledovalniklovisca">
	<SimpleField name="lov" type="string"></SimpleField>
	<SimpleField name="lov_naziv" type="string"></SimpleField>
	<SimpleField name="luo" type="string"></SimpleField>
	<SimpleField name="luo_naziv" type="string"></SimpleField>
	<SimpleField name="povrsina" type="float"></SimpleField>
</Schema>
<Folder><name>pregledovalniklovisca</name>
  <Placemark id="pregledovalniklovisca.1">
	<Style><LineStyle><color>ff0000ff</color></LineStyle><PolyStyle><fill>0</fill></PolyStyle></Style>
	<ExtendedData><SchemaData schemaUrl="#pregledovalniklovisca">
		<SimpleData name="lov">1504</SimpleData>
		<SimpleData name="lov_naziv">JURŠINCI</SimpleData>
		<SimpleData name="luo">15</SimpleData>
		<SimpleData name="luo_naziv">Ptujsko Ormoško</SimpleData>
		<SimpleData name="povrsina">2850.27</SimpleData>
	</SchemaData></ExtendedData>
      <MultiGeometry><Polygon><outerBoundaryIs><LinearRing><coordinates>16.0090416366714,46.5145776502701 16.0096880375694,46.5141771616515 16.0103947136465,46.5137175670397 16.0111139602728,46.5132337451822 16.0112931341342,46.5130574411842 16.0115327102184,46.512891758878 16.0116938663583,46.5128120604156 16.0119538872514,46.5127580279106 16.0130214504421,46.5127656715407 16.0134473981428,46.5127766530275 16.0143954393973,46.5129161578376 16.0142902704977,46.512712860777 16.0137905507247,46.5123647924942 16.0134771750568,46.5122684238528 16.0132403467381,46.5117891876366 16.0127691928677,46.5114557966468 16.0125918814299,46.5112126506861 16.0123886253618,46.5109196213151 16.0120265183523,46.5105912898685 16.0119749908142,46.5105392038447 16.0116102682401,46.5101960493048 16.0111328869296,46.5097504251463 16.0106945994728,46.5093044535109 16.0103389913003,46.5091006664379 16.0099322728742,46.5089514010114 16.0094206603644,46.5087669823277 16.008844574516,46.5086191177106 16.0083346323218,46.5085246485467 16.0076276022911,46.5083419444992 16.0069708631536,46.5080598272847 16.0066819133606,46.5079364141302 16.0065606725981,46.5077215552939 16.0068829278156,46.5075387805294 16.0073389171231,46.5075347653315 16.0078169724481,46.5073146279628 16.0082814967146,46.5070676171292 16.0086414592524,46.5068035327295 16.0090932803328,46.5065746244262 16.0095950442951,46.5062283135827 16.009916244501,46.5059825611104 16.0102621641804,46.5056646140479 16.0110157753885,46.5055499918779 16.0115726321655,46.5053651297693 16.0122848153765,46.5051249087858 16.0128428330001,46.5050030086202 16.0133554129982,46.5045396254294 16.0135833876094,46.5041867254889 16.0136921434714,46.5037359156624 16.0139697127358,46.5032476215206 16.0140044455472,46.5030133936539 16.0138157105906,46.5026731837894 16.0136391690292,46.5022878809214 16.0137702589652,46.5016299437065 16.0137386874012,46.5013333250828 16.0136271170207,46.5009384492955 16.0138976667685,46.5007741065768 16.0140481323055,46.5004578802532 16.0141982985835,46.5001326594415 16.0144421205095,46.4999325647127 16.0145945887091,46.4997242829693 16.0147594126107,46.4994799036839 16.0149748334602,46.4991541028027 16.0149178759132,46.4988937873358 16.0150411064735,46.4985148227772 16.0150721489896,46.498082694718 16.0154976516993,46.497844997335 16.0156444151335,46.4973308691578 16.0154120917385,46.4967481315546 16.0152225704262,46.4963719429174 16.0149577072032,46.4961403734804 16.0143391515314,46.4958039776427 16.014049414642,46.4956356052091 16.0137346318636,46.4955214356314 16.0129980278278,46.4951410941255 16.012576042397,46.4948659260208 16.0122971726456,46.4945805827519 16.0120842640454,46.4943395498082 16.0118805446153,46.4938915056701 16.0116108701223,46.4933990598573 16.0114089927343,46.4930499648144 16.011154518941,46.4926743436091 16.0114940469451,46.4920235618599 16.0117380099632,46.4918324682882 16.0121000257311,46.4916853142466 16.0125513739933,46.4914384018785 16.0129901948963,46.4912185894889 16.0134427049365,46.4910346418601 16.0124849193396,46.4906652534557 16.0120395929907,46.4905342408588 16.0115642175933,46.4901875657464 16.0109355601689,46.490004188566 16.0104112656927,46.4898288829073 16.0101309344661,46.4894625745853 16.0098227262657,46.4889974553722 16.0096723061523,46.4886119149025 16.0094980407373,46.4883525418869 16.0098338259666,46.4881966295007 16.010245085986,46.4878960983698 16.0101360679508,46.4876361499318 16.0097407017381,46.4873877267953 16.0094106224643,46.4871477230297 16.0091847327507,46.4869067989875 16.0088895705968,46.4864415619573 16.008725642397,46.4860291484072 16.0083531820664,46.4856095764048 16.0081219854312,46.4850807946872 16.008074977748,46.4846584424597 16.0079469724564,46.484074769009 16.0076132671569,46.4836368590122 16.0075436701177,46.4833945545155 16.0073413585753,46.4830184647236 16.0070886206002,46.4827327881127 16.0071898545389,46.4827134528834 16.0067787138775,46.4825250779519 16.0067036712572,46.4823403113598 16.0061926521649,46.4821738662998 16.0060285918181,46.4817524528219 16.005296039255,46.481578955284 16.0049734690077,46.4817437353738 16.004557589147,46.4817923738024 16.003778743018,46.4819341664795 16.0034123030026,46.48183841558 16.002918287984,46.4818877335403 16.0025427952387,46.4820080760472 16.0022795429308,46.4818574352259 16.0018649807444,46.4819780279212 16.0014604676252,46.4819365859933 16.0012702512195,46.4822171569469 16.0006994167231,46.4823391134334 16.0003888608551,46.4824497937267 15.9997482960318,46.4823204407643 15.9995300477046,46.482493290432 15.9995603761397,46.4827269460713 15.9993576189772,46.4830346142467 15.9990864531894,46.4831629406822 15.9986731908428,46.4833554860005 15.9983146488554,46.4836915033518 15.9978720446417,46.4837043629111 15.9973448927818,46.4833670770983 15.9968169258721,46.4829848111998 15.9962896232547,46.4826385248565 15.9958422666492,46.4823905064265 15.9951865580968,46.4821442994274 15.9948288900725,46.4818145239934 15.995175075601,46.4815146127975 15.9953933339962,46.4813417713338 15.9956379632582,46.48118669378 15.9956463902445,46.4809347057649 15.9960109263613,46.4807488035569 15.9963293283888,46.4805328923911 15.9964527787126,46.4804107178841 15.9968913308206,46.4798993779182 15.9970639542204,46.4795389846046 15.9971773397791,46.4791940424662 15.9973864724161,46.4785582933487 15.9976207791312,46.4781743289452 15.997847648294,46.4772910977799 15.999504412149,46.4748848787039 15.9986914405301,46.4735909299922 15.9996324074898,46.4719042353861 15.9992542665397,46.4720046172318 15.9985780821,46.471878807712 15.998167519654,46.4716803199122 15.9973643808888,46.4708703121894 15.9962632143999,46.4702962766774 15.9941343555868,46.4701045426842 15.9921245645288,46.4697858686157 15.991539184915,46.4700688616633 15.9914043815032,46.4702535684659 15.9907986766896,46.4703426692953 15.9897596449864,46.4699737935119 15.9890148570677,46.4696954827021 15.9878676877172,46.4694442154977 15.9875216834361,46.4693922322177 15.9873819377993,46.4694483203155 15.9883575536391,46.4699120540054 15.9883848205721,46.4700084457942 15.9882462640625,46.4700799094798 15.9876842784535,46.4699442316466 15.9859254460007,46.4695026316951 15.9851687781343,46.4693510755639 15.9837974083034,46.4693527140413 15.9822787334015,46.4693234821848 15.9807588658488,46.4687565815594 15.9801300684444,46.4684370016653 15.9775624443072,46.4670549106815 15.976436896235,46.4652178974844 15.9766446785033,46.463243806378 15.9766930062731,46.463048609112 15.9770406291529,46.4616438206621 15.9773345689457,46.4604557770122 15.9780135647038,46.4581246122017 15.9784154466659,46.4569762182819 15.9777867119754,46.4557644831534 15.9762476810822,46.4545603387079 15.9758003731574,46.4542022073348 15.9741251014162,46.4521199203714 15.9735107446336,46.4513412436783 15.9725860953664,46.4500585820481 15.9712376690224,46.4481017685869 15.9703433162811,46.4468038958706 15.9685286612955,46.4437134232068 15.9684945857026,46.4417833139608 15.9683438281779,46.4384457997958 15.9682494292331,46.4371647944164 15.9682823050441,46.4369637026687 15.9682352658311,46.4369970300205 15.966344910325,46.4383363002527 15.9650520272087,46.439179081711 15.9631030039662,46.4399007881593 15.9630221498313,46.4399061475061 15.9600531065215,46.4414930820147 15.9580153654853,46.4436140305835 15.9573535647226,46.4453089399204 15.9565194598476,46.4477066022147 15.9554002302432,46.4496285394405 15.9535787293711,46.4509506453664 15.9518820355186,46.4515066690283 15.9494925692551,46.4520047225705 15.9482681588379,46.4527385095359 15.9477124980607,46.4530714157119 15.9454350610428,46.4547159314842 15.9455477181642,46.4547867060731 15.945436163326,46.45477962103 15.9426502415585,46.4563645845896 15.9405684865878,46.4586767644696 15.9385854216935,46.4613705568984 15.9377540859503,46.4639910870676 15.9359595386687,46.4669382593419 15.934527358751,46.4694999805482 15.9342834170266,46.471414457412 15.9346707564717,46.4724683450892 15.9345244536192,46.4726851077462 15.934886440656,46.4732387010001 15.9348224543583,46.4732587474266 15.9351865198179,46.4736976115156 15.9352167428144,46.4737438786354 15.9353326541442,46.4738738364315 15.9364243628705,46.475189884319 15.9376676354491,46.4777296137795 15.9375594575412,46.4794836459155 15.9364465779618,46.4818514925081 15.9354797266016,46.482995178852 15.9343093411794,46.4843795683199 15.9342416907022,46.4844526362743 15.9341841088662,46.4844519370206 15.9337089094559,46.4850273929767 15.9332991488513,46.4854694281544 15.9333231548761,46.4854946036164 15.9326470769276,46.4863132618652 15.9319372629976,46.4878881132387 15.9332525924819,46.4879107664782 15.9378066675844,46.4884812578716 15.9403042933088,46.4888321441793 15.9427035627323,46.4890825711957 15.9442224139186,46.4894076068483 15.9463852478137,46.4895947705576 15.9463946648064,46.4897997327151 15.946413344645,46.489990493033 15.9470417675833,46.4899852911374 15.9475393471064,46.4901341177118 15.9479846755124,46.4902743782933 15.9483388353493,46.4904153931252 15.948746971922,46.4906639222863 15.9488298104833,46.4909330530318 15.9488351296913,46.4912389045303 15.9492934950443,46.4913790518414 15.949750740168,46.4914472311785 15.9496127927143,46.4917542722303 15.950432566376,46.4917024781444 15.9509577865814,46.4919409394442 15.9515081211892,46.4921252977856 15.9515832872615,46.492700475845 15.9522365753358,46.4928119986099 15.9528765252194,46.4929055449443 15.9531538219232,46.4931191605991 15.9538604766263,46.4933022047438 15.9542038488821,46.493569248315 15.9546126637535,46.4938536485258 15.9549698558141,46.49416555906 15.9551556748207,46.4943619397497 15.955213892039,46.4947033367223 15.9551421974437,46.4950728094146 15.9552790687237,46.4954495371279 15.9555066473284,46.4957984261467 15.9556949956035,46.4961387355562 15.9559354495557,46.4964786091441 15.9560451744763,46.49679258429 15.9565583887427,46.4970851016082 15.9568474848253,46.4972266341229 15.9570488725843,46.4975668321401 15.9576389668121,46.4977778189157 15.9580745172983,46.4980980603776 15.9586103306347,46.4981925368499 15.9590430430295,46.4983508538297 15.9594760744039,46.4985271603345 15.9597339095368,46.4983720494069 15.9600350968899,46.49845949086 15.9607323364653,46.4981027562407 15.9611678048674,46.4976852390756 15.9614626480035,46.4974128532179 15.9617064945866,46.4972038738625 15.9621905185173,46.4973167628798 15.96252554351,46.497107014669 15.962743650385,46.4969162435487 15.96311758951,46.4966971690896 15.9633218725468,46.4964615286395 15.9637607759848,46.496232907937 15.9640422546968,46.4959426341093 15.9646833563209,46.4953614252338 15.9650566404163,46.495106362181 15.9654493147512,46.495211011272 15.9657396960094,46.4954243959509 15.965536223433,46.4957050185586 15.9658259721781,46.4958825106115 15.9658191582582,46.4962334482207 15.9656269572289,46.4964150095993 15.9652933812442,46.4967057270193 15.9649588468803,46.496942469995 15.9649788750452,46.4973381656297 15.9652714962429,46.4976775794114 15.9654972387637,46.4979185908772 15.9657218683921,46.4980966328345 15.9657313957642,46.4986273707437 15.965967545242,46.4989407185826 15.9659274789832,46.499907865956 15.9661620862424,46.5000455165341 15.966351400156,46.5003768931045 15.9667871177152,46.5005554883979 15.9668529813956,46.5008239394806 15.966994433725,46.5010053810489 15.9674830196019,46.5011305348341 15.9688379146328,46.500633232153 15.9698282531591,46.5019314611321 15.9713146615753,46.5039243497714 15.9733542615412,46.5048491670446 15.9750454356096,46.5059592861271 15.9751203263392,46.5077207823565 15.9755632427937,46.5093309604746 15.9777003988405,46.5115893781713 15.979572478252,46.5124014348188 15.9797749508206,46.5136827485557 15.9811780534353,46.5150781054204 15.9837708162365,46.515966859704 15.987259645795,46.5166823711464 15.9889434687384,46.5169992701316 15.9917147664608,46.5178035289356 15.9941236002314,46.5184452387183 15.9956225259017,46.5184738562981 15.9970592396936,46.5183788394245 15.9985469235649,46.5177867308786 16.00003533408,46.5172359822647 16.0018360837237,46.5173860361876 16.0029124393418,46.517562119162 16.0031987964538,46.5174715282368 16.0035461199936,46.5173653768631 16.0038567694002,46.5172918451825 16.0041163848797,46.5172071547022 16.0042865164671,46.5171676940631 16.0048328600756,46.5170411675043 16.0049499025401,46.5169921857151 16.0049662037525,46.5170068873668 16.0050512193276,46.5169455912172 16.0052114427864,46.5168424282548 16.005243642444,46.5168217222979 16.0054326811727,46.5166627948975 16.0056904051385,46.5163981794773 16.0060854033945,46.5161854377396 16.0063452940725,46.5161161244533 16.0065103057308,46.5160890312949 16.0068204666494,46.5159755496006 16.0069021622547,46.5158828821046 16.0075032460079,46.5156165888059 16.0081789499993,46.5152137813939 16.0083999569762,46.5150506985707 16.0090416366714,46.5145776502701</coordinates></LinearRing></outerBoundaryIs></Polygon></MultiGeometry>
  </Placemark>
</Folder>
</Document></kml>
