<?xml version="1.0" encoding="utf-8" ?>
<kml xmlns="http://www.opengis.net/kml/2.2">
<Document id="root_doc">
<Schema name="pregledovalniklovisca" id="pregledovalniklovisca">
	<SimpleField name="lov" type="string"></SimpleField>
	<SimpleField name="lov_naziv" type="string"></SimpleField>
	<SimpleField name="luo" type="string"></SimpleField>
	<SimpleField name="luo_naziv" type="string"></SimpleField>
	<SimpleField name="povrsina" type="float"></SimpleField>
</Schema>
<Folder><name>pregledovalniklovisca</name>
  <Placemark id="pregledovalniklovisca.1">
	<Style><LineStyle><color>ff0000ff</color></LineStyle><PolyStyle><fill>0</fill></PolyStyle></Style>
	<ExtendedData><SchemaData schemaUrl="#pregledovalniklovisca">
		<SimpleData name="lov">1505</SimpleData>
		<SimpleData name="lov_naziv">TOMAŽ PRI ORMOŽU</SimpleData>
		<SimpleData name="luo">15</SimpleData>
		<SimpleData name="luo_naziv">Ptujsko Ormoško</SimpleData>
		<SimpleData name="povrsina">4059.19</SimpleData>
	</SchemaData></ExtendedData>
      <MultiGeometry><Polygon><outerBoundaryIs><LinearRing><coordinates>16.1091105702861,46.5008899689042 16.1093301243578,46.500666694796 16.1093854055059,46.5005213078679 16.1095472205562,46.5002906760758 16.1098500000545,46.4999766241088 16.1098756460208,46.4999500142014 16.1100755081716,46.4996237348112 16.1105045354506,46.4991245581543 16.1106311311756,46.4990841921658 16.1108606716395,46.4988849298634 16.1115183229965,46.4981360225904 16.1123210191273,46.4973070675528 16.1123516178664,46.4972168005103 16.1125270011591,46.4970201308056 16.1127112144476,46.496777400527 16.1129913848671,46.4963340039682 16.1135122953141,46.4955903741379 16.1139872987987,46.4949852921406 16.1148070901852,46.4940024847176 16.1153322656242,46.4933422963877 16.1153924554109,46.4932469714995 16.1155313841814,46.4930269905751 16.1159507166178,46.4925300466617 16.1162425224725,46.4924602616416 16.1163086149248,46.4925007326213 16.1163943976963,46.4923066407527 16.1167852226491,46.491658643223 16.1170096664651,46.4909394840628 16.1170494820085,46.4908418381022 16.1173817200446,46.4905142523425 16.1178935837768,46.4903391177822 16.1182914401138,46.4899784988874 16.1189606746142,46.4893725758133 16.1191307377227,46.4893761300275 16.1191818996381,46.4896921423211 16.1199900518245,46.4905048433439 16.1205944099019,46.4902670717342 16.121059447476,46.4898232828129 16.1211122397495,46.4896538924301 16.1216027190791,46.4893012609326 16.1214363396661,46.4891980779512 16.1210466294191,46.4890219594855 16.1198076934958,46.4884871720166 16.1196317255103,46.4882465167833 16.119592066123,46.4882816332987 16.1194044354972,46.4879359174243 16.1192462973511,46.4877197387307 16.1192159926898,46.4875885897196 16.1191297629539,46.4874298274805 16.1191691202124,46.4873863469037 16.1190068997838,46.4866851816439 16.1179779348752,46.4857337395395 16.1170881799996,46.4849128238697 16.1159573475655,46.4843204375225 16.1148843126236,46.4838782656691 16.1133682564238,46.4831198355941 16.1125918331461,46.4825051614006 16.1126940399337,46.4821648914206 16.1127523931874,46.4813666524989 16.1125994093797,46.4807302558075 16.1127073699558,46.4802379709101 16.1132304906484,46.4798269367182 16.1138355352002,46.4793973782074 16.1144818196472,46.4789214400503 16.1148070712727,46.4787327524324 16.1152594765769,46.4785144835072 16.1158611474966,46.4780870163568 16.1165127399472,46.4776238804667 16.1173156142988,46.4770889965396 16.1182651846769,46.4762716070347 16.1186519079393,46.4752838254744 16.1189876199282,46.4745399098679 16.1193249077227,46.4740002991852 16.1195852369333,46.4735183018058 16.1198708423109,46.4728848170094 16.1199302263701,46.472561243811 16.120030069121,46.4721976876046 16.1201728701937,46.4718589020779 16.1214636956064,46.4710394916313 16.1229780421373,46.4704976781077 16.1241387252099,46.4700647660729 16.1249376641452,46.4693541552655 16.1259821385521,46.4682194326159 16.1270796467412,46.4671896222589 16.1277739333901,46.4663394895185 16.1281640465815,46.4655273517842 16.1274698927973,46.4639175272391 16.1271072733637,46.4633870399108 16.1269032464865,46.4631533292102 16.1266527842281,46.4630416250678 16.1263192719319,46.4629306483824 16.1259593389571,46.4628390044935 16.1257091411196,46.4627462793452 16.1254594623068,46.4626344749031 16.1250703669407,46.4624669106254 16.1245413383294,46.4622246964683 16.1243184809936,46.4621127157523 16.1239845844262,46.4619446050789 16.1237321734755,46.4617376354499 16.1230063331605,46.4613068814239 16.122672053517,46.461119697023 16.1223097908039,46.4609138025928 16.122058174564,46.4607449687287 16.1216970916488,46.460596281702 16.1213620398244,46.4604091010306 16.1210013487311,46.4602793016638 16.1205888571051,46.4603214916054 16.120342325142,46.4604001116524 16.1200543034904,46.4604426996719 16.1192793909481,46.4605437654519 16.1186188012929,46.4605503189099 16.1181216999002,46.4605171229288 16.1176527109451,46.460502543747 16.1168236937181,46.4603964708551 16.1163820465439,46.4603245784574 16.1158565777591,46.4602536822039 16.115387207781,46.4601820564623 16.1150822391625,46.4601089158691 16.1146369664652,46.4599038064932 16.1141933815757,46.4597748835384 16.113665981594,46.4595705704988 16.1131942881517,46.4594228437453 16.1123910799889,46.4592212092343 16.111781812878,46.4590749047293 16.1111719013663,46.4588903659782 16.110645294776,46.4587240886045 16.110174006076,46.4585955090686 16.1098706054203,46.4585603066992 16.10898644162,46.4584546222037 16.1079913966102,46.4582928742441 16.1074648070525,46.4581266720238 16.1070741255183,46.4578829471675 16.1067921445634,46.4575810380277 16.1066499388105,46.4573539802986 16.1064253380982,46.4571467032605 16.106090745346,46.4569785470033 16.1056468268071,46.4567923731436 16.1052580904858,46.4566439015194 16.1045337455391,46.4562700566081 16.1036729921516,46.455954744595 16.1031457961257,46.4557502910268 16.1025070780775,46.4555090328332 16.1020622724557,46.4553228535836 16.1014512850103,46.455081232275 16.1011726244147,46.4556004339806 16.1010179214463,46.4558498809926 16.1000164802767,46.45556090754 16.0985213621517,46.4550171049336 16.0972157763383,46.4545492885633 16.0961404541068,46.4543259483526 16.096122483335,46.4543515821317 16.0961184654464,46.454332996838 16.0960005948987,46.4539342095707 16.0958511858523,46.4533453476814 16.0957041857142,46.4529088717985 16.0955310104794,46.4525107038016 16.0953329159576,46.4522459299496 16.0950801473117,46.4520199166009 16.0947442441474,46.4517375675345 16.0942692379381,46.4514184912369 16.0932926208638,46.4510827066913 16.0923999053897,46.4505872251313 16.0910487510093,46.4502021860467 16.0898931477892,46.450000965804 16.0889139528983,46.4499838425869 16.0883920535792,46.4501833262834 16.0880898328745,46.4503742397746 16.0877160366699,46.4503895818065 16.0870814443597,46.4501135595985 16.0865695469212,46.4500244057116 16.0862161745763,46.4502158002512 16.0857421109974,46.4503143208446 16.0854334467902,46.4501879638778 16.084947351337,46.4496872144313 16.0844993272524,46.4493859255073 16.0839333953136,46.4491445029477 16.083505560307,46.4490074841556 16.082989486925,46.4487068340142 16.0827681487063,46.4486972337807 16.0823495417523,46.4488088907128 16.0823142455113,46.4488012174273 16.082293974177,46.4487898031302 16.0818647513195,46.4485823447136 16.0811270039839,46.4482543628032 16.080363773045,46.4479207688131 16.0799352612196,46.4477485647156 16.0795320242594,46.4475642443603 16.0792234044139,46.4474320221173 16.07901066089,46.4474223335027 16.0786933369074,46.4472842539236 16.0784026821977,46.447204762454 16.078087926217,46.4471900960272 16.0777384946345,46.4471463352896 16.0775491728541,46.4470306183211 16.0773680783113,46.4469030374386 16.0770932002622,46.4467587054621 16.0766461552986,46.4465102789082 16.0765590934391,46.4464052936233 16.0763975971734,46.4464068138211 16.0761303732458,46.4462212911121 16.0758538830869,46.4459947385823 16.0754672579705,46.4457867653639 16.0749694484026,46.4455505957177 16.0748136388072,46.4454109869919 16.0746830041448,46.4452476592555 16.0746789599458,46.4450420254306 16.0744895217948,46.4449263044601 16.0743363867282,46.4449159570959 16.0742484087745,46.4447640141993 16.0741356038058,46.4446534208032 16.0739403802713,46.4446670404162 16.073704334492,46.4447691237927 16.0735329989601,46.4447001957047 16.073506393139,46.4447239276813 16.0734890906449,46.4447375856303 16.0734891242203,46.4447392947486 16.073312982817,46.4448961466332 16.0729590701931,46.4451468857412 16.0726334142608,46.4453785549412 16.0723879977314,46.4455141024097 16.0720603363271,46.4456504203878 16.0720599252173,46.4456560023923 16.0717689760013,46.4457198192906 16.0717581181126,46.4457103842129 16.0712661949668,46.4458864765595 16.070911687728,46.4460611900593 16.0706588826256,46.4461853767744 16.0706450696521,46.4461579752266 16.07046674763,46.4459384079498 16.0703261387904,46.4456174509255 16.0702723727173,46.4452779568649 16.070395130426,46.4448205691598 16.0700771773373,46.4442829139447 16.0698974445257,46.4439975007399 16.0697657059548,46.4437037209092 16.0695458786314,46.4432847165588 16.0694114055451,46.4430638377277 16.0690539623847,46.4428017676775 16.0687138419939,46.4430459769089 16.068287673018,46.4430896356736 16.0679965896335,46.4432992859542 16.0677559412066,46.4430928022727 16.0674459218884,46.4432126577543 16.067070995754,46.4433412153718 16.0666861857708,46.4435102605655 16.0663173093102,46.4436155469634 16.0658608630956,46.4439022185513 16.0654851561528,46.4438643333822 16.0653316520555,46.4441285663983 16.0646355460625,46.4443464789507 16.0641464321945,46.4445002919094 16.0636062418704,46.4448319090295 16.063231001485,46.4454804844604 16.0630117729924,46.445752432962 16.0626967084098,46.4459487970154 16.0622598913897,46.4459951413494 16.0619337455969,46.4460836420447 16.0613624188125,46.4461070299564 16.0610421914849,46.44629264093 16.0606814350232,46.4462277001925 16.0603489625698,46.446198304184 16.0599459008477,46.446347792345 16.0595543675258,46.4463334266155 16.059049779769,46.4463687804175 16.0581110828855,46.4459051263818 16.0577813767796,46.4459377767115 16.0574634770792,46.4460693740436 16.0572166618617,46.4464307268719 16.0570128120385,46.446658346291 16.0567900448906,46.4468366565826 16.0562951879266,46.4471535147867 16.0557414340592,46.4475885954791 16.0552503331919,46.44806016302 16.0548186532483,46.4484547057547 16.0545811320121,46.4487123214476 16.0542675380982,46.4488996515624 16.0540652475593,46.4490877543681 16.0537371080943,46.4493984760971 16.0537486985214,46.4496619816413 16.0534351739428,46.4499005917407 16.0531279463382,46.4500878600388 16.0530402055997,46.4503845795645 16.05247039405,46.4507526743193 16.0522477662536,46.4510209443857 16.0519746815012,46.4513256661803 16.0516594583472,46.4515175025276 16.0514482555045,46.4517507575538 16.0511854901446,46.4520780549901 16.051047521012,46.4524373138809 16.0507526251961,46.4527999039162 16.0504945344127,46.4531270667777 16.050102952948,46.4534105598389 16.0495957144849,46.4536436502473 16.0492104975133,46.4538387312573 16.0491989087543,46.4541232327744 16.0490886889735,46.454389655441 16.0490070107029,46.4546307145574 16.0486493794785,46.4549883862827 16.0483701714033,46.4552338651554 16.0481276296379,46.4554025328034 16.0475885198535,46.4555839036549 16.0467472029782,46.4558371354002 16.0465639205169,46.4561231179555 16.0462009303254,46.4564198313143 16.0459410381476,46.4567775899242 16.045573134112,46.4573620701032 16.0453145791287,46.4577153165017 16.0449332080798,46.4581953725441 16.0442784573495,46.4579479078731 16.0435243495945,46.4576578906191 16.0432276012647,46.4575049499942 16.042665879511,46.4572743514871 16.0421792694354,46.4571456314887 16.0419692828736,46.4568931098868 16.0419670186675,46.4568904314178 16.0419612761661,46.456889674009 16.0416728931947,46.456765353534 16.0413602137976,46.4568141758265 16.0407205712913,46.456770335125 16.039885357114,46.4569569729569 16.0392987400893,46.4572574069662 16.0386203126165,46.4575702779167 16.0381108924075,46.4578233102744 16.0375429263913,46.4580785809459 16.0371022849714,46.4582588288864 16.036571014727,46.4584793934081 16.0347925082693,46.458924746345 16.0333915849413,46.458685408143 16.0334697734526,46.4588407993924 16.033383029581,46.4588181011017 16.033566322992,46.459347267161 16.0338601799781,46.4596165900185 16.0335284346175,46.4593883659433 16.034077166651,46.4599720786084 16.0342245781491,46.4604208649707 16.0340663887902,46.4609981026877 16.0340108410142,46.4615024362406 16.0341906718862,46.4618273108126 16.0341894461073,46.4618382082513 16.0343533637286,46.4624020064632 16.0343587595851,46.462686892195 16.0343162306346,46.4631911080025 16.0342867186719,46.4636952060269 16.034286723783,46.4636954758902 16.0342338494461,46.4642172392885 16.0341201026784,46.4645154382332 16.0337008056658,46.4643752772003 16.0333330714334,46.4642076577937 16.0328348213595,46.4640232220221 16.032392386933,46.4640362138554 16.0313732636521,46.4638475656011 16.0309419798986,46.4637614844463 16.0305663332629,46.4638638369603 16.0303259546237,46.4642348791356 16.0297552052129,46.4643479835153 16.0304514326746,46.4646746007308 16.0311295529006,46.4647313775384 16.0317550944237,46.4647617237119 16.0322766629269,46.4648020019832 16.0331744789968,46.4654596711436 16.0336891672711,46.4658238964376 16.0339296267002,46.4661456140534 16.034045356637,46.4667563623261 16.0343916744547,46.4671670915201 16.0350162914068,46.4678271267262 16.0354948583141,46.4683446192845 16.0362164816934,46.4693187535745 16.0358796936732,46.4694117743568 16.0349447090938,46.4695461970142 16.0349124722898,46.4699063677268 16.0350391947669,46.4704090514614 16.0351246442244,46.4707951479386 16.0352333643354,46.4710280851479 16.0351606772197,46.4712052636945 16.0351449992559,46.4712437327037 16.0350964608802,46.4713622123041 16.0349970797391,46.4716150269604 16.0348118459801,46.4721475244823 16.0346257562804,46.4726350445453 16.0344286888164,46.4732306271888 16.034204724841,46.4737814678148 16.0340070974874,46.4743410668011 16.0338335026924,46.4748014815097 16.0333817072959,46.4750124949575 16.0328519559065,46.4752332076336 16.032219056775,46.4755088306535 16.0316378935469,46.4757659895491 16.0310993550987,46.4762116974391 16.0303431898815,46.4768572967888 16.0302965003139,46.477136623265 16.0302131638891,46.477551234263 16.0300501717331,46.4778855899706 16.0296933872995,46.4783026630395 16.0296208599393,46.4786002157146 16.029283324798,46.4786572357473 16.0291346825366,46.478717053653 16.0289860399473,46.4787768713676 16.0286109647914,46.4789151998023 16.0279521280559,46.4792000292153 16.0278132968332,46.4794351979116 16.0274891994186,46.4795145842652 16.0271651010473,46.4795939697069 16.0269875002136,46.4798384825351 16.026534790561,46.4800044921108 16.026052992464,46.4800089055929 16.0258221539181,46.4801999124586 16.025475639545,46.4804729287342 16.0251054435757,46.4808721136011 16.0247839516935,46.4810909217209 16.024658630692,46.4813529563032 16.0244824025246,46.4816784254498 16.0242679501351,46.4820492214175 16.0242222769943,46.4823915147105 16.0240977558529,46.4826895292657 16.0244432581394,46.4830553100396 16.0242399654939,46.483327039424 16.0237356349608,46.4835204909315 16.023649033629,46.4837641837902 16.023207785792,46.483849104894 16.0228842454992,46.4839599624527 16.0227323579411,46.4841952415331 16.0225970317384,46.4846193082797 16.0224089379836,46.4850078587707 16.0219959139736,46.4852094831964 16.021636662767,46.4855005952753 16.0212633364448,46.4857288532561 16.0209938929085,46.4859471857184 16.020604042476,46.4859956500844 16.0204666767026,46.486311768996 16.0201461433858,46.4865845369588 16.0198366126057,46.4867492425397 16.0193723129209,46.4869962993597 16.0193377802721,46.4872395246854 16.0191746932821,46.487573865103 16.0188509546724,46.4876757159755 16.0186110655568,46.4880827152797 16.0181734677157,46.4883655171172 16.0179163512567,46.488547744691 16.0176605753295,46.4888019352967 16.0174301361657,46.4890109152099 16.0170432787823,46.489221285728 16.0168122023142,46.4894032792186 16.0164346768609,46.4894156319717 16.0159828604831,46.4896355731159 16.0157908507091,46.4898172174752 16.0151460108173,46.4901648266723 16.0146689712136,46.4904299711676 16.0141269730923,46.4907046866093 16.0134427049365,46.4910346418601 16.0129901948963,46.4912185894889 16.0125513739933,46.4914384018785 16.0121000257311,46.4916853142466 16.0117380099632,46.4918324682882 16.0114940469451,46.4920235618599 16.011154518941,46.4926743436091 16.0114089927343,46.4930499648144 16.0116108701223,46.4933990598573 16.0118805446153,46.4938915056701 16.0120842640454,46.4943395498082 16.0122971726456,46.4945805827519 16.012576042397,46.4948659260208 16.0129980278278,46.4951410941255 16.0137346318636,46.4955214356314 16.014049414642,46.4956356052091 16.0143391515314,46.4958039776427 16.0149577072032,46.4961403734804 16.0152225704262,46.4963719429174 16.0154120917385,46.4967481315546 16.0156444151335,46.4973308691578 16.0154976516993,46.497844997335 16.0150721489896,46.498082694718 16.0150411064735,46.4985148227772 16.0149178759132,46.4988937873358 16.0149748334602,46.4991541028027 16.0147594126107,46.4994799036839 16.0145945887091,46.4997242829693 16.0144421205095,46.4999325647127 16.0141982985835,46.5001326594415 16.0140481323055,46.5004578802532 16.0138976667685,46.5007741065768 16.0136271170207,46.5009384492955 16.0137386874012,46.5013333250828 16.0137702589652,46.5016299437065 16.0136391690292,46.5022878809214 16.0138157105906,46.5026731837894 16.0140044455472,46.5030133936539 16.0139697127358,46.5032476215206 16.0136921434714,46.5037359156624 16.0135833876094,46.5041867254889 16.0133554129982,46.5045396254294 16.0128428330001,46.5050030086202 16.0122848153765,46.5051249087858 16.0115726321655,46.5053651297693 16.0110157753885,46.5055499918779 16.0102621641804,46.5056646140479 16.009916244501,46.5059825611104 16.0095950442951,46.5062283135827 16.0090932803328,46.5065746244262 16.0086414592524,46.5068035327295 16.0082814967146,46.5070676171292 16.0078169724481,46.5073146279628 16.0073389171231,46.5075347653315 16.0068829278156,46.5075387805294 16.0065606725981,46.5077215552939 16.0066819133606,46.5079364141302 16.0069708631536,46.5080598272847 16.0076276022911,46.5083419444992 16.0083346323218,46.5085246485467 16.008844574516,46.5086191177106 16.0094206603644,46.5087669823277 16.0099322728742,46.5089514010114 16.0103389913003,46.5091006664379 16.0106945994728,46.5093044535109 16.0111328869296,46.5097504251463 16.0116102682401,46.5101960493048 16.0119749908142,46.5105392038447 16.0126709762041,46.5102091549453 16.0135907730622,46.5100375334732 16.0140309379541,46.5100013329384 16.0149661674877,46.5097911467561 16.0153043834109,46.5097385719091 16.0154752478865,46.5097191511515 16.0162938315992,46.5096273094022 16.0179648325482,46.5096160478868 16.0185090918059,46.5095929387648 16.0195137156104,46.5096107988649 16.0199779257942,46.5095507891816 16.0204248975819,46.5094609716956 16.0211869537565,46.5092111635968 16.021453072948,46.5089763070119 16.0219927142062,46.5084222247206 16.0225197090537,46.5078336147618 16.0227326566062,46.5077101624484 16.0230215380749,46.5075710956822 16.0237595833051,46.5073422679662 16.0243221791527,46.5072769514157 16.0247920070365,46.5073022525632 16.0251272175729,46.5073059962412 16.0261108034993,46.5073643830686 16.0268184661336,46.5075434584313 16.0268004573637,46.5075697111648 16.0270196980947,46.5076287417758 16.0270791513481,46.5076513299689 16.0275933967603,46.5078276388151 16.0278722130975,46.5079432629255 16.0278895977771,46.5079323103894 16.0279019573853,46.5079243719945 16.0280673521087,46.5079954905327 16.0285054802065,46.5081220967201 16.0290933894079,46.5083070031877 16.0297006362457,46.5085703655691 16.030860827284,46.5090497964747 16.0310338129271,46.5090878236225 16.0312599402478,46.5090625729027 16.0320721335743,46.5088415700597 16.0327412271588,46.5086059291156 16.0330841653889,46.508466888623 16.0336091825732,46.508282026906 16.0340120804423,46.5081854469948 16.034623356047,46.5080831121804 16.0350250041187,46.5079895089822 16.0356580301289,46.5080103195196 16.0361344419028,46.5080866169381 16.0365615435176,46.5081119868891 16.036800507046,46.5081727993254 16.0373605757439,46.5083517078136 16.0381144079454,46.5087014158548 16.0390099123925,46.5090657565345 16.039298029574,46.5091618349587 16.039933180803,46.5092932645821 16.0407257443523,46.5093699067226 16.0413974148728,46.5092844401594 16.0420290019507,46.5092358623236 16.0423442758132,46.5091298848403 16.0426965751279,46.5089227135163 16.0429348115617,46.508692919373 16.043224235746,46.5081760160634 16.0435385769597,46.5078379232953 16.0436888148202,46.5077015986547 16.043707322782,46.5076541959423 16.0449079346376,46.5069872681054 16.0454564757633,46.5068632260648 16.0458045035106,46.5067336375565 16.046004216249,46.5066907852819 16.0463112840799,46.5065725460638 16.0478118075956,46.5063065353322 16.0486258368497,46.5060578673148 16.0491711012355,46.5059337474931 16.0495156987096,46.5057824065722 16.0496226270447,46.5056851582485 16.0497526584446,46.505420804869 16.0501397167714,46.5051132456172 16.0505118020484,46.5048673615201 16.0506885610477,46.5047630829451 16.0513179423076,46.504001737643 16.0515423800416,46.5038971993884 16.0530889384277,46.5035102271061 16.0534607234152,46.5034861103154 16.0538605280592,46.5034353731423 16.0543554964413,46.503346779957 16.0546660249385,46.5032746405324 16.0553677525569,46.5029564239434 16.05618770141,46.5026813762252 16.0570718507965,46.5024588111283 16.0579911233237,46.502005412968 16.0593347912777,46.501427518427 16.0604203663129,46.5010323897505 16.0608005307109,46.5006697968017 16.0608937241595,46.5004574145267 16.0614722955193,46.4999000844895 16.061809982374,46.4997588470007 16.0622647420515,46.4996417126165 16.0627103555017,46.4994564646508 16.0629417183746,46.4993015466986 16.0631116026139,46.4991207487698 16.0636318419454,46.4990213539985 16.0639647659629,46.4989504204664 16.0644034552397,46.4992320812051 16.0652644832181,46.4996179504346 16.0657004761471,46.499754330819 16.0660170675909,46.4997808903271 16.0664147185448,46.499841871179 16.0672393850846,46.4996466827269 16.0675309344591,46.499618590424 16.067754182523,46.4995755703599 16.0681401833502,46.4995805131106 16.0684830827634,46.4996265233755 16.0687071590047,46.4997122398377 16.0689079207251,46.4999112652171 16.0691760185133,46.5000958054982 16.0695340069958,46.5006320043971 16.0696612715152,46.5008830881967 16.0698802818088,46.5011219775103 16.0701736950226,46.5015271532738 16.0703077333272,46.5015920264334 16.0705314782728,46.501607206462 16.0712221071913,46.5015986706548 16.0715222510512,46.5015168659822 16.0718623899804,46.5013421072714 16.0720857140088,46.5012431171374 16.0726906959438,46.5010072130583 16.0739464582281,46.5004800839189 16.0741246765614,46.5003735060484 16.0743866371868,46.5002124295626 16.0747343440988,46.5000523461329 16.0749713154492,46.499939006931 16.0754625756015,46.4998242660111 16.0756694100976,46.4997684292452 16.0769286343732,46.4995052946911 16.0771897983652,46.4994562310976 16.0775313319705,46.4994129774988 16.0780512663902,46.4993652523604 16.0781377631721,46.4993580491837 16.0788104684141,46.4994328581312 16.0800568480819,46.4997591095528 16.080452832862,46.4999522223144 16.0804943501314,46.4999697339942 16.0808282141054,46.5000522301952 16.0811273619248,46.5001119314716 16.0812295471267,46.5001731343009 16.0815215388846,46.5002135587873 16.0820156606153,46.5003224264544 16.0837725547401,46.5005310748263 16.0839353527043,46.5005738869217 16.0845340879981,46.5006623188103 16.0848143481226,46.5006956485883 16.0860094010117,46.5009208365236 16.086318237627,46.5009562304652 16.0868775776792,46.5009372409877 16.0874015242104,46.5008943835374 16.0877190304958,46.5008483589754 16.088140486372,46.5007556401483 16.0896850947144,46.5002362958401 16.0905922170449,46.5000767707921 16.091086736872,46.4999637310236 16.0918321938883,46.4998381272707 16.0919241147235,46.4998155670907 16.0925890873951,46.4996137129935 16.0925835407774,46.4996555117714 16.092520877219,46.4997597551048 16.0936205564717,46.4994448786716 16.0939217378025,46.4993585967107 16.0945523166749,46.4992288557032 16.0951770628647,46.4991721322384 16.0954587756466,46.4991481115241 16.0955242796261,46.4991466743671 16.096100145306,46.4991342291562 16.096311541197,46.4991120498281 16.0965851410304,46.4990668713298 16.0969216353687,46.4990848772672 16.0969751210144,46.4990429783514 16.0969908985768,46.4990306811517 16.0972153973071,46.4990057653604 16.0976889658916,46.4989533574254 16.098274666026,46.4989765247207 16.0983624168777,46.4989800005566 16.0985971253717,46.4990092355452 16.0991975459531,46.4990839891146 16.0999536939699,46.4993801860738 16.1000869885048,46.4994325257845 16.1009975102295,46.4999275926725 16.1020307985256,46.5002882247564 16.1024125410821,46.5003463547228 16.1027737660596,46.5004013523845 16.103137012534,46.5004081058195 16.1034457080755,46.5003974805188 16.1038739092381,46.5004270869147 16.1042447518326,46.5004808175005 16.1045310114776,46.5005332045159 16.1047661150215,46.5005492874984 16.1049470680166,46.5005677825273 16.1053882256974,46.5006130027187 16.1059310424718,46.5006663251365 16.106333783476,46.500712363003 16.1063660385281,46.5007160096372 16.1066482099772,46.5007337027199 16.1071222804061,46.5007634828951 16.1074709865527,46.5007854781731 16.108437720986,46.5008366623207 16.1090492394534,46.5009685671043 16.1091105702861,46.5008899689042</coordinates></LinearRing></outerBoundaryIs></Polygon></MultiGeometry>
  </Placemark>
</Folder>
</Document></kml>
