<?xml version="1.0" encoding="utf-8" ?>
<kml xmlns="http://www.opengis.net/kml/2.2">
<Document id="root_doc">
<Schema name="pregledovalniklovisca" id="pregledovalniklovisca">
	<SimpleField name="lov" type="string"></SimpleField>
	<SimpleField name="lov_naziv" type="string"></SimpleField>
	<SimpleField name="luo" type="string"></SimpleField>
	<SimpleField name="luo_naziv" type="string"></SimpleField>
	<SimpleField name="povrsina" type="float"></SimpleField>
</Schema>
<Folder><name>pregledovalniklovisca</name>
  <Placemark id="pregledovalniklovisca.1">
	<Style><LineStyle><color>ff0000ff</color></LineStyle><PolyStyle><fill>0</fill></PolyStyle></Style>
	<ExtendedData><SchemaData schemaUrl="#pregledovalniklovisca">
		<SimpleData name="lov">1514</SimpleData>
		<SimpleData name="lov_naziv">ZAVRČ</SimpleData>
		<SimpleData name="luo">15</SimpleData>
		<SimpleData name="luo_naziv">Ptujsko Ormoško</SimpleData>
		<SimpleData name="povrsina">2119.68</SimpleData>
	</SchemaData></ExtendedData>
      <MultiGeometry><Polygon><outerBoundaryIs><LinearRing><coordinates>16.0576861775696,46.3967539340785 16.0591689522222,46.3966830777339 16.0605333868944,46.3961759512097 16.0615060809909,46.3953112123463 16.0619492420318,46.39407098694 16.0620484042546,46.393518634052 16.0619774118062,46.3929223361226 16.0581162304237,46.3935657946218 16.0581404697913,46.3935147367369 16.0581160098528,46.3934400172829 16.0576951662487,46.3921783793465 16.0575400342536,46.3917337381342 16.0573103878113,46.3913558243985 16.0571848285314,46.3911495122393 16.0567729116174,46.3905705777795 16.0564040231852,46.3901187331706 16.0561907879481,46.3898560982674 16.0559005310498,46.3900223461927 16.0555302113377,46.3895631343259 16.0551487531027,46.3892542755918 16.0546244925415,46.3888284208554 16.0545704639336,46.3887910413552 16.0543272638101,46.3886528392773 16.0541906375297,46.3885731250389 16.0541383079876,46.3885429273504 16.0539012268381,46.3884050278365 16.0538178599459,46.3883564920587 16.0537798961058,46.3883363285351 16.0539192650197,46.3881533026152 16.0542107449339,46.3877806548582 16.0543045305349,46.3876545504988 16.0546111007163,46.3874378622903 16.0553645670362,46.3868449292572 16.055526260089,46.3867075805132 16.0554583564929,46.3866450476355 16.0553947326277,46.3866156745317 16.0550555382075,46.3864208684288 16.054800627441,46.3862816957093 16.0545099081674,46.3861126223805 16.0542680631329,46.3859969003905 16.0536541334948,46.3857197801316 16.0533092476669,46.385606984906 16.0531622667065,46.3855562454974 16.0527877311097,46.3854903267857 16.0527939853089,46.385470745483 16.0527729747749,46.3851961673046 16.0527256306499,46.3847961419698 16.0526727933193,46.3845499277262 16.0526492877021,46.3843619246288 16.0526486263895,46.3842666513462 16.0525589444476,46.384254431102 16.0525668451755,46.383968790167 16.0525541064934,46.3839689074275 16.0525626391504,46.3838108396615 16.0525639816024,46.3834883709279 16.0525667213224,46.3834212272753 16.0525408330382,46.3833933046261 16.0525086999897,46.3833719173704 16.0521438170279,46.3832933117354 16.0519709894376,46.3832570240371 16.0519518482616,46.3832351572153 16.0519326660202,46.3832043836297 16.0518528326539,46.3831497858138 16.0518177487841,46.3831236570395 16.0516931305401,46.3830319531137 16.0513257679351,46.3827698266338 16.0504073943439,46.3821323641932 16.0503644858636,46.3820981194775 16.0503527868785,46.3821049747756 16.0503462918056,46.3820984665469 16.0504718695327,46.3820235366455 16.0507549318187,46.3819172891302 16.0508020437678,46.3818995817408 16.050836677446,46.3818819890082 16.0509088916762,46.3818377793165 16.0509769673417,46.3816998577166 16.0510265581835,46.3816013333877 16.0510231178346,46.3815575490765 16.0510861689867,46.3814626797828 16.0511471681155,46.3813896023274 16.0512119740151,46.3813252170403 16.0512709794052,46.3811347455306 16.0515038807431,46.3810027757028 16.0515411533876,46.3809804799873 16.051628519044,46.3809468370602 16.0516719006294,46.3809244851179 16.0518247444783,46.380861539006 16.05194220069,46.3807701274888 16.051990884096,46.380705710131 16.0521524893067,46.3804830741805 16.0521837813354,46.3804472476423 16.0524063570188,46.3802517613761 16.0525588768569,46.3802397409204 16.0528405451027,46.3801631015356 16.0529612201077,46.3801513737522 16.0530813882756,46.3801132889646 16.0533019407564,46.3801643405053 16.0533974720489,46.3801768661676 16.0534708658813,46.3801806885638 16.0537668312632,46.3801918169788 16.0538951765531,46.3802544236561 16.0539817702544,46.3802956420286 16.0540995696774,46.3803101211514 16.0543516728528,46.3801902045548 16.0544270464853,46.3801483027413 16.0545118633138,46.3801039745413 16.0547323969735,46.380059474142 16.0547481259449,46.3800594190259 16.0551535940615,46.3801200075276 16.0553213324673,46.3801489597632 16.0553436452652,46.3801532523871 16.055435078265,46.3801487196547 16.0555592313411,46.3799734794523 16.0555716240723,46.3799554607914 16.0556643153515,46.3798138901998 16.0556853793751,46.3797264237126 16.0556816114067,46.3796860614532 16.0556530838828,46.3796493466849 16.0556538481353,46.3796485298888 16.0556749733107,46.3796181945188 16.0556867385855,46.3796013512622 16.0556294450928,46.3795964819402 16.0555978245047,46.3795948844625 16.0555975066915,46.37951094431 16.055580875272,46.3793225183027 16.0555637403186,46.3792226285561 16.0555561458496,46.3791590890541 16.0555511975156,46.3790709629966 16.0555456319878,46.378944065064 16.0555627543338,46.3787532581042 16.0556375813802,46.3785617384737 16.0557397299455,46.3783646582327 16.055790698331,46.3783516816387 16.0561730843432,46.378254040421 16.0564246497939,46.3781945847968 16.0568796428009,46.3780871832856 16.0570173601208,46.3780427241227 16.0571387815973,46.3779824005833 16.0572649546705,46.37787866687 16.0574108754641,46.3777608948356 16.0575015447446,46.3777035544226 16.0576047706842,46.377643488633 16.0577080395141,46.3775789237933 16.0577893818565,46.3775300367459 16.0578646956656,46.3774920919275 16.0579461628358,46.3774496815383 16.0580537300255,46.3774125178267 16.0581889266833,46.3773992106014 16.0582825112535,46.3773448116343 16.0585184227961,46.3773030406501 16.0586402973671,46.377252878056 16.0589932614022,46.3771133032816 16.0592933791668,46.3769904118126 16.0593146136674,46.3769793285775 16.0594555672369,46.3768739259817 16.059520201436,46.3768014401058 16.0595713892318,46.3767663268722 16.0596949954554,46.3766848371223 16.0600507885494,46.3765104139887 16.060210902501,46.3764481089698 16.0604376754774,46.3763441586712 16.0606162569642,46.3762555001885 16.0608506334169,46.3760945267605 16.0608914634165,46.3760549204946 16.0610000594137,46.3759100489073 16.0610143366153,46.3757612839759 16.0610227564879,46.375726207042 16.061009072459,46.3756170189857 16.061160307103,46.3750764180077 16.0612388219199,46.3748886391386 16.0612441039968,46.3748123844803 16.061177984123,46.3747408412019 16.0611217361745,46.3746823420728 16.0609716997453,46.3744458503783 16.0609672794997,46.3743652771621 16.0609797733655,46.3743325016735 16.0610116425186,46.374286680511 16.0610564626284,46.3742383999087 16.0611280802877,46.3742314373196 16.0613262080058,46.3742127738652 16.0614399779481,46.3742144169435 16.0618051485642,46.3742298305058 16.0621297022163,46.3741817406141 16.0622288439327,46.3741462706916 16.0623063113952,46.3741125315604 16.0624298413064,46.3740410263259 16.0629312925272,46.3737779685286 16.0632221127594,46.3736328402118 16.0637205368442,46.3734418740541 16.0638317869721,46.3733740803807 16.0638654775577,46.3733485749712 16.0639245259251,46.3732232354232 16.0639592723502,46.3731584027193 16.0639948047717,46.3731005804488 16.0640207875382,46.3730530137842 16.0640480220196,46.3730096641147 16.0641410140144,46.3728986738879 16.0641689761051,46.3728660239975 16.0642755110603,46.3727228778437 16.0643257439945,46.3726657283776 16.0644535784793,46.3724347517699 16.0645231018726,46.3722532622703 16.0646495139882,46.3719224305452 16.064770928022,46.3717959699941 16.0648943625402,46.3716731793166 16.0649734483274,46.3716092829066 16.0651730108774,46.3714978390052 16.0655016887406,46.3713219418482 16.0656820760144,46.3712271404808 16.0658411460011,46.3711390154703 16.065923945671,46.3710790425135 16.0661044923857,46.3709657948718 16.0662546907333,46.3708760425427 16.0663426151744,46.3708256484197 16.0665395359289,46.3706856158756 16.066657079255,46.3705943681738 16.0667499950129,46.3704866154497 16.0669500403631,46.3703269392924 16.0672837840827,46.3701114922891 16.0673410176344,46.3700737099274 16.0676316804679,46.3700154840366 16.0679075089141,46.3697230206679 16.0678812266142,46.3693415178048 16.0678989653671,46.369271354443 16.0679077679983,46.3692361834128 16.0680786258845,46.3685864340625 16.0681798222361,46.3684170623877 16.0681887543349,46.3683885480003 16.0679518309328,46.3685694441826 16.0681382848677,46.3683931581585 16.0682342266995,46.3682876251975 16.0682904656316,46.3682456229857 16.0684335856075,46.368120035309 16.06848037996,46.3680869384457 16.0688350785999,46.367854016499 16.0692233807884,46.3674583809177 16.0694696388669,46.3673366858752 16.0695593950393,46.3672607202416 16.0700655614904,46.3667714886166 16.070117957036,46.3667258326346 16.0701362947797,46.3666931813468 16.0702240849116,46.3665366192328 16.0703413500122,46.3663187805459 16.0705142257266,46.366053635976 16.0705796520808,46.3659432583235 16.0706771617341,46.3658319504128 16.0707584200599,46.3657536341599 16.0707746186656,46.3657379174163 16.0708362035384,46.3656970334949 16.0711146265383,46.3655060255709 16.0712730777735,46.3654207777762 16.0712955909147,46.3654156184203 16.0713924120871,46.3653755736808 16.0715828380627,46.365323765115 16.0717668739033,46.3652309891731 16.0721421236746,46.365120135319 16.0721406450431,46.3651176299845 16.0722174850127,46.3650992750624 16.072277021349,46.3650733448207 16.0723226419594,46.3650535731375 16.0723639738364,46.3650205258916 16.0723841256608,46.3649943351594 16.0723876742196,46.3649897133368 16.0723971867336,46.3649644321284 16.0723994112371,46.3649585631241 16.0724248658487,46.3649642624966 16.0724817469016,46.3648690790735 16.0725120533663,46.3648105833088 16.0725497920347,46.3648064505181 16.0725732911503,46.3647587251877 16.0727057271223,46.3645464098867 16.0726683865428,46.3645376730836 16.0726793218123,46.3644921349359 16.0727169867,46.364364741953 16.0727190875132,46.3643459182192 16.0727363679421,46.3641929846428 16.0727934980174,46.3638052116725 16.0728672543629,46.3634236706146 16.0728451597963,46.3634236080126 16.0728480683338,46.3634062162374 16.0728064195912,46.3633366992185 16.0727744680127,46.3632845456595 16.0727456772335,46.3632345217509 16.0727009521777,46.3631605349823 16.0726879267989,46.363125838238 16.0726351665661,46.3628803513069 16.0726218546573,46.3628044503256 16.0726207672666,46.3626957750349 16.0726176093812,46.3626805095148 16.0723511511537,46.3622134478834 16.0723157798968,46.3620794522461 16.0723242765035,46.3620421243849 16.0723406257867,46.3619412030371 16.0723706352755,46.3617613385826 16.0724733638491,46.3613528043983 16.0724696423526,46.3613352948709 16.0725790805067,46.3611700704246 16.0725912986692,46.3611569099493 16.0726352842271,46.3610272083407 16.0726594158706,46.3609853251719 16.0728332928608,46.3606266870863 16.0729037951884,46.3604309674138 16.0730235765399,46.3600773351656 16.0730359639962,46.360052926617 16.073057440781,46.3600215049624 16.0731637566195,46.3598895086935 16.0733051290764,46.359583448323 16.0733770787586,46.3594418775693 16.0735253968732,46.3592185254681 16.073599227094,46.3590934016916 16.0736374075745,46.3590125187042 16.0736729160098,46.3589610814719 16.0737292692904,46.3588924438708 16.0737882180327,46.3587838345228 16.0738144525928,46.3587366230255 16.0738272052873,46.358697725544 16.0738419390646,46.3586670868329 16.073850368651,46.3586463142205 16.0738762692193,46.3585953270416 16.0739441859732,46.358466929621 16.073999106173,46.3583583579939 16.0741314723912,46.3581236385437 16.0742155422516,46.3579707968969 16.0742732824631,46.3579000766399 16.0745452273286,46.3574342579519 16.0745694606274,46.3573844559029 16.0746500173231,46.357317659705 16.0749512897835,46.3571085230274 16.075071801216,46.3569985244462 16.0751444690516,46.356721718553 16.0750585537833,46.356495348275 16.0749751084992,46.356408140666 16.0746551814385,46.3560698860122 16.0746171209708,46.3560175204076 16.0745221215424,46.3558711298078 16.0744682674067,46.3557355989263 16.0743828491064,46.35552109968 16.0743638896677,46.3554554186577 16.0743132658477,46.3551796816663 16.0743069372273,46.3549694776103 16.0744557357919,46.3545062554271 16.0746388520777,46.354222833553 16.0747688302909,46.3539067113626 16.0749303788683,46.3535639305374 16.0749233656921,46.3535110931827 16.0749054848642,46.3533943882024 16.0749112878725,46.353345748995 16.0748916286184,46.3533238907747 16.0748843567865,46.3532446042022 16.0748897718259,46.3531960586135 16.0749050172666,46.3531386033934 16.074958245158,46.3530501107742 16.0749483717439,46.3530303198786 16.0749795122184,46.352975054471 16.0751268880455,46.3527644848519 16.0751584174423,46.3527224415594 16.0754471102339,46.3523171936309 16.0755945248878,46.3521087823358 16.0758493009988,46.3517963432071 16.0759053847113,46.3516813716008 16.0758985841661,46.3516526446784 16.0758089565802,46.3512037199375 16.0758010860438,46.3510674869947 16.0758308642664,46.3509164143798 16.0759015876011,46.3507331065214 16.0760172801059,46.3505107775984 16.0761014473499,46.3504034590801 16.0762694849601,46.3501803673122 16.0763610909659,46.3500284426164 16.0764150657165,46.3499319347616 16.0764903935567,46.3497450742635 16.0765673200317,46.3494411455525 16.0767013183122,46.3491191348814 16.0769047147176,46.3486327220126 16.0771999109573,46.3482560190826 16.0773095276143,46.3480688349404 16.0773158305631,46.3477878840124 16.0772858050196,46.3474631892427 16.0773677312488,46.347334747502 16.0775139996969,46.3471219357266 16.077540545207,46.3470116501958 16.0775684817961,46.3467936554426 16.0775637463925,46.3466452467916 16.0775382282865,46.3464640143893 16.0774826935062,46.3462163958248 16.0774547272005,46.3459964986332 16.0774113213676,46.3458040983123 16.0772223296236,46.3456474388805 16.0769986265219,46.3454432411555 16.076672746873,46.3448983826154 16.0764061913215,46.3443309215493 16.0763803002064,46.3442958963796 16.0763099007559,46.3442503136411 16.0761484663132,46.3441999195047 16.0760339536047,46.3441572709926 16.0757048722644,46.3440046264753 16.0752789534317,46.3438824024804 16.074812808003,46.3438287536183 16.0746011152162,46.3438587246239 16.074376044393,46.3437894021904 16.0740790911097,46.3436583142203 16.073657576251,46.343548368938 16.0734457537355,46.3434323149094 16.0732034750243,46.3433199652884 16.073129451891,46.3432217811369 16.0731196721304,46.3432000097953 16.0731193707525,46.3431779695494 16.0731095019709,46.3431649263004 16.0731113817551,46.3430684589594 16.0731373632414,46.3425704914518 16.0729739091225,46.3420844685877 16.0727683678466,46.3416648796132 16.0725682950356,46.3413918929125 16.0723691862963,46.3410817384703 16.0723173211762,46.3410136664205 16.0722128550346,46.3409461776067 16.0719424266807,46.3407953114203 16.0718719070764,46.3407431591157 16.0716227990321,46.3405929920134 16.0714616444784,46.3405362006201 16.0712964763367,46.340486734319 16.0711294288913,46.340447452195 16.0709020370592,46.3403980284017 16.0706126215545,46.3403522439845 16.0703801564114,46.3403090747102 16.070045103911,46.3403277759878 16.0698999077134,46.3403297645517 16.0697997264072,46.3403085688957 16.0696102340253,46.3402373746349 16.0693293024569,46.340113592046 16.0692172399256,46.340055978457 16.0691194038407,46.339961793163 16.0690064247148,46.339863790609 16.0688172907473,46.3398108559505 16.0686121575167,46.3398101641722 16.0684088464229,46.339856330295 16.0682500295417,46.3399126070505 16.0681703555333,46.3399771414092 16.0680483538781,46.3401828769378 16.0679807427252,46.3402865261696 16.0678967310817,46.3403885291048 16.0676617725827,46.340764376103 16.0675549333518,46.3409817557889 16.0674529668022,46.341249294114 16.0673407100112,46.3413819707689 16.0670774414338,46.3415851550703 16.0668055522992,46.3418261173513 16.0667466966796,46.3418792099799 16.0659787827785,46.3419852508753 16.0658492797059,46.3419995040799 16.0656155017235,46.3420427102348 16.0654957318076,46.342069828256 16.0654071834765,46.3420791107395 16.0652399144157,46.3421153983447 16.0648951743612,46.3421309357844 16.0648002188064,46.3421447760588 16.0639850749157,46.3422943398459 16.0638677420895,46.3422864344759 16.0630347486826,46.3422526152285 16.0628065813486,46.3422235161685 16.0627428512644,46.3422062941433 16.0625776028794,46.3421592452434 16.0621818575373,46.3419359236843 16.0620645729472,46.3419170394638 16.0615163092213,46.3418811937764 16.0613371561873,46.3417465497291 16.0612055900573,46.3415870813942 16.0611921445453,46.3415367320396 16.0611783224342,46.3414602044011 16.0611647064057,46.341401039394 16.0611642767171,46.3413989740318 16.0611003076472,46.3411141773351 16.061075271441,46.3411361828433 16.0610681922487,46.3410858643609 16.0610222740919,46.340961859552 16.0610218687765,46.3409610535675 16.060912799034,46.340869754644 16.0606823519167,46.340715701732 16.0605509426944,46.3406178618161 16.0601571967024,46.3403356731297 16.060106074163,46.3403051968537 16.0597265287644,46.3401324606129 16.0596593494478,46.3400979042844 16.0596370991436,46.3400892932629 16.059252965027,46.3398200582691 16.0589237472232,46.3396229206001 16.058478592866,46.3393080026181 16.0582740327893,46.3391887941587 16.0580158314721,46.3390699917432 16.0575316211336,46.3388781529566 16.0575621749294,46.3388525882819 16.0571554080858,46.3387021383456 16.0567976030217,46.3384768277586 16.056507478502,46.3383189093434 16.0563258561848,46.338236913692 16.0561591412442,46.3378699293647 16.0560495868941,46.3377324747113 16.0559316204816,46.3374616694651 16.0558656504339,46.3372736978114 16.0557424076205,46.3370728491676 16.0555318412557,46.3368905310204 16.0555221094413,46.3368708270653 16.0554641564414,46.3365863313717 16.0552357438406,46.3363404773644 16.0550185679615,46.3362127421734 16.0545024156968,46.3359994120464 16.0541179711773,46.3356976826884 16.0534179263865,46.3352423991954 16.0531533921827,46.3351237340594 16.0529744092738,46.3352257911008 16.052810183071,46.3352575339558 16.0521838499529,46.3353057662484 16.0519461870812,46.33528770945 16.0510087869248,46.3350663621629 16.0506408274805,46.3350271872881 16.0504657572245,46.3349539393275 16.0501894553661,46.334905463503 16.0499550762572,46.3349027575865 16.0497020203016,46.3349286537581 16.0493052067542,46.3350650046043 16.0490366787794,46.3351105651791 16.048779844107,46.3350883590515 16.0483516346881,46.3350365935679 16.0479711974122,46.3352960510158 16.0477456676998,46.3354507101387 16.0475712183453,46.3355118699569 16.0473265229948,46.3356425014259 16.0471169951771,46.3357237756626 16.047021793066,46.3357379633347 16.0468156385208,46.335730583893 16.0463969372859,46.3357007671305 16.0459877424133,46.3357130586469 16.0454429835388,46.3358232180438 16.0451978618606,46.3359045442924 16.0450192960379,46.335954401391 16.0447073444718,46.3361347665357 16.0446151923314,46.3362068661738 16.0443742616685,46.3363379067631 16.0443183502045,46.3364031971529 16.0442565129415,46.3364437993918 16.0440794074245,46.3366797033502 16.0437322190647,46.3369951653108 16.043428657035,46.3371937146134 16.0431848837678,46.3373873989701 16.0430614073741,46.3374928927444 16.0429186617291,46.3375482679247 16.0425628902729,46.3376246595891 16.0423976386686,46.3376168092299 16.0422035321006,46.3375875384566 16.0416721598341,46.3374463566044 16.0413427117944,46.3373356332633 16.0410074945091,46.3372972988111 16.0404566780478,46.3372538177502 16.0400635709102,46.3372725995599 16.039770811953,46.3373291553649 16.0391673470202,46.3372766998258 16.0389534840545,46.337356378971 16.0386610074429,46.3373799097245 16.0385195436395,46.3373659894978 16.038221760919,46.3372121429794 16.038052478642,46.337149080268 16.0378269593872,46.3371002034897 16.0377522169334,46.3370631837231 16.0374340134129,46.3370313422818 16.0370616510938,46.3370480361319 16.0368497006649,46.3371190567048 16.0366511256062,46.3372036313242 16.0365259020138,46.3372104348371 16.0364169249242,46.3371833515298 16.0362405505997,46.3371091939226 16.0356431826619,46.3366363163677 16.0352438404573,46.336352113112 16.0350690859822,46.3361914761346 16.0350688296291,46.3361916583989 16.0350635141895,46.3361715528377 16.0349776018481,46.3360449304962 16.034727712857,46.3356884746853 16.0346833878762,46.3356179780353 16.0346293125154,46.3353817515717 16.0346292304441,46.3352809838962 16.0346077733943,46.3351488295359 16.0345401976464,46.3350232105531 16.0343728127054,46.3348879678203 16.0341949504121,46.3348101316531 16.0340936653382,46.3347842361538 16.0337118385703,46.3347873289939 16.0334247736369,46.3347527656258 16.0333435671774,46.3347515201995 16.0330970284787,46.3347100217927 16.0330373794503,46.3346740321875 16.032920497884,46.334530323519 16.0327491800816,46.3343721711188 16.032550239172,46.3342507964786 16.0324321886284,46.3341690884411 16.0322669684658,46.3340311239091 16.0320525213221,46.3339070092941 16.0319340771932,46.3338733492438 16.0318785877448,46.3338443392901 16.0316774422965,46.3337712978875 16.0315795390416,46.3336625955665 16.0314373675313,46.333575885755 16.0310368385418,46.3331501527072 16.0309049302058,46.3329804856202 16.0308563146977,46.332943945526 16.0306811797756,46.3326235152135 16.0306463147604,46.3325721856637 16.0303592304854,46.3326188593394 16.0301146741542,46.3326615502703 16.0300515497711,46.3326823626384 16.029830975104,46.3326879484554 16.0294089466185,46.332721349649 16.0293211334476,46.3327139527931 16.0292530682842,46.3326999001276 16.0291796666809,46.3326714099914 16.0290321143447,46.3325537053298 16.0286589135187,46.3321916879176 16.028030368206,46.3319755605062 16.0278371079651,46.3318651930892 16.0278100342672,46.3318343961817 16.0275652871952,46.3315963712145 16.0275210747063,46.3315034677461 16.0274039328944,46.3310395458796 16.0274389275337,46.3309107516021 16.0274689396791,46.3308002663738 16.0274346558575,46.3305786138701 16.0274469642226,46.3304868219331 16.0274489023176,46.3304724090182 16.0273473379646,46.3303130817598 16.0272681160296,46.3302579210402 16.0272211685789,46.3300743503614 16.0272064367882,46.3299534705447 16.0271213116,46.3298188276176 16.0270838047932,46.3297371101983 16.0269669086116,46.3295495791676 16.0269487046201,46.329555410904 16.026732925186,46.3294556805845 16.0267089533234,46.3294170279966 16.0267217861819,46.3292074582135 16.0267036854433,46.3292049215987 16.0268115489753,46.3289307083356 16.0271612164392,46.3286410970322 16.0273416039763,46.3282796787096 16.0275461403582,46.3280081049291 16.0277017130751,46.3279238425423 16.0278587688271,46.3278771748673 16.0281265192888,46.3278395884907 16.0283068537317,46.3278015281162 16.0285097590202,46.3277412213031 16.0286257121761,46.3276774677558 16.0287189287825,46.3275925053473 16.0287495842509,46.3274957796318 16.0287432650942,46.3273942581973 16.0287020205381,46.3273279601033 16.0286425376239,46.3272309657134 16.0286007605175,46.3270600350295 16.0285925951158,46.3269431449902 16.0285796674118,46.3268077635744 16.0285801364614,46.3266526477547 16.0285137674808,46.3265000226118 16.0284125654797,46.3262627772427 16.028025421396,46.3262492541596 16.0280215259546,46.3262423613461 16.0276124838967,46.3263494161988 16.0275313669962,46.3263730880713 16.0274379054328,46.3264102766362 16.0272864800712,46.3264245032649 16.0269642402812,46.3263607289054 16.026816872433,46.3262725304111 16.0268051012165,46.3262819932062 16.0263814682522,46.3261298755838 16.0262363499308,46.3260785446374 16.0261828201012,46.3260287307832 16.0261407875211,46.3259895203778 16.0260380840038,46.3258936322827 16.0260018709926,46.3258600378325 16.0259410720278,46.3258034512271 16.0255332721475,46.3255531189662 16.0254604699195,46.3255074363994 16.0250801762014,46.3252693619084 16.0249326188127,46.3247117790172 16.0244297527054,46.3245162781226 16.0232423401476,46.324884099747 16.0231952409283,46.3249003563168 16.023209972435,46.3249033734997 16.0231979371357,46.3249195861847 16.0230349361757,46.3249187954917 16.0227914308583,46.3248909234235 16.0225610651615,46.3248224459458 16.0219579426325,46.324556932899 16.0216577371708,46.3243294675838 16.0215409905345,46.3241971722999 16.0214447083265,46.3241247053657 16.0211718963293,46.3237988346202 16.0210098507516,46.3236467896405 16.0209971584491,46.323655630263 16.0206040277075,46.3234587726519 16.0199081808677,46.322940355455 16.0198417831315,46.3228405390085 16.0197940249999,46.3227653885342 16.0197412835366,46.322827399776 16.0198286395925,46.3231675244195 16.0201270030348,46.3234713072344 16.0207797736208,46.3237330577637 16.0209795160038,46.3240894526543 16.0211502672135,46.3245627097554 16.0222299069779,46.3256664649094 16.0224843544146,46.3262813971304 16.0229337861637,46.3266614671624 16.0232124897971,46.3269049565348 16.0234235867531,46.3273742500873 16.0235963787714,46.328226716583 16.0234976334692,46.3289417974378 16.0236285256118,46.3299498402083 16.0238662796054,46.3306774731823 16.0238819242918,46.3315157807828 16.0234013210305,46.3323498039 16.0233612725723,46.3328766775039 16.023176067775,46.3333232456805 16.0234321140813,46.33383334356 16.0235164115687,46.334174391875 16.0233678617923,46.334559811191 16.0239542527205,46.3345976576882 16.0241249325619,46.3347299170805 16.0245144735874,46.3349034017762 16.024421741133,46.3349387818393 16.024252863313,46.334910064288 16.024005380279,46.3349985639818 16.0237919175353,46.3352465484186 16.02367252369,46.3355238308187 16.0237552057074,46.335618010757 16.0238947186666,46.3357505495321 16.0237594734067,46.3358466808142 16.0235741160562,46.3359303945985 16.0234268852405,46.3360525446526 16.0234545585495,46.3361990409116 16.0236304287297,46.3362751121627 16.0238356979761,46.3362559996698 16.0240642118308,46.336146077041 16.0243361519548,46.3360314462619 16.0244765508143,46.3358704884413 16.0246564792034,46.3358300083 16.0248935929301,46.335853794973 16.0251746356818,46.3358858245737 16.0252640881648,46.3360015359383 16.0254244853416,46.3362503990205 16.0257597907688,46.3365236047021 16.0259762063663,46.33682261852 16.0264957359777,46.337027589672 16.0269104460902,46.337031603298 16.0274169362094,46.3371434766254 16.0281258554812,46.3372923954304 16.0286935359605,46.3373836491525 16.0285644773491,46.3376639925987 16.0284096352413,46.3384121509857 16.028313320885,46.3388178900951 16.0281744994358,46.3390350707012 16.0279889122293,46.3395225867976 16.0275839070444,46.3400930492828 16.0274332707621,46.340373315321 16.027351788066,46.3408778890782 16.0273111234773,46.3414810648633 16.0275000418851,46.3418571584479 16.0279492476935,46.3422579933704 16.0282425925513,46.3426602282716 16.0283903630877,46.342919817145 16.0283964359601,46.343243660555 16.0286194472463,46.3440513994989 16.0286783229031,46.3444197536195 16.0286000505974,46.3450951551964 16.0284584780586,46.3458521904764 16.0289109311357,46.3464239382597 16.0293655890767,46.3471126274549 16.0295965540314,46.3476503775646 16.0299225090911,46.3484031134291 16.0302182683252,46.3489312813545 16.030159400686,46.3492557094569 16.0300597015756,46.3494815366237 16.0296809655735,46.3500697631892 16.0292473872403,46.3505055304659 16.0290223321356,46.3509754082253 16.0284356789419,46.3515565043464 16.028222929011,46.3519902811436 16.0279437013373,46.3523436808015 16.0278586655709,46.3526593456195 16.0278520832785,46.3530012965878 16.0279364413981,46.3533424300025 16.0278547774395,46.3538380074726 16.0279251314979,46.3541251938612 16.0281297920525,46.3546451884804 16.0279948108559,46.3550692681549 16.027817984234,46.355340772272 16.0267580540313,46.3549455134487 16.0260543035846,46.3548348679055 16.0256119072537,46.3548028483754 16.025167492648,46.3546628794375 16.0246830960323,46.354469284186 16.0243547716635,46.3542832859114 16.0236510343406,46.3541726254538 16.0232344237874,46.3541224615421 16.0230452561934,46.3544300573413 16.022873274697,46.3549624277872 16.0226557688099,46.3551443163251 16.0221514313365,46.3552747860538 16.0215441612006,46.3554601561084 16.0213988167982,46.3560282748319 16.021274928809,46.3563532787245 16.0208596798713,46.356383978349 16.0198697586021,46.3562578550992 16.0193090858522,46.3561548889212 16.0187469105072,46.3559709590623 16.0183296575055,46.3558937015969 16.0178746356505,46.356581536257 16.0176720660856,46.3568622508757 16.0174153911272,46.3570354808307 16.0172398412025,46.3573789342428 16.0170241430029,46.357659764469 16.0166002268585,46.3579244514272 16.0159186219948,46.3583084794703 16.0157828183358,46.3584342964238 16.0157358494694,46.3588870000067 16.0160508963704,46.3591349512355 16.0162129824572,46.3594664050292 16.0160484093531,46.3597017932153 16.0164923418377,46.3598148103625 16.0168195051246,46.359937861392 16.017210132918,46.3599793726448 16.0177726786742,46.3601813009466 16.0181128812495,46.3610060090728 16.0181173932268,46.3612488916398 16.0178400586359,46.3617102147711 16.0173276651977,46.3621106488444 16.0170989555556,46.3623915947364 16.0168594197086,46.3627895992026 16.016387789023,46.3632796378127 16.0161455753862,46.3635337103659 16.0158528842325,46.3638692050693 16.0157802557942,46.3641577585831 16.015759436573,46.3644368546689 16.0156861383425,46.3646893355416 16.0157061354935,46.3650670374756 16.0157237985657,46.3653188002712 16.0160015174243,46.3655772497363 16.016446665661,46.365753236102 16.0169822775323,46.3659014247769 16.0176879908648,46.3661110770274 16.0183547257108,46.3663210720729 16.0187249282206,46.3666595753832 16.0191857657162,46.3669793653602 16.019552464482,46.3671290474431 16.0204366129859,46.3671481518069 16.0209209401388,46.3673327682013 16.0211193831446,46.3675199359319 16.0212931790232,46.3677793004907 16.0212583858282,46.3680045394685 16.0213277204392,46.3682378455202 16.0211163586487,46.3687524795419 16.0208629917918,46.3691056298472 16.0205696302951,46.3694051537879 16.0202494372454,46.3696599307413 16.0200087212025,46.3699949719609 16.0197941233048,46.3703297797162 16.0198008209518,46.3706896049601 16.0194692950833,46.3710344519744 16.0192294051095,46.3714144697163 16.0187814100802,46.371787344167 16.0186836316994,46.3721211088276 16.0186949573333,46.372429609199 16.0184921387319,46.3727906709791 16.0184400798142,46.3739198233631 16.0180610371631,46.3744791307374 16.017829948223,46.3751382474913 16.0171579150665,46.3756496855734 16.0167165966522,46.3760206928101 16.0171476855517,46.3764078735356 16.0177115345651,46.3766218462473 16.0179358559981,46.376906227646 16.0175066141758,46.3773817667717 16.0173527411278,46.3780347968181 16.0172574086152,46.3782773074097 16.0158752245862,46.3777199882635 16.014994007852,46.377278947864 16.0140856158159,46.3767174003897 16.0135709477555,46.3758587804409 16.012513894519,46.3749952452374 16.0121762009803,46.3755026133208 16.0119462863482,46.3762012049463 16.0121375447512,46.3771602239974 16.0120564925454,46.3774732312026 16.0117903116537,46.3780880202594 16.0135148087413,46.3784450484631 16.014373737633,46.3786790044633 16.0154189462151,46.3791365876014 16.016502654338,46.3795592700147 16.0180385197805,46.3800379281247 16.0199382047861,46.3804773325393 16.0214358386009,46.380764197715 16.0221449617182,46.3810547656065 16.0218879416622,46.3815213136208 16.0215370798112,46.3822262230356 16.0222906401223,46.3823960116837 16.0229832887069,46.3826940992284 16.0238238717622,46.3835612745849 16.0238427116518,46.3845689615132 16.0239587848186,46.3857217105893 16.0271709922301,46.3876117122826 16.0298952588893,46.3887105857054 16.034149714644,46.3884858578797 16.036993675615,46.388741351177 16.0398569467125,46.390025866151 16.0405049807997,46.3904155735478 16.0406104810745,46.3906165983171 16.0409150362681,46.3907279095107 16.0417194211331,46.3911198754178 16.0425008621782,46.3917403011329 16.0433642518509,46.3923408999061 16.0439347527237,46.3926987256963 16.0443754371416,46.3930265144395 16.0462901958684,46.3941789922253 16.0492126091351,46.3949948822336 16.053359121822,46.3961739766753 16.0564837794444,46.3966503366792 16.0576861775696,46.3967539340785</coordinates></LinearRing></outerBoundaryIs></Polygon></MultiGeometry>
  </Placemark>
</Folder>
</Document></kml>
