<?xml version="1.0" encoding="utf-8" ?>
<kml xmlns="http://www.opengis.net/kml/2.2">
<Document id="root_doc">
<Schema name="pregledovalniklovisca" id="pregledovalniklovisca">
	<SimpleField name="lov" type="string"></SimpleField>
	<SimpleField name="lov_naziv" type="string"></SimpleField>
	<SimpleField name="luo" type="string"></SimpleField>
	<SimpleField name="luo_naziv" type="string"></SimpleField>
	<SimpleField name="povrsina" type="float"></SimpleField>
</Schema>
<Folder><name>pregledovalniklovisca</name>
  <Placemark id="pregledovalniklovisca.1">
	<Style><LineStyle><color>ff0000ff</color></LineStyle><PolyStyle><fill>0</fill></PolyStyle></Style>
	<ExtendedData><SchemaData schemaUrl="#pregledovalniklovisca">
		<SimpleData name="lov">1021</SimpleData>
		<SimpleData name="lov_naziv">ČREŠNJEVEC</SimpleData>
		<SimpleData name="luo">10</SimpleData>
		<SimpleData name="luo_naziv">Slovensko Goriško</SimpleData>
		<SimpleData name="povrsina">2472.05</SimpleData>
	</SchemaData></ExtendedData>
      <MultiGeometry><Polygon><outerBoundaryIs><LinearRing><coordinates>15.6310074014615,46.3345075331427 15.630214427623,46.3348706223724 15.6296588478828,46.3350943829549 15.6291834608783,46.3353454107775 15.6283897001452,46.3356532491912 15.6271184471939,46.3360188543155 15.6260073643195,46.3364663421504 15.6253341415878,46.3368563629174 15.6249753749793,46.337324645924 15.6243686798273,46.3376608543215 15.6242028927492,46.3379316734921 15.6238686533408,46.3382394001477 15.622420498277,46.3399658343372 15.6219298497811,46.3402294208365 15.6212617214548,46.3408808462046 15.6208635454031,46.3412699753927 15.6205164805384,46.341595755946 15.6197294756026,46.3420768718193 15.6190838265755,46.3424222600985 15.618321966473,46.3428312530563 15.6175237870568,46.3434654551471 15.616883572336,46.3442966462445 15.6163579306823,46.3449202822924 15.6158451680888,46.3455349393374 15.6154992871696,46.3459596663462 15.6149457146286,46.3464125007706 15.6142488255004,46.3468301139573 15.6137739684807,46.3475733066245 15.6131804696347,46.3479904481662 15.6128287378303,46.3486272603108 15.6125175000467,46.3493190966824 15.6120479442465,46.3501221742217 15.6109845153216,46.3513147604577 15.610315920799,46.352146425079 15.6099635159009,46.3527280792318 15.6098855831442,46.3528941317085 15.6095347023079,46.3536137020038 15.6091456349566,46.3544992012704 15.6087533124105,46.3550809741101 15.6084407620864,46.3556624110774 15.6079478574969,46.3562098973808 15.5996055850786,46.3582119849988 15.5975292385863,46.3605684872769 15.596173734627,46.3621491543226 15.5960614390591,46.3630202984783 15.597012076756,46.3630906449022 15.5983562733231,46.3632121875265 15.5983488510524,46.3633775029513 15.5983224450551,46.3638395518172 15.5983362516316,46.3651279529072 15.5982279918349,46.3667709377748 15.5980770977178,46.3676401258424 15.5973879435586,46.3689466859406 15.5965376758037,46.370189843006 15.5953225504153,46.3719264039408 15.5935665649285,46.3741383764845 15.591039504416,46.3772095706307 15.588472250648,46.3804621148905 15.5865130948113,46.3828856421217 15.5846230754788,46.38506676042 15.5840720458699,46.3854895587693 15.583293280677,46.3857711828449 15.5825042590559,46.3860671591625 15.5816692435837,46.3868687285335 15.5809878476481,46.3876055422699 15.5806557875617,46.3883048602818 15.5805585337275,46.3888322213959 15.5799377237886,46.3894618360542 15.5784685347991,46.3905011489409 15.5756701980909,46.3921998770808 15.5739151431933,46.3929878426242 15.5734564319811,46.3930408871394 15.5734568305328,46.3930416948748 15.5734017599382,46.3930973028405 15.5735937641826,46.3932786200477 15.5736521681383,46.3933798137398 15.5736522981627,46.3933798130875 15.5737917530201,46.3936214038254 15.5738558296735,46.3939163652463 15.5740302689952,46.3942698832561 15.5742772481014,46.3945221798855 15.5745715817766,46.3947144077292 15.5754719333906,46.3951467768082 15.5763248833412,46.395608348141 15.5771949314448,46.3960005495782 15.5781013111649,46.3961747423956 15.5792836622881,46.3963020953614 15.5801140330287,46.3964075599634 15.5810543733896,46.3965209170443 15.581599106132,46.3966189147743 15.5820766899306,46.3967488313215 15.5823097047949,46.3968574089158 15.5825643197622,46.3969916075297 15.5828418119734,46.3971614072206 15.5841915172187,46.3979307846723 15.5851858862076,46.3985331805717 15.5858190796189,46.3984370892547 15.5872701004407,46.3984127324863 15.5872520063996,46.3984231719968 15.5886487652313,46.3984562075513 15.589990398229,46.3984661181667 15.5915023525443,46.3984245688521 15.5930388939722,46.3984080637467 15.5947217254732,46.3983908672695 15.5959652789904,46.398350564488 15.5966322513231,46.3982892357169 15.5972201341541,46.3982258869182 15.5979086329905,46.398171186056 15.5989022189002,46.3981410650603 15.5996723523206,46.3982973564092 15.6004441176708,46.3986138712375 15.6012275042876,46.3988628419693 15.6019110140539,46.3989098997353 15.6026914949417,46.3989057890777 15.6036035818353,46.3988397954496 15.6038852980781,46.3988111403123 15.6038964961084,46.3988124307342 15.6041447546331,46.3987892566658 15.6042280930366,46.3983751325712 15.604993259345,46.397362609032 15.6053514307228,46.396801727506 15.6055219145367,46.3964610066877 15.6057689165386,46.3958787595685 15.6062066211757,46.3953502930872 15.6069451998447,46.3948202283913 15.6076538797347,46.3944328309311 15.6083478950958,46.3941659774929 15.6088253849419,46.3940498036901 15.6092398633875,46.3939036435613 15.6095472844574,46.393754003947 15.6098946513463,46.3936535442477 15.6102583672404,46.3935967218895 15.6106851677201,46.3935067222886 15.6113962449622,46.3933495231453 15.6118864855519,46.3932701562567 15.6121866227986,46.3932026915352 15.6127872799602,46.393078914013 15.6138460669055,46.3928539774704 15.6150857650506,46.3923208989681 15.6167452841941,46.3905515081414 15.6173451300788,46.3898864483367 15.6178167485192,46.3895660354755 15.6190174521486,46.3892854920063 15.6207505677278,46.3884649229296 15.6216039221249,46.3882848449331 15.6240845302242,46.3891152578225 15.6258579301012,46.3890506838472 15.627882207071,46.3887655369131 15.6297410455345,46.3878783725723 15.6308885132978,46.387104688819 15.6325460049436,46.3866132002213 15.6332854414718,46.3861332532232 15.633420486587,46.3855341108201 15.6332367726539,46.3847240432348 15.6330224870178,46.3840017758729 15.6330469903629,46.3831410711134 15.634108793301,46.3820774932265 15.635257096637,46.3813915715057 15.6364222449621,46.3808040623048 15.6389587537672,46.3810090860515 15.6391420224339,46.3804380076244 15.6404749960093,46.3786992433746 15.6413759191185,46.3774265963011 15.6421357590777,46.3771407236003 15.6433572472263,46.3771693963634 15.6455897443956,46.3766290459238 15.6497541650243,46.3759726050079 15.651741265112,46.3762082666947 15.6533596304631,46.3753894744812 15.6546952209425,46.3743526598268 15.6526636174646,46.3739665123804 15.6512689734494,46.3737231753797 15.6508969950644,46.3729714279078 15.6505837238322,46.372072782666 15.6517217370313,46.3711029847079 15.6567627524278,46.3676817014747 15.657701306919,46.3677391067909 15.6592452075729,46.3678348525703 15.6603963541935,46.3679747728535 15.6612140444234,46.3680537205381 15.6616403717597,46.3682815800661 15.6621860506249,46.3683831475443 15.6651989864866,46.3673813786702 15.6681725018523,46.3675258101341 15.668074509686,46.3669505688067 15.6679602466489,46.3661172058056 15.6682574699399,46.3659778136927 15.667873577454,46.3654042424791 15.6675030172227,46.3648575833854 15.6681135832287,46.3648360234514 15.6677273781457,46.3640825232193 15.6674973641732,46.3633371070508 15.6672154864968,46.3626009900568 15.6669734560564,46.3619456137645 15.6667963154851,46.3612718643159 15.6665917475979,46.3604903091809 15.6676944073412,46.3603308352335 15.6677694141533,46.3600874754619 15.6676475341215,46.3596833175032 15.6673936335375,46.3591089850189 15.6674483955656,46.3582809317213 15.6674916069275,46.3575609109869 15.6675362414654,46.35695784424 15.6676838158954,46.3562821995159 15.6677680847342,46.3557328837675 15.6677614891999,46.3552020927865 15.6677815577499,46.3547161315996 15.66782541999,46.3540500891638 15.667857364145,46.3534830844896 15.6678127970291,46.3530244919873 15.6677813327994,46.3525748200268 15.6677757443827,46.352115999798 15.667913379914,46.3516923314985 15.668138032397,46.3509352612591 15.6683157551996,46.3505923322055 15.6686334051097,46.3500146596444 15.6689125322304,46.3494642028585 15.6692555139958,46.3488234004144 15.6691833991606,46.3482480067241 15.6695628177459,46.3474000561519 15.6687564798318,46.3473327979079 15.6675749304984,46.3473936848724 15.6666525495039,46.3473991561685 15.6661333346583,46.3474381705716 15.6653422837414,46.3475597387654 15.664421751577,46.3477180424093 15.6632793815635,46.3477967415249 15.6621371156942,46.3478843357713 15.6616306671536,46.3479052615515 15.660578145317,46.3478934425438 15.6600991950994,46.3480401623753 15.6595798826839,46.3480611533299 15.6589189390323,46.3481999207322 15.6580378914943,46.3484029310124 15.6575821079985,46.3483155818331 15.6569599163319,46.3484362107704 15.6566762565904,46.3486177825435 15.6560451569901,46.3490802582159 15.6556454255609,46.349334470242 15.6549883476761,46.3497880918497 15.654393189967,46.3499984331264 15.6538108061838,46.3501907939941 15.6530584491399,46.3502940616255 15.6524468606479,46.3502165788462 15.6519272874332,46.3502285393946 15.651278648738,46.3503132097005 15.6505284198533,46.3505963908862 15.6500741241028,46.3506350529434 15.6489045381297,46.3506057077143 15.6481522721622,46.3507179396467 15.6475546339718,46.3507213256738 15.6466353763205,46.3509965312345 15.645859659151,46.3513248114441 15.6445729998162,46.3512960831024 15.643623085799,46.3511755641713 15.6425865522189,46.3514243158787 15.6419898537524,46.351508641562 15.6414813631929,46.351358544353 15.6407992443672,46.3508045478518 15.6405487144757,46.3504910525033 15.6402081897391,46.3502591245062 15.6394941518304,46.3503081056253 15.6390527363837,46.3503375647692 15.6392687765175,46.3499224898372 15.6395735278056,46.3493269759689 15.6396203528014,46.3488858552846 15.6396412987939,46.3484538764327 15.6395729578231,46.3481753480152 15.6397362851366,46.3476975870246 15.639705579369,46.3472928883986 15.6392569517236,46.3467015873582 15.6389796036295,46.3463252584329 15.6387283713279,46.3459487829344 15.6386200428235,46.3455715088361 15.6386170045848,46.3453106092263 15.6385847372097,46.3447709619929 15.638451687614,46.3445017912153 15.6383964531622,46.344232185853 15.6385077125893,46.3437457198489 15.6385931988151,46.3432773918883 15.6388107870277,46.3429972655656 15.6385589428893,46.3425668101366 15.6382937722573,46.3421183442856 15.6381978165109,46.3416870176991 15.6379588685696,46.3412474917472 15.6379393909955,46.340689778336 15.6375040358618,46.3401163899897 15.6373307545506,46.339748473541 15.6370654252713,46.3392731040902 15.6369804887326,46.3386707693427 15.6368456864514,46.3382486549019 15.636725755104,46.3379884058947 15.6368748099758,46.3374117591268 15.6372179887161,46.3367620533629 15.6371332636627,46.3361777115644 15.6370265331844,46.3359353835 15.6370328102488,46.3353685288013 15.6369625402548,46.3349100661612 15.6366969247696,46.334407705642 15.6365111221052,46.3340668487424 15.6361019156165,46.3335023060093 15.6368114301936,46.3330933953585 15.6370642951676,46.3324981753649 15.6356898259582,46.3326881970461 15.6356650017744,46.3326980519673 15.6340630218817,46.3333317981011 15.6331504646358,46.333695570841 15.6323176429577,46.3340588953616 15.6312436207123,46.3345818952683 15.6310074014615,46.3345075331427</coordinates></LinearRing></outerBoundaryIs></Polygon><Polygon><outerBoundaryIs><LinearRing><coordinates>15.6036035818353,46.3988397954496 15.6036035484293,46.3988397988475 15.6036035949882,46.3988397944978 15.6036035818353,46.3988397954496</coordinates></LinearRing></outerBoundaryIs></Polygon></MultiGeometry>
  </Placemark>
</Folder>
</Document></kml>
