{"type":"FeatureCollection","features":[{"type":"Feature","geometry":{"type":"Polygon","coordinates":[[[15.6995144028414,46.6714673424886],[15.7001795097658,46.6713553148575],[15.7005567561293,46.6712180563618],[15.7009345820905,46.6711257761753],[15.7014670166305,46.6708615211942],[15.7019720148428,46.6705075557893],[15.702320899889,46.6701995296088],[15.7027331401356,46.6697381706406],[15.7031207537391,46.6693939176048],[15.7033654307001,46.6691135183804],[15.7034368365156,46.6685732818736],[15.703770997158,46.6681392989418],[15.7042879711933,46.6677042798125],[15.7044815326922,46.6675141590144],[15.7048846427982,46.6673587336264],[15.7054920334877,46.6668331856364],[15.7057506896769,46.6666245780417],[15.7063360303948,46.6664140435435],[15.7071048961236,46.6662473551362],[15.7079121357965,46.6660173577567],[15.708472149673,46.6658699454103],[15.7089272697416,46.6656961903966],[15.7095002269874,46.6655396961761],[15.7098387964175,46.6654476298811],[15.7098562207466,46.6657803971331],[15.7102155283796,46.6662638954587],[15.7103903539604,46.6666406685918],[15.7105915528697,46.6670352709031],[15.7108332549142,46.6675285841228],[15.7109937236437,46.6678064825443],[15.7114752231575,46.6676505467881],[15.7120410449736,46.6679349190541],[15.7126719617608,46.668209796478],[15.7131989346022,46.6685303914789],[15.7138189291434,46.6689673598831],[15.7141894546066,46.6693159160931],[15.7145337420733,46.6696466416931],[15.7149411090959,46.6698150328522],[15.7154784476531,46.6699285401731],[15.7158083601956,46.6701693855521],[15.7161920938856,46.6705268492094],[15.7171748398626,46.6707186192626],[15.7176472069482,46.6708595134863],[15.7181856465989,46.6710450641322],[15.7186843958632,46.6712038716817],[15.7189532820409,46.6717689696813],[15.7188933065964,46.6721741945294],[15.718728898643,46.6725890719898],[15.718719169083,46.6728410384981],[15.718775500017,46.6731465697442],[15.7190035306147,46.6735769747948],[15.7192197971669,46.6741154127384],[15.7194494956071,46.6746807556232],[15.7197174519158,46.6751738844124],[15.7199306369874,46.6754694316026],[15.7203668337437,46.675835547477],[15.7205814827802,46.6752673190391],[15.7209283664775,46.6748242996526],[15.7213144634019,46.6743720353572],[15.7216516302851,46.6741719836807],[15.7221848325223,46.6739706938351],[15.7229277356194,46.6738129698694],[15.723633109344,46.6737815210794],[15.7241028773749,46.6737245693672],[15.7245714420348,46.6735776571416],[15.7248699849831,46.6734227336647],[15.7253585443499,46.6728168638417],[15.7257585018251,46.6724274728433],[15.7259779008581,46.6722191586548],[15.7265126348401,46.6721347949272],[15.7276911136819,46.6722981518014],[15.7284101376888,46.6723115698336],[15.7290113096191,46.6722986544656],[15.7295875459161,46.6723849477623],[15.7300974708054,46.6723996883248],[15.730429987117,46.6718577686605],[15.7304914421802,46.6715784809774],[15.7306845612048,46.671361328873],[15.7310861666598,46.6710977713793],[15.73151512,46.6709240938391],[15.7318921613557,46.6707777366371],[15.7322554033204,46.6705774867469],[15.7327092696373,46.6703136790022],[15.7335165805517,46.6700924972594],[15.7338805424834,46.6699462173257],[15.7341914989496,46.6697462966022],[15.734529929879,46.6696451615542],[15.7350252985103,46.6695520140558],[15.7354282115949,46.6693873957245],[15.7357527154102,46.6692233701681],[15.73618017312,46.668941725131],[15.7363334454944,46.6686798365976],[15.7365656120722,46.6684534265054],[15.7369685135137,46.6682888927505],[15.7373058279439,46.6681066970078],[15.7376724587318,46.6681583136173],[15.7380101385143,46.6680031932944],[15.7384633425765,46.6676943836869],[15.7387451925435,46.6672787191823],[15.738583358325,46.6669109020562],[15.738484159617,46.6663537511287],[15.7384537372187,46.6660390653098],[15.7385515363009,46.6655436191847],[15.7388062588723,46.6650560664222],[15.7388927022263,46.6646866461476],[15.7391225115487,46.6642893098226],[15.7380882758408,46.6641521300695],[15.7376825855841,46.664118759887],[15.737002624442,46.6640871552972],[15.7369989567256,46.6638172798181],[15.7370684314142,46.6631600777406],[15.7371034738368,46.6628539662886],[15.7370607288321,46.6625933391357],[15.7369241973506,46.6621623799032],[15.7366583417336,46.6618402128819],[15.7364581950005,46.6615356155769],[15.7362701396156,46.6611589669709],[15.7361093176752,46.660863112599],[15.7359996624931,46.6604859590782],[15.7360254986273,46.6601751388187],[15.7370645944333,46.6601855432554],[15.7374861165934,46.6602514713972],[15.7381660286403,46.6602829834516],[15.7384052646854,46.6602622768799],[15.7389820098698,46.6602983184096],[15.7409057138165,46.6603351790102],[15.7414821597598,46.6606358911026],[15.742043976602,46.6602298289471],[15.7427883011385,46.6599552797846],[15.7431680460621,46.6590698831361],[15.7433338241495,46.6581613145539],[15.7434114567919,46.6578670696408],[15.743479443393,46.657727089877],[15.7437588089338,46.6575369743455],[15.7441498693585,46.6574120771418],[15.7445000756294,46.6573190226804],[15.7445181741638,46.6573048701395],[15.7445881794348,46.657293168767],[15.744898889516,46.6570073020367],[15.7450807770211,46.6568650502498],[15.745279491284,46.656749318644],[15.7461119209335,46.6563303172787],[15.7472130500709,46.6561065819482],[15.7484720425165,46.6558665090936],[15.7491681573269,46.6554947997875],[15.7509065588785,46.655918931567],[15.7510545257505,46.6560365362077],[15.75136522314,46.6563187004369],[15.7513922181152,46.6563432639433],[15.7515180658187,46.6564862938261],[15.7517369272361,46.6566563321876],[15.7522861960064,46.6570686370923],[15.7524856600163,46.6571492848883],[15.7528410417093,46.6573831990346],[15.7534970677099,46.6581709454267],[15.7540361762097,46.6586116481922],[15.7545181687785,46.6589755338352],[15.7548490882885,46.659055760348],[15.7549510864425,46.6590425820292],[15.7553009574084,46.6582316542527],[15.7558031264835,46.6578019869326],[15.7567861985015,46.6574617129816],[15.7569570876008,46.656945434356],[15.7570174697846,46.6561601670529],[15.7562948363803,46.6554044591141],[15.7565272694136,46.6541765886358],[15.7568020683421,46.6534389348637],[15.7578210860903,46.6524511944542],[15.7580897162259,46.6514328824659],[15.7585285134181,46.6512423038699],[15.7587862614588,46.6509885983374],[15.759108948168,46.6507075613569],[15.7596790805084,46.6503709007502],[15.7600801388722,46.6500893405903],[15.7604348659323,46.6502309300317],[15.7607640974893,46.6504175812388],[15.7612514823358,46.6507022325435],[15.7616072310373,46.6509067881619],[15.7621331835902,46.6511461956542],[15.7626730896175,46.6514484843234],[15.7630417816068,46.6516529491808],[15.7633796654672,46.6515247420267],[15.7640456573812,46.6515022131758],[15.7642913321847,46.6513206391026],[15.7647699937604,46.6509845641456],[15.7652226494007,46.6506576577617],[15.7653895553197,46.6504496181192],[15.7655166353012,46.6501968613957],[15.7657488538355,46.6499882942255],[15.7661114501242,46.6497609502695],[15.7665534391577,46.6496050465526],[15.7669969516578,46.6495570908617],[15.7674154821723,46.6495902709843],[15.7676859904795,46.6493185563432],[15.768088016733,46.6491088448706],[15.7685031041569,46.6488991342106],[15.7689988610704,46.6488508198088],[15.7694692565561,46.6488566538122],[15.7701355970896,46.6488611670866],[15.7709973700331,46.6488282830391],[15.7709136238957,46.6484509874483],[15.7715485890213,46.6480868406229],[15.7718704242848,46.647751793192],[15.7721811132297,46.6475517700599],[15.7727006725209,46.6473412489782],[15.7730346712177,46.6471180346117],[15.7732025744732,46.6460202061923],[15.7732607705355,46.6456396136411],[15.773485047556,46.645436392277],[15.774027484805,46.6449449243192],[15.7752751760941,46.6438121623688],[15.774402812682,46.6435640043937],[15.7727624842037,46.6429944501898],[15.7703918219839,46.6429194815063],[15.7710689066111,46.6423889747237],[15.772114438745,46.641856067899],[15.7726650017666,46.6416892412718],[15.7731618904412,46.6414501715488],[15.7739714899256,46.6409913550085],[15.7742565289735,46.64066302694],[15.7747453767456,46.6398618022821],[15.7760693606567,46.6385471408421],[15.7766977241641,46.63830716369],[15.777428103555,46.637830776835],[15.7777331204128,46.6370670446217],[15.7775631428538,46.6362156742115],[15.7772877800828,46.6353651094305],[15.7773298946235,46.6346212471601],[15.7776627027303,46.6339660958322],[15.7772865072404,46.6334245326089],[15.7769344902787,46.6327375973372],[15.7765603862463,46.632341134039],[15.7760073375871,46.6323266233422],[15.7751180990871,46.6327315646958],[15.7745406101773,46.632844245745],[15.7735317540319,46.6322342582232],[15.7729946481709,46.6318350166475],[15.7727899189397,46.6316828262079],[15.7727335571172,46.6316410124221],[15.771821150235,46.6322637146043],[15.7711908268068,46.633033493492],[15.7711345455435,46.6328042773534],[15.7705624974483,46.6329880654485],[15.7702260219724,46.6332062517245],[15.7697186251643,46.6333446168712],[15.7690517117854,46.6332862149803],[15.7685934916446,46.6332083240413],[15.7678999523668,46.6331140175871],[15.7671021961158,46.633038399127],[15.7665168196485,46.6332043529291],[15.7660742017985,46.6333062811242],[15.7655522116475,46.6333367652457],[15.7652254761268,46.633320957736],[15.7647918587277,46.6331349267596],[15.7643702901946,46.6328768401311],[15.7639081531976,46.632529145907],[15.7635511295658,46.6322166451143],[15.7632197220708,46.6318679855506],[15.7627967805269,46.6315109386477],[15.7625183753339,46.6312159037608],[15.7623317587766,46.6309562433667],[15.7621571979672,46.6306156220897],[15.7620097652666,46.6303467034123],[15.7619015095501,46.630077523638],[15.7619228293809,46.6297355073381],[15.7620208576853,46.6292760230981],[15.7622206936788,46.6286359266117],[15.7624784446743,46.6283912083587],[15.7628532113893,46.6281098125066],[15.7631358099179,46.62777505007],[15.763079153334,46.6274605436097],[15.7631381211269,46.627010315443],[15.7633824244927,46.6267387846512],[15.7636008631743,46.6264854193556],[15.7637655511767,46.626124452096],[15.7634971865136,46.6256224282204],[15.763032845018,46.6251037175171],[15.7630384444773,46.6245728748391],[15.7629167592899,46.6242767952262],[15.7628466730086,46.6239354778813],[15.7628149948207,46.6235488309092],[15.7627303359211,46.6230995602111],[15.7625824159893,46.6227946583691],[15.7623419644985,46.6224094026078],[15.7621552576497,46.6221317487455],[15.7618886948069,46.6217556626453],[15.7616746180567,46.6213882231825],[15.7613957870527,46.6209375449049],[15.7612515092982,46.6207238436046],[15.7609813151229,46.6203672123584],[15.760756463337,46.620161873474],[15.7603484491492,46.6199306715205],[15.7599124337599,46.619573700186],[15.7595289040627,46.6192253754407],[15.7590133125837,46.618769965117],[15.7586950741634,46.6184212943098],[15.7583238575593,46.6180279002558],[15.7580180545243,46.6176340715756],[15.7575823289855,46.6172860860328],[15.7572263206552,46.6170365350344],[15.7568715690651,46.6168769417278],[15.7570758154872,46.6165427119327],[15.7570850527509,46.6165028853336],[15.7573894480484,46.616319136942],[15.7572862911563,46.6161778516929],[15.7572492823422,46.6160799425208],[15.7565379867087,46.6161091195073],[15.7556101674073,46.6159189430184],[15.7550029355831,46.6157511148061],[15.7545030493846,46.6156316975211],[15.7541002128816,46.6148003581287],[15.7537424260404,46.6146555296929],[15.7525708603181,46.6148592809312],[15.752568821442,46.6147121080868],[15.7530616860906,46.6143165181012],[15.7533077105232,46.6140942089346],[15.752661599884,46.6136813737658],[15.7519462586128,46.6134161762758],[15.7517555594042,46.612485369586],[15.7513964366169,46.6122423883471],[15.7507556545512,46.6122219441921],[15.7504041994718,46.6125430937377],[15.7498043389393,46.6129149026279],[15.749488850106,46.6132602846556],[15.7485334444305,46.6136588866217],[15.7477552840714,46.6140072001427],[15.747370184985,46.614475746401],[15.7469133852339,46.6148956374004],[15.7466746169396,46.6156575082721],[15.7460819769223,46.6165688730538],[15.7455621527624,46.6176023852524],[15.7451131262544,46.6186108727966],[15.7445158520607,46.6191788548379],[15.7437010669872,46.6194537856545],[15.7433818103668,46.619529453634],[15.7415201216011,46.6187072707755],[15.7398381098678,46.618006700806],[15.7379037084932,46.6170623039948],[15.7374388225646,46.6168935543593],[15.7354465040651,46.6169306704269],[15.7335964866712,46.6169668394019],[15.7318182791845,46.6170515511914],[15.7306455883379,46.6171815817906],[15.7295151203933,46.6178018316533],[15.7287397393276,46.6183707769135],[15.7279229139597,46.6184985121884],[15.7266402338906,46.6183838612627],[15.7261604050162,46.6183945550841],[15.724938046328,46.6186217368836],[15.7238454739155,46.6193885165859],[15.7226727172022,46.6196660117185],[15.7221916541434,46.6196829943713],[15.7222363017777,46.6201340771413],[15.7222925942735,46.6204396096581],[15.7223373864245,46.6208621718725],[15.7223261753758,46.6209715525868],[15.7223142646464,46.6210872354066],[15.7225811387563,46.6215173918211],[15.7227156548097,46.6218134332747],[15.7229533195093,46.6220008623803],[15.7227611806823,46.6222809740908],[15.722556581516,46.6226061476581],[15.72241642676,46.6228679370303],[15.722132165737,46.6230946491155],[15.7219407363934,46.6234287351003],[15.7218224337902,46.6234290317338],[15.7217257855215,46.6235652217149],[15.7215918055558,46.6242037527528],[15.721421980236,46.6248179486202],[15.7208245847234,46.6254103678864],[15.7203660549478,46.6257320088498],[15.7195161816666,46.6260561098255],[15.7192743822186,46.6266217229428],[15.7187155125373,46.6274345776117],[15.7184378568849,46.6279759430641],[15.7182691522839,46.6286882806653],[15.7186368715963,46.629593557442],[15.7187166755436,46.6302553023143],[15.718546475694,46.6308450246029],[15.7179165748926,46.6316828817823],[15.7172835441527,46.6322754154189],[15.7168281748969,46.6328423615013],[15.7164113605364,46.633629752895],[15.7161351378004,46.6342937279277],[15.7162883608387,46.6351267609656],[15.7161549367414,46.6358143127153],[15.7157004966231,46.6364548409385],[15.7157465618011,46.6372639837525],[15.7158235633739,46.6377050588419],[15.7153401051258,46.6388608265391],[15.7143547960793,46.6397498263579],[15.7136888792486,46.6405633228187],[15.7130658814334,46.6419407288903],[15.7127916401818,46.6427518679665],[15.7118704593722,46.6431008261462],[15.712033489084,46.644694200658],[15.7114723980221,46.6453598456308],[15.7108467199028,46.6465410378971],[15.7108287892012,46.6479146693652],[15.7105544852988,46.6487258025881],[15.7100291884638,46.6494157785468],[15.7091498210447,46.6502550424529],[15.7093095875266,46.6516031003431],[15.7088199120934,46.6522928495353],[15.7079758257102,46.6531074144874],[15.7075957352825,46.6540172578606],[15.7076140338903,46.6546989107098],[15.7065489163297,46.6556915256869],[15.7047104859349,46.6567327998433],[15.7040032690694,46.657129497253],[15.7036158971761,46.6574751920468],[15.7033001756073,46.6578450059313],[15.7033498947,46.65894849827],[15.7049539900634,46.6590615201861],[15.7053535962822,46.6591037706671],[15.7047266432884,46.6592536495122],[15.7045745293605,46.6596144519489],[15.7043942967206,46.6598225743705],[15.7041527030847,46.6603368699138],[15.7038849866674,46.6608423289708],[15.7037078977002,46.6612932501664],[15.7035837712423,46.6617978251958],[15.7034829748169,46.6620863373439],[15.7031727642394,46.6623491466839],[15.7027586014638,46.6626575768807],[15.7023970510588,46.6629927624542],[15.7023350966562,46.6632540451669],[15.7023657880125,46.663595728849],[15.7024621493606,46.6639729958704],[15.7025954983765,46.6641790996456],[15.7026640965578,46.6644305840923],[15.7026413429066,46.6646916261557],[15.7025530205987,46.6649350775709],[15.7022186354647,46.6653509753423],[15.7019887833823,46.6657662308014],[15.7019003400011,46.6660006857775],[15.7016288503786,46.6662182700431],[15.7011608674476,46.6664100680729],[15.7008765234799,46.6666547191926],[15.7003865832473,46.6671706171101],[15.7002205378815,46.667468522118],[15.7001201779548,46.6677930148374],[15.7000082588013,46.6682345343095],[15.6999770829697,46.668846495577],[15.7000468366632,46.6691879405629],[15.7000240686734,46.6694489819691],[15.699913655157,46.6700074481113],[15.6996058199729,46.6704591619236],[15.6993856878236,46.6706179485975],[15.6991655543852,46.6707767348506],[15.6988695163932,46.67112041507],[15.6989300246635,46.6717588055525],[15.6995144028414,46.6714673424886]]]},"properties":{"fill-opacity":0,"stroke-opacity":1,"stroke":"#ff0000","lov":"1007","lov_naziv":"JAKOB","luo":"10","luo_naziv":"Slovensko Goriško","povrsina":2166.29},"id":"pregledovalniklovisca.1"}]}