<?xml version="1.0" encoding="utf-8" ?>
<kml xmlns="http://www.opengis.net/kml/2.2">
<Document id="root_doc">
<Schema name="pregledovalniklovisca" id="pregledovalniklovisca">
	<SimpleField name="lov" type="string"></SimpleField>
	<SimpleField name="lov_naziv" type="string"></SimpleField>
	<SimpleField name="luo" type="string"></SimpleField>
	<SimpleField name="luo_naziv" type="string"></SimpleField>
	<SimpleField name="povrsina" type="float"></SimpleField>
</Schema>
<Folder><name>pregledovalniklovisca</name>
  <Placemark id="pregledovalniklovisca.1">
	<Style><LineStyle><color>ff0000ff</color></LineStyle><PolyStyle><fill>0</fill></PolyStyle></Style>
	<ExtendedData><SchemaData schemaUrl="#pregledovalniklovisca">
		<SimpleData name="lov">1012</SimpleData>
		<SimpleData name="lov_naziv">LENART V SLOVENSKIH GORICAH</SimpleData>
		<SimpleData name="luo">10</SimpleData>
		<SimpleData name="luo_naziv">Slovensko Goriško</SimpleData>
		<SimpleData name="povrsina">3537.95</SimpleData>
	</SchemaData></ExtendedData>
      <MultiGeometry><Polygon><outerBoundaryIs><LinearRing><coordinates>15.837577281291,46.6138717483884 15.8382368079344,46.6137751512322 15.8387004328123,46.6137844386316 15.8388458057318,46.6134755947485 15.8392739772094,46.6134634576645 15.839790783751,46.6134335745832 15.8402226423136,46.6134403899767 15.8406107184189,46.6131151863312 15.8412884446727,46.6130987786091 15.8415575359426,46.6124254635405 15.8417904198386,46.611606487216 15.8417742889729,46.6114164150223 15.8415464810081,46.6107762642173 15.8415423383769,46.6107195253129 15.8411725425653,46.6097449299014 15.8407191043591,46.6083753614096 15.8403283545118,46.6074197200679 15.8403875750418,46.6074083090277 15.8405632140039,46.607395232916 15.8408088252888,46.6073738151174 15.8411288553678,46.6073530192251 15.8414781745412,46.6073268788624 15.8415289419314,46.6073344225563 15.842380470561,46.607452220528 15.8427664924828,46.6075115448707 15.843001576988,46.6074090493433 15.8439355565431,46.6069600634416 15.8439493638564,46.606966529202 15.8439857764259,46.6069491667715 15.8444535295238,46.6072025718305 15.8447303357025,46.6073321504969 15.8449870529572,46.6074374057494 15.8451791631296,46.6075013928944 15.8456485049608,46.6075878018717 15.8459904692238,46.6076343057671 15.8463992643728,46.607747339897 15.8466103102536,46.6078451022364 15.8467459037437,46.607884314119 15.8476448093949,46.608318137456 15.8481501692274,46.6082775952358 15.8483298272071,46.6082543110921 15.8488347680076,46.6081619477496 15.8495578989161,46.6080729102643 15.8501025684657,46.6080085860008 15.85033376572,46.6084342127502 15.8504086043624,46.608661723719 15.8504625865738,46.6087744113956 15.8504665039113,46.608774472241 15.8505214086498,46.608862681908 15.8506839006612,46.6093855335721 15.8506928097176,46.6093959035365 15.8513159076326,46.6099953991548 15.851321060474,46.6099993193727 15.8513218732777,46.6100012026383 15.8513463941793,46.6100247715394 15.8516130338839,46.6104282697459 15.8519087485405,46.6106958800606 15.8522597738222,46.6111602859439 15.852470031311,46.6112645209536 15.8528122122939,46.6114144652549 15.8524109366471,46.6108180935709 15.852316364444,46.6106565870986 15.8520831505366,46.610303763098 15.8529033351819,46.6099672911367 15.8534274708471,46.6104232053696 15.8534848648694,46.6104700100486 15.8537036443243,46.6106347272419 15.8541778331761,46.6108109424032 15.8548852878647,46.6110514487213 15.8554927591715,46.6112845113554 15.8556094977728,46.6113275423759 15.8557484078386,46.6113774248821 15.856056093551,46.611466889568 15.8563676505104,46.6117439063166 15.8569332443577,46.6119779944961 15.8574294020625,46.6117745494355 15.8581190414428,46.6115301554141 15.8587033569597,46.6113294622581 15.8593774504639,46.611134659345 15.8599642933685,46.6111519316006 15.8605164069121,46.6111278072069 15.8612279853827,46.6110828668978 15.8617582380307,46.6110221944049 15.8625005079729,46.6109041414318 15.8629506281468,46.6109439312744 15.8636318212942,46.6109342025033 15.8640199592831,46.6108116151428 15.8643154952189,46.6107850015459 15.8643913665993,46.6107781305844 15.8644822421395,46.6108609336048 15.8649405367764,46.6110697024874 15.8653353389531,46.6107754925475 15.8654616340166,46.6105083237779 15.8654834033569,46.6101374935797 15.8654508739744,46.609832840286 15.8657664356727,46.6094084156682 15.86583631114,46.6091892661226 15.865986998976,46.6089785915239 15.8661950060697,46.6086621309274 15.8662238797181,46.6084261077882 15.8662085154413,46.6081338301115 15.8661826216197,46.6078361441327 15.8663554984992,46.6075273264898 15.8661960048559,46.6072917400331 15.8662888516738,46.6069825387535 15.866489379456,46.606664244827 15.8666740597025,46.6063264576925 15.8668375278743,46.6059356602225 15.8670232421603,46.6056138788457 15.8672644145673,46.6051928025177 15.8674606336358,46.6049079173667 15.8676635948673,46.6044404367752 15.8678387217644,46.6039630905853 15.8682261192141,46.6034465268578 15.8682949863841,46.6030591440549 15.868678052537,46.6025254277943 15.8690142300181,46.6019740728929 15.8690790495653,46.6016442094909 15.8693494950742,46.6014640189614 15.8693209803945,46.6011665331931 15.869435101132,46.6009568513449 15.869405385428,46.6007311687722 15.869422649855,46.6007251896759 15.8694334539196,46.6006254235635 15.8695917747025,46.6004943970825 15.8695048337834,46.6002979391043 15.8695300716144,46.6001295080187 15.8698178573642,46.5998100047666 15.8698197718063,46.5998072911845 15.8698390560961,46.5996991835255 15.8699047066426,46.5995685013119 15.8700334649418,46.5994092692488 15.8700826060934,46.5993643615748 15.8701002307523,46.5993483032712 15.8702802104995,46.5991763557727 15.8703414875386,46.5991394527389 15.870419578235,46.5990603169358 15.870587757896,46.5989911116877 15.8706906613858,46.5989291505989 15.8709653742355,46.5988128006252 15.8711025776497,46.5987736097061 15.8715707850073,46.5987669845889 15.8716999982503,46.5987423386021 15.8718281937985,46.5986217048555 15.8718331589716,46.5984918438469 15.8718024395711,46.5983994113845 15.8717886799522,46.5983634392565 15.8716525598917,46.5981038405133 15.8716561615259,46.5978970676309 15.8716777152025,46.5975075238047 15.8715901518842,46.5972154365292 15.8715171247202,46.5970565703701 15.8713714248705,46.596581751815 15.8713668463593,46.5962961396299 15.8714346096893,46.5961756066994 15.871460133483,46.5961150440172 15.8715018637035,46.5960558873143 15.8715818053308,46.5959134893574 15.8715847656724,46.5959027606599 15.871593418956,46.5957342754061 15.8715076115371,46.5956003376301 15.8715082640302,46.5956003326592 15.8713905641113,46.5952598922226 15.87142559932,46.5951006525996 15.8714425112319,46.5950239613433 15.8714461269254,46.5950134075907 15.8714675658321,46.5949504468868 15.8714540942061,46.5948672395131 15.8714756520644,46.5944860624784 15.8714559491347,46.5943642164964 15.8713527581083,46.5942122375417 15.8712735086761,46.5941289913394 15.8712727242637,46.5941289073461 15.8712274642168,46.5940817491498 15.8712082007687,46.5940605735315 15.8709980672259,46.5938399536426 15.8708549501731,46.5936151345364 15.8708442274161,46.5934590323723 15.8708373258327,46.5934437004471 15.8707771577353,46.5931012918364 15.870794427686,46.5930143416147 15.8707820961064,46.5929859157445 15.8708152430018,46.5928798614912 15.8709013214724,46.5928192877612 15.8709860193496,46.5927295749637 15.8710168422408,46.5926006865616 15.8710173570002,46.592600232804 15.8710198010818,46.5925898679164 15.8710823760259,46.5925285733256 15.8711336716167,46.5924719529431 15.8711935664726,46.5924307414828 15.8712989117986,46.5923509475779 15.8713031033918,46.5923356211534 15.8712877445983,46.5922404624008 15.8712030969314,46.592145921316 15.8710573469314,46.5920660603301 15.8709909242662,46.5920093466584 15.8708703727736,46.5919708586255 15.8708274854996,46.5919087475622 15.8709931326564,46.5917969162283 15.8710199399926,46.5917921237678 15.8710349139118,46.5917818434096 15.8711825726603,46.591736544891 15.8714586224991,46.5917059225499 15.8714651181236,46.5917040737135 15.8715279619638,46.5916677878273 15.8715476932306,46.5916693468875 15.8715784000119,46.5916717219992 15.8715958091277,46.5916668210726 15.8718409982837,46.5916649526812 15.8718833141391,46.5916506851865 15.8719590390112,46.5915875804943 15.8719935708001,46.5915680641992 15.8720770531745,46.5916631533982 15.8721488222081,46.591662606256 15.8722282445141,46.5916510246617 15.8723354231796,46.5915799426729 15.87243678196,46.5913820505725 15.8725748072365,46.5912895907001 15.8726800383629,46.5913167679224 15.87275026678,46.5912771861911 15.8728876256393,46.5912570650222 15.8730230473036,46.5913113617268 15.8730354249107,46.5913100976855 15.8730433938521,46.5913268608207 15.8731332393132,46.5914036372574 15.8732770146277,46.5914254815435 15.8734088190846,46.591352051329 15.8734953088842,46.5912524265217 15.8735211411083,46.5911382402432 15.8735438316214,46.5908447723894 15.873492325312,46.5906768361816 15.8734143649564,46.5906005990489 15.8733514195694,46.5903866866597 15.8732877013618,46.5903683698549 15.8731929100344,46.59045483264 15.8730578914926,46.5905067848747 15.8730439535382,46.5905408990272 15.8729959229482,46.5905893083136 15.8728976483616,46.5905564103344 15.8727783955028,46.5905092774986 15.8727833054382,46.5903842749415 15.872794711278,46.5902493263759 15.8727904202072,46.5902421617011 15.8726754680083,46.5901783519237 15.8724942235452,46.5901797344207 15.872323491525,46.5901856248196 15.8723129265213,46.5901859752857 15.8722278204468,46.5900953070327 15.8722885013055,46.5899650209849 15.8724751381349,46.5898849659344 15.8725257549457,46.5898594788935 15.8726287935529,46.5898071414601 15.872643947642,46.5898000083816 15.8726816154622,46.5897808278198 15.8727072252501,46.5897584104311 15.8727414186405,46.5897260311058 15.8727442921871,46.5897261891184 15.8727723479149,46.5897016837975 15.8728951732078,46.5895325070708 15.8729837228768,46.589406866238 15.8730386425608,46.5893486878597 15.8732093474478,46.5893900296344 15.8732438528365,46.5893689837038 15.873852609035,46.5894405377297 15.8739421143028,46.5893907316145 15.8739592524199,46.5893609113456 15.8739908200121,46.5892058357726 15.8739902445765,46.5892025113644 15.8739972651493,46.5891196874481 15.8740017040356,46.5890954522243 15.8740034938783,46.5890769052044 15.8740442448027,46.5890141562703 15.8741415363812,46.5889941597778 15.8741888688669,46.5889024808674 15.8742497751501,46.588786586857 15.8743746031669,46.5887423583418 15.8744271405892,46.5887552719811 15.8745039582513,46.5887118601407 15.8746422018763,46.5886822834779 15.874719599545,46.5886262715788 15.8748342196382,46.5886046125404 15.8752458939841,46.588439611621 15.8757929222172,46.5881307043154 15.8763025922065,46.5877713387626 15.8764886149391,46.587573064242 15.8766110372212,46.5874770302976 15.876787373484,46.5872851272477 15.8768813783283,46.5870939450206 15.8769591035915,46.5868077016498 15.8771461979301,46.5864254337821 15.8772416079179,46.5863296062611 15.8773661675114,46.5863177649017 15.8773684057706,46.5863109101865 15.8775752317475,46.5861651054165 15.8777364450346,46.5861766439754 15.8777604390395,46.5861028662536 15.8777118645802,46.5859958174715 15.8777806596651,46.5859327620223 15.8781829695455,46.585965391468 15.8782600842113,46.5859488751556 15.8783451237946,46.585914034489 15.8784477698863,46.5857978176786 15.8786489956848,46.5857337446745 15.8789479195827,46.5856834055016 15.8792415597547,46.5857340499778 15.8795121763324,46.5857407865189 15.8795380103195,46.585740587893 15.8795445122281,46.5857391883855 15.8799511157735,46.5856420450976 15.8801966636964,46.58563178901 15.8802437710696,46.5856156821787 15.8802666556357,46.585626752053 15.8803052786923,46.5856427390045 15.880305979122,46.5856457025504 15.880342145034,46.5856630579145 15.8803432287486,46.5856735758019 15.8804712206386,46.5857207234917 15.8805299002804,46.5856375914621 15.8805774521941,46.5855603029967 15.8808688344681,46.5854715106522 15.8808883602204,46.5853799530518 15.8808381627028,46.5852938805667 15.8808395541973,46.5852911708193 15.8808353397004,46.5852887741415 15.8808686829649,46.5852366059939 15.8808922384321,46.5851924303708 15.881100670812,46.5851224496435 15.8811279244097,46.5851132429474 15.8811611389456,46.5851014712311 15.8811647878192,46.5851011732209 15.8814313761178,46.5850205775477 15.8814335577038,46.5850183115439 15.881452408053,46.5849093052963 15.8814543738912,46.5849098299553 15.8812897989427,46.584771198076 15.8811833686513,46.5846614475737 15.8810015192245,46.5846243420208 15.8807987959999,46.5845874868705 15.8807901929466,46.5844913775609 15.8809483624777,46.5843555678118 15.8811475099653,46.5842603775435 15.881170923379,46.5842235803072 15.8811833386458,46.5841281188255 15.8811761248987,46.5840936267654 15.8810973053294,46.5840852371082 15.880944531523,46.5836921748899 15.880912232781,46.5835509942548 15.8808435879792,46.583510137665 15.8807675766896,46.5835300660101 15.8806134201379,46.5834784417343 15.8805771303126,46.5833969403698 15.8807018635617,46.5833479373311 15.8807704441616,46.5832801134079 15.8808108457659,46.5831884850187 15.8807601041018,46.5830686787349 15.880842332557,46.5829814965754 15.8808202891561,46.5829095121356 15.8807142539325,46.5828238694938 15.880768459429,46.5827225082804 15.8808971909528,46.5826787823374 15.8808947940034,46.5825308037581 15.880877698262,46.5824581514493 15.8808739388268,46.5824516127486 15.880875876886,46.5824504282433 15.8808751779261,46.5824475546558 15.8808392812766,46.5823661403004 15.8808512202147,46.5823459855478 15.8808500919755,46.5823407761026 15.8808485489923,46.5822455120746 15.880821486061,46.5821938990024 15.8806328556611,46.5821081724817 15.8806108915647,46.5820410456425 15.8807467013584,46.5818140909031 15.880782936971,46.5817553328281 15.8807698897681,46.5816748221214 15.8806290366356,46.5814855346277 15.8806127185849,46.5814689262326 15.8804412883618,46.5814702457959 15.8804739436512,46.5813354025942 15.880409635161,46.5812398119178 15.8802420689186,46.5812218483301 15.8803299650657,46.5810577004058 15.8804314846928,46.5808646578504 15.8805782725971,46.5807839964329 15.880736879091,46.5806193938113 15.8807530601475,46.580538927952 15.880751861223,46.5805374077298 15.880757286894,46.5805179329029 15.8807731012721,46.5804389993158 15.8807797052985,46.5804358895612 15.8807798270195,46.5804353488169 15.8807799560246,46.5804352578558 15.8811086696711,46.5798497348012 15.8811285423537,46.5793045564902 15.8811300766717,46.5792623497477 15.8812230240677,46.579241211062 15.8813076511683,46.5792219357597 15.8813246050022,46.5791731325315 15.8809483351592,46.5792066199126 15.8803957458518,46.5791727277511 15.8799803075325,46.5790998115146 15.8794550701756,46.5790467211795 15.8789290525123,46.578993724396 15.878348680288,46.5789601257789 15.8777690532888,46.5789645749021 15.8771335447233,46.5789504663698 15.8768022670103,46.5789341127946 15.8766589861941,46.5786495629848 15.8764882181012,46.5783270772225 15.8763446290589,46.5779665065042 15.8762855026548,46.5777383510878 15.8761979797692,46.5774725366652 15.8761388490788,46.577187341551 15.8761333285544,46.5768446061955 15.8761840485745,46.5766157892493 15.8762623692887,46.5763104680742 15.8764251519946,46.5761378321719 15.8766143614649,46.5758887907077 15.8766956204721,46.5757740886694 15.8767197224241,46.5755452955022 15.8766325069897,46.5752984621862 15.8764331757955,46.5749191553935 15.8764838856348,46.5746332086848 15.8764522434494,46.5743859493712 15.8763934293918,46.5741769546487 15.8761945865162,46.5738357000664 15.8760245813416,46.5735513539213 15.8759109448383,46.5733809251541 15.8758239052892,46.5730959433805 15.8757922656482,46.5728485938346 15.875758220778,46.5724680201461 15.8758082813076,46.5721821685566 15.8759154770113,46.5719527392012 15.8759672372155,46.5717239141914 15.8760169860432,46.5714188117141 15.8760142267079,46.5712474438598 15.8759565075863,46.5710575136298 15.8758143025091,46.5708300838263 15.8755605229113,46.5705273949844 15.8753355728672,46.5702244849611 15.875054581882,46.5699409864386 15.8747184664674,46.5696770719349 15.8743275242835,46.5693944123242 15.874048244562,46.5691681178663 15.8737128802902,46.5689422511068 15.8734342148494,46.5687539169434 15.8730148945426,46.56843350299 15.8725127979506,46.5681327021444 15.8720940963053,46.5678502465747 15.8715086626439,46.5674929469235 15.8710921068333,46.567343893899 15.8706483790108,46.5672330126788 15.8700838364635,46.5672104077078 15.8700684327098,46.56720971516 15.8699018302726,46.5671919989895 15.8696534040753,46.5671558314513 15.8693480228886,46.5670819497938 15.8690969887728,46.5669314515011 15.8689577348517,46.5668373232447 15.8687604840137,46.5665911394853 15.8685922339367,46.5664210280665 15.8683963355448,46.566251216261 15.8681738714438,46.5661577187058 15.8678683240943,46.5660647611268 15.8682239607968,46.5658715100618 15.8685794686098,46.5656213090859 15.8690960521579,46.5651413644392 15.8694472893516,46.5646815675852 15.8695545005161,46.5644523237243 15.8696611011609,46.5642420676581 15.8697137894565,46.5640700979583 15.8698208254414,46.5638790016192 15.8699277257587,46.5636305065685 15.8700835258351,46.5634301322668 15.8701442419367,46.5633524778046 15.870305657075,46.5631036576434 15.8704658549072,46.5627788234651 15.8705176284546,46.5625499105027 15.8704275472977,46.5621126312726 15.8703657246521,46.5617131934406 15.8702756912413,46.5612379471204 15.8702147841491,46.5608956319425 15.8700834055915,46.5603794945291 15.8700676477457,46.5603157370137 15.8699497961846,46.559878668471 15.8699307758813,46.5598229429078 15.8700355204897,46.5596930419855 15.8698915334139,46.559358825779 15.8698462938125,46.5592539070706 15.8697719216901,46.5592194749869 15.8697009132665,46.5589792601155 15.8695202123512,46.5585917914812 15.8692222822517,46.5575848828769 15.8690661052606,46.5570583162079 15.8690237401651,46.5569289939181 15.8686928027674,46.5570806748789 15.8677795906162,46.5574981312223 15.8663236476852,46.5578076815569 15.8658368324974,46.5578112774769 15.8649713117055,46.5578177356237 15.8644278748803,46.5576724065341 15.8632901121258,46.557568808629 15.8625286920126,46.5573131050644 15.8618765682499,46.5571312465471 15.8613850337147,46.5568362547111 15.8608917317797,46.5564291736993 15.8603455010528,46.5560972522071 15.8598016342393,46.5559145675511 15.8595282291944,46.5557299382966 15.8585481587059,46.5553265037491 15.8576244415543,46.5550719855012 15.8567001440133,46.554780037363 15.855359359103,46.5542755430999 15.8545726018792,46.5536383307817 15.8539488465704,46.5533066878766 15.8525519473282,46.5524211142255 15.851824547186,46.5520897822863 15.8508655708585,46.5518099209586 15.8495066661903,46.5513979800616 15.8487989272375,46.5511044494287 15.8477666500795,46.5508133201541 15.8470526990907,46.5506055644862 15.8458753777426,46.5504454062799 15.8446184058449,46.5501268502014 15.843749529785,46.5499090616865 15.8424468742017,46.5496198784485 15.8410366833387,46.5493666486755 15.8395979062182,46.549423641988 15.8381224390633,46.5495964052828 15.8385141267728,46.5521674360698 15.8384879133671,46.5525230026847 15.8364301747197,46.5523884507892 15.8347504141144,46.5522138573333 15.8326909824636,46.5519672400981 15.8311194725499,46.5517917152816 15.829656201354,46.5516154738327 15.8293869004456,46.5516921003896 15.8291908295447,46.5518333324791 15.8292567619925,46.5525489114939 15.829352855854,46.5528472691183 15.8290008141746,46.5529803648676 15.8284399598361,46.5530349902986 15.8282676626462,46.5529477992772 15.8279157462199,46.5530893477853 15.8277597407758,46.5532673542826 15.8275547075037,46.5534373482292 15.8270889758396,46.5537532661609 15.8266083296423,46.5539891283076 15.8260767287768,46.5542019646881 15.825299837082,46.5545024882057 15.8245229353974,46.5548029165283 15.8233804628584,46.5552066459293 15.8229267158267,46.555429343484 15.8224909461821,46.5556768311419 15.821621456055,46.5569736726808 15.8212237507869,46.5574718031057 15.8208047842416,46.5580308131372 15.8205667508891,46.5584368375788 15.8207069165324,46.5588233246212 15.8213135087343,46.5593665167089 15.8215617136058,46.559625821718 15.8216114594352,46.559923078842 15.82141266072,46.5602671049984 15.8167650194343,46.559795123883 15.8164623719021,46.5599741616878 15.8158806309857,46.5602246450037 15.8150454108525,46.5607593414569 15.8142617737539,46.561438783041 15.8132817460705,46.5620438625285 15.8122117361974,46.5623632042451 15.8110397649724,46.5623884336632 15.808983018351,46.5621393014699 15.8079472193757,46.5622081602344 15.8069853708278,46.5624087409409 15.8059907342383,46.5628707217322 15.8052149763478,46.5632636773005 15.8045114215972,46.5634769035252 15.8039222310899,46.5638915697927 15.8035484373,46.5642301366509 15.8033915688591,46.5646046056369 15.80339915338,46.5651271763781 15.8032986137532,46.5656505963816 15.8031962873476,46.5660619287125 15.8030394100358,46.5664363071864 15.8027202746931,46.5668119141196 15.8022938435825,46.567262766172 15.8013114457174,46.5677052768503 15.8003004784094,46.5678738466427 15.7976474882389,46.5677800066548 15.7960787744469,46.5678280012603 15.7948878808513,46.567798766153 15.7939222497818,46.5677233313675 15.7920157944203,46.5675196343521 15.7913033385235,46.5673792667776 15.790678559913,46.5672488150172 15.7900608431537,46.5670475063069 15.7892456322549,46.5669807995514 15.788308995751,46.567248434952 15.7875181130548,46.5674476733545 15.7866139712105,46.5674286132707 15.7858402843579,46.5671391060214 15.7854087217642,46.5668557020128 15.7848985050952,46.5662105351949 15.784249841405,46.5652715802846 15.7834093373692,46.5645781985694 15.7826957784857,46.564220872136 15.7817986282678,46.5638311481058 15.7807409418724,46.5633245648057 15.780199125369,46.5630165224751 15.7800294797734,46.5628745403484 15.7796130679043,46.5627155266912 15.7794749330108,46.5626879481937 15.7790592054014,46.5625765209212 15.7786440239131,46.5625031448794 15.7775734820712,46.5624805575515 15.7774010715171,46.5624640056927 15.7769868447426,46.5624572834283 15.7768334315074,46.5624648930321 15.7764545350823,46.5624569392563 15.7758637130995,46.5629360690023 15.7754567343048,46.5628615461451 15.7748916882999,46.5629166569522 15.7743720238123,46.5629986280936 15.7739798741456,46.5631137420599 15.7736846651914,46.5632766917969 15.7735316915508,46.5635907249023 15.7735140150576,46.5638337579402 15.7734683772972,46.5641193549408 15.7733189230764,46.5643875702274 15.7727447729977,46.5649510508634 15.77225789806,46.5652862305408 15.7721291332585,46.5655606922597 15.7718221241304,46.5658218717709 15.7711832309211,46.5661267635714 15.7709898499903,46.56657340832 15.771013641633,46.5669268218735 15.7707944403748,46.5672269925674 15.7710531080019,46.5674105832118 15.7714564742716,46.5677987741697 15.7711016099463,46.5681820908887 15.7708163279636,46.5684773988728 15.7705463034236,46.5686896529655 15.7703803788972,46.5689481686265 15.7701818456515,46.5692715904902 15.7699877606637,46.5695499981125 15.7697015670719,46.5698371222978 15.769445458009,46.570065564285 15.769071097742,46.5703452727304 15.7687260891346,46.5705698123347 15.7683299304009,46.5709692320805 15.7678084098594,46.5711661645999 15.767344637232,46.5712862347107 15.7667221573439,46.5715494260032 15.7665231270925,46.5717749596798 15.7663145112072,46.5720795489677 15.7661537160175,46.572352418816 15.7659183479121,46.5726660033654 15.7657304109034,46.5729201610718 15.7655995362297,46.5731873417744 15.7655171690562,46.573527071636 15.7653489472857,46.5738475829434 15.7651891001578,46.5740772604607 15.7650082990124,46.5742735198903 15.7646897376035,46.5745169434416 15.7641561712004,46.5750206398482 15.7637194168437,46.5755626434627 15.7633162026357,46.5758828309525 15.7635646313989,46.5760979953058 15.7638642311961,46.5764171800309 15.7639152418452,46.5769558362098 15.764318209311,46.5769149082239 15.7645416139024,46.5770848938725 15.764820706479,46.577188200545 15.7654996576682,46.5773632348012 15.7668902288699,46.5773458238811 15.7674838552697,46.5777516457934 15.7672924313596,46.5779998013919 15.7670314900084,46.5782220622578 15.7671541504873,46.5782694624412 15.767408753684,46.5782730628307 15.7677359446495,46.5782705975189 15.7681965141158,46.5782059676415 15.7683710564927,46.5783239126793 15.768433796129,46.5783134148631 15.7689360870361,46.5785143563919 15.7696314298852,46.57845336053 15.7700389380784,46.5783271824111 15.7710228197143,46.5780224021596 15.7720511333706,46.5776591044244 15.7738454431377,46.577654717718 15.7739242533672,46.578526241897 15.7739266917719,46.5786976139357 15.7738731412982,46.5788312184267 15.7738485934816,46.5790408293644 15.7738797738629,46.5792882096167 15.7739659891291,46.5794970711974 15.7740236335214,46.5797061260273 15.774357570975,46.5798561813808 15.774911864589,46.5800047432736 15.7752167912099,46.580059806789 15.7756600330319,46.5801520780322 15.7761305534387,46.5802631456718 15.7766301909909,46.5804120700432 15.7769078772963,46.5805054602903 15.7776277455113,46.5806528844025 15.7779610106979,46.5807457143309 15.7782651629556,46.5808008649517 15.7787927431823,46.5809686629174 15.7791812242859,46.581099259675 15.7795693059898,46.5812109646161 15.779846858352,46.5812852754819 15.7801786719916,46.5813400525025 15.7806220629136,46.5814323034931 15.7813456521408,46.5818462530884 15.7815970621903,46.5820349972268 15.7820436017798,46.5823365759992 15.7822952895591,46.5825442998729 15.7827130942714,46.5827889430345 15.7829357578686,46.5829017682349 15.7831325492293,46.5831479222815 15.7833845209505,46.5833748049053 15.7835804916914,46.5835637443459 15.7838037087081,46.5837146203777 15.7841927713474,46.5838833423803 15.7845528015549,46.5839569864155 15.784774242397,46.5839935238275 15.7851334087851,46.5839530029949 15.7853255410266,46.5838755715226 15.785710903428,46.5837968127126 15.7864825801416,46.5836963241512 15.7869232449374,46.5835981078815 15.787336117508,46.5835000811972 15.7876660209792,46.5834215175433 15.7878315901537,46.5834203774017 15.7882722502158,46.5833221559596 15.7885483131729,46.5833011801914 15.7885510746003,46.5834916227302 15.7885530064422,46.5836248515408 15.7885565962347,46.5838724178298 15.7884243372923,46.5842541625832 15.7884812154973,46.5844061757809 15.7886228164671,46.5846146444106 15.7885416357812,46.5847484461281 15.7885155011408,46.584862885197 15.788710798291,46.5849947809669 15.7889605908307,46.5850692610807 15.7892384535882,46.5851627100999 15.789377748625,46.585256934766 15.7893796826111,46.5853901635087 15.789381616611,46.5855233922483 15.7895505110707,46.5857508344614 15.7897725164375,46.585825504577 15.7901612868932,46.5859179156988 15.7902778192426,46.5859091935688 15.7909906403541,46.5858428190871 15.7917012401776,46.5856329571392 15.7924432068211,46.5855253466386 15.793039885891,46.5856648900983 15.7936057522049,46.5857225937136 15.7940207774313,46.5856376632822 15.7944683788427,46.5857372086939 15.7949128531014,46.5856316478436 15.797182134411,46.5883232525237 15.7976178397263,46.5885084276802 15.7980778124533,46.5887286092102 15.7985516580627,46.5888979503165 15.8003891169374,46.5896366084297 15.8015456854689,46.5901463639779 15.8027143416124,46.5904833751928 15.803294434776,46.5908550978389 15.8037987060844,46.5910851115681 15.8051427071132,46.5913192923738 15.8058650530255,46.5913548714569 15.8059979328998,46.5913742679839 15.8063992817226,46.5916150717142 15.8068596380963,46.5918657141574 15.8084941485963,46.5928087298671 15.8114495064601,46.5939460471457 15.8131902250737,46.5946332741237 15.8128985675344,46.5950808661919 15.8136745806924,46.5950447603258 15.8141125077816,46.5950397553305 15.8146898296377,46.5952964612122 15.8149299909836,46.5955935327787 15.8151596498911,46.5959472682323 15.8153345068752,46.5962843899424 15.816065911709,46.5963186704856 15.8168687749522,46.5963920218239 15.8172804808792,46.5964305562803 15.8179019292747,46.5964692092825 15.8183200186595,46.5965588858713 15.818841350546,46.596882637178 15.8191734116166,46.5972653207691 15.8195142977991,46.5969344978833 15.8199338270566,46.5968423339272 15.8202390044718,46.5967403722298 15.8206311052307,46.5967248747555 15.8212788815645,46.5966743426789 15.8216232010471,46.5966321945681 15.8216577642832,46.5970278033651 15.8217113714123,46.5972758186013 15.8219711214814,46.5975618485446 15.8219927168974,46.5980232266237 15.8220467273307,46.5982459579002 15.8223332760846,46.5986982342467 15.8225010135506,46.5991478554026 15.8224593906249,46.5994161677552 15.8223592455677,46.5999746859845 15.822331818832,46.600258280636 15.8224198350156,46.6005284499553 15.8224298411825,46.601025808046 15.8220444200207,46.6013209724328 15.8219836622864,46.6016102944509 15.8218377873876,46.6018902415464 15.8214884582784,46.6022076365764 15.8213786834559,46.6024495375011 15.8211625347573,46.6026662013311 15.8207816648058,46.6029441449212 15.8204753604319,46.6034059856504 15.8199383589904,46.603822066412 15.8196994748995,46.6039947163762 15.8192415097814,46.6042425282598 15.8187656095185,46.6044438635538 15.8183621801973,46.604681655053 15.8178880849412,46.6049513489718 15.8175695219476,46.6050345966958 15.8172603713048,46.6051448564704 15.8170011111605,46.6053176463117 15.8167154670341,46.6056371807631 15.8171594006791,46.6056439969851 15.8176159442273,46.605682030006 15.8181079098614,46.6057837746947 15.8185996490672,46.6059916803774 15.8191136743418,46.6061536309867 15.8195698782455,46.6062726292668 15.8201442313951,46.6064267657095 15.820624859253,46.6065376675524 15.8211403384043,46.6066309535254 15.8215584650949,46.6067089221582 15.821910185577,46.6068757143205 15.8222059775805,46.6070731364053 15.8227255751859,46.6074896383137 15.8230500868041,46.6077986810613 15.8232463224091,46.6080418003118 15.823560611044,46.6085372374966 15.823760270425,46.6089972424118 15.8239047092807,46.6094829254673 15.8241426271506,46.609788090265 15.8244705902444,46.6100564387893 15.8245938149021,46.610270572524 15.8251207397646,46.6104700094158 15.8256795132166,46.6106774010408 15.8260851982353,46.6107932291619 15.8269602034314,46.6110882978892 15.8274022787735,46.6112272497749 15.8278113837894,46.6114042247922 15.8284206666106,46.6116607195185 15.8289031804621,46.6117883967504 15.8296249222538,46.6120305750749 15.8302631332367,46.6122995355707 15.8307298396175,46.6125112592826 15.8311821852437,46.6126374365774 15.8316066020798,46.6127044367037 15.8319996087918,46.6127322580271 15.8323943953469,46.6126717171842 15.8332105475566,46.6125217382663 15.8338654081601,46.6123938916547 15.834265552609,46.6123594857733 15.834771879383,46.6123872808415 15.8353426445899,46.6124199112361 15.8358769506618,46.6125096645028 15.8361898369906,46.6125909575679 15.8364555591988,46.6127293639861 15.8368202689107,46.6129965086708 15.8371037251059,46.613268835095 15.837331856986,46.6135091775338 15.8373397709495,46.6137600383219 15.8373444989305,46.613905840654 15.837577281291,46.6138717483884</coordinates></LinearRing></outerBoundaryIs></Polygon></MultiGeometry>
  </Placemark>
</Folder>
</Document></kml>
