{"type":"FeatureCollection","features":[{"type":"Feature","geometry":{"type":"Polygon","coordinates":[[[15.7570850527509,46.6165028853336],[15.7570758154872,46.6165427119327],[15.7568715690651,46.6168769417278],[15.7572263206552,46.6170365350344],[15.7575823289855,46.6172860860328],[15.7580180545243,46.6176340715756],[15.7583238575593,46.6180279002558],[15.7586950741634,46.6184212943098],[15.7590133125837,46.618769965117],[15.7595289040627,46.6192253754407],[15.7599124337599,46.619573700186],[15.7603484491492,46.6199306715205],[15.760756463337,46.620161873474],[15.7609813151229,46.6203672123584],[15.7612515092982,46.6207238436046],[15.7613957870527,46.6209375449049],[15.7616746180567,46.6213882231825],[15.7618886948069,46.6217556626453],[15.7621552576497,46.6221317487455],[15.7623419644985,46.6224094026078],[15.7625824159893,46.6227946583691],[15.7627303359211,46.6230995602111],[15.7628149948207,46.6235488309092],[15.7628466730086,46.6239354778813],[15.7629167592899,46.6242767952262],[15.7630384444773,46.6245728748391],[15.763032845018,46.6251037175171],[15.7634971865136,46.6256224282204],[15.7637655511767,46.626124452096],[15.7636008631743,46.6264854193556],[15.7633824244927,46.6267387846512],[15.7631381211269,46.627010315443],[15.763079153334,46.6274605436097],[15.7631358099179,46.62777505007],[15.7628532113893,46.6281098125066],[15.7624784446743,46.6283912083587],[15.7622206936788,46.6286359266117],[15.7620208576853,46.6292760230981],[15.7619228293809,46.6297355073381],[15.7619015095501,46.630077523638],[15.7620097652666,46.6303467034123],[15.7621571979672,46.6306156220897],[15.7623317587766,46.6309562433667],[15.7625183753339,46.6312159037608],[15.7627967805269,46.6315109386477],[15.7632197220708,46.6318679855506],[15.7635511295658,46.6322166451143],[15.7639081531976,46.632529145907],[15.7643702901946,46.6328768401311],[15.7647918587277,46.6331349267596],[15.7652254761268,46.633320957736],[15.7655522116475,46.6333367652457],[15.7660742017985,46.6333062811242],[15.7665168196485,46.6332043529291],[15.7671021961158,46.633038399127],[15.7678999523668,46.6331140175871],[15.7685934916446,46.6332083240413],[15.7690517117854,46.6332862149803],[15.7697186251643,46.6333446168712],[15.7702260219724,46.6332062517245],[15.7705624974483,46.6329880654485],[15.7711345455435,46.6328042773534],[15.7711908268068,46.633033493492],[15.771821150235,46.6322637146043],[15.7727335571172,46.6316410124221],[15.7727899189397,46.6316828262079],[15.7729946481709,46.6318350166475],[15.7735317540319,46.6322342582232],[15.7745406101773,46.632844245745],[15.7751180990871,46.6327315646958],[15.7760073375871,46.6323266233422],[15.7765603862463,46.632341134039],[15.7769344902787,46.6327375973372],[15.7772865072404,46.6334245326089],[15.7776627027303,46.6339660958322],[15.7773298946235,46.6346212471601],[15.7772877800828,46.6353651094305],[15.7775631428538,46.6362156742115],[15.7777331204128,46.6370670446217],[15.777428103555,46.637830776835],[15.7766977241641,46.63830716369],[15.7760693606567,46.6385471408421],[15.7747453767456,46.6398618022821],[15.7742565289735,46.64066302694],[15.7739714899256,46.6409913550085],[15.7731618904412,46.6414501715488],[15.7726650017666,46.6416892412718],[15.772114438745,46.641856067899],[15.7710689066111,46.6423889747237],[15.7703918219839,46.6429194815063],[15.7727624842037,46.6429944501898],[15.774402812682,46.6435640043937],[15.7752751760941,46.6438121623688],[15.774027484805,46.6449449243192],[15.773485047556,46.645436392277],[15.7732607705355,46.6456396136411],[15.7732025744732,46.6460202061923],[15.7730346712177,46.6471180346117],[15.7728218298831,46.6485099972129],[15.7733297445556,46.6483986052546],[15.7739148794133,46.6482057187312],[15.7742004646206,46.6480778332611],[15.7744590241551,46.6478871533543],[15.7747699611346,46.6477051148435],[15.7750688600644,46.647595040399],[15.7755247680049,46.647501984306],[15.7758237941734,46.6474009936545],[15.7762026103761,46.6473984242623],[15.7768417774752,46.6473311094766],[15.7771673119111,46.6472569253177],[15.7774792672912,46.6471468458378],[15.7779081393757,46.6469909872776],[15.7783499411369,46.6468259525073],[15.7788558915947,46.6465795992959],[15.7792455680481,46.6464240025201],[15.7798549749551,46.6461049668268],[15.780678029412,46.6461083503577],[15.7812148788626,46.6461946526103],[15.7816185150209,46.6461019291026],[15.7821662225037,46.6460351193591],[15.7825538088373,46.6457445755243],[15.7858142772626,46.6453712676832],[15.7862220700321,46.6455663928431],[15.7867216925907,46.6457788784725],[15.7872470519097,46.6459731914843],[15.7876421837506,46.6461953886978],[15.7881550106657,46.6464257704883],[15.7886290469167,46.646683407373],[15.7889462071418,46.6469331275012],[15.7894475545644,46.6472715426639],[15.7898822855238,46.6475204488639],[15.7904983238736,46.647660050853],[15.7912699381186,46.6477176936105],[15.7921720485707,46.6477564343542],[15.7929166210939,46.647760273227],[15.7933727619448,46.6476851377092],[15.7936990648031,46.6476648811809],[15.7942455886257,46.6475171417797],[15.7949612624456,46.6473231512638],[15.7957927798121,46.6470114838152],[15.7964709719359,46.6469347912114],[15.7971642068932,46.6469929398286],[15.7976194095679,46.6468548172025],[15.7983609223919,46.6466426318974],[15.7988177081966,46.6466124534967],[15.7991028281211,46.6464575190103],[15.7995305712219,46.6462296138324],[15.7999749536814,46.646244500842],[15.8002204955917,46.64606365997],[15.8030042888178,46.646033449324],[15.8043337807775,46.6460519100741],[15.8047948908793,46.6460936507772],[15.8053191700534,46.6462106070154],[15.8060683784981,46.646360793469],[15.8064803896287,46.6464475867531],[15.8067548009626,46.6465053000262],[15.8071654872438,46.6467839092306],[15.8075238111009,46.6470901464583],[15.807820634536,46.6472840885173],[15.8078948683048,46.6473037168914],[15.8085419941173,46.6474751203418],[15.80896512667,46.6475972729564],[15.8093013355815,46.6476459963076],[15.8096714168733,46.6476533641787],[15.8104668169708,46.6476665354804],[15.8113984589187,46.6476699183674],[15.8118371518186,46.6474606925762],[15.8122247306477,46.6472843059597],[15.812805092441,46.6473845457535],[15.8131281218306,46.6471464476291],[15.8133175422129,46.6468671940308],[15.8134183642782,46.646577594103],[15.8134742469532,46.6462183194877],[15.8134544716088,46.6458316031202],[15.8133304370567,46.6455050059949],[15.8132335152599,46.6451918009807],[15.8132617755554,46.6448460378023],[15.8132846512397,46.6444635164675],[15.8133307885306,46.6442210879285],[15.8131608061316,46.6438354390954],[15.8130823834523,46.6432396066993],[15.8131765715616,46.6427081332561],[15.8132856843297,46.6424230626117],[15.8134688842128,46.6420088125765],[15.8135803531083,46.6416022696748],[15.8136740630591,46.6413182078017],[15.813922079704,46.6408801045891],[15.8141522612059,46.6404898101394],[15.8144251478051,46.6400208500962],[15.8145858133121,46.6396815209414],[15.814719584223,46.6393431927653],[15.8147323288321,46.6388869700977],[15.8149431304727,46.6385813807641],[15.8154688876302,46.638365402703],[15.8158557453021,46.6378767336045],[15.8160704974922,46.6372264508646],[15.8161411960163,46.6368813733997],[15.8162099374693,46.6366146709911],[15.8161244773025,46.6361429544779],[15.8162267370859,46.6355690458519],[15.8163326362201,46.63528939287],[15.8165678688237,46.6350205124443],[15.8167293821149,46.6346872916652],[15.8170009628364,46.634134934953],[15.8167245881884,46.633717572406],[15.8166894459357,46.6333957416471],[15.8167041327778,46.632913503968],[15.8167837394946,46.632666336258],[15.816612205493,46.6323329736732],[15.8167788715411,46.6321257595925],[15.8169088543061,46.6316506156854],[15.8170553064103,46.631402160704],[15.8171923301902,46.6311781539191],[15.8174194867755,46.6308687541148],[15.8175854928698,46.630566178516],[15.8179107624234,46.6302246780291],[15.818200101875,46.6299257180491],[15.8181941412621,46.6296341776467],[15.818056920931,46.629411231061],[15.8179222378196,46.6289838611272],[15.8177972444969,46.6286447693472],[15.8181358823033,46.6283679487899],[15.8184538023475,46.6282937012255],[15.81885565992,46.6281999589505],[15.8188863970298,46.6279693334021],[15.8191188632971,46.6276411788875],[15.8196155067578,46.6273992093074],[15.8202766102838,46.6270741885037],[15.8208774398521,46.6268053759157],[15.8212487485641,46.6265319102926],[15.8214538688852,46.6263397075178],[15.8218883146069,46.6259759093453],[15.8220685479049,46.6256927475991],[15.822081425293,46.6254651283593],[15.8222973753708,46.6250658319796],[15.8223839594385,46.62475581284],[15.8225108795069,46.6245138786116],[15.8224587207899,46.6239842574916],[15.8220254895651,46.623935280248],[15.8215788343957,46.6238189224485],[15.821208948501,46.6238052041246],[15.8208673077186,46.623768160403],[15.8203362031319,46.6237836656432],[15.8197481227779,46.6238050646756],[15.819253851311,46.6237779264625],[15.8187638586881,46.6236967752378],[15.8184216135342,46.623576149111],[15.8178260693366,46.6233186037048],[15.8175723286242,46.6231089946294],[15.8171911579329,46.6227788397042],[15.816762487272,46.6223896443282],[15.8162689807223,46.621917240529],[15.8159621207295,46.6215433670063],[15.8157063924303,46.6211395288944],[15.8155391631001,46.6207681672496],[15.8153425301073,46.6202819469299],[15.8151891020957,46.6197945187111],[15.8155172287272,46.6197508852333],[15.8156333656131,46.619659100514],[15.8155470033683,46.619559852661],[15.8159684948124,46.619473267717],[15.8160414226518,46.6195995112603],[15.8161954962665,46.6196428559188],[15.8163966445648,46.6195604502416],[15.816519727351,46.6192794141261],[15.8165969955402,46.6188866058096],[15.8167185917335,46.6188281588216],[15.8169615280001,46.618919990103],[15.8169885656477,46.6190421523606],[15.817152059347,46.6190607774605],[15.8172212950134,46.619158437078],[15.8172282309843,46.6192896496142],[15.8169136182683,46.6193720573202],[15.8169265553845,46.6196939573774],[15.8171371012195,46.6198023036167],[15.8173927397461,46.619809474124],[15.8176261594182,46.6197024546106],[15.817675510184,46.6197281024029],[15.8177121250651,46.6198358012785],[15.8179015312818,46.6198408349858],[15.8182768909516,46.619561051995],[15.8186117096615,46.6194678798352],[15.8190205611461,46.6194179907168],[15.8189763140059,46.6191852925367],[15.8192475740039,46.6192068317802],[15.8195498659706,46.6191821748623],[15.819716551869,46.6189190862426],[15.8199352752103,46.6187645746636],[15.8203897502411,46.6187533094284],[15.820502516338,46.618655156245],[15.8205655990676,46.618405674664],[15.820611180259,46.6182855114428],[15.82079518006,46.6182096086773],[15.8211281990886,46.618317788576],[15.8214057169067,46.6183734653134],[15.8215057677618,46.6182980741551],[15.8215010072694,46.6181991444438],[15.8209930821961,46.6180687395112],[15.8205933916869,46.6179204622601],[15.8206653581529,46.6177664620199],[15.820724820176,46.6175453459488],[15.820904552918,46.6173946209057],[15.8213282672965,46.617465352827],[15.8216346836556,46.6175414240263],[15.82179972736,46.6175591316821],[15.8221935422371,46.6174313376521],[15.8227387419661,46.6172213032535],[15.8231400467743,46.6170969608099],[15.8233239076702,46.6169004089401],[15.823749659299,46.6167353131997],[15.8241445058304,46.616667603092],[15.8243613649131,46.6166067522665],[15.8243379188505,46.6163523140116],[15.824435545117,46.616272529336],[15.824540285091,46.6163517553355],[15.8246748329175,46.6164507390916],[15.8248166517035,46.6164352319766],[15.8249374654204,46.6162832159579],[15.8248414084082,46.6161309643065],[15.8249990514538,46.616039860376],[15.8250375588235,46.6159361203787],[15.8251317012813,46.6159021535404],[15.8252887044557,46.616138534493],[15.8255202150139,46.615968085664],[15.8257463342467,46.6159669935816],[15.8261690173829,46.6159702396155],[15.8263768147677,46.6158976646918],[15.8264791324102,46.6157574763691],[15.8264599059743,46.615669447387],[15.8266371266584,46.6156811222599],[15.8268405721733,46.6156487033164],[15.8269818745007,46.6154965370293],[15.8271472507775,46.6154763583656],[15.8273335398632,46.6155948476585],[15.8274904177008,46.6155567365125],[15.8276320784223,46.6153253956636],[15.8276808022436,46.6150956267229],[15.828023620468,46.614990493359],[15.828218672402,46.6149386997859],[15.8284143797556,46.6149812767656],[15.828660472475,46.6148519209374],[15.8289045604683,46.6148051690284],[15.8290680301455,46.6148227876385],[15.8291682802379,46.6150352834403],[15.8293084252312,46.6150729535173],[15.8294554353611,46.614970224758],[15.8296487760423,46.615020194099],[15.8297372027559,46.6150995336642],[15.8296850524655,46.6152069728992],[15.8298976740157,46.6152882905168],[15.8300039385864,46.615407086054],[15.8302662359842,46.6155436423171],[15.830457834695,46.6156332085109],[15.8305237903654,46.6157370916976],[15.83037646502,46.6159216942793],[15.8301649971651,46.6160185942576],[15.8301156583136,46.6160964140548],[15.8301758321923,46.6161380820703],[15.8308950707861,46.6160502706464],[15.8310431482738,46.6161282762638],[15.831109756425,46.6162064237402],[15.8312710726499,46.6160915331275],[15.8313418016663,46.6158076224136],[15.8311684394633,46.6157836912528],[15.8314517045641,46.6156349863071],[15.8316058956394,46.615634765246],[15.8316931959379,46.6157340842067],[15.8317524062693,46.6158236209664],[15.8320167267083,46.6157082502636],[15.8319259634407,46.6155874545632],[15.8320229374727,46.6155255716144],[15.8322245964503,46.6156409722473],[15.832340505269,46.6156986077038],[15.8324985130552,46.6156236848689],[15.8326385308087,46.6153887510729],[15.8331455072537,46.615142148542],[15.8330001524131,46.6150288586494],[15.833267675661,46.6148588515973],[15.8334626722977,46.6149059234819],[15.8337505017919,46.6148426484433],[15.8340332768233,46.614713823405],[15.8344223928339,46.6146488185705],[15.8342955551948,46.6147891928611],[15.8342837854549,46.6148729482325],[15.8344278164353,46.61484040925],[15.8345439535584,46.6147513942045],[15.8345594840412,46.6146999995794],[15.834998360104,46.6146446161402],[15.8350048511431,46.6144808283655],[15.8349213018987,46.6144049659854],[15.8351184243034,46.6143270550205],[15.8354199534298,46.6143059603751],[15.8357342728603,46.6142082093629],[15.8360024616819,46.6141416533681],[15.8362463230678,46.614131684045],[15.8364378357542,46.6141644715362],[15.8364893609209,46.614119111173],[15.8363709923347,46.6140120158934],[15.836568719856,46.6140329720188],[15.8367130860468,46.6142343425774],[15.8368805428636,46.6143581721952],[15.8370453723818,46.6144046489489],[15.83716810081,46.6143200813646],[15.8371980183319,46.6141434366348],[15.8372119545685,46.6139887708918],[15.8373444989305,46.613905840654],[15.8373397709495,46.6137600383219],[15.837331856986,46.6135091775338],[15.8371037251059,46.613268835095],[15.8368202689107,46.6129965086708],[15.8364555591988,46.6127293639861],[15.8361898369906,46.6125909575679],[15.8358769506618,46.6125096645028],[15.8353426445899,46.6124199112361],[15.834771879383,46.6123872808415],[15.834265552609,46.6123594857733],[15.8338654081601,46.6123938916547],[15.8332105475566,46.6125217382663],[15.8323943953469,46.6126717171842],[15.8319996087918,46.6127322580271],[15.8316066020798,46.6127044367037],[15.8311821852437,46.6126374365774],[15.8307298396175,46.6125112592826],[15.8302631332367,46.6122995355707],[15.8296249222538,46.6120305750749],[15.8289031804621,46.6117883967504],[15.8284206666106,46.6116607195185],[15.8278113837894,46.6114042247922],[15.8274022787735,46.6112272497749],[15.8269602034314,46.6110882978892],[15.8260851982353,46.6107932291619],[15.8256795132166,46.6106774010408],[15.8251207397646,46.6104700094158],[15.8245938149021,46.610270572524],[15.8244705902444,46.6100564387893],[15.8241426271506,46.609788090265],[15.8239047092807,46.6094829254673],[15.823760270425,46.6089972424118],[15.823560611044,46.6085372374966],[15.8232463224091,46.6080418003118],[15.8230500868041,46.6077986810613],[15.8227255751859,46.6074896383137],[15.8222059775805,46.6070731364053],[15.821910185577,46.6068757143205],[15.8215584650949,46.6067089221582],[15.8211403384043,46.6066309535254],[15.820624859253,46.6065376675524],[15.8201442313951,46.6064267657095],[15.8195698782455,46.6062726292668],[15.8191136743418,46.6061536309867],[15.8185996490672,46.6059916803774],[15.8181079098614,46.6057837746947],[15.8176159442273,46.605682030006],[15.8171594006791,46.6056439969851],[15.8167154670341,46.6056371807631],[15.8170011111605,46.6053176463117],[15.8172603713048,46.6051448564704],[15.8175695219476,46.6050345966958],[15.8178880849412,46.6049513489718],[15.8183621801973,46.604681655053],[15.8187656095185,46.6044438635538],[15.8192415097814,46.6042425282598],[15.8196994748995,46.6039947163762],[15.8199383589904,46.603822066412],[15.8204753604319,46.6034059856504],[15.8207816648058,46.6029441449212],[15.8211625347573,46.6026662013311],[15.8213786834559,46.6024495375011],[15.8214884582784,46.6022076365764],[15.8218377873876,46.6018902415464],[15.8219836622864,46.6016102944509],[15.8220444200207,46.6013209724328],[15.8224298411825,46.601025808046],[15.8224198350156,46.6005284499553],[15.822331818832,46.600258280636],[15.8223592455677,46.5999746859845],[15.8224593906249,46.5994161677552],[15.8225010135506,46.5991478554026],[15.8223332760846,46.5986982342467],[15.8220467273307,46.5982459579002],[15.8219927168974,46.5980232266237],[15.8219711214814,46.5975618485446],[15.8217113714123,46.5972758186013],[15.8216577642832,46.5970278033651],[15.8216232010471,46.5966321945681],[15.8212788815645,46.5966743426789],[15.8206311052307,46.5967248747555],[15.8202390044718,46.5967403722298],[15.8199338270566,46.5968423339272],[15.8195142977991,46.5969344978833],[15.8191734116166,46.5972653207691],[15.818841350546,46.596882637178],[15.8183200186595,46.5965588858713],[15.8179019292747,46.5964692092825],[15.8172804808792,46.5964305562803],[15.8168687749522,46.5963920218239],[15.816065911709,46.5963186704856],[15.8153345068752,46.5962843899424],[15.8151596498911,46.5959472682323],[15.8149299909836,46.5955935327787],[15.8146898296377,46.5952964612122],[15.8141125077816,46.5950397553305],[15.8136745806924,46.5950447603258],[15.8128985675344,46.5950808661919],[15.8131902250737,46.5946332741237],[15.8114495064601,46.5939460471457],[15.8084941485963,46.5928087298671],[15.8068596380963,46.5918657141574],[15.8063992817226,46.5916150717142],[15.8059979328998,46.5913742679839],[15.8058650530255,46.5913548714569],[15.8051427071132,46.5913192923738],[15.8037987060844,46.5910851115681],[15.803294434776,46.5908550978389],[15.8027143416124,46.5904833751928],[15.8015456854689,46.5901463639779],[15.8003891169374,46.5896366084297],[15.7985516580627,46.5888979503165],[15.7980778124533,46.5887286092102],[15.7976178397263,46.5885084276802],[15.797182134411,46.5883232525237],[15.7949128531014,46.5856316478436],[15.7944683788427,46.5857372086939],[15.7940207774313,46.5856376632822],[15.7936057522049,46.5857225937136],[15.793039885891,46.5856648900983],[15.7924432068211,46.5855253466386],[15.7917012401776,46.5856329571392],[15.7909906403541,46.5858428190871],[15.7902778192426,46.5859091935688],[15.7901612868932,46.5859179156988],[15.7897725164375,46.585825504577],[15.7895505110707,46.5857508344614],[15.789381616611,46.5855233922483],[15.7893796826111,46.5853901635087],[15.789377748625,46.585256934766],[15.7892384535882,46.5851627100999],[15.7889605908307,46.5850692610807],[15.788710798291,46.5849947809669],[15.7885155011408,46.584862885197],[15.7885416357812,46.5847484461281],[15.7886228164671,46.5846146444106],[15.7884812154973,46.5844061757809],[15.7884243372923,46.5842541625832],[15.7885565962347,46.5838724178298],[15.7885530064422,46.5836248515408],[15.7885510746003,46.5834916227302],[15.7885483131729,46.5833011801914],[15.7882722502158,46.5833221559596],[15.7878315901537,46.5834203774017],[15.7876660209792,46.5834215175433],[15.787336117508,46.5835000811972],[15.7869232449374,46.5835981078815],[15.7864825801416,46.5836963241512],[15.785710903428,46.5837968127126],[15.7853255410266,46.5838755715226],[15.7851334087851,46.5839530029949],[15.784774242397,46.5839935238275],[15.7845528015549,46.5839569864155],[15.7841927713474,46.5838833423803],[15.7838037087081,46.5837146203777],[15.7835804916914,46.5835637443459],[15.7833845209505,46.5833748049053],[15.7831325492293,46.5831479222815],[15.7829357578686,46.5829017682349],[15.7827130942714,46.5827889430345],[15.7822952895591,46.5825442998729],[15.7820436017798,46.5823365759992],[15.7815970621903,46.5820349972268],[15.7813456521408,46.5818462530884],[15.7806220629136,46.5814323034931],[15.7801786719916,46.5813400525025],[15.779846858352,46.5812852754819],[15.7795693059898,46.5812109646161],[15.7791812242859,46.581099259675],[15.7787927431823,46.5809686629174],[15.7782651629556,46.5808008649517],[15.7779610106979,46.5807457143309],[15.7776277455113,46.5806528844025],[15.7769078772963,46.5805054602903],[15.7766301909909,46.5804120700432],[15.7761305534387,46.5802631456718],[15.7756600330319,46.5801520780322],[15.7752167912099,46.580059806789],[15.774911864589,46.5800047432736],[15.774357570975,46.5798561813808],[15.7740236335214,46.5797061260273],[15.7739659891291,46.5794970711974],[15.7738797738629,46.5792882096167],[15.7738485934816,46.5790408293644],[15.7738731412982,46.5788312184267],[15.7739266917719,46.5786976139357],[15.7739242533672,46.578526241897],[15.7738454431377,46.577654717718],[15.7720511333706,46.5776591044244],[15.7710228197143,46.5780224021596],[15.7700389380784,46.5783271824111],[15.7696314298852,46.57845336053],[15.7689360870361,46.5785143563919],[15.768433796129,46.5783134148631],[15.7683710564927,46.5783239126793],[15.7681965141158,46.5782059676415],[15.7677359446495,46.5782705975189],[15.767408753684,46.5782730628307],[15.7671541504873,46.5782694624412],[15.7670314900084,46.5782220622578],[15.7672924313596,46.5779998013919],[15.7674838552697,46.5777516457934],[15.7668902288699,46.5773458238811],[15.7654996576682,46.5773632348012],[15.764820706479,46.577188200545],[15.7645416139024,46.5770848938725],[15.764318209311,46.5769149082239],[15.7639152418452,46.5769558362098],[15.7637437081301,46.5772834745218],[15.7636267799962,46.5776161461209],[15.7635120202145,46.5779174943365],[15.7633821118567,46.5781342838776],[15.7631879736744,46.5783577995329],[15.7629294826777,46.5785979382437],[15.7626603499132,46.5788795324578],[15.7624252288233,46.5793165434877],[15.7620570767558,46.579580802608],[15.7617603315064,46.5798851604843],[15.7614775730839,46.5801263571135],[15.7610942392612,46.58041599507],[15.7609076527545,46.580658259759],[15.760400301291,46.5809999118146],[15.7599801496107,46.581634276941],[15.7598010123598,46.5818873763666],[15.7595182561205,46.5821861473465],[15.7592082674907,46.5824131242188],[15.7589641408362,46.58268473709],[15.7588110898169,46.5829376618406],[15.758490054204,46.583308658242],[15.758205271624,46.583472487867],[15.7580778080458,46.583689254949],[15.7579897365091,46.5839237544016],[15.7579035087276,46.5844029535122],[15.7577169874113,46.5849421954958],[15.7574264137032,46.5856278736342],[15.7571719704673,46.5860973895762],[15.7567219270764,46.5865771957123],[15.7565303362674,46.5868753559506],[15.756233732108,46.5871292263113],[15.7559747691413,46.5872748860543],[15.7552363989775,46.5876577168716],[15.7549811780383,46.5880732523511],[15.754818167148,46.588551156135],[15.754562564363,46.5889397028651],[15.7540978038603,46.5893026376728],[15.7538522477817,46.5894751944304],[15.7532938924741,46.589676801091],[15.753021985233,46.589831536061],[15.7525701312497,46.5901853828827],[15.7522226696847,46.5905295447558],[15.752030791586,46.590809705613],[15.7518540755645,46.5912427112614],[15.7516876697364,46.591477720337],[15.7515471124007,46.5916945658477],[15.7513572159853,46.5921186604967],[15.7512207577709,46.5926323713888],[15.7510841789609,46.5931280893658],[15.7510761006914,46.5934880123289],[15.7511069232515,46.5938296863695],[15.7512308359859,46.5942967035705],[15.7512107030919,46.5947286795984],[15.7512064854961,46.5953584794753],[15.751238801952,46.5958081044938],[15.751287029057,46.5964645500791],[15.751368440491,46.5966889339785],[15.751452967834,46.5971292191621],[15.7514828001469,46.5973989254601],[15.7514759679402,46.5978488074141],[15.7514810672012,46.598217640292],[15.751563726032,46.5985319831942],[15.7515566444466,46.5989637832575],[15.7514956180583,46.5992700732898],[15.7515270750444,46.5996477296661],[15.7514521258407,46.5998911339353],[15.7512721447714,46.6000903342237],[15.751171091063,46.6003339097159],[15.7511778050415,46.6008196894208],[15.7512608380705,46.6011609301857],[15.7512532578371,46.6015568363331],[15.7513113156497,46.601970304871],[15.7513826688706,46.6024106762291],[15.7515057336656,46.6028147208911],[15.7514070393573,46.6032292189005],[15.7513973455781,46.6034721943503],[15.7515202885793,46.6038672429925],[15.7517201846318,46.6041538250745],[15.752118850506,46.6046640184425],[15.7523459726054,46.6050403876986],[15.7527710054445,46.6055683987805],[15.753115864425,46.6059528984364],[15.7533147731565,46.6061765070407],[15.7537503815832,46.606524510198],[15.7542910435672,46.606916802708],[15.7545946346393,46.6071577122529],[15.7550697934656,46.6075324396356],[15.7554665188229,46.6078895995779],[15.7556803742849,46.6082480561853],[15.7557752507958,46.6084993377473],[15.7558573250902,46.6087686972551],[15.7560981699203,46.609189951777],[15.7563655067193,46.609629024063],[15.7565669477243,46.6100325446051],[15.7567955018004,46.6105078591879],[15.7569820153309,46.6107765268661],[15.7571453062791,46.6112522725101],[15.7572568891646,46.6117552603565],[15.7573176327625,46.6123666352057],[15.7574536940185,46.6127615900673],[15.7576292970006,46.6131832730389],[15.7580526882323,46.6135853206614],[15.7586179330367,46.6138514753818],[15.7586871007767,46.6141299149263],[15.7587178588588,46.6144625894511],[15.7583992764596,46.6150224982058],[15.7581052910654,46.6154742824499],[15.7578234774278,46.6158630082765],[15.7574780876252,46.6162151778503],[15.7573894480484,46.616319136942],[15.7570850527509,46.6165028853336]]]},"properties":{"fill-opacity":0,"stroke-opacity":1,"stroke":"#ff0000","lov":"1010","lov_naziv":"SV. JURIJ-JUROVSKI DOL","luo":"10","luo_naziv":"Slovensko Goriško","povrsina":3074.24},"id":"pregledovalniklovisca.1"}]}