{"type":"FeatureCollection","features":[{"type":"Feature","geometry":{"type":"Polygon","coordinates":[[[15.8908546343717,46.6641091544309],[15.8908269366768,46.6639981714215],[15.8905435360721,46.6634835197334],[15.8903082084578,46.6631585926034],[15.8902760325943,46.6631170085204],[15.8901162088681,46.6628857784096],[15.8898960292649,46.6624245231439],[15.8898623294044,46.66229001531],[15.8898506790052,46.662010039931],[15.8898467309041,46.661904809725],[15.8899899961337,46.66156524105],[15.8901680398601,46.661219013961],[15.8904359179204,46.6607414559339],[15.8904612373103,46.6606997842693],[15.8907990136655,46.6599514215759],[15.8908271090403,46.6598878663206],[15.890929597542,46.6595564409257],[15.8910329179298,46.6593393565332],[15.8911704067536,46.6590864690781],[15.8916676296392,46.6580791070686],[15.8917009484676,46.658023427933],[15.8919598183468,46.6576752183526],[15.8922347177486,46.6574279157234],[15.892248206083,46.6573900245343],[15.892326231583,46.6573356159501],[15.892347212308,46.6572766141128],[15.8924074969907,46.6572398873401],[15.8924502709436,46.6571077525241],[15.892137863465,46.656123074613],[15.8920728258516,46.6559342918286],[15.8919927984668,46.6551040733623],[15.891905728946,46.6550850494528],[15.8915879384924,46.6550275186098],[15.8915876757323,46.6550274306908],[15.8915875450915,46.6550274317089],[15.8914870567927,46.6550107612184],[15.8910663826222,46.6545361352069],[15.8909241894139,46.6543985139019],[15.8907198667841,46.6542010084674],[15.8904383182628,46.6538118448524],[15.8901956933321,46.6535969131161],[15.8901955626947,46.6535969141326],[15.8901952955153,46.6535965563445],[15.8901893297401,46.6535912947259],[15.8901898508135,46.6535912007049],[15.8901756364344,46.6535769166263],[15.8901761545554,46.6535766426948],[15.8901347801889,46.6535394484805],[15.8901347787129,46.6535393585252],[15.889096148623,46.6526028738932],[15.8888307617198,46.6521064302468],[15.8882755629054,46.6510890797392],[15.8882928809174,46.6510855265441],[15.8882915333631,46.6510830179375],[15.8882875132461,46.6510848484853],[15.8879904120386,46.6504857270217],[15.8878558471327,46.6499429222436],[15.8876422827944,46.6493225490678],[15.887425947113,46.6488998539685],[15.8873269642812,46.6487348129005],[15.8873140305519,46.6487268161991],[15.8872723049938,46.6486438305491],[15.8872661241058,46.6486333523685],[15.88726730562,46.6486337030728],[15.8872294977876,46.648558604101],[15.8872169724606,46.6485596009008],[15.8871807475822,46.6484614581368],[15.8871689992987,46.648438067904],[15.8871706327068,46.6484340966989],[15.8870167164244,46.648017304369],[15.8865398973984,46.6473948311957],[15.8858594435378,46.646757468964],[15.8856717668171,46.6462562773326],[15.8857582353443,46.6456952944853],[15.8856781935274,46.6451933593742],[15.8857030410711,46.6451149858284],[15.8856878777363,46.6451143834812],[15.8852806590161,46.6449761973136],[15.8847427658132,46.6445468979374],[15.8844191169822,46.6442218310066],[15.8840984757989,46.644433932015],[15.8838150074297,46.6441293352113],[15.8835611297876,46.6438768698834],[15.8827093058157,46.6441028744342],[15.881893076162,46.6443170825034],[15.8813081199114,46.6444465539897],[15.8807109734418,46.6445816942647],[15.8802990642705,46.6447009216205],[15.8796924868333,46.6449556950655],[15.8791673059336,46.6451873481092],[15.8787970708705,46.64531524647],[15.8781253814064,46.6454382604491],[15.8775040063021,46.6455303858281],[15.8771480887971,46.6455907838707],[15.8768012358227,46.645549268889],[15.8763068602685,46.6456187323888],[15.8756291366855,46.645716497237],[15.8751243522321,46.6457563462351],[15.8747678367504,46.6458285270936],[15.8744092979346,46.6460103018875],[15.8739637019485,46.6463267911602],[15.8737235136568,46.6465247533419],[15.8733372828507,46.6468776731503],[15.8728460619246,46.647095542802],[15.8723218873332,46.6468484432858],[15.8717007839696,46.6466582192048],[15.8710152599863,46.6465724838389],[15.8705052064275,46.6463334554593],[15.8700041996027,46.646104342321],[15.8696618322537,46.6459350187154],[15.8692135743751,46.6458260566588],[15.8689982860594,46.6460462214805],[15.868511105611,46.6464681765278],[15.8685080134984,46.646462712026],[15.8684932123744,46.6464765893049],[15.8683629940439,46.6462170338726],[15.8683648741732,46.6462120714281],[15.8683608418353,46.6462049946559],[15.8684353704735,46.6459724045634],[15.868480296583,46.6459144847784],[15.8685082743694,46.6458423889126],[15.8689669183741,46.6453437289434],[15.8659974247154,46.6442110705544],[15.8660158013267,46.6442084123825],[15.8659857252561,46.6441982938539],[15.865981103483,46.6442033669799],[15.8658627987273,46.6441572097384],[15.8658122347448,46.6441402288055],[15.8658121902523,46.6441374401704],[15.8651674309509,46.6438857323071],[15.8648923616267,46.6437324393496],[15.86460909908,46.6436633266423],[15.8640608222025,46.6434732303717],[15.8638035079644,46.6432615021783],[15.8635956145324,46.6431919078497],[15.8633818181164,46.6433424165929],[15.8632809464834,46.6435050281252],[15.8631303775066,46.6434997765165],[15.8628054115944,46.6431654818035],[15.8625930929659,46.6428173816631],[15.8622998179264,46.6427095630098],[15.8619127383663,46.6426090179147],[15.8618743041676,46.6426071482544],[15.8618615811296,46.6425956383766],[15.8617428745424,46.6425648642262],[15.8618141406519,46.6425530815576],[15.8618039378334,46.642543981794],[15.8617896891016,46.6425515563737],[15.8617802169163,46.6425226583965],[15.8617778316216,46.6425205171593],[15.8617784318266,46.6425171838647],[15.8617303851541,46.6423706298918],[15.8615798180194,46.642365286263],[15.8613901220267,46.642256685196],[15.8611595970063,46.6419540627259],[15.8609020209208,46.6417164194792],[15.8604860190439,46.6415706539119],[15.8598813544636,46.6413809616596],[15.8596447192779,46.6412855757301],[15.8593335002294,46.6411078000889],[15.8593276157288,46.6411073944537],[15.8592997554016,46.641088530735],[15.8592082757922,46.641036317267],[15.8588828428837,46.6408186118805],[15.8583892120901,46.6405704993164],[15.8579606757781,46.6403084014473],[15.8574992789296,46.6400330532301],[15.8572162639642,46.6398868187166],[15.8565250978311,46.639527719361],[15.8557545273978,46.6391108212606],[15.8554707421022,46.6389151063794],[15.8554723577098,46.6389098762185],[15.8551067547675,46.63860303329],[15.854836045748,46.638416215776],[15.8545137936041,46.6382656794043],[15.8540008280314,46.6380311872765],[15.8535082349651,46.6378460226635],[15.853258669972,46.6377490105744],[15.853055108096,46.6376785550438],[15.8523874015715,46.6375621663549],[15.8516025094053,46.637469047877],[15.8511179405566,46.6373782785],[15.8504687731379,46.6371941755336],[15.8502782077706,46.6371192100668],[15.8502823700328,46.6371180995296],[15.8498826690091,46.6368748299736],[15.8496437911832,46.6366337835147],[15.8493068165232,46.6363754714329],[15.8490800784077,46.6360668584568],[15.8489428004959,46.6356406241964],[15.8488320671082,46.6352412728513],[15.8488168976919,46.6351064349731],[15.8488175478503,46.6351062502154],[15.8487980122422,46.6350597023065],[15.8494120205309,46.6348852876338],[15.8501844502334,46.6349858910537],[15.8508311405214,46.6349387090631],[15.8512902426559,46.6347228818467],[15.8516522170989,46.6342104350214],[15.8519213918691,46.6336773558941],[15.8519168554084,46.633379958839],[15.8517232755538,46.6328290928264],[15.8513161690153,46.6324284410107],[15.8508799136857,46.632134165579],[15.8505737244916,46.630288250049],[15.8504932528163,46.629077891982],[15.8505417073461,46.628227792938],[15.8506547884322,46.6275684832306],[15.850581509676,46.6268254501874],[15.8489197937873,46.6250318832812],[15.8474728876257,46.6231729140168],[15.8469423014286,46.6227519284457],[15.8462646083244,46.6227780857532],[15.8459839479014,46.6219369894244],[15.8457701168866,46.6212613876648],[15.8456446207022,46.6209922339503],[15.8455159435872,46.6207870702531],[15.8455317055663,46.6207678807206],[15.8451750587878,46.6200516783533],[15.8445987231055,46.6189526670814],[15.8440235893992,46.6179294862076],[15.8438039514355,46.6175078106721],[15.8437820332332,46.6175005050543],[15.8436573880313,46.6172344915762],[15.8430727361448,46.6161677417287],[15.8423579007632,46.6148712713101],[15.8418081295435,46.6138362861159],[15.8418161791205,46.6138418048547],[15.841790913492,46.6137952977535],[15.8413740704247,46.6131565376655],[15.8412884446727,46.6130987786091],[15.8406107184189,46.6131151863312],[15.8402226423136,46.6134403899767],[15.839790783751,46.6134335745832],[15.8392739772094,46.6134634576645],[15.8388458057318,46.6134755947485],[15.8387004328123,46.6137844386316],[15.8382368079344,46.6137751512322],[15.837577281291,46.6138717483884],[15.8373444989305,46.613905840654],[15.8372119545685,46.6139887708918],[15.8371980183319,46.6141434366348],[15.83716810081,46.6143200813646],[15.8370453723818,46.6144046489489],[15.8368805428636,46.6143581721952],[15.8367130860468,46.6142343425774],[15.836568719856,46.6140329720188],[15.8363709923347,46.6140120158934],[15.8364893609209,46.614119111173],[15.8364378357542,46.6141644715362],[15.8362463230678,46.614131684045],[15.8360024616819,46.6141416533681],[15.8357342728603,46.6142082093629],[15.8354199534298,46.6143059603751],[15.8351184243034,46.6143270550205],[15.8349213018987,46.6144049659854],[15.8350048511431,46.6144808283655],[15.834998360104,46.6146446161402],[15.8345594840412,46.6146999995794],[15.8345439535584,46.6147513942045],[15.8344278164353,46.61484040925],[15.8342837854549,46.6148729482325],[15.8342955551948,46.6147891928611],[15.8344223928339,46.6146488185705],[15.8340332768233,46.614713823405],[15.8337505017919,46.6148426484433],[15.8334626722977,46.6149059234819],[15.833267675661,46.6148588515973],[15.8330001524131,46.6150288586494],[15.8331455072537,46.615142148542],[15.8326385308087,46.6153887510729],[15.8324985130552,46.6156236848689],[15.832340505269,46.6156986077038],[15.8322245964503,46.6156409722473],[15.8320229374727,46.6155255716144],[15.8319259634407,46.6155874545632],[15.8320167267083,46.6157082502636],[15.8317524062693,46.6158236209664],[15.8316931959379,46.6157340842067],[15.8316058956394,46.615634765246],[15.8314517045641,46.6156349863071],[15.8311684394633,46.6157836912528],[15.8313418016663,46.6158076224136],[15.8312710726499,46.6160915331275],[15.831109756425,46.6162064237402],[15.8310431482738,46.6161282762638],[15.8308950707861,46.6160502706464],[15.8301758321923,46.6161380820703],[15.8301156583136,46.6160964140548],[15.8301649971651,46.6160185942576],[15.83037646502,46.6159216942793],[15.8305237903654,46.6157370916976],[15.830457834695,46.6156332085109],[15.8302662359842,46.6155436423171],[15.8300039385864,46.615407086054],[15.8298976740157,46.6152882905168],[15.8296850524655,46.6152069728992],[15.8297372027559,46.6150995336642],[15.8296487760423,46.615020194099],[15.8294554353611,46.614970224758],[15.8293084252312,46.6150729535173],[15.8291682802379,46.6150352834403],[15.8290680301455,46.6148227876385],[15.8289045604683,46.6148051690284],[15.828660472475,46.6148519209374],[15.8284143797556,46.6149812767656],[15.828218672402,46.6149386997859],[15.828023620468,46.614990493359],[15.8276808022436,46.6150956267229],[15.8276320784223,46.6153253956636],[15.8274904177008,46.6155567365125],[15.8273335398632,46.6155948476585],[15.8271472507775,46.6154763583656],[15.8269818745007,46.6154965370293],[15.8268405721733,46.6156487033164],[15.8266371266584,46.6156811222599],[15.8264599059743,46.615669447387],[15.8264791324102,46.6157574763691],[15.8263768147677,46.6158976646918],[15.8261690173829,46.6159702396155],[15.8257463342467,46.6159669935816],[15.8255202150139,46.615968085664],[15.8252887044557,46.616138534493],[15.8251317012813,46.6159021535404],[15.8250375588235,46.6159361203787],[15.8249990514538,46.616039860376],[15.8248414084082,46.6161309643065],[15.8249374654204,46.6162832159579],[15.8248166517035,46.6164352319766],[15.8246748329175,46.6164507390916],[15.824540285091,46.6163517553355],[15.824435545117,46.616272529336],[15.8243379188505,46.6163523140116],[15.8243613649131,46.6166067522665],[15.8241445058304,46.616667603092],[15.823749659299,46.6167353131997],[15.8233239076702,46.6169004089401],[15.8231400467743,46.6170969608099],[15.8227387419661,46.6172213032535],[15.8221935422371,46.6174313376521],[15.82179972736,46.6175591316821],[15.8216346836556,46.6175414240263],[15.8213282672965,46.617465352827],[15.820904552918,46.6173946209057],[15.820724820176,46.6175453459488],[15.8206653581529,46.6177664620199],[15.8205933916869,46.6179204622601],[15.8209930821961,46.6180687395112],[15.8215010072694,46.6181991444438],[15.8215057677618,46.6182980741551],[15.8214057169067,46.6183734653134],[15.8211281990886,46.618317788576],[15.82079518006,46.6182096086773],[15.820611180259,46.6182855114428],[15.8205655990676,46.618405674664],[15.820502516338,46.618655156245],[15.8203897502411,46.6187533094284],[15.8199352752103,46.6187645746636],[15.819716551869,46.6189190862426],[15.8195498659706,46.6191821748623],[15.8192475740039,46.6192068317802],[15.8189763140059,46.6191852925367],[15.8190205611461,46.6194179907168],[15.8186117096615,46.6194678798352],[15.8182768909516,46.619561051995],[15.8179015312818,46.6198408349858],[15.8177121250651,46.6198358012785],[15.817675510184,46.6197281024029],[15.8176261594182,46.6197024546106],[15.8173927397461,46.619809474124],[15.8171371012195,46.6198023036167],[15.8169265553845,46.6196939573774],[15.8169136182683,46.6193720573202],[15.8172282309843,46.6192896496142],[15.8172212950134,46.619158437078],[15.817152059347,46.6190607774605],[15.8169885656477,46.6190421523606],[15.8169615280001,46.618919990103],[15.8167185917335,46.6188281588216],[15.8165969955402,46.6188866058096],[15.816519727351,46.6192794141261],[15.8163966445648,46.6195604502416],[15.8161954962665,46.6196428559188],[15.8160414226518,46.6195995112603],[15.8159684948124,46.619473267717],[15.8155470033683,46.619559852661],[15.8156333656131,46.619659100514],[15.8155172287272,46.6197508852333],[15.8151891020957,46.6197945187111],[15.8153425301073,46.6202819469299],[15.8155391631001,46.6207681672496],[15.8157063924303,46.6211395288944],[15.8159621207295,46.6215433670063],[15.8162689807223,46.621917240529],[15.816762487272,46.6223896443282],[15.8171911579329,46.6227788397042],[15.8175723286242,46.6231089946294],[15.8178260693366,46.6233186037048],[15.8184216135342,46.623576149111],[15.8187638586881,46.6236967752378],[15.819253851311,46.6237779264625],[15.8197481227779,46.6238050646756],[15.8203362031319,46.6237836656432],[15.8208673077186,46.623768160403],[15.821208948501,46.6238052041246],[15.8215788343957,46.6238189224485],[15.8220254895651,46.623935280248],[15.8224587207899,46.6239842574916],[15.8225108795069,46.6245138786116],[15.8223839594385,46.62475581284],[15.8222973753708,46.6250658319796],[15.822081425293,46.6254651283593],[15.8220685479049,46.6256927475991],[15.8218883146069,46.6259759093453],[15.8214538688852,46.6263397075178],[15.8212487485641,46.6265319102926],[15.8208774398521,46.6268053759157],[15.8202766102838,46.6270741885037],[15.8196155067578,46.6273992093074],[15.8191188632971,46.6276411788875],[15.8188863970298,46.6279693334021],[15.81885565992,46.6281999589505],[15.8184538023475,46.6282937012255],[15.8181358823033,46.6283679487899],[15.8177972444969,46.6286447693472],[15.8179222378196,46.6289838611272],[15.818056920931,46.629411231061],[15.8181941412621,46.6296341776467],[15.818200101875,46.6299257180491],[15.8179107624234,46.6302246780291],[15.8175854928698,46.630566178516],[15.8174194867755,46.6308687541148],[15.8171923301902,46.6311781539191],[15.8170553064103,46.631402160704],[15.8169088543061,46.6316506156854],[15.8167788715411,46.6321257595925],[15.816612205493,46.6323329736732],[15.8167837394946,46.632666336258],[15.8167041327778,46.632913503968],[15.8166894459357,46.6333957416471],[15.8167245881884,46.633717572406],[15.8170009628364,46.634134934953],[15.8167293821149,46.6346872916652],[15.8165678688237,46.6350205124443],[15.8163326362201,46.63528939287],[15.8162267370859,46.6355690458519],[15.8161244773025,46.6361429544779],[15.8162099374693,46.6366146709911],[15.8161411960163,46.6368813733997],[15.8160704974922,46.6372264508646],[15.8158557453021,46.6378767336045],[15.8154688876302,46.638365402703],[15.8149431304727,46.6385813807641],[15.8147323288321,46.6388869700977],[15.814719584223,46.6393431927653],[15.8145858133121,46.6396815209414],[15.8144251478051,46.6400208500962],[15.8141522612059,46.6404898101394],[15.813922079704,46.6408801045891],[15.8136740630591,46.6413182078017],[15.8135803531083,46.6416022696748],[15.8134688842128,46.6420088125765],[15.8132856843297,46.6424230626117],[15.8131765715616,46.6427081332561],[15.8130823834523,46.6432396066993],[15.8131608061316,46.6438354390954],[15.8133307885306,46.6442210879285],[15.8132846512397,46.6444635164675],[15.8132617755554,46.6448460378023],[15.8132335152599,46.6451918009807],[15.8133304370567,46.6455050059949],[15.8134544716088,46.6458316031202],[15.8134742469532,46.6462183194877],[15.8134183642782,46.646577594103],[15.8133175422129,46.6468671940308],[15.8131281218306,46.6471464476291],[15.812805092441,46.6473845457535],[15.8125939376988,46.6476172601212],[15.8132205538233,46.6477438893891],[15.8128315162386,46.6481455663606],[15.8125239478135,46.6487099529793],[15.8124251794085,46.649146003193],[15.8125656862265,46.6497435537196],[15.8129700939419,46.6503754856848],[15.8131891001284,46.6509362209423],[15.8133599562122,46.6518056137547],[15.8138181246369,46.6525097633916],[15.8139536172629,46.6527627753541],[15.8140881624738,46.652961274109],[15.814123130918,46.653541489963],[15.813707800248,46.653943356579],[15.8130290895245,46.6543470935788],[15.8124821872923,46.6547498905707],[15.8121473750928,46.6552601291473],[15.8117892802187,46.6559698978428],[15.811193368946,46.6566270118991],[15.8110164860554,46.6571360371775],[15.8108148267537,46.6577360139752],[15.8103471983034,46.6581744951846],[15.8099086634134,46.6587942310044],[15.8097842758479,46.6592847992849],[15.8096115627199,46.6600658513784],[15.8090415716226,46.6607045970558],[15.808497419804,46.6613069007266],[15.8096224756877,46.661339609909],[15.8097692443896,46.6615949757469],[15.8099333848598,46.6618672220795],[15.809707967936,46.6620857267783],[15.809435039864,46.6622467187093],[15.8093159975723,46.6625796270999],[15.8095483902916,46.6627669126135],[15.809823814117,46.6628954148771],[15.8099412009579,46.6631517980895],[15.8099244549861,46.6634479962726],[15.8099861556689,46.6638605955037],[15.8098661887142,46.664140340747],[15.8101840584705,46.6642666523678],[15.8099658778125,46.664471521303],[15.8103267560234,46.6645724274085],[15.8100257037531,46.6649159818331],[15.8095476213721,46.6646850029544],[15.8088698677005,46.6647959568423],[15.8086605762928,46.6650628372616],[15.807853267598,46.6654165304815],[15.8078961380518,46.666101142171],[15.8081022832797,46.6663416960357],[15.8082502647214,46.6665727641105],[15.8083010833314,46.6669134677684],[15.8083370393569,46.667177625013],[15.8081112335417,46.6672403972511],[15.8077679286895,46.6671883918164],[15.8075583637566,46.6672623840678],[15.8072716306394,46.6674638630195],[15.8068273191576,46.6677027090119],[15.8061218499388,46.668088419388],[15.8056225720071,46.6681644489045],[15.805281687136,46.6682756179958],[15.8051024196948,46.6686214508157],[15.804838567118,46.6685869607343],[15.8042580710766,46.6685184398062],[15.8037070679352,46.66866733743],[15.803632308528,46.6689580041012],[15.8035860971972,46.6693936759202],[15.8033536130823,46.6697035332622],[15.8029589762337,46.6697425599074],[15.8024859450505,46.6698183914984],[15.8016734793967,46.6700959653731],[15.8010386987433,46.6699189491738],[15.8007519272638,46.6701204119322],[15.8000974426213,46.6703969588012],[15.7994133450079,46.6704560802375],[15.7985765933712,46.670878917449],[15.7973735727452,46.6714675905143],[15.7966705211631,46.6720345975138],[15.7976009131483,46.6726086681092],[15.798122637395,46.6722604590026],[15.7995063986406,46.6732122680057],[15.8001489752034,46.6739151810636],[15.800865814989,46.6742911729862],[15.8013746774347,46.6748680724951],[15.8023105361355,46.6758048102766],[15.8034546892996,46.6765767890498],[15.8043304069445,46.6770060729443],[15.8051843169895,46.6777438178811],[15.8059267036137,46.6780651685577],[15.8066444468809,46.6784954573125],[15.806652418256,46.6784953111479],[15.8066493065492,46.678514585858],[15.8067536358755,46.678919867851],[15.8068095394871,46.6790223950196],[15.8069177828865,46.6790846080516],[15.8069139965567,46.6790849046528],[15.8070827925888,46.6793949972283],[15.8071272412607,46.6795445673966],[15.8071881854544,46.6796343735774],[15.8074092939951,46.6800337029221],[15.8075151436489,46.6801719537127],[15.8077482534807,46.6805166781535],[15.8077730775768,46.6806123169011],[15.8082247945538,46.6811437960468],[15.8082531574956,46.681169865821],[15.8084927505478,46.6814578642],[15.8086365828315,46.6817495977295],[15.8087008161979,46.6818580028271],[15.8094181486465,46.6818795605282],[15.8102473828979,46.681988758115],[15.8104200470743,46.6820048987489],[15.8105950639336,46.6819685721733],[15.8122286715693,46.6819753403788],[15.8131271314534,46.6820192500111],[15.8134616069743,46.6819902425508],[15.8135316237598,46.6819955925456],[15.8141515165511,46.6819438611358],[15.8144016331493,46.6818337618601],[15.8145164229353,46.6817217465535],[15.8147351087605,46.6815383679101],[15.8149808507399,46.6811462544906],[15.8151961589464,46.6809037012436],[15.8153452735962,46.6806058402477],[15.8154952376778,46.6800604759389],[15.815501463075,46.6800224658261],[15.8154478878836,46.6796153906671],[15.8155069101685,46.6792551051125],[15.815505724132,46.6790112151223],[15.8154870522619,46.6787432488328],[15.815575437627,46.678518872824],[15.8155634981554,46.6783421742694],[15.8156456892313,46.6783403288588],[15.8156613030437,46.6783008123387],[15.8168819007484,46.678274471043],[15.8175452392814,46.6782723422536],[15.8179502381414,46.6787432998994],[15.8181192045773,46.6794675795581],[15.8179527172766,46.6806658603423],[15.8174638778039,46.6814491809372],[15.8174731779309,46.6820657427561],[15.8177979893522,46.682643883452],[15.8178324724533,46.6831877523915],[15.8182077795909,46.683620325498],[15.8184796563291,46.6841806694765],[15.8188718797899,46.6845120873461],[15.8191340438299,46.684169688913],[15.819387509261,46.6838401273448],[15.8195923765345,46.6836425338152],[15.8199975701994,46.6834659059973],[15.8200734784592,46.6834284758376],[15.820473931372,46.6834224561584],[15.820970854905,46.6833211884846],[15.8215104563677,46.6832154737919],[15.8219872211655,46.68312991058],[15.8221488796186,46.6831008595935],[15.8225574982377,46.6829439906322],[15.8229784076822,46.6827530245854],[15.8233131923181,46.6825034789856],[15.8235258783001,46.6823227357345],[15.8236851233352,46.6821609098441],[15.823890777858,46.6819305551808],[15.8241025065182,46.6815753732688],[15.8242812140114,46.6812924917649],[15.8243087564501,46.6812211300739],[15.8243921481055,46.6808940418871],[15.8244862647719,46.6805674161347],[15.8245176786319,46.6803381357716],[15.824636333764,46.680103728345],[15.8247932129208,46.679933101204],[15.824925888783,46.6799157708663],[15.8254014965271,46.6794474853387],[15.8254907299509,46.6792985772222],[15.8255402536176,46.6791858520802],[15.8256037114052,46.6791812557586],[15.8257274865116,46.6791632689823],[15.8257845070028,46.679156559827],[15.8263795146226,46.6790187540406],[15.8267634485036,46.6789602913359],[15.8274579132354,46.6788131244682],[15.8276798682824,46.6787618577245],[15.8278416742525,46.6787349567823],[15.8280768451143,46.6787274072105],[15.8290780449188,46.6787909602637],[15.829211529739,46.6787926019664],[15.8296245285935,46.6787887084568],[15.8303903727572,46.6787963779116],[15.8308886699696,46.678737521133],[15.8319490853596,46.6786476763957],[15.8320471279622,46.6785970321965],[15.8320357539652,46.6780349157382],[15.8321347955586,46.6776322261795],[15.8330822937445,46.6781573918001],[15.8331754054023,46.6782707910321],[15.8331411302058,46.6783539895102],[15.833447818976,46.6785517509148],[15.8338247688917,46.6787197604475],[15.8339998047613,46.6788053021667],[15.8340354579251,46.6788881711025],[15.834293127497,46.6791109382912],[15.8343673344131,46.6792527237858],[15.8345956940292,46.679566749856],[15.8345988058515,46.6795905682125],[15.8347128689511,46.679578670295],[15.8348705586399,46.6795137337216],[15.8350262328384,46.6794282993344],[15.835150976476,46.6793376025634],[15.8352968990567,46.6792725713555],[15.8354573960602,46.6791693778165],[15.8356155461067,46.6790835646776],[15.835703547898,46.6790855309693],[15.8357476754715,46.6789887648279],[15.8358268225915,46.6789590376135],[15.8358508575904,46.6789579623713],[15.8358950195755,46.6789821105693],[15.8359629851924,46.6789817039818],[15.8360060319714,46.6789674446933],[15.8361133457352,46.678907912575],[15.836113201928,46.6788816434785],[15.835963896797,46.6788713087235],[15.8359951493892,46.6788296959006],[15.8359380254169,46.6788211166388],[15.8359245589516,46.6787446537375],[15.8360734454539,46.6787024513066],[15.8360064447452,46.6786721724147],[15.836075680483,46.6785931259665],[15.836167482734,46.6785534097501],[15.8362118886092,46.6785510159972],[15.8362560453607,46.6785070596339],[15.8363232153409,46.6785483130274],[15.8363790181499,46.678395052444],[15.8365320428516,46.6783415733794],[15.8366265264966,46.6783655333053],[15.8366310783366,46.678516463416],[15.8366659431105,46.6785141392519],[15.8366495015594,46.6784397674103],[15.8367444425197,46.6784086645398],[15.8367824066518,46.6783954317559],[15.8367183279546,46.6783258166505],[15.8368008215898,46.6783012823286],[15.8367971098548,46.6782640634395],[15.836926970956,46.6782088639591],[15.8369068106725,46.678079909825],[15.8368240331527,46.6780606327265],[15.8368395247549,46.6779972731335],[15.8368578194533,46.6779292147894],[15.8370010888406,46.6779636135264],[15.8369998143495,46.6778302928306],[15.8369544496594,46.6777451567169],[15.8370335374591,46.6777032836458],[15.8371706703366,46.6777550905551],[15.837163294166,46.6776414271497],[15.8370675966054,46.6775980438295],[15.8371053784105,46.6775476561963],[15.8370710540013,46.6774241137146],[15.8370300391168,46.6773074576027],[15.8370395023899,46.6772854365994],[15.8370731250622,46.6771519505529],[15.8372759353737,46.6770723758786],[15.837453131478,46.6770016250882],[15.8375355921869,46.6769751112117],[15.837560630307,46.6769290451212],[15.837677962849,46.6769176601015],[15.8377375558505,46.6768408424078],[15.8377399543327,46.676742311756],[15.8376568602907,46.6766770647983],[15.8376465245013,46.6765918524193],[15.8377348421568,46.6765214819314],[15.8377781729584,46.6763989004657],[15.8377874049736,46.6763704035165],[15.8378186352624,46.6762937034816],[15.8378246680236,46.6762696383041],[15.8379323429498,46.6762254860392],[15.8379700242993,46.6761771680678],[15.8380721240394,46.6762205037482],[15.8380908241364,46.6761788023418],[15.8380047094316,46.6761464154575],[15.8380263319176,46.6760654673485],[15.8380994980273,46.6760804056364],[15.8381150336497,46.6760453849112],[15.8381817483096,46.6760319410515],[15.8382508524793,46.6759617109078],[15.8380816433472,46.6758639875217],[15.838283481604,46.6756881542073],[15.8381811420091,46.6756207994642],[15.8382093127353,46.6755660735056],[15.83841571734,46.6755672602007],[15.8384829257311,46.6756195779202],[15.8384983828368,46.675562605935],[15.838615880609,46.6755621046612],[15.8384905836992,46.6753964053421],[15.8384835951807,46.6753417570365],[15.8384004732961,46.6752830783494],[15.8383894072346,46.6751169016806],[15.8384814384574,46.6750924761743],[15.838532736903,46.6751556164526],[15.8386662129031,46.6751572471824],[15.8387391340862,46.6751395290841],[15.8387101631101,46.67510024624],[15.8386304536189,46.6750678128693],[15.8386774273681,46.6749865888366],[15.8387819377275,46.6749577532309],[15.8388102482552,46.6749205695254],[15.838902638972,46.6749616365267],[15.8389503090375,46.6749592177739],[15.8390520935682,46.6749653988076],[15.8391441954559,46.6749540173657],[15.8391332390087,46.674811950929],[15.8392247174388,46.6747349885425],[15.8390937763029,46.6746437334133],[15.8391126885361,46.6746327087897],[15.8391537076039,46.6745975010192],[15.8392102611098,46.6745272723583],[15.8391459806475,46.6744445249631],[15.839048024813,46.6745083097412],[15.8389363203947,46.674460726962],[15.8390280642646,46.6743924895157],[15.8389891713361,46.6743117150503],[15.8390677747926,46.6742305288067],[15.8390291229817,46.6741737735959],[15.8391403737086,46.6741667500486],[15.8392702328285,46.6741290913099],[15.8392393428272,46.6742275611292],[15.8392717262285,46.6742930889836],[15.8393416230449,46.674308050461],[15.8392869105609,46.6742185754435],[15.8394586498828,46.6742266720398],[15.83948975619,46.6741675158626],[15.839514762388,46.6741280170967],[15.8394220529098,46.6740409801249],[15.8395197736843,46.6739705392361],[15.8395571728979,46.6738873158513],[15.8396459722055,46.673873799043],[15.8396809645421,46.6738714730196],[15.8396230953848,46.6738060423355],[15.8394446554552,46.6737280912999],[15.8395388568922,46.6736161117601],[15.8395038951001,46.6736119599394],[15.839367845886,46.6736802529158],[15.8393564564421,46.6738225732559],[15.8392357621066,46.6738274171245],[15.8392536644081,46.6737005232355],[15.839098354224,46.6737404378392],[15.838932873497,46.6736974778386],[15.8389628259563,46.673496183436],[15.8390547220935,46.6734716684835],[15.8391586977675,46.6733662750833],[15.8393965397837,46.6733302532586],[15.8396534238189,46.6732832052704],[15.8397314196788,46.673112326561],[15.8398428864696,46.673144706004],[15.8399420186231,46.6732076744822],[15.8399608632822,46.6731923318263],[15.8401217732554,46.6730669068935],[15.8402295128287,46.6730358870487],[15.8401587882247,46.6729421216631],[15.8403459628803,46.6729259925997],[15.8401953959279,46.6727910692322],[15.8400168278637,46.6727131200184],[15.8399878193195,46.6726629518282],[15.8399998717147,46.6725972778679],[15.8401717503097,46.6726315525804],[15.8403081438462,46.6726025714038],[15.8403373594133,46.6726745098522],[15.8404361812685,46.6727090508166],[15.8404987912297,46.6726081884428],[15.8403963089539,46.6725145665185],[15.8404589976821,46.6724356553773],[15.8403543821381,46.6724404722856],[15.8402079265303,46.6724105094751],[15.8402642682983,46.6723184199921],[15.8402255451565,46.6722486205677],[15.8401046418226,46.6722228783273],[15.83999266492,46.6721490283853],[15.839966585116,46.6720769768559],[15.8401540241522,46.672069662865],[15.8403285804578,46.6720491281625],[15.8404644253629,46.6719764271688],[15.8405020955511,46.6719192917016],[15.8404635819895,46.6718714426083],[15.840644372226,46.6718399756987],[15.8409965456801,46.6717772900995],[15.8411988588828,46.6716757602349],[15.8416002666856,46.6714423144636],[15.841960162685,46.6711870410256],[15.8421875397276,46.6710417812251],[15.8429523468318,46.6705945940334],[15.8431422138285,46.670508446689],[15.8433257620278,46.6704530241441],[15.843336503735,46.6702277590703],[15.8433476005403,46.6700505334294],[15.843569548134,46.6700188484715],[15.8436204469921,46.6700142447677],[15.8438870569076,46.66998034058],[15.8442804803507,46.6699239081333],[15.8452198883112,46.6698390613792],[15.8455884874812,46.669841915745],[15.8461929084689,46.6702918674793],[15.8463564509655,46.6704705006728],[15.8468892259451,46.6707088378853],[15.8476217817429,46.6710855904947],[15.8478891835268,46.6708765065486],[15.8480764658994,46.6707007636332],[15.8482647950138,46.670458347539],[15.8483761031658,46.6705140211568],[15.8498323757253,46.6710021674482],[15.8500469259421,46.6710821731735],[15.8501207558368,46.6710479771985],[15.8501474536146,46.6710169203527],[15.8502219746109,46.6710268027122],[15.8503039104021,46.6710094600661],[15.850338046977,46.6709777181274],[15.8503597090591,46.6709339234281],[15.8503262639683,46.6708347591219],[15.8504076039846,46.6707794550069],[15.8505220778466,46.6707701472639],[15.8505501737805,46.6707032733004],[15.8504892256193,46.6706088118097],[15.8505662236361,46.6705600174361],[15.8504805875886,46.6705163905537],[15.8504644573713,46.6704462466892],[15.850644456498,46.6704483273107],[15.8507622190168,46.6703987798915],[15.8508085248365,46.6702680742356],[15.8506457724433,46.6702156643917],[15.8506322976988,46.670123189134],[15.8506917899822,46.670099895347],[15.8506911214273,46.6700239686645],[15.8505579740099,46.6700008475572],[15.8505957972916,46.66995423367],[15.850741018566,46.6698722741503],[15.850863596778,46.6699214739391],[15.8509742757791,46.6698870033651],[15.8509671774247,46.6698177820182],[15.851083690987,46.6698469641666],[15.8512134019336,46.6696845095065],[15.851225149984,46.6695753828012],[15.8513250396185,46.6695946121431],[15.8513369780309,46.6695309170519],[15.8512511466365,46.669316625885],[15.8513275028837,46.6692687354253],[15.8513515643113,46.6692696359857],[15.8514092322044,46.6692717259288],[15.8515420552744,46.6692160378706],[15.8515970584318,46.6690817584448],[15.8516969451955,46.6691091744295],[15.8516773618442,46.6690272708205],[15.8517735086165,46.6689663675424],[15.8518682860474,46.6687767324105],[15.8520075012475,46.6687120895361],[15.8519359072602,46.6685971957111],[15.8521258726002,46.6684853922426],[15.8520548740077,46.6682919533491],[15.8521055174648,46.6682130354864],[15.8526248179356,46.6682176236475],[15.8529564325232,46.6681962589983],[15.8543138124963,46.6681906300423],[15.8544834652495,46.6685732499678],[15.8547447272649,46.6693367329242],[15.8554038768642,46.6693246094791],[15.8566827174936,46.6694003294556],[15.8569487248458,46.669453037001],[15.8570006270049,46.6694127931206],[15.8571716738427,46.6693200159378],[15.8573203228847,46.6692076137125],[15.8574776702733,46.6690585297618],[15.8575224781843,46.6690159996813],[15.8574958635991,46.668985880461],[15.857594790337,46.6689193735304],[15.857685831282,46.6689161720362],[15.85780754872,46.6688363589718],[15.8578069385545,46.6687647502579],[15.8578788638076,46.668676763602],[15.8579044333791,46.6686738728854],[15.858017142846,46.6686607922737],[15.8580340260215,46.6685962496869],[15.8581159791639,46.6685638769068],[15.8581619973799,46.6684740151425],[15.8582306148199,46.6684165516968],[15.8582099068644,46.6682972315809],[15.8582557919539,46.6681907269792],[15.8583018430473,46.6681194879619],[15.8583427674497,46.6680711388654],[15.8583703329077,46.6679797060786],[15.8584858280402,46.667977580011],[15.8586451255373,46.6678200229382],[15.8588487298455,46.667687503601],[15.858866674808,46.6676075686441],[15.8589797690038,46.6676106781549],[15.8590601857,46.6675969392842],[15.8591252815421,46.6675153007539],[15.8592453938284,46.6674747235681],[15.8593259133885,46.6674757382379],[15.859373558556,46.6673980092206],[15.8595025197831,46.6673220984429],[15.8595649031862,46.667217808484],[15.8595804699444,46.6671033441497],[15.8596250389286,46.6670624344203],[15.8597720148448,46.6669276398752],[15.8599526377088,46.6668543992162],[15.8600222386677,46.6668015155748],[15.8600985205727,46.6667661251302],[15.8601781107429,46.6667745234372],[15.8601466593865,46.6668184835957],[15.8602908136205,46.666901338498],[15.8604293018557,46.6668494660479],[15.8605127282902,46.6669431234912],[15.8606190401526,46.6672682723967],[15.8606200058525,46.6673867509729],[15.8606847844276,46.6675158154051],[15.8607427277425,46.6675682797918],[15.8609083071431,46.6675763905236],[15.8610325305292,46.6675561129483],[15.8610465803157,46.6677248742696],[15.861041411818,46.667852035778],[15.8611152108801,46.667915356556],[15.8612143434172,46.6679609431398],[15.8612647948534,46.6679037045694],[15.8613353707604,46.6679450976512],[15.8612468988256,46.6680440969936],[15.8614447498969,46.6680762549658],[15.8614680095356,46.6681747730422],[15.8614618776754,46.6682165636472],[15.8616190063013,46.6683342261563],[15.8617335269654,46.6683118616964],[15.8616862804504,46.6683733947223],[15.8617569965618,46.6684564409536],[15.8618429858998,46.6684561531245],[15.8619080832882,46.6686050070616],[15.8618511244507,46.6686557273765],[15.8619188699859,46.6687409550755],[15.8619470002963,46.6687511792659],[15.8626339479987,46.6687207214756],[15.8635486777652,46.6686978071336],[15.8636146513013,46.6686962295785],[15.8637015241875,46.6686939544216],[15.8640094371087,46.6689403868436],[15.8643693093946,46.6692897073809],[15.8647531349172,46.6695181107686],[15.8647493110889,46.6694996065824],[15.8647351200377,46.669429270114],[15.8647342016681,46.6692815521547],[15.8647315470516,46.6688446951461],[15.8647533398317,46.6678183730007],[15.8647604183304,46.6676722139557],[15.8648405697963,46.667289610487],[15.8649555853796,46.6668479052936],[15.8651176913043,46.6664582043915],[15.8653061598279,46.6660582276081],[15.8655602622492,46.6655293717712],[15.8660108006057,46.6646421314702],[15.8665426720354,46.6645277155042],[15.8670119679152,46.6646517327178],[15.8669657024025,46.6644797974167],[15.8670554943582,46.6640965793198],[15.867275627927,46.6634962735643],[15.8676085049887,46.6627310134413],[15.8677158653473,46.6623437029515],[15.8679507060977,46.6623448005884],[15.8685894499461,46.6623858361511],[15.8698446654207,46.662545617081],[15.8704086358392,46.6625928788354],[15.8703301113055,46.6635869767809],[15.8703881817382,46.6639482904763],[15.8707557163277,46.6647987364542],[15.8708017279183,46.6649052664956],[15.8708554698758,46.6649316674751],[15.8709146490631,46.664865361525],[15.8708646232478,46.6648099630675],[15.871092911948,46.6646628393027],[15.8711410855606,46.6646761474313],[15.8712469036786,46.6645358036032],[15.8714050020903,46.6645098587931],[15.8714095894169,46.6644537747077],[15.8715234135002,46.6644376134185],[15.8715760787558,46.6644539460119],[15.8716453592216,46.6643738878148],[15.8717687426253,46.6643914808693],[15.8717592174443,46.6643192203555],[15.8718368969863,46.6642739150918],[15.8718926021205,46.6643167645025],[15.8719426150245,46.6643550689733],[15.8720680036136,46.6642941956085],[15.8721472585126,46.6642412309709],[15.8726100506882,46.6645045429985],[15.8729156703252,46.6648429149182],[15.873184083855,46.6649237259117],[15.8732694407457,46.6649494346408],[15.8737807954311,46.6651034217855],[15.8740540078814,46.665279108765],[15.8742120668885,46.6653884700245],[15.8740539710415,46.6655849052368],[15.8743125444439,46.6657845445457],[15.8744278243774,46.6659314785308],[15.8744670890118,46.6660080998015],[15.8744829438694,46.6660836404542],[15.8744642947936,46.666183285947],[15.8744105167882,46.6663412283096],[15.8743118051453,46.6666302353433],[15.8745470756182,46.6667297395184],[15.875179966536,46.6669795053067],[15.8753759691081,46.6670345048233],[15.8758010625176,46.6668870353649],[15.8761240811866,46.666787668384],[15.8770494668467,46.6664644361996],[15.877375813215,46.6663771856425],[15.8777206010047,46.6663070662505],[15.8777891767988,46.6662969137359],[15.8779780174166,46.6662404952434],[15.8781368146039,46.6661930337807],[15.8788135666894,46.6661004801445],[15.8795314271181,46.6660045476346],[15.8795750278033,46.6660016034254],[15.879658301833,46.6659952953195],[15.8800885136783,46.6659631076094],[15.8801569495812,46.6657833678633],[15.8803861763085,46.6651801780252],[15.8804837791666,46.6649859989081],[15.8808839461722,46.6650435561048],[15.8812509723251,46.6650962390771],[15.8815163795845,46.6651038209266],[15.8820572908363,46.6642855448892],[15.8827400509191,46.6645318256261],[15.8831587999028,46.6646070448757],[15.8830815034613,46.6648679147037],[15.8836437734023,46.6649690143007],[15.8836782262602,46.6649741461988],[15.8841152614491,46.665040493955],[15.8845457293401,46.6650887175745],[15.8849182926839,46.6651201138718],[15.8850396499612,46.6651252929044],[15.885366052104,46.6651387816063],[15.8853819785925,46.6651377586954],[15.8854448976102,46.6651334931868],[15.8858861085562,46.665103267768],[15.8867349209835,46.66502543887],[15.8873467706539,46.6649774213105],[15.8876759234203,46.6648955175534],[15.8882650798778,46.6647865838584],[15.8886831619775,46.6646530656787],[15.8888074443212,46.664613504619],[15.8894608473164,46.6644939893897],[15.8903233325656,46.6644061312294],[15.8908760963428,46.6643496478626],[15.8909503861702,46.6643057954662],[15.8908546343717,46.6641091544309]]]},"properties":{"fill-opacity":0,"stroke-opacity":1,"stroke":"#ff0000","lov":"1009","lov_naziv":"SV. ANA","luo":"10","luo_naziv":"Slovensko Goriško","povrsina":2738.42},"id":"pregledovalniklovisca.1"}]}