{"type":"FeatureCollection","features":[{"type":"Feature","geometry":{"type":"Polygon","coordinates":[[[15.6299431453844,46.6802121889502],[15.6297988208638,46.6806048753191],[15.6297889338294,46.6806314697073],[15.6298006673442,46.6806331545054],[15.6299168595873,46.6806498383081],[15.6301349285679,46.6806411704018],[15.6305864849587,46.6807244203182],[15.6306769361035,46.6807575690798],[15.6307278519752,46.6807857176802],[15.6307869588742,46.6808212882797],[15.6308232258136,46.6808487078997],[15.6309141554142,46.6809566155737],[15.6309439018049,46.6809965763813],[15.6309772995754,46.6810245515689],[15.6310283017418,46.6810600767697],[15.6311692903243,46.6811112095139],[15.6314892152747,46.6812055279789],[15.6315823005471,46.6812290351245],[15.631760678582,46.6812691648329],[15.6319457850794,46.6813145650954],[15.6320726831988,46.6813342864504],[15.63219543325,46.6813569994609],[15.6326123133024,46.6814924333022],[15.6326880462181,46.6814963329334],[15.6328365978674,46.6814672621097],[15.633274951313,46.6813369951834],[15.6333701636533,46.6812963433534],[15.6334627097608,46.6812624536539],[15.6335921788291,46.6812225116405],[15.6337278571473,46.6811993587302],[15.634027310518,46.6811859142598],[15.6340325017236,46.6812050482502],[15.6335789070485,46.6812725162537],[15.6333674253654,46.6814535290886],[15.6331781655459,46.6816345984904],[15.6331238993256,46.6817015844305],[15.6331147649364,46.6817128598543],[15.6330960918577,46.6817577473394],[15.6330898502506,46.6817727512778],[15.6330853930577,46.6817834657325],[15.6330522565392,46.6819917257347],[15.6330517814076,46.6819947118818],[15.6330476178504,46.6820092231154],[15.6330239146738,46.6820918355771],[15.6330225145854,46.6820967152842],[15.6329559493154,46.6822398595277],[15.6327493776913,46.6824612387448],[15.6327110349706,46.6825361225258],[15.6327087385,46.682596952218],[15.6327314529392,46.6827062252278],[15.6328310854857,46.6829878974598],[15.6328226369527,46.6830595984925],[15.632821570465,46.6830686495498],[15.6328962342106,46.6830815515525],[15.6328269278986,46.6832699637329],[15.6325586347278,46.6837588827781],[15.6325459947322,46.6837795266074],[15.632362748705,46.6840788048352],[15.6321258889737,46.6843268901877],[15.6321076212473,46.6843410257927],[15.6321393907176,46.6844309061867],[15.6321678331392,46.6845829714135],[15.6322267421583,46.6846907849868],[15.6323915942196,46.6848366983998],[15.6325664396767,46.6849651029355],[15.6327257691141,46.6851193232572],[15.6329305260952,46.6852230011269],[15.6331765589437,46.6853348170602],[15.6332315610713,46.6854324855739],[15.6332474224382,46.6855368482289],[15.6333573864692,46.6855944475542],[15.6335180044797,46.6856572542524],[15.6337187668141,46.6856985164734],[15.6338246168738,46.6857172728566],[15.6339077395187,46.6857712417633],[15.6340249440061,46.6859447663988],[15.6341026236275,46.6860362811086],[15.6341415726633,46.6861137058392],[15.6341596416311,46.6862054608942],[15.6341077833369,46.6864548638976],[15.6340145826217,46.686656993954],[15.6340066863112,46.6867195640101],[15.6340235034283,46.6868942745743],[15.6340691787891,46.6872895115613],[15.6341023179656,46.6877306106131],[15.6341199736519,46.6878540359311],[15.6341477360157,46.6879473566265],[15.6341449600176,46.6880229433537],[15.6341950107335,46.6881104726579],[15.6344139254462,46.6883501877324],[15.634514778924,46.6884330268797],[15.6346758008723,46.6885183211565],[15.6348469010659,46.6886157046828],[15.6350219100492,46.6886895851663],[15.6351863178499,46.6887959119452],[15.6352551424395,46.6889010598329],[15.635372925832,46.6890003579446],[15.6355702570123,46.6890823005262],[15.6356702912415,46.6891619044257],[15.6357196167389,46.6892318937328],[15.6357367470363,46.6892544699563],[15.6357887375034,46.6892952954859],[15.6359341425719,46.6893751868375],[15.636065406048,46.6894643331336],[15.6361399904446,46.6895587425228],[15.6362128932477,46.6896880679654],[15.6363116790369,46.689805913728],[15.6363745269288,46.6899028173037],[15.6366896577769,46.6902626370142],[15.6372905363099,46.6905061582452],[15.6372905363202,46.6905061582494],[15.6378135043741,46.6908280210524],[15.6381549562066,46.6910568796293],[15.6381549562326,46.6910568796463],[15.6384503683836,46.6912507273763],[15.6384503685223,46.6912507274673],[15.6385468210082,46.6913141549613],[15.6386047842,46.6913509092829],[15.6387068721265,46.6914156427994],[15.6390877596049,46.6915953370273],[15.6402250319479,46.6919757425199],[15.6402318382893,46.6919773179171],[15.6402322427117,46.6919774115248],[15.6404325881852,46.692025231775],[15.6405784660526,46.69208611565],[15.6407556882392,46.6921600810153],[15.6407556882791,46.6921600810372],[15.640946781814,46.6922643587545],[15.6411798238054,46.6923915263182],[15.6410728350682,46.6923331082038],[15.6411798238054,46.6923915263182],[15.6412022529945,46.6924038880295],[15.6412308868191,46.6924196693732],[15.6412389238314,46.6924044501344],[15.6412733432595,46.6923392718926],[15.641309061188,46.6922830346116],[15.6413255836415,46.6922570202418],[15.6413843810011,46.6921764411628],[15.6414472566214,46.69209799837],[15.6415207676127,46.6920233644452],[15.6416028391926,46.6919539904551],[15.6416904356252,46.6918874643285],[15.6417858060767,46.6918260225834],[15.6418864590832,46.691769049416],[15.6419693695883,46.6917262450096],[15.6419914592403,46.6917148407101],[15.6420333538261,46.691693497082],[15.6420955578901,46.6916618065219],[15.6421995053383,46.6916070637361],[15.6422757297151,46.6915632193084],[15.6423002765063,46.6915490999147],[15.6423389515638,46.6915267677973],[15.6424006552495,46.6914911382069],[15.6424958870592,46.6914291568481],[15.6425815055685,46.6913613816164],[15.6425882780345,46.6913552301384],[15.6426605390524,46.6912895948418],[15.6427293151825,46.6912128275414],[15.6427763229915,46.6911545190902],[15.6427921930806,46.6911348338109],[15.6428378698051,46.691068028845],[15.642847582597,46.691053823277],[15.6428999607725,46.6909724697712],[15.6429100283008,46.6909547124169],[15.6429465757823,46.690890248965],[15.6429825424256,46.6908031398539],[15.6430069936479,46.6907151957833],[15.643015003837,46.690662702221],[15.6430204588471,46.6906269535808],[15.6430318183798,46.6905375536525],[15.6430450145559,46.6904486831952],[15.6430603215111,46.6904057341368],[15.6430757610217,46.690362413077],[15.6431288036092,46.6902820453464],[15.643178018816,46.6902373140873],[15.6432058940978,46.6902119784523],[15.6432700580484,46.6901653753002],[15.6433792984895,46.6902047347614],[15.6436440113754,46.6903001104572],[15.6437482305475,46.6903607090002],[15.6437495960254,46.6903615029598],[15.6439711774179,46.6904912464097],[15.6440812210725,46.6905464058355],[15.6441032299015,46.6905574377436],[15.6442670671587,46.6906247994513],[15.6443149406552,46.6906427710538],[15.6444002350767,46.6906747903074],[15.6444235984119,46.6906819460496],[15.644519646335,46.6907113636191],[15.6445574931118,46.690719376546],[15.64458256152,46.690724684026],[15.6447982204208,46.6907791971211],[15.6448186093681,46.6907843509025],[15.6448274638187,46.690786584057],[15.6449163064401,46.690808990741],[15.644916306466,46.6908089907444],[15.6453465866882,46.6908642328234],[15.6453465871986,46.6908642328888],[15.6454486331789,46.6908807508185],[15.6453465871986,46.6908642328888],[15.6456202387619,46.6909085717582],[15.6455067951715,46.6908901390316],[15.6456202387619,46.6909085717582],[15.645620238892,46.6909085717792],[15.646731877224,46.691088523399],[15.6469625858064,46.6911058421144],[15.647076589801,46.6911273290671],[15.6470936870882,46.6911576408356],[15.6471051949817,46.6912235207208],[15.6470676425858,46.6913196366774],[15.6470437822827,46.691390844622],[15.6470431689157,46.6914818035577],[15.6470480748606,46.6915203711616],[15.6471181766939,46.6915988747685],[15.6471845632704,46.6916399735558],[15.6472351515504,46.69166100932],[15.6474985466707,46.6917000037586],[15.6477301753958,46.691717495651],[15.6480027033704,46.6916892327473],[15.6481823381234,46.6916556476689],[15.6482910241301,46.6916149971393],[15.6484500090185,46.691571182562],[15.6485221054922,46.6915649261826],[15.6486076221357,46.6915657009882],[15.6486623873268,46.6915751968174],[15.6489416341041,46.6916276829137],[15.6490490715503,46.6916574819988],[15.6492186016453,46.6917190465036],[15.6493206511828,46.6917465367914],[15.6493606550136,46.6917679915424],[15.6494380611003,46.6918992622218],[15.6498829509924,46.6916017382945],[15.650453688926,46.6913323763293],[15.6508701500206,46.6912485890621],[15.6511524361893,46.6912602079814],[15.6516264480088,46.691156747782],[15.6520056083937,46.6912003805091],[15.6525480080752,46.6911738074512],[15.6526725359508,46.6911678791928],[15.6529877695361,46.6915387118264],[15.6530033019585,46.6915569836109],[15.6530127040347,46.6915631201477],[15.6532439363902,46.6917140399402],[15.6536524053343,46.6920949617565],[15.6536567088632,46.6921040941628],[15.6539222482086,46.6926675819077],[15.6539269282407,46.6926771534602],[15.6539533495301,46.6927311899361],[15.6539720272138,46.6927729172991],[15.6539721419559,46.6927739945743],[15.6539872156828,46.6929155162942],[15.6540347869076,46.6931845121066],[15.6540404563442,46.6934360142406],[15.6540432326155,46.6935591714715],[15.6540422657495,46.6935662242062],[15.6540338688742,46.6936274745377],[15.6540286923358,46.6936652343135],[15.6540280951656,46.693667105854],[15.6540038735466,46.6937430166686],[15.6540036184595,46.6937458769234],[15.6539915512345,46.6938811846203],[15.6540041494802,46.6939608223232],[15.6540795393673,46.6941729806067],[15.6540898827169,46.6942174545555],[15.6541028305542,46.6943368551306],[15.6541131022658,46.6944945064662],[15.6540876165416,46.694657850117],[15.6541084772634,46.6947611915375],[15.6541364659908,46.6948592741874],[15.6541840078142,46.6949523868893],[15.6542413498123,46.6951207449055],[15.6542377780768,46.6957668996154],[15.6542376389759,46.6958203400855],[15.6542044886189,46.6959661842208],[15.6541898124668,46.6961801167824],[15.6541944559065,46.696250623403],[15.654206919886,46.6963948572444],[15.6542896624634,46.6966957694785],[15.6543266793548,46.6968375237884],[15.6543472585266,46.6969282715301],[15.6543497421354,46.6969823267517],[15.6543371722882,46.697099983885],[15.6543195273572,46.6971763757514],[15.6542751873228,46.697294394473],[15.654122198685,46.697727464638],[15.6541186217853,46.6978427312128],[15.654106202111,46.6978862556671],[15.6541041533795,46.6979548212793],[15.6540569984693,46.6982621439184],[15.6540168043116,46.6985178763678],[15.6540684621235,46.6989190981802],[15.6540882980763,46.6994463638997],[15.6540272838038,46.6995806716206],[15.6539733520694,46.6996517828909],[15.6538814595128,46.6997521699943],[15.6537821226495,46.6998425233954],[15.6537522955647,46.6999064795054],[15.6537530550256,46.6999585653166],[15.653728226079,46.7000466036747],[15.6536726266602,46.7001854685071],[15.6535985239516,46.7003189510925],[15.6535180059887,46.7004084770341],[15.6534288077737,46.7004722323281],[15.6532871070745,46.7005523012096],[15.6531117619918,46.7006510049215],[15.6529157539627,46.7007930098049],[15.6528595389269,46.7008267977956],[15.6525820946803,46.7009932875503],[15.6524510529594,46.7011008241016],[15.6523240035868,46.7012032996618],[15.6522197388637,46.701286662449],[15.652157141718,46.7013177259516],[15.6521487632729,46.7013218837054],[15.6520615823228,46.7013688028399],[15.6520407669934,46.7013819827196],[15.6519863101305,46.7014164637447],[15.6519382286052,46.7014742257741],[15.6518885651201,46.7015418030553],[15.6518199953743,46.7016139862981],[15.6517826982978,46.7017094724156],[15.6517803082715,46.7017281988924],[15.6517432707946,46.7017909360067],[15.6515707002918,46.7020556082137],[15.6513372981632,46.7023511247931],[15.6511379628262,46.7026088413785],[15.650991028265,46.702863470564],[15.6508950013809,46.7030560035693],[15.6508508780146,46.7031168914066],[15.6508437273876,46.703185665846],[15.6507528053799,46.7032698510284],[15.6507466965063,46.7033709172075],[15.6507548991219,46.7034005592268],[15.6507500177924,46.7034623034297],[15.6507052640744,46.7036013749476],[15.6506485390883,46.7037128050938],[15.6506210848339,46.7037570443704],[15.6505595849462,46.7038193803723],[15.6505140740551,46.703862822623],[15.6504272052384,46.703947074459],[15.6503962815804,46.7039964614425],[15.6503310202178,46.704072313546],[15.6502588394246,46.7042362813014],[15.6502072919234,46.704310705913],[15.6501066912604,46.7044059213688],[15.6500555896867,46.7044848416583],[15.6500062376155,46.7045678904052],[15.6499757891573,46.704678721102],[15.6499376463931,46.7047368756279],[15.6499281330273,46.7048050336506],[15.6499008328402,46.7048839986059],[15.6498506639696,46.7049862145988],[15.6497958374982,46.7050490520697],[15.6499105374187,46.705509454385],[15.6499729427464,46.7057599442233],[15.6499888247106,46.7057621883967],[15.6507331469345,46.7058673608729],[15.6515953799794,46.7059544890531],[15.6522728161903,46.7060301590648],[15.6528420391208,46.706100864637],[15.6533124186975,46.7061519794579],[15.6539446040093,46.7062271781936],[15.6544158861671,46.7062662279271],[15.6550431990912,46.706316797879],[15.6558838292996,46.7063899827717],[15.6568487854187,46.7064483232854],[15.6576437313902,46.7064854113717],[15.658282994034,46.7064964899425],[15.6593165309257,46.7064942280912],[15.6602796727681,46.7064891243631],[15.6607434442479,46.7064908556417],[15.6616357127655,46.7064651877336],[15.6622379748255,46.7064663819948],[15.6628580551797,46.7064381410752],[15.6630382386581,46.7064309369072],[15.6635422284572,46.7064107846688],[15.6637962180905,46.7063955515126],[15.6641716071232,46.706373036319],[15.6644745835328,46.7063778324402],[15.6652361097775,46.7063898838656],[15.6662067436721,46.7064518010466],[15.6664296390355,46.7064730454279],[15.6667680613544,46.7065052999367],[15.6675027065443,46.7065939512948],[15.6679840988111,46.706658599812],[15.6681056706026,46.7066731107756],[15.6678985229428,46.7050516997806],[15.6680530283472,46.704187037549],[15.6682403303605,46.703299332169],[15.6697185737659,46.702631421259],[15.6709363047003,46.7022605562876],[15.6714207692295,46.7013711025731],[15.6715431020196,46.7005747278658],[15.6710075409099,46.7000096461694],[15.6714964936465,46.6994838969645],[15.6709917711774,46.6987367233646],[15.6700989111198,46.6986510902146],[15.6691407353509,46.6986340261136],[15.6687655861619,46.6976815026579],[15.6676700461041,46.6972333033374],[15.6671267189397,46.6960316506003],[15.6673016900662,46.6941438674332],[15.6678858053561,46.693299368951],[15.6685060641122,46.6927046712836],[15.6686980911526,46.6922034290725],[15.6694215083754,46.6919490940176],[15.6701751840678,46.69146732338],[15.6707970853284,46.6910089917214],[15.6719657751689,46.6905532946395],[15.6716638618552,46.6904561047959],[15.6714006120747,46.6903137043528],[15.6708495296482,46.6901549980147],[15.670625170132,46.6899854679655],[15.670334869206,46.6897802474786],[15.669993743723,46.6896832829331],[15.6695060363209,46.6893622603939],[15.6689394526091,46.6890057105542],[15.6686885127828,46.6888002557429],[15.6684362431109,46.6884868490515],[15.6680397323149,46.6881382976433],[15.6676964052579,46.687861497212],[15.6673276909618,46.6876567265768],[15.6669963347105,46.6872897983165],[15.6668494367135,46.687038749922],[15.6666502503529,46.6867880059843],[15.6663468187244,46.6865648585993],[15.6658844212668,46.686171700328],[15.6654496110632,46.6858953354624],[15.6650203963426,46.6858828065449],[15.6638926106309,46.6854801905228],[15.6634560868899,46.6848917360868],[15.6635143074848,46.6842548892742],[15.6637740342706,46.6838896504273],[15.6638983924176,46.6832524196141],[15.6644605224421,46.6833173508532],[15.6646458710436,46.6832730906861],[15.6649446400859,46.6831183226734],[15.6652298953058,46.6829277360119],[15.6654888951315,46.6827283047394],[15.6658635462155,46.6823662611057],[15.6662777379371,46.6820309757828],[15.6664844446758,46.6818318467128],[15.666792620399,46.6813802211421],[15.667167122796,46.6810181740102],[15.667529786834,46.6807460707576],[15.6675793005678,46.6805208668031],[15.6675486159101,46.680152185074],[15.6685193072393,46.6803838482012],[15.6691807700683,46.6804708472982],[15.669844483083,46.68073974072],[15.670274295432,46.6807826565446],[15.6708684816359,46.680756412868],[15.6714616917224,46.6806619775782],[15.6720221124886,46.6805904932021],[15.672417576908,46.6805199755987],[15.6729234013418,46.6803364400519],[15.6735234311902,46.6802339469739],[15.6740198991273,46.6802130302889],[15.6744612847036,46.6799675210287],[15.6746518593381,46.6795255638489],[15.6747654634867,46.6792010161382],[15.6747702465429,46.678535239031],[15.6748308945958,46.6781570238369],[15.674852088409,46.6777700446857],[15.6750826458634,46.6773907370843],[15.6753157789927,46.6772184257752],[15.6757700922997,46.676963838408],[15.6761721214213,46.6767095582121],[15.6767470880824,46.6766971623481],[15.6771771609513,46.676595655115],[15.677681939204,46.6761967256945],[15.6780956730218,46.6758344100303],[15.6784341357394,46.6757244443208],[15.6787454439033,46.6755336691824],[15.6790048093569,46.6753701912855],[15.6793160955114,46.6751884113237],[15.6798099200067,46.6749605630547],[15.6800954185127,46.6747969273955],[15.6805768432057,46.6746230392169],[15.6808624505956,46.6744683975981],[15.6811212394057,46.6742599352242],[15.681392190968,46.6739794269046],[15.6817531536874,46.6735814256378],[15.6821141111267,46.6731834232329],[15.6823583479772,46.6728580887399],[15.6825115348106,46.6725782799456],[15.6826526869374,46.6723704257107],[15.6829374832982,46.6721528073527],[15.6832363665177,46.6720160737244],[15.6838790085393,46.672192166824],[15.6842457315933,46.6722529506607],[15.6846124554571,46.6723137333169],[15.6852043247384,46.6725980821633],[15.6855061609645,46.6726951470235],[15.6857516268972,46.6724687606786],[15.6862151456501,46.6719261846024],[15.6864856035574,46.6716096805659],[15.6866899175163,46.6712305965188],[15.6867902501296,46.6708971193736],[15.6868125126024,46.6705911006383],[15.6868607976782,46.6702759290479],[15.687040563386,46.670022944352],[15.6873891719062,46.6696969721488],[15.6876347305883,46.669479577698],[15.6879557273566,46.6690277269791],[15.6880041186409,46.6687215508012],[15.6878834249861,46.6684793676283],[15.6877367107146,46.6682463373503],[15.687694654611,46.6680216745107],[15.6877957740915,46.6677511679398],[15.6880807539243,46.6675515287245],[15.6884050324687,46.6673696456046],[15.6885838675537,46.6670446909321],[15.6886289405597,46.6664776321588],[15.6884284742006,46.6661279700242],[15.6883340334238,46.6658946258865],[15.6882778818602,46.6655890783079],[15.6883130870981,46.6652739845048],[15.6884012291242,46.6650215485941],[15.6886712974998,46.6646780514348],[15.6881479307605,46.6646272205906],[15.6877693290584,46.6646564869201],[15.6861861488297,46.6648227139114],[15.6846433325964,46.6648020873643],[15.6840791009252,46.6646297580271],[15.6834533499225,46.6643766437948],[15.683080912312,46.6640861175442],[15.6825035695436,46.6630579191732],[15.6817108528082,46.6624835318165],[15.6786261297988,46.6619609019856],[15.6775892835759,46.6615570704454],[15.6765176428888,46.6610024716982],[15.6755713347043,46.660164448617],[15.6754674576805,46.6601333937566],[15.6752712009212,46.6600711259308],[15.6749030029607,46.6598843690502],[15.674301970288,46.6598879127807],[15.6739237289977,46.6599441211159],[15.6735823196847,46.6598201786468],[15.6733970513746,46.6596323398345],[15.6731333905171,46.6594450519119],[15.6728823497333,46.6592216126433],[15.6727229942056,46.6590156270507],[15.6725355007593,46.658647867146],[15.6724401378628,46.6583335453119],[15.6726708553588,46.6579723235566],[15.6727921267026,46.6577101681743],[15.6729796082282,46.6575926490614],[15.6732351086459,46.6571232306928],[15.673361852709,46.6568076024155],[15.6735121565192,46.6562849125377],[15.6736889225301,46.6557890565313],[15.6737886372726,46.6554016137086],[15.6738362961825,46.6550414672948],[15.6737256331412,46.6545473035554],[15.6737084348018,46.6542145289686],[15.6736911249797,46.653872758371],[15.673714349225,46.65363870883],[15.6737767663875,46.653404428477],[15.6737711800209,46.6529546290409],[15.6735699476217,46.6525419681225],[15.6734887707171,46.6523175297979],[15.6735377882955,46.6520563384511],[15.6736390613424,46.651794839416],[15.6735405774592,46.6512286303195],[15.6733797917628,46.650905697338],[15.6733755299976,46.6505728463544],[15.6732161983737,46.6503668610143],[15.6730045020187,46.6501521868276],[15.67283155172,46.6499012977876],[15.6727108569019,46.6496501012435],[15.6728117949207,46.6493616148438],[15.6731641718115,46.6493325521736],[15.6736087737802,46.6493659220467],[15.6742243183934,46.649488249498],[15.6747347987639,46.6495662100241],[15.6750598167104,46.6494382497138],[15.675169900046,46.649129824652],[15.6752239314522,46.6489784519829],[15.6753516531619,46.6487437851514],[15.6759745419757,46.6484072304926],[15.6762192162934,46.6482801013815],[15.6763250046376,46.6482252262594],[15.676495489938,46.6480155859214],[15.6766197821893,46.6478627175046],[15.676633677115,46.6478455416862],[15.6767349275768,46.6475840398392],[15.6766666959725,46.6473505303468],[15.6767166982434,46.6472641366097],[15.6767622259683,46.6471855964079],[15.6769156899022,46.6469209065794],[15.6770119864492,46.6467547083515],[15.677139470758,46.6465020475155],[15.677045274991,46.6463968042741],[15.6769607071503,46.6463302795815],[15.6768013746091,46.646124299088],[15.6767809848411,46.6459453862046],[15.6767127137472,46.645802833126],[15.6766826439246,46.6454971245798],[15.6766263559781,46.6451735777464],[15.6765959690023,46.6448318843804],[15.6766308935083,46.6444898047533],[15.6766538771611,46.644237762326],[15.6766221389904,46.6441334088268],[15.6765176482739,46.6437887348675],[15.6762246598874,46.6433496305033],[15.6761170261927,46.643098360069],[15.6760352930252,46.6428289431588],[15.6760177488661,46.64246918029],[15.6760270005993,46.642163239054],[15.6760478570507,46.6417402725897],[15.6760682149119,46.6413087622046],[15.6760616045146,46.6412290008433],[15.6760726333935,46.6412125617412],[15.6760787304175,46.6410833335939],[15.6761518313229,46.6406600582954],[15.6761277244126,46.6404655128965],[15.6761045652005,46.6402421725512],[15.6760930865245,46.6401385987777],[15.6761029436521,46.6401120003597],[15.6760344964355,46.6401118650234],[15.6760534110985,46.6400993378574],[15.6763369666773,46.6396467489921],[15.6763677257551,46.639001955856],[15.6761149385548,46.6386107453792],[15.675819962838,46.6383137087703],[15.6761508804352,46.6375220258132],[15.6763077927076,46.6371795847183],[15.6752520293751,46.6368848820614],[15.6742944386537,46.6370059570905],[15.6736719725445,46.6371353974742],[15.6723332708282,46.6372166850521],[15.6711923024541,46.6372863609821],[15.6706446735703,46.6373105346038],[15.6700012193907,46.6369892548332],[15.6692500387991,46.6365637904057],[15.6686297929851,46.6369694781575],[15.6683051227065,46.6368132136331],[15.6679991185372,46.6366983138581],[15.6674015297405,46.636525556601],[15.6666934066758,46.6377320002927],[15.6661454545425,46.6386456549416],[15.6655143404277,46.6396921315545],[15.6650661536957,46.6404572951526],[15.664497265622,46.6415111411982],[15.6642567870845,46.6421622766659],[15.6639190833524,46.6434300671486],[15.663063990678,46.6467020724263],[15.6630923526896,46.6467245796265],[15.6625043853924,46.6468661743807],[15.6622983765098,46.6470700617272],[15.6622808891656,46.6472213967233],[15.6607571137388,46.6478749971869],[15.6603716635666,46.6479986774101],[15.6601528975937,46.6481106886818],[15.6597372687622,46.6482023328673],[15.6594177917063,46.6483048471607],[15.6592137562937,46.6483177185823],[15.6585186129795,46.6485327831465],[15.6576550954567,46.6489011247416],[15.656262648607,46.6491553584965],[15.6553258078483,46.649090464436],[15.6545007530642,46.6484152202052],[15.6540914192357,46.6483472972153],[15.6537850871054,46.6483490480834],[15.6535312439148,46.648467724701],[15.6531393052299,46.6484230902379],[15.6525931489125,46.6482972847003],[15.6514325029658,46.6480225736259],[15.6503692345606,46.6473369599324],[15.6496316934883,46.6468605487954],[15.6489778019252,46.6462664320089],[15.6480526703385,46.6457441119858],[15.6470792876735,46.6454682958269],[15.6456664187319,46.645441190862],[15.6448684028285,46.6455863992315],[15.6443726719076,46.6454016119952],[15.6438624672023,46.6454279656071],[15.6427055358269,46.6454579517174],[15.6416856772916,46.6455575112782],[15.6409029516235,46.6456047226127],[15.6409262111521,46.6453619525231],[15.6410392042056,46.6449744632914],[15.6411639582126,46.6444879447882],[15.641305198439,46.6442802300811],[15.6414038485447,46.6437848609125],[15.6417129358148,46.6436205581135],[15.6417803099999,46.6435848233391],[15.6419298392569,46.6435481777756],[15.6421189663032,46.6435019532623],[15.6422621728099,46.6434498684959],[15.642496168676,46.6433648857745],[15.6427941436416,46.6431561989451],[15.6428017212807,46.6431452704142],[15.6430194306227,46.6428324927327],[15.6430895589555,46.642731695852],[15.6431779065844,46.6425369613414],[15.643203999916,46.6424791460601],[15.6432591357178,46.6424580537975],[15.6436331195008,46.6423147929303],[15.6439448943147,46.6421690920192],[15.6443211215662,46.6419510540124],[15.6443332852738,46.6419413590831],[15.6443847847905,46.6419001342327],[15.6445483405531,46.6417692111866],[15.6445928527053,46.641733603535],[15.6446611726586,46.6416348850896],[15.644824007437,46.6413994244923],[15.6448749302869,46.6411778195874],[15.644898527474,46.641075034661],[15.6450892866504,46.640892316636],[15.6452981173477,46.6408124181881],[15.6453913333557,46.6407753659453],[15.6461185951552,46.6404203912958],[15.6463538872152,46.6402813233575],[15.6465336638523,46.6401751365847],[15.6465623198612,46.6401245033607],[15.6467382255119,46.639814113852],[15.6468141803697,46.6396112595116],[15.6468901346673,46.6394084051165],[15.6470188756541,46.6390645443015],[15.6470248266499,46.6390487664817],[15.6470307765698,46.639032898701],[15.6470420415819,46.639002696162],[15.6470633948552,46.6389860215326],[15.6472620387516,46.6388304251492],[15.6472811170922,46.6388201509818],[15.6474169947766,46.6387464192067],[15.647615295692,46.6386388663434],[15.6476649839633,46.6386105154752],[15.6477670806533,46.638300182229],[15.6477877499033,46.6382371784984],[15.6478123294428,46.6381625469217],[15.6478156060655,46.638152542068],[15.6477728096575,46.6381235452121],[15.6477437081262,46.6381038273408],[15.6476574571056,46.6380453874514],[15.647516823325,46.637950189022],[15.6474986514417,46.6379378764643],[15.6474802162061,46.6379253854608],[15.6474517722149,46.6379060236601],[15.6473942280396,46.6378670338505],[15.64735663676,46.6378254120493],[15.6472087805597,46.6376611596927],[15.6470221761633,46.6373471518144],[15.6469984786207,46.6373424276267],[15.6465274169485,46.6372491860504],[15.6462437854803,46.6370240724277],[15.6458802500797,46.6367355328503],[15.6458640840648,46.636727077275],[15.6455430289661,46.6364188639907],[15.6450942970338,46.6363243209432],[15.645069325251,46.636311236637],[15.6450129012274,46.6363222607908],[15.6445905011972,46.636322212281],[15.6443501739608,46.6363221265704],[15.6440080612093,46.6363077688385],[15.643857599525,46.6360657955509],[15.6442215632922,46.6358744567748],[15.6446031904987,46.6356199506518],[15.6441830484938,46.635710664329],[15.6432521231525,46.6359808540364],[15.6426664087339,46.6360094262589],[15.6424680234186,46.6362754024253],[15.6421272408444,46.6368702860503],[15.6419790617421,46.6367323889712],[15.6419528886214,46.6360764986821],[15.6417065254038,46.635753550787],[15.6416362897705,46.6356679365329],[15.641610758283,46.6357068553666],[15.6415184898684,46.6358677834048],[15.6414075323944,46.6360609342523],[15.6410623701244,46.6366618670429],[15.6398157248264,46.6381070527527],[15.6392680557415,46.6384734895082],[15.6391635434278,46.6386604843391],[15.6388071618477,46.6388554532078],[15.6379054326876,46.6388493285389],[15.637469996239,46.6382414217006],[15.6378896569196,46.6375847551018],[15.6374341249109,46.6372111433102],[15.6370812268741,46.6374911959195],[15.6366604048387,46.6380496224231],[15.6356981567816,46.6390200453097],[15.6348739729599,46.6396135433716],[15.6341885074942,46.6398954318729],[15.6337829338016,46.6399852168051],[15.63347977509,46.6402101029635],[15.6334405708906,46.6409136790835],[15.6330149172701,46.6410633102753],[15.6327601699781,46.6416208030705],[15.6317210466821,46.6441455196896],[15.6312661173211,46.6448804484074],[15.6310038773025,46.6457852490937],[15.6301600739545,46.6467385967506],[15.6296330834179,46.6483935530983],[15.6287162435648,46.6493292982464],[15.6288257340437,46.6507956897961],[15.6290109553636,46.6520772333575],[15.6307122391218,46.6533436815925],[15.6314764046927,46.654374260259],[15.6310960528431,46.6544853981383],[15.6290965551056,46.6552903630364],[15.6280405865762,46.656126104132],[15.6262483292243,46.6567374431577],[15.6242309735432,46.6560267570755],[15.6242311122635,46.6560388118126],[15.6230435072272,46.6560693960059],[15.6219257749127,46.6560404801811],[15.6220431117152,46.6561548193361],[15.6221508315594,46.656433129381],[15.6221282694484,46.6566988327649],[15.6221318935281,46.656752792875],[15.6221583912358,46.6570808460612],[15.6221592868632,46.6571589319861],[15.6221945559003,46.6576820744502],[15.622205429918,46.6577643345217],[15.6222065320214,46.6578604125826],[15.6222085731497,46.6578902703083],[15.62221091876,46.6580947510436],[15.6220487685861,46.6581748930687],[15.6220080213363,46.6582108312289],[15.621836878792,46.6583614654771],[15.6217852601323,46.6584407364471],[15.62160555719,46.6588706723451],[15.6216797135964,46.6588766570498],[15.6223230909097,46.6588973603953],[15.6223291177585,46.659092374606],[15.6223423385186,46.6595157741625],[15.6223437950535,46.6595629985559],[15.6222140119781,46.660004629306],[15.622183077706,46.6602240454172],[15.6226023702592,46.6602217645867],[15.6230390407294,46.6602193875919],[15.6235785561282,46.6601836107618],[15.6239444680951,46.6601300652339],[15.6241770215985,46.6601040560842],[15.6242613064926,46.6600929802286],[15.6242837719143,46.6600921379235],[15.6245603626642,46.6602705610596],[15.6245440563572,46.6603183322114],[15.6244940048133,46.660465430417],[15.6243454881666,46.6609015878621],[15.6243080496621,46.6610547348517],[15.6242936082425,46.6612418535724],[15.624446749354,46.6614682727319],[15.6245931546573,46.6616543335867],[15.6246931793565,46.6617956643456],[15.6249202960586,46.6620230284298],[15.6250296428702,46.6622587725615],[15.6252320202568,46.6625048941707],[15.6252801879515,46.6627044460361],[15.6253615818659,46.6628842935974],[15.6253710308868,46.6630237796302],[15.6255751449954,46.6634653877917],[15.625503766925,46.6638821418546],[15.6255339747916,46.6642238484535],[15.6251838595496,46.6644596742743],[15.6248044973668,46.6644257600056],[15.6241366995171,46.664321445238],[15.6236792476202,46.6643150330229],[15.6233256079696,46.6642449871394],[15.6228143375494,46.6641038253147],[15.6224995917607,46.6640065752833],[15.6220942034392,46.6639817902474],[15.6218221678709,46.6641901913598],[15.6219425574401,46.6644324458692],[15.6219974056419,46.6646570633102],[15.6221050668556,46.6649173800696],[15.6221995311033,46.665177768482],[15.6225830283195,46.6655715337859],[15.6228468568118,46.6657860168383],[15.6230342460335,46.6661718513397],[15.6230106948075,46.6663968951081],[15.6228190474038,46.6667667999226],[15.6225601718321,46.6669841276672],[15.6222104398082,46.6672560186171],[15.6217963953252,46.6676181342257],[15.6216454589473,46.6681317616328],[15.6213604359751,46.6683492286628],[15.6212594987428,46.66866465838],[15.621185858193,46.669069905965],[15.6207698361654,46.6692610927619],[15.6208905415865,46.669530336303],[15.6211311315905,46.6699968545025],[15.6213186265829,46.6703916875738],[15.6211378315454,46.6705816880535],[15.6209570342142,46.6707715982868],[15.6210133552648,46.6711131639362],[15.6212375859828,46.6712918789639],[15.6217639494028,46.6716039013243],[15.6219632852058,46.671890709544],[15.6222670720738,46.6721679527847],[15.6225708620551,46.6724451951904],[15.6229271385013,46.6727401442634],[15.6232829289614,46.6729811151974],[15.6235340377041,46.6732226555314],[15.6238635646761,46.6734637677637],[15.6241162317638,46.6738402474492],[15.6243546931743,46.6741178413724],[15.6249086162312,46.6745376580535],[15.6252902283754,46.6747604884372],[15.6254096581932,46.6749614496918],[15.6254235194822,46.6749846751407],[15.6254917743653,46.6752362070502],[15.6254553675786,46.6754793144614],[15.6251853628169,46.6758676441583],[15.6248385933456,46.67640033811],[15.6245287744103,46.6767259073695],[15.6242427858446,46.6768624170643],[15.6236824254886,46.6770094185158],[15.6234364716775,46.6772176807918],[15.6231661336004,46.6775790175983],[15.6230127018517,46.677876741034],[15.6227530509614,46.6780310967679],[15.6225082254508,46.6783383134916],[15.6223294741524,46.6787082364968],[15.6220974041315,46.6789883931215],[15.6220622461819,46.6793304551029],[15.6229274992987,46.6795505728459],[15.6229648984137,46.6795737277275],[15.622969240222,46.6795656398148],[15.6230003632127,46.6795667298847],[15.6232783153864,46.6795823996612],[15.6236554586038,46.6795960887064],[15.624497807301,46.6796539307735],[15.6249450222971,46.6796795584458],[15.6257963603704,46.6798138129578],[15.6279460727287,46.6802602323358],[15.6291491107534,46.6802074711628],[15.629566074824,46.6800814744614],[15.6299812990053,46.6800421230781],[15.629976558551,46.680063253227],[15.6299431453844,46.6802121889502]]]},"properties":{"fill-opacity":0,"stroke-opacity":1,"stroke":"#ff0000","lov":"1002","lov_naziv":"ŠENTILJ V SLOVENSKIH GORICAH","luo":"10","luo_naziv":"Slovensko goriško","povrsina":2233.64},"id":"pregledovalniklovisca.1"}]}