<?xml version="1.0" encoding="utf-8" ?>
<kml xmlns="http://www.opengis.net/kml/2.2">
<Document id="root_doc">
<Schema name="pregledovalniklovisca" id="pregledovalniklovisca">
	<SimpleField name="lov" type="string"></SimpleField>
	<SimpleField name="lov_naziv" type="string"></SimpleField>
	<SimpleField name="luo" type="string"></SimpleField>
	<SimpleField name="luo_naziv" type="string"></SimpleField>
	<SimpleField name="povrsina" type="float"></SimpleField>
</Schema>
<Folder><name>pregledovalniklovisca</name>
  <Placemark id="pregledovalniklovisca.1">
	<Style><LineStyle><color>ff0000ff</color></LineStyle><PolyStyle><fill>0</fill></PolyStyle></Style>
	<ExtendedData><SchemaData schemaUrl="#pregledovalniklovisca">
		<SimpleData name="lov">1224</SimpleData>
		<SimpleData name="lov_naziv">HRENOVICE</SimpleData>
		<SimpleData name="luo">12</SimpleData>
		<SimpleData name="luo_naziv">Zahodno visoko Kraško</SimpleData>
		<SimpleData name="povrsina">4914.66</SimpleData>
	</SchemaData></ExtendedData>
      <MultiGeometry><Polygon><outerBoundaryIs><LinearRing><coordinates>14.1352386067804,45.7693434257673 14.1354502925967,45.7688156734174 14.1356602170947,45.768410010658 14.1359852253344,45.7680865601219 14.1357556828688,45.7678812883719 14.1352942736691,45.7676131648097 14.1342204054769,45.7674422575931 14.1336383823623,45.7674582710912 14.1330286265057,45.7673722133894 14.1328284674036,45.7671467331494 14.1323433918839,45.7665322634262 14.1317704088828,45.7659578846825 14.1317184933813,45.765550238821 14.1316399248068,45.7649795257753 14.1314129397705,45.76461131007 14.1307751142078,45.7644640201491 14.1297863879816,45.7644362478725 14.1292066126159,45.764309726908 14.1287127267425,45.7642652903335 14.128159976652,45.7642610735967 14.1278033546531,45.7641120434485 14.1282689236239,45.7639356358719 14.1285534219022,45.7638370281831 14.1289540835582,45.7637006138982 14.1292133578245,45.7635622208547 14.1294466140064,45.7634434246676 14.1296814221588,45.7632247615293 14.1297604232385,45.7631047895131 14.1299431819861,45.7629262205525 14.1300873906145,45.7627464579679 14.1302312767382,45.7625873882459 14.1304403697577,45.762368527747 14.1306112200361,45.7621286803446 14.1308218620831,45.7618098626196 14.1309663709004,45.7616103954537 14.13108641653,45.7613304794634 14.1311682050123,45.7610305666789 14.1312368315279,45.7607503494422 14.1313192466422,45.7604099500652 14.1313612287094,45.7601898170624 14.1314800253778,45.7599900637184 14.1316235932985,45.759850785462 14.1317411322812,45.7597320047264 14.1319361132562,45.7595931167866 14.1321445745362,45.7594138396845 14.1323135255923,45.759295448878 14.1324317033798,45.7591352812393 14.1325749460601,45.759016694816 14.1327197493696,45.7587973418836 14.1328770982841,45.7585978796931 14.133072072477,45.7584589897383 14.1333579520874,45.7582605021081 14.133565150517,45.7581621952677 14.1338500941577,45.7580239862506 14.1341735960218,45.7578860687391 14.1344065119303,45.7577870554584 14.1346648134695,45.7577089295013 14.1348337679561,45.7575896351571 14.1349773074468,45.7574512522236 14.1350960853104,45.7572514948897 14.1351245853745,45.7570708497629 14.1351270595807,45.7569107031316 14.1351295337661,45.7567505564958 14.1351956609587,45.7566304831373 14.1353649167479,45.7564913945473 14.1354079176852,45.7564038089771 14.134165257333,45.7549179071299 14.1343485708844,45.7547506726423 14.1331610044909,45.7536456148166 14.1329940103722,45.7527590285252 14.1331358436024,45.7513688244806 14.1332686633758,45.7505687346013 14.1337633818334,45.7497292780497 14.1344360390585,45.7490597012712 14.1351133651567,45.748095109171 14.1354843689934,45.7474654429726 14.1357957445095,45.7467932135034 14.1362263499899,45.7462061965447 14.137200668239,45.7454967724723 14.1375747487395,45.7446562976084 14.1379310333483,45.7442615416814 14.1377667662655,45.7440794407743 14.1374761492072,45.7437568256624 14.137261093752,45.7435348390164 14.1370330630088,45.7433126639669 14.1367155341616,45.7430690266559 14.1364350022846,45.7429265365388 14.1360400592823,45.7427030977039 14.1357855343864,45.742541096863 14.1356475908981,45.7423195104536 14.1356115135247,45.7421590717308 14.135652546251,45.7419984065794 14.1358214382705,45.7418799198248 14.1360545896366,45.7417611089472 14.1362491915537,45.7416420061477 14.1365728975057,45.7414842872614 14.1366900818606,45.7413852941683 14.1368351414145,45.7411452417331 14.1368630030186,45.7410050822078 14.1369309512302,45.7407653468366 14.137049685891,45.7405655865876 14.1371934944472,45.7404065069319 14.1373373021826,45.7402474270848 14.1375065025885,45.7401083345318 14.1376885512613,45.7399693387026 14.1379774069608,45.7395702041863 14.1380719740671,45.7392703817806 14.1382075878617,45.738716403161 14.1385778445078,45.7381289213085 14.138709254928,45.737413214725 14.1392005353472,45.736784442035 14.1400472731432,45.7365377925998 14.1412602105568,45.735956551804 14.1407255144527,45.7354887700701 14.1397720009784,45.73484929883 14.1388708609436,45.7347161768545 14.138152961515,45.7344157160852 14.1372578048884,45.7339030871022 14.1364855154169,45.7332228455657 14.1358318049459,45.7326698289403 14.1355392449681,45.7321195418123 14.1357308035371,45.7314042930161 14.1353812499577,45.7306428388125 14.1340097622926,45.7297893294574 14.1337760525569,45.7293238857561 14.1330641194583,45.7286439881513 14.1325949020416,45.7278394158336 14.1318790840786,45.7274124177561 14.1308034791096,45.7268984561636 14.130267766505,45.7270619237232 14.1299199852522,45.7271195628408 14.1295722032987,45.7271772008938 14.1291732291108,45.727213752056 14.1285694598994,45.7272091482364 14.1282357678899,45.7271868066006 14.127863859793,45.7271434766251 14.1275433227748,45.7271014375684 14.1272365851919,45.7269983159473 14.1269163578793,45.7269364816737 14.1263528813235,45.7268115995015 14.1259812859679,45.7267484699613 14.1253521391442,45.726723859158 14.1249792952511,45.7267407999005 14.1245162196827,45.7267768438156 14.1242072820372,45.7268149673836 14.1237692644627,45.7268916918169 14.1234601972441,45.7269298123702 14.1231631750378,45.7270274120016 14.122647134028,45.7271638205415 14.1223375730488,45.7272415259078 14.1222501585165,45.7270806881316 14.121970687883,45.7268778829336 14.1217673506207,45.7267359496123 14.1214875590556,45.7265538363862 14.1212582219326,45.7264314980382 14.120978305087,45.7262493825904 14.1206625079144,45.7259059242454 14.1205892166663,45.7256642109361 14.1205917296988,45.7255040640401 14.1206205693942,45.725303628322 14.120765640718,45.7250644955219 14.121026645555,45.7248055589189 14.1212870131798,45.7245871082799 14.1215213775599,45.7243882529224 14.1217811068839,45.7242102877093 14.1220411587232,45.7240116287361 14.1223268994214,45.7238131665211 14.1231731362007,45.7230980164158 14.1235515995187,45.7227202105909 14.1238119475782,45.7225017539752 14.124045789947,45.7223433808569 14.124304264762,45.7222445835854 14.1245881054243,45.7221666757501 14.1249878590091,45.7220698592253 14.1252851746495,45.7219515613733 14.1256222729346,45.7217534840637 14.1259211429737,45.7215353174349 14.1260737220919,45.721339876024 14.1249924924707,45.721205266397 14.1230691830151,45.7210221646766 14.1215652106206,45.7209686791273 14.1214441944138,45.7210099496905 14.1204752720529,45.7213820346613 14.1202312519689,45.7215909814793 14.1196241735015,45.7219236439872 14.1189588333354,45.7221293405471 14.1179939836733,45.7222484989902 14.1173947216768,45.7220753362991 14.116614327603,45.7219429711341 14.1157677107593,45.7221894483795 14.1143172974837,45.7225578433431 14.1137736221536,45.7226801405654 14.1132941890965,45.7225499970107 14.1129344481116,45.7224629820042 14.1118497614646,45.72253904684 14.1113087544998,45.7224927285224 14.1101010304014,45.7227364441418 14.1090738997256,45.7229814655018 14.1078701813781,45.7229722519448 14.107204785173,45.7231779695665 14.1070744805953,45.7238093381704 14.107065750915,45.7243572546245 14.1066952585942,45.7249446339661 14.1059710620751,45.725065572306 14.1054286903827,45.7251035277305 14.1051297366832,45.7249747630415 14.1047713413284,45.7248033306747 14.1042295159995,45.7247991735538 14.104044991906,45.7250507532967 14.1037426719788,45.7251326941998 14.1033228125046,45.725045177308 14.1029622691088,45.7250002357678 14.1024794661594,45.7250808460197 14.1019999111461,45.7249506541536 14.1018201075449,45.7249070395695 14.1012161358777,45.7250288929084 14.1007914193437,45.7252363763698 14.1002558100575,45.7248527992225 14.0997239993781,45.7248810028011 14.099327409218,45.724777008088 14.0988670998316,45.7246330077215 14.0984197652641,45.7244891978713 14.0979335652261,45.7243656850538 14.0975116086657,45.7242417778747 14.0970764752747,45.7241384606373 14.0964495216983,45.7239724376664 14.0963226077127,45.7239473337165 14.0949362440368,45.7274351672494 14.096939645496,45.7288667822429 14.0966667761729,45.7296065182509 14.0966025960602,45.7297780543998 14.096476663194,45.7299705176132 14.0963034589688,45.7302180350461 14.0959462574784,45.7304898308778 14.0953559134043,45.7306225586964 14.0949982629908,45.7309217022064 14.094874949915,45.7312775897998 14.0944375938533,45.7316585225656 14.0939626945483,45.7319293791361 14.093052067511,45.7323919441243 14.088750912393,45.7399911564346 14.0873948589309,45.7407991576484 14.0864091540045,45.7413536595484 14.0858966164845,45.7416554945103 14.084209390513,45.7424897812545 14.0822868503416,45.7435252396038 14.0823375121942,45.7435706369403 14.0824949650941,45.7437653602258 14.0823711969017,45.7438678440674 14.0824930623778,45.7442737363075 14.0823887153445,45.7443673780529 14.0821645789054,45.7443205872011 14.0818405373637,45.7448803631989 14.081548232507,45.744680055977 14.0806644827681,45.7448799035934 14.0803315619585,45.7451966557776 14.0798804778771,45.7452740063699 14.0796466621129,45.745425090287 14.0797728722276,45.7455655771208 14.079889775389,45.7458814513111 14.0794919270339,45.7462381693994 14.0792258965143,45.7467849080967 14.0787445220438,45.7467495341408 14.0783352904197,45.7470161756318 14.0783288651608,45.7470161237966 14.0776919290925,45.7474518891259 14.0773338907463,45.747341021245 14.0772031609768,45.7474749364606 14.076886587551,45.7479673628957 14.0769341345286,45.7482016969222 14.0769211354352,45.7482105899644 14.0766347092689,45.7484332271229 14.0763887626359,45.7485392158994 14.0763615769116,45.7486289768209 14.0763100249801,45.7486375580999 14.0761653997604,45.7488343462448 14.0760882941986,45.7488337227142 14.0759720420029,45.7488687747983 14.0752226962023,45.749096661401 14.0746816168799,45.7491732629128 14.0743075993191,45.7492512156241 14.0738957716392,45.7492838702704 14.0738044751507,45.7493641127887 14.0735473055043,45.7493710256841 14.0727103490947,45.7494632142589 14.072170306524,45.749476825802 14.0717979240869,45.7494558048096 14.0713228827831,45.7494249500897 14.0705519903688,45.7494006849459 14.0701080328929,45.7498199815212 14.0697727077771,45.7498892362369 14.0680180641563,45.7502888470324 14.067425409139,45.7503739914832 14.0668716060342,45.7504414540604 14.0659962196164,45.750524281473 14.065637134529,45.750476354907 14.0652641474686,45.7504912999479 14.0648774074248,45.7505601196106 14.063692855014,45.7506763906455 14.0631370877276,45.7508607939021 14.0624671608071,45.7509542770043 14.0617987392389,45.7509577878616 14.0614375438335,45.7510358037161 14.060666461245,45.7510294664436 14.0590444671274,45.7511780840399 14.058437879295,45.7513260535734 14.0566721028814,45.7516084234097 14.0561571332657,45.7516581585432 14.0558934281954,45.7520518945749 14.0557369331173,45.7521855722166 14.0552973973644,45.75233490565 14.0553057464988,45.7518400810318 14.0551689342196,45.7515690076406 14.0549908357306,45.7514595577885 14.0549787435332,45.7514144674269 14.0545192820901,45.7512217064912 14.054013365551,45.7514964585756 14.0534338332672,45.7515636429522 14.0533495011542,45.751230015695 14.0532480591598,45.7511481924793 14.05314874746,45.7509404138717 14.0530324768843,45.7509754424518 14.0528790218137,45.7509291800364 14.0526729440068,45.7509544656251 14.052518880325,45.7509441899528 14.0523504426753,45.7510237755276 14.0521829183384,45.7510493800207 14.0520149368765,45.7511019746797 14.0517328164793,45.7510636410839 14.0516540321708,45.7511619658774 14.0515992740477,45.7513594688163 14.0515056563238,45.7515746452424 14.0515556905713,45.7516560432349 14.0511225957611,45.7521833329015 14.0511854816014,45.752264837787 14.0510939954484,45.7523540586188 14.0509015258347,45.7523344637027 14.0499823144257,45.7519669009654 14.0498383518248,45.7521186708808 14.049436897847,45.7522952926841 14.0492514751907,45.7526176801407 14.0492075726327,45.7529322470807 14.0488307445071,45.7531720581315 14.0484315734927,45.7532137244046 14.0480689687998,45.7533726688165 14.0476809643274,45.753513404222 14.0481399615755,45.7537331829164 14.0480870240771,45.7538227224891 14.0476990165116,45.7539634579205 14.047388112029,45.7548606722823 14.0475014858115,45.7549965885054 14.0471264740215,45.7551284322538 14.0467347782827,45.7554850871094 14.0464266285088,45.7554645193766 14.0456291701037,45.7554938527174 14.0458283671878,45.755873435153 14.0459926890635,45.7560367725361 14.0461348327109,45.755992969108 14.0462485122361,45.7561108929797 14.0463774968848,45.756084975517 14.0467485337048,45.7561870506633 14.0467979522511,45.7563044377817 14.047027000549,45.7564413195032 14.0462613419044,45.7568668371498 14.0461706068051,45.756911069946 14.0456006411402,45.7571672536634 14.0454571133835,45.7572920273876 14.0451934597306,45.7576767407498 14.0451014947056,45.75779294688 14.0449946810333,45.7580260035678 14.0444638718906,45.75824651665 14.0436957098824,45.7588159649601 14.0429781760322,45.7594308224501 14.042753824394,45.7597708689936 14.0426852494325,45.7600222399464 14.042453480453,45.7608031283731 14.0424346241381,45.7611538944216 14.0423693393855,45.7613555334703 14.0426887730881,45.7613269873175 14.0435710418135,45.7634939090719 14.0440197800042,45.7646944053317 14.0447134140681,45.7654830374252 14.0443840846538,45.7655702637008 14.0445938337453,45.7660939046176 14.0450688598016,45.7672632128644 14.045641814353,45.7687301823718 14.0462329565804,45.7702557877161 14.0467992365375,45.7717406909946 14.0474337702857,45.7733646399254 14.051271228649,45.7715124723958 14.0525401915588,45.7713745353572 14.0540176424485,45.7706849313997 14.0546159610056,45.7725614755454 14.0546432897558,45.7728541378139 14.0547349683497,45.7735162518831 14.0548716921264,45.7745566558051 14.0547447309341,45.7752215497459 14.0546309292526,45.7758684663223 14.0544879655058,45.7767265950525 14.0543527421687,45.7774993062878 14.0548289991803,45.7774717542206 14.0546944299002,45.7785863961602 14.0543194277611,45.7787092651035 14.0539501443899,45.7804023353945 14.0544191257693,45.7808066298817 14.0537133677734,45.7814756381523 14.0535368052258,45.7824099697591 14.0536173765731,45.7829685144085 14.0537250494844,45.7838332160311 14.05383526061,45.7845404731542 14.0539484795774,45.7854502103372 14.0540346516036,45.7860582898538 14.0541209539941,45.7866663703207 14.0542236801522,45.7874365508388 14.0543397237868,45.78817993734 14.0545463070922,45.789661819687 14.0547306253511,45.7909320639142 14.0548639216851,45.7917969752684 14.0551078214688,45.7933556473912 14.0553005688586,45.7945090755626 14.0555882915026,45.7961400922627 14.0558317471846,45.7973388381328 14.0561012414514,45.7992892208673 14.0641263706775,45.8040432818066 14.0656984180753,45.8008167823216 14.0669440674199,45.7982445380018 14.0684568614856,45.8047445229304 14.0693814805597,45.8087247567318 14.0785361151794,45.8134105083433 14.0886558508418,45.8186027009301 14.0954630183766,45.8220822278869 14.0959671241523,45.8216841889986 14.0964239736857,45.8212873038025 14.0968020095343,45.8209888612662 14.0974152041108,45.8204727252191 14.0976777276862,45.820154471459 14.0978891131302,45.8198151180187 14.0979447959264,45.8195546168274 14.0980148293182,45.8191943515309 14.0980968842731,45.8188944674031 14.098397997555,45.8185765165188 14.0986595483628,45.8183176392755 14.0989976452612,45.8180998559125 14.0993225549563,45.8179016731243 14.0995840983039,45.8176427936786 14.0999881303883,45.8173256495747 14.1003661057497,45.8170280943802 14.100860209756,45.816710756551 14.101300251188,45.8165540548995 14.1017525202042,45.8164370387242 14.1024487297057,45.8163624281827 14.102849846617,45.8162252102912 14.1030200004708,45.8160465869531 14.1032004633036,45.8160273082532 14.1033429475563,45.815969039974 14.1035118285377,45.815869588 14.103655611247,45.8157303478311 14.103940923336,45.8155922175317 14.1041490359677,45.8154534812351 14.1043828801875,45.8153149462638 14.104734120128,45.8150774533268 14.1049554122081,45.8149190232941 14.105306330246,45.8147013215887 14.1055929307784,45.8144821255497 14.1058273995037,45.814304091414 14.1059724551879,45.8140846863669 14.1061310220186,45.8138249859568 14.106250025323,45.8136252622266 14.1063950761136,45.8134059465602 14.106658478858,45.8130273922935 14.106857880266,45.8126276417761 14.1069791072857,45.8122884660918 14.107072373061,45.8120885402852 14.1072171002857,45.8118890165275 14.1073103645239,45.8116890905015 14.1075081468055,45.8113901033943 14.1076271398905,45.8111903780704 14.1077202728092,45.8109904506612 14.1077753840141,45.8107703407398 14.1078424548185,45.8105909050293 14.1079038414528,45.8099696243922 14.1079485123822,45.8095893588679 14.1079800017743,45.8092287859345 14.1079832045754,45.8090281560939 14.1079603617077,45.8088471184433 14.1080146933727,45.8086675831118 14.1081594082047,45.8084680579514 14.1083935289238,45.8083097212305 14.1086276483165,45.8081513840157 14.1089380073666,45.8080530275809 14.1092354863596,45.8079554696823 14.1095194688856,45.8078973969175 14.1096879847101,45.8078186281911 14.109779312548,45.8077392578224 14.1098326927879,45.8076190108529 14.1097580567091,45.8074582653284 14.1096705709044,45.8072965198212 14.1096734377366,45.8071165826008 14.1096763188756,45.8069357456885 14.1096544173283,45.8066953289891 14.1098235742289,45.8065760741384 14.1099920856186,45.8064973049128 14.1102004643311,45.8063387639136 14.1104593392698,45.8062409021514 14.1106018052984,45.8061817247939 14.1108610080489,45.806063169318 14.1111205245292,45.805924820137 14.111276811831,45.8058054629961 14.1114218222257,45.8055861403548 14.1115018675746,45.8054068032491 14.1115687337303,45.8052471591597 14.1115976511481,45.8050467290392 14.1116532543721,45.8047862199196 14.1118108098886,45.8045867898487 14.1119815425973,45.8043676664119 14.1121902221152,45.8041893285072 14.112412407015,45.8039706042124 14.1127105024294,45.8038324610929 14.1130880042188,45.8035546550672 14.1133996001833,45.8033762139944 14.1137500986871,45.8031782782717 14.1140353073852,45.8030410214961 14.1145272997704,45.8028441804916 14.1148511094544,45.802706321029 14.1151363273078,45.8025681617679 14.1154212304933,45.8024497949227 14.115590034791,45.8023512240924 14.1157727983478,45.8021915747453 14.1159174542807,45.8019929388959 14.1160118082362,45.8017129318022 14.1160921604143,45.8015128983742 14.1161593358893,45.801332558522 14.1163030493758,45.8011933015795 14.1164718483096,45.8010947293856 14.1166541495468,45.8009557703921 14.1167976766988,45.8008363069509 14.1169413887338,45.8006969592035 14.1169947296047,45.8005777882052 14.1170612628949,45.8004378437983 14.1171168357848,45.8001773315909 14.117240074694,45.7996968914484 14.117307046061,45.7995372446659 14.1173605845548,45.7993972896447 14.1174529680088,45.79925763466 14.1174290175767,45.7991368765877 14.1172754197627,45.799096098828 14.1171730295826,45.7990548167533 14.1170193035591,45.7990140376578 14.1168530421028,45.7989524660821 14.1167388568239,45.7988517057064 14.1167150367231,45.7987309484829 14.1167680648129,45.7986314807325 14.1169236941656,45.7985517018035 14.1171178962999,45.7984731205364 14.117260008704,45.7984346274541 14.1174667599229,45.7983759381294 14.1176987252013,45.7983579341055 14.1178414900412,45.798278054578 14.1180098364908,45.7981992721541 14.1182427517215,45.7981209878159 14.1184102751015,45.7981024849915 14.1185900365803,45.7981236674962 14.1187829726342,45.7981251557514 14.119013857851,45.7981674272689 14.1192453813252,45.7981692122786 14.1195945653496,45.7980513304601 14.119737000872,45.7979921414039 14.119880059365,45.797893365805 14.1199974068513,45.7977934921966 14.1200253409156,45.7976533386733 14.120053586404,45.7974933919552 14.1201204184037,45.7973337423939 14.1202123513766,45.7972138772472 14.1203032221002,45.797161488792 14.1205248234288,45.79697603656 14.1205530671188,45.7968160896867 14.1206205337289,45.7966159537286 14.1206236897596,45.7964153227578 14.1206525696989,45.7962148897677 14.1206296776346,45.7960346637076 14.1206582445831,45.7958541138626 14.1206198110249,45.7956724184742 14.1206364337517,45.7953271133722 14.1206047129968,45.7952011672227 14.1204277563527,45.7950349617718 14.1201624570086,45.7949569759673 14.1195116761355,45.7943789701287 14.1191350784429,45.7937155242331 14.1188706847799,45.7931643376367 14.1182883516538,45.7925710160168 14.1172871006632,45.7918471338453 14.1165693511537,45.791189051149 14.1161121985549,45.790596596104 14.1158137652571,45.7900372205294 14.1157093886446,45.7894394850925 14.1156361982394,45.7890251003182 14.1158269802225,45.7884694203682 14.1163645950852,45.7875582123421 14.1167597166885,45.7870279556312 14.1170635310515,45.7865130083767 14.1175617548422,45.7859357660976 14.1177593039578,45.7856666315738 14.1181033569777,45.7854941865222 14.1185373216834,45.7853860500854 14.1192659217619,45.7853437995905 14.1197216416913,45.7852995322764 14.120366139484,45.7851094192792 14.1210627646157,45.7847364141691 14.1215941023941,45.7843726617922 14.1222322691314,45.7839047209062 14.1226284426471,45.7835399251517 14.1230398196293,45.7831648070047 14.1234715429282,45.7824429699696 14.1236868874103,45.7821188937167 14.1239446023352,45.7819632248809 14.1242299370142,45.7819654124216 14.1244985835412,45.7820724782163 14.1247073440324,45.7821686468984 14.1249326655302,45.7821598452194 14.1251438926616,45.7820983867595 14.1253099491706,45.7820471097754 14.1255655240959,45.7820280107819 14.1256561574259,45.7819971213848 14.1257028041764,45.7818924715087 14.125604354475,45.7814608930594 14.1253535473434,45.7811752658053 14.1253269081885,45.7809544304796 14.1255749895204,45.7804519005697 14.1257325650133,45.7799802605941 14.1259642797883,45.7795617360011 14.1263380232553,45.778702854184 14.1267089298704,45.7780331777435 14.126926078431,45.7775829566657 14.1269612484125,45.7772574969911 14.1270542029828,45.7770690688117 14.1274056219302,45.7766829487332 14.1277243291381,45.7764646609049 14.1280117648822,45.7763302650422 14.1282879230799,45.7759540054786 14.1288062139274,45.7754535294794 14.1293220423039,45.775110677747 14.1298219705821,45.7748306887541 14.1301861470104,45.7745812472051 14.1305219965949,45.7742264919511 14.1307822671581,45.7739027437855 14.1310554559651,45.7737156833352 14.131254865505,45.773443929671 14.1316512309052,45.7730581380706 14.1321239782256,45.7725887937363 14.1324884215366,45.7723288190926 14.1327752079703,45.7722258993379 14.1331224864506,45.7721024724533 14.1333951709076,45.7719468956377 14.1335188308214,45.7717165841524 14.1338120837076,45.7712039404595 14.1339665070558,45.7709214031619 14.1344223538111,45.7705779834913 14.1347401849083,45.7704123077408 14.1350455732959,45.7700782736729 14.1351611957149,45.7697017714136 14.1352386067804,45.7693434257673</coordinates></LinearRing></outerBoundaryIs></Polygon></MultiGeometry>
  </Placemark>
</Folder>
</Document></kml>
