<?xml version="1.0" encoding="utf-8" ?>
<kml xmlns="http://www.opengis.net/kml/2.2">
<Document id="root_doc">
<Schema name="pregledovalniklovisca" id="pregledovalniklovisca">
	<SimpleField name="lov" type="string"></SimpleField>
	<SimpleField name="lov_naziv" type="string"></SimpleField>
	<SimpleField name="luo" type="string"></SimpleField>
	<SimpleField name="luo_naziv" type="string"></SimpleField>
	<SimpleField name="povrsina" type="float"></SimpleField>
</Schema>
<Folder><name>pregledovalniklovisca</name>
  <Placemark id="pregledovalniklovisca.1">
	<Style><LineStyle><color>ff0000ff</color></LineStyle><PolyStyle><fill>0</fill></PolyStyle></Style>
	<ExtendedData><SchemaData schemaUrl="#pregledovalniklovisca">
		<SimpleData name="lov">1208</SimpleData>
		<SimpleData name="lov_naziv">TREBUŠA</SimpleData>
		<SimpleData name="luo">12</SimpleData>
		<SimpleData name="luo_naziv">Zahodno visoko Kraško</SimpleData>
		<SimpleData name="povrsina">4618.39</SimpleData>
	</SchemaData></ExtendedData>
      <MultiGeometry><Polygon><outerBoundaryIs><LinearRing><coordinates>13.8082332725193,46.0493001402148 13.8077180575088,46.0497868468051 13.8075953388137,46.0503192160736 13.8075868461867,46.050413602609 13.8078855827247,46.0513038857944 13.8077393910519,46.0520321585738 13.8079597013394,46.0522495001549 13.8073784815419,46.0539098869861 13.80747348201,46.054845731803 13.8075472886881,46.0550732421287 13.8075028517958,46.0552824231328 13.8075855715389,46.0556962772624 13.8074777113282,46.0558499109491 13.8076418370732,46.0564445669141 13.8078450650618,46.0567418091627 13.8081762686658,46.0571339610134 13.8085194081306,46.0574821479672 13.8086089067485,46.0578817656515 13.8085025324796,46.0582666546062 13.8083518427905,46.0586627782663 13.8079230446518,46.0589975165693 13.808016081465,46.0593107044013 13.8089243035708,46.0604098752745 13.8079399428835,46.0619535002419 13.8091216488749,46.0632597671752 13.8083781243515,46.064361422558 13.8079724516582,46.0649528338002 13.8080137158921,46.0650054503409 13.8083927980765,46.0654695413753 13.8092126914166,46.0664854596059 13.8100764129854,46.0670332327212 13.81018672477,46.0673858277765 13.8099586124116,46.0678170473308 13.8097977089163,46.0682605732743 13.8096902445972,46.0685151659946 13.8087098855732,46.0694102899869 13.8080779449101,46.0698760751341 13.8074426046746,46.070499189355 13.8076053919676,46.0708157140337 13.80787885754,46.0712514415536 13.8079278428506,46.0716060981003 13.8083168163762,46.0719249807686 13.8087624063489,46.0722443622681 13.809268714035,46.0723675971426 13.8096586770634,46.0726470760177 13.8098797860811,46.0728854757789 13.810217372981,46.072967629802 13.8105506027446,46.073246604928 13.8104317221876,46.0735207840576 13.8104781876363,46.0739935515832 13.8102419798295,46.0744633766456 13.8101761928346,46.0748956560739 13.809768575543,46.0754424243719 13.8099306742886,46.0757982577707 13.8104429362837,46.0756460430082 13.810842940491,46.0754534284274 13.8114091466506,46.0754198190581 13.8118656298135,46.0752277882729 13.812148439036,46.075230638096 13.8128268942862,46.0752375978015 13.813280842904,46.0751634935027 13.8137357620124,46.0750500779837 13.8144217985714,46.074702961566 13.8148765823764,46.0745895400967 13.8155866754345,46.074350097423 13.8160116238745,46.0744043473396 13.8165685627624,46.0748035806872 13.8170142238267,46.0751229305349 13.8174042456214,46.0754023834098 13.8180751424281,46.0757634689992 13.8185208199198,46.0760828130766 13.8186214519908,46.0766741854027 13.8190540254864,46.0771537289636 13.8184891644645,46.0775779755465 13.8181424253981,46.0779286254899 13.8173982024733,46.0783538908974 13.8167645476773,46.0788984345759 13.8158463671351,46.0795187558858 13.8153873337809,46.079828914345 13.81504140443,46.0801401537305 13.8145889736648,46.0801355518461 13.8140367058509,46.0803310982379 13.8132151974897,46.0809085831881 13.8129323591509,46.0809057357269 13.812423434698,46.0809004484935 13.8120309942256,46.0807390920563 13.8113757866404,46.0803087630714 13.8109068011979,46.0804126652848 13.8105608412723,46.0807239807527 13.8103819392346,46.0811550825403 13.8099194787336,46.0816225510777 13.8099110176968,46.082016017349 13.8096764624677,46.0824071289827 13.8095009343473,46.0826808067006 13.8088064275854,46.0834213592067 13.8087979581051,46.0838148251945 13.8086790432148,46.084089091654 13.808392930502,46.0842435665432 13.8080518871983,46.0843188289662 13.8075936194282,46.0845895545023 13.807021381228,46.0848984979743 13.8062195061167,46.0853624977856 13.8051639898929,46.0857512300072 13.805189810433,46.0859028392419 13.8049418198986,46.086686184886 13.8048260667941,46.0870403787758 13.8045887747557,46.0875494992698 13.8046369000811,46.0879435566508 13.8051026616774,46.0886092092282 13.8055156841408,46.0891725460601 13.8059622429883,46.0894526281914 13.8061566256571,46.0897213469657 13.8065142951846,46.0900879547491 13.8068485864291,46.0903275415237 13.8072453182273,46.0902922733121 13.8077568733096,46.0901794728514 13.8084903166703,46.0902656705628 13.8088837872597,46.0903878201814 13.8092754382364,46.0905885882634 13.8091596622686,46.0910408595871 13.809013974691,46.0915549022947 13.808965705459,46.09184475087 13.8085644852671,46.0925623539446 13.8099798595058,46.092697757656 13.8119301881466,46.0926675723914 13.8141433899149,46.0927236691284 13.8157278405386,46.0929240087368 13.8189393843951,46.093576274728 13.8201872837074,46.0937564285094 13.8215016345954,46.0942051114111 13.822385700777,46.0945155525769 13.8232010614805,46.0946577448149 13.8241884628173,46.0946342566595 13.8252006238935,46.0945775435471 13.8266913261526,46.0946596190122 13.8276051588855,46.094702287913 13.8281705638963,46.0947336396206 13.8287104563647,46.0947972082709 13.8291868815909,46.0950364764424 13.8293981475588,46.0952897625007 13.8300405833997,46.0956478755833 13.8304695011766,46.0958530911221 13.8312354359489,46.0960471759554 13.8317369463514,46.0962509696395 13.8324987318365,46.0966604951376 13.833219341636,46.0970850709669 13.8342559553608,46.0966614268391 13.8353710468258,46.0962874297704 13.8367027044254,46.0959157163141 13.8373566791703,46.0957212754662 13.8381810656785,46.095750443191 13.8384980574535,46.0957934343818 13.8393857728773,46.0960836263923 13.8405052410775,46.096479634844 13.8421532829679,46.0970437542301 13.8435504371579,46.0973980976663 13.8449247276902,46.0978262428072 13.847151570379,46.098188744456 13.8479369565856,46.0982853798915 13.8491256464982,46.0984303397873 13.8501391174667,46.0988104302034 13.8510691808103,46.0991157132553 13.851769500447,46.099211467133 13.8525134667843,46.0992483610619 13.8534699739034,46.0993022284609 13.8541463349293,46.0995308912026 13.8554326101011,46.1001061269585 13.8565094274675,46.1005163070475 13.8572495668299,46.1007456794209 13.8580130618934,46.1008715385996 13.858924920248,46.1010285659393 13.8597103706636,46.1011250310248 13.860388784551,46.1012501153941 13.8612180031113,46.1012878926178 13.8623447384953,46.1013432917098 13.8627492890343,46.1013324719488 13.8631712233839,46.1015141912735 13.863658128647,46.1016374411312 13.8640821968446,46.1017155265345 13.864718082587,46.1018401624868 13.8651718728616,46.1019008139043 13.8655029464019,46.1019662738072 13.8657582233908,46.1019687175254 13.8666118273673,46.1018586879265 13.8673600838839,46.1016883141483 13.8682560968404,46.1015786925371 13.8690223524289,46.10157134173 13.8696405400557,46.1015181635478 13.8700900569626,46.101389264801 13.8710997393741,46.1009254313978 13.8718941369957,46.1005778720406 13.8722402300838,46.1003000242155 13.8731224148784,46.0998200687736 13.8738509225954,46.0995754978775 13.8747771300798,46.0990220035092 13.8751900882368,46.0985967952468 13.8754951143289,46.0982444834574 13.8757887265411,46.0974035813821 13.8761613984343,46.0968595654076 13.8762968425693,46.096475981772 13.8766845287077,46.0962428872112 13.8772643134419,46.095982076619 13.8785248837073,46.0957278553463 13.8795076620559,46.0955301009743 13.8803835467297,46.0953608930014 13.8813473711058,46.095044529276 13.8822711653276,46.0946093580793 13.8830467561683,46.0941283731412 13.8833960393767,46.0936876666569 13.8839025013688,46.0928339765383 13.8845234715527,46.0921882556553 13.883998805447,46.0919000704024 13.8834024842311,46.0914909752552 13.8825990292942,46.090517054441 13.8821519498154,46.0894366637631 13.8819359921159,46.0885215682813 13.8816731105142,46.0876060131005 13.8811271973477,46.0867854902578 13.8804419572862,46.085898547501 13.8800366060908,46.0850793960291 13.8794358898428,46.0846497221027 13.8790214457609,46.0842870145836 13.8784240495826,46.0836943317858 13.8787850591458,46.083139214584 13.8789618020737,46.0825908365921 13.8792949441913,46.0819490675937 13.8795251464538,46.0802157818358 13.8795382167319,46.0795637653677 13.8798377186016,46.0786536267043 13.8804592166478,46.0780400529824 13.8815558649693,46.0771049643339 13.8817036180877,46.0767476764971 13.8816000925232,46.0762917455574 13.8815407834903,46.0753175363567 13.8818565675744,46.0750769716551 13.8820737085237,46.0750539926105 13.8823639897072,46.0749814319172 13.8826187160704,46.0748833296283 13.8825134411243,46.0747315907178 13.8825190197034,46.0744552393654 13.8826302494919,46.0743055273224 13.8828148742042,46.0741063261025 13.8832139726435,46.0740096336605 13.8835778909097,46.0738623896227 13.8840939086923,46.073339720621 13.8844583259761,46.0731673753639 13.8848614629357,46.0728697104159 13.8850825138791,46.0726456676574 13.8850880774183,46.0723694059202 13.8852014486255,46.072119209125 13.8853162055317,46.0717937158797 13.8850736413671,46.0712888342685 13.8851848559596,46.071139209495 13.885509786176,46.0711422886117 13.885798527116,46.0711450139935 13.8862361854224,46.0709230804887 13.8867506346409,46.0704757838134 13.8869376270216,46.0701509924719 13.886734014496,46.0694957838866 13.8865982364222,46.069067345329 13.8866032888209,46.0688160916939 13.8867872468329,46.0686419806915 13.8870800124582,46.0684438257163 13.8875592545245,46.0679458858098 13.887569219093,46.0674434669657 13.8877191303225,46.0671685198441 13.8880976196886,46.0662927774974 13.8885337189133,46.0661461297863 13.8886470595401,46.0658960190066 13.8889076522531,46.0654964500267 13.8893884913481,46.0649232078274 13.8900546366736,46.0641003703854 13.8905312961854,46.063728089131 13.8911889874373,46.0633323691141 13.8916661368013,46.0629348945464 13.891710737471,46.0625082107675 13.8913166372399,46.0623536783814 13.890525681489,46.0621953826423 13.8900955326439,46.0620404960685 13.8900624982793,46.0618894653387 13.8903171506639,46.0617913450011 13.8909790335201,46.0618242227837 13.8897654183199,46.0609575767756 13.8891217601535,46.0601132848089 13.8869997107036,46.0593899248799 13.8859635916005,46.0587580946479 13.8852705002832,46.0584540552465 13.884463585728,46.058013666521 13.8828003280794,46.0575798400124 13.8804483820633,46.052918822147 13.8806770845585,46.052440859297 13.8806921563063,46.0518100036653 13.8806325260851,46.0516336960474 13.8804476827318,46.051412253434 13.8711717748505,46.0482028796873 13.8709728792854,46.0481978557224 13.8707474739261,46.0481430825031 13.870623019993,46.0479473239243 13.8705435907191,46.047767846021 13.870403722932,46.0475929893079 13.8703371389727,46.0475187305389 13.8702632994804,46.0474390914039 13.8701586919607,46.0473855110962 13.8701243754512,46.0472116975034 13.8701044470062,46.0470800450864 13.870046878638,46.046937583256 13.8699146157412,46.0467574925069 13.8698272680718,46.0465989902235 13.8697606005699,46.046535257508 13.8697028207733,46.0464032306524 13.8697521331765,46.0462091895521 13.8697692639931,46.0461041766504 13.8696742974723,46.0459455089058 13.8695866305857,46.045802749116 13.8693337945852,46.0456110276967 13.869215471625,46.0454889287946 13.8690206185622,46.0453622934138 13.8689644407102,46.0452025692973 13.8689299370394,46.0450444992859 13.8689252106461,46.0449025598134 13.8689436523658,46.0447397051947 13.8690532951408,46.0445462614197 13.8692534953891,46.0443537135794 13.86946045905,46.0442032512486 13.8694922975494,46.0441246569448 13.869471383531,46.0440351035329 13.8692557414032,46.0438700229087 13.8691737485943,46.0438166654178 13.8691536087045,46.0436955378994 13.8692778270005,46.0435285112031 13.8692731016067,46.0433864817427 13.869199160751,46.0433121494624 13.8691711844825,46.0432014716318 13.8691818948216,46.0430438490316 13.8691701048883,46.0428807851555 13.8690172627734,46.042595397189 13.8689836196212,46.0423952266922 13.8689267032022,46.0422211889203 13.8687954189153,46.0419938688034 13.8687096712892,46.0417511634654 13.8686377717215,46.0415769772078 13.8685744373877,46.0413503294817 13.8685249090119,46.0411815832527 13.8683726337349,46.0408751454695 13.8682688773937,46.0407742442005 13.8681743746983,46.0405998337787 13.8682207673391,46.0405424384035 13.8681999857968,46.0404528860144 13.8681339722725,46.0403575770325 13.8680994511094,46.0401942878319 13.8681164972071,46.0400998014724 13.8681785392816,46.0400162879921 13.8681428595669,46.0399160607929 13.868039342981,46.0398098530633 13.8678449301745,46.039713362004 13.8677477456942,46.0396703801877 13.8676049857662,46.0396321653288 13.8674544123118,46.0396096187328 13.8668942504912,46.0370920136302 13.8676252424274,46.0359592572476 13.867844862605,46.0352636655369 13.8682132191723,46.0348378563765 13.8685257811084,46.0346262675123 13.8689942561439,46.0343266943091 13.8697705395458,46.0340479791593 13.8706496245666,46.0337703646666 13.8715586452804,46.0332782650555 13.872133777618,46.0327828634166 13.8723775736327,46.0321591225846 13.8724632813438,46.0317306002074 13.8725739630919,46.031338044809 13.872916917568,46.0308941542776 13.8736207517682,46.0303821988692 13.8747619605259,46.0298386458238 13.875155565187,46.0294309678866 13.8754445478861,46.0291116958145 13.869812597019,46.0209767733841 13.8696498291965,46.0204649955705 13.8695851208108,46.0201672523834 13.8688032373464,46.0194065902186 13.8689470147435,46.0187653994728 13.8688503584524,46.0179826348188 13.8689810649646,46.0174122161883 13.8686443659804,46.0165642714024 13.8686139539591,46.0157758636824 13.8690140355176,46.0146423372766 13.8694265895478,46.0127692331604 13.8696659502359,46.0115995626366 13.8699046128916,46.0103368484015 13.8701628465159,46.0090700080127 13.8697120534341,46.0083793863843 13.8691561720382,46.0075362918704 13.8687385683566,46.0068593112192 13.8686543720015,46.006619049097 13.8684993254211,46.0060476901014 13.8684787731289,46.0050356058912 13.8683574362313,46.0050275661381 13.8677103398901,46.0046898611222 13.8658396149812,46.0058743017058 13.8628865297955,46.0075989651253 13.8619756692576,46.0081159029285 13.8613133804738,46.0084809101949 13.8601577847067,46.0091176731612 13.8595524831114,46.0086879327629 13.8586095485962,46.0091609747514 13.8575004726296,46.0092546250051 13.8554168329334,46.0100818065771 13.8538447291425,46.0106351534449 13.8521686853885,46.0111302093913 13.8518507800835,46.0114037846555 13.8513342864979,46.0119194702936 13.8506636953146,46.0132343978028 13.8476912606236,46.0142012272767 13.8463664500948,46.0129387122951 13.8447606380599,46.0126033422005 13.8444176580615,46.0125410295657 13.8433651064425,46.0134496746578 13.8423202564227,46.0143217673849 13.8414960124203,46.0146342717809 13.8414135537011,46.0147425777051 13.840873274796,46.0154509749838 13.8389440730625,46.0167742944114 13.8385735853484,46.0170256138737 13.8355222990249,46.0190956100202 13.8332386626231,46.0198619531438 13.832814318494,46.0199882660848 13.8314888754971,46.0205002750277 13.8307112600589,46.0216874822118 13.8285769092815,46.0222081832286 13.827362197243,46.0229215673756 13.8261657718664,46.0240082598055 13.8250129368166,46.0244314496769 13.8231572866333,46.0242038789919 13.8226114744057,46.024676842944 13.8212475386571,46.0259083296967 13.8199375471735,46.0264533851044 13.818724351534,46.0275467541389 13.8191338147725,46.0291605782899 13.8181830516941,46.0308953966277 13.8175274072463,46.0326607035065 13.8179894291209,46.0330455443382 13.8184933533384,46.0333072786621 13.8186307329456,46.0338077989726 13.8188358786495,46.0348264746928 13.8166449190184,46.0353555445662 13.8164690416732,46.0375906297647 13.8175082136269,46.0388172396994 13.816373145973,46.0397762454301 13.8155652024829,46.0400449120489 13.8149094691858,46.0410317240843 13.8152425054255,46.0411427890624 13.8155066598515,46.0412486403144 13.8157576102283,46.041349675349 13.816029009474,46.0414188900693 13.8163179217788,46.041442487525 13.816670153694,46.0414232812928 13.8169948143466,46.0414609236144 13.8172716787176,46.0415829181555 13.8119115776276,46.0449913212921 13.8095499695064,46.048954858047 13.8082332725193,46.0493001402148</coordinates></LinearRing></outerBoundaryIs></Polygon></MultiGeometry>
  </Placemark>
</Folder>
</Document></kml>
