<?xml version="1.0" encoding="utf-8" ?>
<kml xmlns="http://www.opengis.net/kml/2.2">
<Document id="root_doc">
<Schema name="pregledovalniklovisca" id="pregledovalniklovisca">
	<SimpleField name="lov" type="string"></SimpleField>
	<SimpleField name="lov_naziv" type="string"></SimpleField>
	<SimpleField name="luo" type="string"></SimpleField>
	<SimpleField name="luo_naziv" type="string"></SimpleField>
	<SimpleField name="povrsina" type="float"></SimpleField>
</Schema>
<Folder><name>pregledovalniklovisca</name>
  <Placemark id="pregledovalniklovisca.1">
	<Style><LineStyle><color>ff0000ff</color></LineStyle><PolyStyle><fill>0</fill></PolyStyle></Style>
	<ExtendedData><SchemaData schemaUrl="#pregledovalniklovisca">
		<SimpleData name="lov">0203</SimpleData>
		<SimpleData name="lov_naziv">JESENICE</SimpleData>
		<SimpleData name="luo">02</SimpleData>
		<SimpleData name="luo_naziv">Gorenjsko</SimpleData>
		<SimpleData name="povrsina">6114.79</SimpleData>
	</SchemaData></ExtendedData>
      <MultiGeometry><Polygon><outerBoundaryIs><LinearRing><coordinates>14.0182930644498,46.4815591273371 14.0183063210276,46.4815541954958 14.018767714481,46.4813825418819 14.0188566323214,46.4813757057226 14.0190603804469,46.4813600409422 14.0194813572433,46.4814087256147 14.0196704445045,46.4813810165148 14.0199671422257,46.481489363455 14.0199930233856,46.4814986721489 14.0200775714984,46.4815119923284 14.0209242430845,46.4816443011776 14.0212264035463,46.4818186392396 14.021432152578,46.4820239108408 14.021724872912,46.4821728853753 14.0226172094199,46.4828251459533 14.0243824708301,46.4833830938006 14.024726033768,46.4837708233814 14.0247795638177,46.4839020954216 14.0247983869165,46.4844595266557 14.0249431891236,46.4845926564592 14.0249910359428,46.4848233861222 14.0249366184633,46.4850114081539 14.0248698539707,46.4850594224205 14.0248788367905,46.4851034040907 14.0253808247827,46.4850886094625 14.025668608055,46.4852675815171 14.0257766834967,46.4854299073265 14.0258497180313,46.4858405200728 14.0260175679494,46.4859743846042 14.0267655581483,46.4859552008131 14.0273182680521,46.4860620180842 14.0273883277515,46.4861140764048 14.0278439179899,46.4867958693534 14.0279436966421,46.4867811485499 14.0285467924839,46.4866921690185 14.0285846728506,46.4866944594561 14.0290522853481,46.4867227326129 14.0291814334166,46.4867702531597 14.0299649594804,46.4867749220552 14.0310427397155,46.486859722514 14.0312703581961,46.487252297799 14.0314425323505,46.4875618111847 14.0314155848358,46.4879571783341 14.0314432202952,46.4882275004336 14.0318591469083,46.4886818585082 14.0318489810193,46.4888363398203 14.0318808365407,46.4890451584531 14.0320235779594,46.4893842015724 14.0324795854109,46.4895844631915 14.0326110840836,46.489786477089 14.0326237683635,46.4898939178065 14.032901028745,46.4900519995486 14.0332457394696,46.490204262956 14.0336033185068,46.4904538009356 14.0337611306613,46.4906046633248 14.0341544222414,46.4907871142379 14.0343679370378,46.4909777627628 14.0346232779093,46.4910427169109 14.0347241593663,46.4910247588157 14.0350141292478,46.4909731401764 14.0350584807238,46.4909787350847 14.0354811270078,46.4910320507051 14.0357739746745,46.4913261105628 14.035928967384,46.4915264292847 14.0359749387594,46.4917040563328 14.0361085622401,46.4916994624444 14.0362965001075,46.491693000997 14.0363006370026,46.4916944339378 14.0372447712853,46.4920214579963 14.0373630708507,46.4920153676352 14.0376262781011,46.4920018166155 14.037646482138,46.4920078759398 14.0382849412514,46.4921993515289 14.0384115782618,46.492390521447 14.0394293520891,46.4926720408148 14.0400725899763,46.4928068172178 14.0405583718165,46.4930284391335 14.040664625241,46.4929954228903 14.0411966589578,46.492830101372 14.0413006765236,46.492837879966 14.0417874327731,46.4928742790636 14.0419144303538,46.4928550767166 14.0425750432012,46.492755187928 14.043903941902,46.4925230277335 14.0439088392038,46.4925239215356 14.0441204062356,46.492562534213 14.0442929945336,46.4925311253831 14.044715020381,46.4924543209038 14.0449445130618,46.4924391916855 14.0450687145595,46.4924310035529 14.0459785431334,46.4925255967583 14.0462189236709,46.4925086181068 14.0463089561145,46.4926194013192 14.0466787441701,46.4926815040687 14.0468878890084,46.4926618487072 14.0469946957259,46.4926518108947 14.0475519320279,46.4925994395349 14.0479464546607,46.4926625538866 14.0497865399037,46.4927196920919 14.0500813810526,46.4929715361274 14.0507483655512,46.4931956991904 14.0513507552299,46.4931568822352 14.0514381772695,46.4931280206054 14.0516168595987,46.4930690298761 14.0517146962576,46.4927390240899 14.0517862741301,46.492570655237 14.0520763843016,46.4923886238944 14.0522021943592,46.4923096830176 14.0524128282287,46.492122672795 14.0526202351962,46.4920463876413 14.0526743682704,46.4919897055363 14.0527801521229,46.4919217551798 14.0529891512895,46.491798698512 14.0530961108799,46.4917079953667 14.0535655241879,46.491509000025 14.0540369143936,46.49141366373 14.0541591074741,46.4914134147524 14.0546303618287,46.4914611260632 14.0549574240944,46.4912224414132 14.0553907687227,46.4910821603907 14.0556527761797,46.491049415964 14.0558138289427,46.4910166472781 14.0559580404158,46.4909935460086 14.0562507895919,46.491013506056 14.0564585977761,46.4909134653498 14.0569207899365,46.4907769253129 14.0571850219989,46.4907359185436 14.0578640167358,46.4905664335433 14.0578834291243,46.4905159248061 14.0579146177738,46.4904347754242 14.0580008721442,46.490327972559 14.0580994504368,46.4902720559553 14.0581037448921,46.4902696200051 14.0581095902442,46.4902611140071 14.0582855997713,46.4900049883051 14.0583867167514,46.4899742278022 14.0583999185353,46.4899702117165 14.0587572601714,46.4899305076486 14.0588799753171,46.4899526602836 14.0590064712944,46.4899217620012 14.0597734964088,46.4898662612547 14.0608782856395,46.4898411498852 14.0610059731596,46.4898317618403 14.0616315190513,46.4899057224252 14.0619402000495,46.4898701076265 14.0620393159501,46.4898557157094 14.0626027843303,46.4899340202055 14.0626688934198,46.4899301535274 14.0626936715214,46.4898939847562 14.0627409103258,46.4898250297873 14.0628279435509,46.4897708617056 14.0629808887813,46.4897749350062 14.0630231159255,46.4897760595807 14.0631035956796,46.4897430294149 14.0633618370713,46.4896370424006 14.0635427396942,46.4896081491408 14.0636238587607,46.4895951929277 14.0637348784715,46.4896006002777 14.0643473793732,46.4895465928323 14.0644984234264,46.4895107758638 14.0645608326959,46.489495976726 14.0646273128022,46.489470429347 14.0646548700976,46.489475984743 14.0646887138476,46.4894828074422 14.0653206690847,46.4895400659732 14.065364852238,46.4894635923386 14.0654326257531,46.4893462872827 14.0656150551477,46.4892131837455 14.0657354969083,46.4891932048143 14.0658042043859,46.4891288082022 14.0659688140827,46.4890806852621 14.0659889253068,46.4890748058096 14.0660306298255,46.489056159073 14.0660432686994,46.4890505080311 14.0661297900552,46.4889803187147 14.066256335514,46.488923321715 14.0662810390668,46.4888194288973 14.0664680038384,46.4886570310189 14.0665326261972,46.4886315034765 14.0668223566465,46.4885170515319 14.066917623219,46.488476172998 14.066922874377,46.4884678609484 14.067051638857,46.4882640389761 14.0670581427501,46.4882623580774 14.0679260111357,46.4880380575635 14.0681659092365,46.4878494573441 14.0686544887387,46.4876976101161 14.0689245706846,46.4876482567064 14.0690573725454,46.4876364721357 14.0693535688909,46.4874535458746 14.0694947348624,46.4874248246512 14.0696891760239,46.4873654971951 14.0699628957519,46.4873318255869 14.0704806402666,46.4872107073156 14.0707301439246,46.4872068868166 14.0712543154775,46.4871518547553 14.07168049875,46.487091256611 14.0721517923713,46.4870970603446 14.0723496721416,46.4871263760568 14.0725058956207,46.4871388892319 14.0729886376349,46.4872682202821 14.0731638821912,46.4872421999151 14.0736796581119,46.4872365718345 14.0740137829135,46.4871202480897 14.0742488699055,46.4870755470822 14.0748907983749,46.4870582489116 14.0763241904146,46.4868464403395 14.0770784371379,46.4866957127181 14.077338860935,46.486677570828 14.0779686324193,46.4866162522725 14.0782221899907,46.4865881563897 14.0785457633417,46.486663908862 14.079135368185,46.4867265389038 14.07914879954,46.4867279655958 14.0792776564011,46.4867726525171 14.0794143964835,46.4868200730623 14.0802626544514,46.4868175408494 14.0803076771839,46.4868047673784 14.0804638073077,46.4867610380997 14.0807114346989,46.4866828660719 14.0808719192995,46.4866589644888 14.0809250042121,46.4866547126824 14.0809740502808,46.4866505183667 14.0810185487381,46.4866379203416 14.0810587312042,46.4866263672532 14.081261251595,46.486550440712 14.0812992396568,46.4865222255848 14.0813331343331,46.4864973064307 14.081376619472,46.4864829907094 14.081767844483,46.4864476254775 14.0819198758918,46.4863841580185 14.0820262720273,46.4863621598245 14.0820735928207,46.4863521031829 14.0821216890582,46.4863501499851 14.082212417686,46.486345839806 14.0824199914346,46.4863255528117 14.0824689219926,46.4863204572348 14.0825169183632,46.4863244410458 14.0825692140233,46.4863283693543 14.0826614183199,46.4862905120942 14.08293251911,46.4862646157717 14.0830230702139,46.4862553552127 14.0830720006565,46.4862502593768 14.0831186427824,46.4862418163098 14.0835270636292,46.486167356283 14.0836301336629,46.4861572058964 14.0836836508934,46.486150437132 14.0837315574302,46.4861442531786 14.0837802094529,46.4861479718041 14.0838763474445,46.4861550397755 14.0839094713071,46.4861604333492 14.0839953943512,46.4861863129603 14.0840695645981,46.4862139877418 14.0840981699227,46.4862247432343 14.0841299076822,46.4862195992317 14.0842065716653,46.4862073475093 14.0842998670122,46.4862363448802 14.0843402686335,46.4862349589281 14.0843886146055,46.4862336365617 14.0844365521869,46.4862411279003 14.0845368312446,46.4862575852769 14.0847247678381,46.4862742042804 14.084761243278,46.4862816937234 14.0847925259072,46.4862881519387 14.0848236828348,46.4862943392317 14.0848880759532,46.4863070003368 14.0849418194596,46.4863100394514 14.084987396859,46.4863135662222 14.0850248131656,46.4863164614751 14.0852750804484,46.4863833312473 14.0853128205227,46.4863973854725 14.0853790249061,46.4864220396244 14.085658183488,46.4864982264978 14.0858129633281,46.4865425590945 14.0860188412644,46.4866390321994 14.0860647244685,46.4866292323266 14.0861140140523,46.4866260274152 14.0861248342103,46.4866254840884 14.0861687685176,46.486599834 14.0862865889919,46.4865566903636 14.0863538361254,46.4865389638108 14.0864524236435,46.4864775825253 14.0865040053913,46.4864697173495 14.0866113642645,46.4864445736541 14.0866286179269,46.4864176306764 14.086688413499,46.4863781618096 14.0867014536327,46.4863772762786 14.0867576507231,46.4863815937032 14.0868032866843,46.4863865465296 14.0868148332403,46.4863815104711 14.086871583587,46.4863605508757 14.086965626224,46.4862904958048 14.0869982302577,46.4862880570019 14.0871979529859,46.4862230738746 14.0872423450379,46.4862089431002 14.087282396338,46.4861895594468 14.0873770617808,46.4861445204805 14.0873918106807,46.4860804000656 14.0874431104139,46.4860192703708 14.0875311938586,46.4859861446798 14.0876393559073,46.485951829554 14.0877347166836,46.4858106186177 14.0878511184567,46.4857430803594 14.0879316982787,46.4856523141381 14.0881074573054,46.4855480016502 14.0881442880478,46.4855264327511 14.0881378206399,46.4854925527156 14.0881327747385,46.4854671411311 14.0881225606373,46.4854314318353 14.0881606966354,46.4854096933988 14.088198042184,46.4853884884637 14.0882366900372,46.4853672938985 14.0882649502304,46.4853519544892 14.0883194112863,46.48535877645 14.0883693477267,46.4853791476906 14.0884380142806,46.4853932803712 14.0885037786633,46.485401811782 14.0885796396238,46.4853907203294 14.0886775881208,46.4853751264197 14.0887359603024,46.4853895367711 14.088804137127,46.4854096033062 14.0888940945436,46.4854279539564 14.0889642148947,46.4854408383313 14.0890863642882,46.4854267863848 14.0891627295881,46.4854166882251 14.0892101154606,46.4854104078608 14.0892593782547,46.4854087308593 14.0894578559682,46.4854023938757 14.0895888038071,46.4854308769681 14.0896378608493,46.4854805706584 14.0896642982865,46.4854807810908 14.0897130026827,46.4854813486828 14.0897616563757,46.4854771474756 14.0897803083014,46.4854755865011 14.0898682436369,46.4854590121883 14.0899199328888,46.4854602332301 14.0899747811214,46.4854907194191 14.0900076567448,46.4854953894969 14.0901076819862,46.4855036527609 14.0902947305627,46.4856047367556 14.0904098032188,46.4856167182146 14.0905080318375,46.4856468293879 14.0905504870606,46.4856316022949 14.0905698829423,46.4856322963409 14.0906180455646,46.48563411881 14.0906670853505,46.4856380175276 14.0906997351338,46.4856406163159 14.0907402590988,46.4856318515902 14.0908151215409,46.485618141606 14.0908585405948,46.4856076004661 14.090883027436,46.4856154425047 14.0910935533384,46.4855974124677 14.0911730060147,46.4856365507275 14.0912498518321,46.4856210568326 14.0912706728052,46.4856222119297 14.0913553876125,46.4856425882816 14.0914106723991,46.4856782055004 14.0914869970053,46.4856940166338 14.0915333348807,46.4857037415236 14.0915633503352,46.485676809199 14.0916169098346,46.4856282912872 14.0917211465987,46.4856104954822 14.0917564027119,46.4855817153693 14.0917763914481,46.4855624407263 14.0918315208683,46.4855447946622 14.0918827522293,46.4855187504723 14.0919238357767,46.4855076505676 14.0919690269177,46.4855158366977 14.0920258462756,46.4854983838955 14.0921482120682,46.4854712848434 14.0923718620863,46.4854394113821 14.0925328278457,46.4854330412745 14.0925810576857,46.4854308148302 14.0926253294604,46.4854159612568 14.0926604384905,46.485403824025 14.0927378058887,46.4853804159665 14.0927798623534,46.4853812893938 14.092828165544,46.4853824822619 14.0928738368832,46.4853696190188 14.0929742104648,46.4853412650183 14.0930308162385,46.485297449007 14.0930420128471,46.4852742357381 14.0932140712995,46.4851803225007 14.0932771919251,46.4851598600781 14.0933632262422,46.485147856443 14.0934914684115,46.4851511222033 14.0935399001573,46.4851524057592 14.0935858226402,46.485140084038 14.0936337105506,46.4851270581193 14.0937256567483,46.4850884701375 14.0937838020439,46.4850460154916 14.0938592633209,46.4850353672168 14.0940165023692,46.4850415612027 14.0940438906878,46.4850550936174 14.0940921413568,46.4850594344628 14.094092407796,46.4850590766958 14.094107585866,46.4850392237239 14.0941348803639,46.4850270241424 14.0941780494834,46.4850079326749 14.0941840581072,46.4850069006313 14.0942095699555,46.4850000850739 14.094232720348,46.4850099851063 14.0943010812035,46.4849562749626 14.0943170941814,46.4849645889779 14.0944272551161,46.4848800803668 14.0945365876603,46.4848847247087 14.0945644715871,46.4848997904015 14.0945900322401,46.4849135781247 14.0946146648606,46.4849283481583 14.094621758995,46.4849325429067 14.0946411054387,46.4849362048592 14.094642977559,46.484925423358 14.0946523699413,46.4849088533795 14.0946544628777,46.4848533588631 14.0946547929694,46.4847785069829 14.0946994798495,46.4846757558423 14.0947351415954,46.4846302437207 14.0947759279,46.4845977277336 14.0948404048017,46.4845739463159 14.0948629602522,46.4845725953447 14.0949114601583,46.4845697402698 14.0949502246413,46.4845491741434 14.0950154043416,46.4845144219281 14.0950552962265,46.4844729917982 14.0951487420563,46.4844145313092 14.0952034776135,46.4843812258349 14.0952278224566,46.4843662136068 14.0952467512687,46.4843479196324 14.0952719053299,46.4843233770452 14.0953556375609,46.4842222840433 14.0953577173408,46.484136109855 14.0953777147157,46.4841162048619 14.0953836670539,46.4841028465087 14.0953977478635,46.4840705689133 14.0960983483937,46.4835752486937 14.096599203715,46.4833593208805 14.0970031123592,46.483137947072 14.0976582281164,46.4827845896532 14.0976874605546,46.4827574695947 14.0977309687162,46.4827176865003 14.0978074226256,46.4826625086108 14.0979067264659,46.4826117394611 14.0980248924925,46.4825781231937 14.0981397539443,46.4825631943757 14.0982763097339,46.4825516753855 14.0983453408104,46.4825673344779 14.098392318035,46.4825776914206 14.0984258043927,46.4825532138192 14.0984639110779,46.4825249939145 14.0985015754393,46.482515664079 14.0985421276028,46.4824970901471 14.0986687820279,46.4824541833039 14.0987160929772,46.4824522169396 14.0987802933212,46.482405488925 14.098814036882,46.4823811931749 14.0988504854624,46.4823587181157 14.0989031108026,46.4823267437758 14.0989687705344,46.482270490399 14.0991518356818,46.4822029259647 14.0993693387032,46.4820610478152 14.0994048915902,46.4820375758619 14.0994415897591,46.4820157323643 14.0995883999513,46.4819272787612 14.0996157996646,46.4818848489833 14.099670083267,46.4818470393335 14.099751643893,46.4817584317281 14.0997953923985,46.4817197293676 14.0998260438096,46.4816933396825 14.0998460864804,46.4816626379319 14.0998794617024,46.4816132375074 14.0998929926007,46.4815588225502 14.0999300013127,46.4814944258185 14.0999482296094,46.481463169954 14.0997258802503,46.4810700530748 14.0992704504876,46.4800665472677 14.0996903703538,46.47988298715 14.1003120025106,46.4797165771419 14.100349728646,46.4796954611875 14.1004893450167,46.4796163066295 14.1006336706856,46.4795516740089 14.1006672392644,46.4795536473956 14.1008555938588,46.4794805436999 14.1009001319833,46.4794807138997 14.1010530099853,46.4794107498165 14.101256492185,46.479280993658 14.1012921637723,46.479258061858 14.1013265509116,46.4792340403211 14.1013812302208,46.4791956931375 14.1014054942593,46.4791695227408 14.1014085815651,46.479132299657 14.1015982342626,46.4790751295214 14.1017326160371,46.4790289510988 14.1018242770991,46.4789671422262 14.1018591802546,46.4789433944889 14.102325482648,46.4790110236598 14.102482469607,46.4789127495445 14.1032075881807,46.4792237938461 14.104207150001,46.4797951056531 14.10462323755,46.4799313386559 14.1050656772621,46.4799458678043 14.1056604488259,46.479931446784 14.1059889854333,46.4797120608524 14.1070797357388,46.4793848160489 14.108573362879,46.4790691587938 14.109098720875,46.4791975900912 14.1102694767026,46.479049797238 14.1114314387175,46.4788097953984 14.1125385721506,46.478633234601 14.1135782283232,46.4782807897248 14.1140396771764,46.4781344761997 14.1146893972337,46.4779747733788 14.1150931722526,46.4778831604006 14.1156015142101,46.4775348621405 14.1160426626004,46.4773868540606 14.1164749408555,46.4774085480708 14.1176195110612,46.4773302039816 14.1186124603755,46.4772455518152 14.1186355632998,46.4772246878189 14.1189507841068,46.4769400133003 14.1189841979901,46.4769358003715 14.1205432224177,46.4767392220053 14.1215229202978,46.4766111673713 14.1215130986453,46.4766019005732 14.1204570457983,46.4756054841258 14.1201505093348,46.4749983516332 14.1202633985957,46.4745064572755 14.1203705400567,46.4741771833727 14.1207347179939,46.4738812683223 14.1214925054282,46.4732655092701 14.1225354846611,46.4729312720829 14.1228820322768,46.4728402721168 14.1239470800811,46.4724119032559 14.1243962162968,46.4720135389288 14.1254596224456,46.4708648474373 14.1257677658672,46.4705362954021 14.1269339152064,46.4692370465073 14.1279682937194,46.4680810020255 14.128291157298,46.467717467163 14.1290410980203,46.4669130947325 14.1294727365223,46.466430995153 14.1294513479765,46.4664005125984 14.1293429104104,46.4662520470446 14.129255691774,46.4661610535659 14.1292280099147,46.4661333121104 14.129255289303,46.4661046395695 14.1293146280223,46.4660414828347 14.1293117590784,46.465984600212 14.1292780000169,46.465954203383 14.129286333456,46.4659215178971 14.1292700268594,46.4658908040873 14.1292303244181,46.4658738574328 14.1291690634676,46.4658616049707 14.129119962438,46.4658298317 14.1290746202096,46.4657256615082 14.1290450012456,46.4657051028223 14.129009569766,46.4656816208352 14.1289672465826,46.4656657337648 14.1286948486394,46.465568560963 14.1285869878226,46.4654576163858 14.1286053297754,46.4654341841045 14.1285286474623,46.4653929335554 14.1285050659583,46.4654264924633 14.1284033241531,46.4653971967662 14.1284012626964,46.4653958315117 14.1283658302594,46.4653724392858 14.1283339459296,46.4653470047904 14.1282346565034,46.4652701337138 14.1282015919963,46.4652452300027 14.128228352159,46.4652164637748 14.1283412513998,46.4650932562173 14.1283325131323,46.4650697075502 14.1284327182331,46.4649668262494 14.1285001468942,46.4649270337052 14.1285886615232,46.4648305409931 14.1286386864023,46.4647390631713 14.1286558568529,46.4647074347188 14.1286933099464,46.4646857674769 14.1287063203089,46.4646782191789 14.1287810756917,46.4646443303099 14.1288268929445,46.4646043729389 14.1289147328301,46.4645337860789 14.1289451559686,46.4645365369445 14.1289927834566,46.4644810285504 14.1290552519208,46.4644256331563 14.1290858852097,46.4643988755511 14.1290842072016,46.4643653041061 14.1290817972855,46.4642878219142 14.1291140314599,46.4642259883408 14.1291109310872,46.4641999635121 14.1291075621076,46.4641662892202 14.1291363740798,46.4641394277615 14.1291764094692,46.4641027550964 14.1292051474854,46.4640641970063 14.1292279375129,46.464014887237 14.1294627606669,46.4637162663324 14.1294865409707,46.4636864874555 14.1295150950031,46.463659443997 14.1296232106083,46.4635582412942 14.1296611672061,46.4635457544657 14.1297037506509,46.4634798608742 14.12971165043,46.4634334966601 14.1297758502595,46.46335103318 14.1299296815944,46.4632977719634 14.1300282613537,46.4631821011845 14.1300535932652,46.4631529637776 14.1304638188477,46.4627376347036 14.1307223953044,46.4621565071228 14.1309340598135,46.4619131283921 14.1314611361206,46.4615826252389 14.1315016587283,46.4615642192865 14.1320751364709,46.461303702169 14.1321163138424,46.4612850310582 14.1321647670238,46.4612836893179 14.1322245527901,46.4612819836975 14.1322746527664,46.4612999079132 14.1324152551087,46.4612511314202 14.1324658693986,46.461228483137 14.1325071739011,46.461209992789 14.1325231693854,46.4611783548267 14.1325335145199,46.4611581901211 14.1325920229486,46.4610975444913 14.1326485433905,46.4610636947139 14.1327563273706,46.4610154786286 14.1328473807831,46.4610042030889 14.1328850855347,46.460974619041 14.132908148245,46.4609734443532 14.1329344682298,46.4609721144165 14.132936193161,46.4609618709523 14.1329421961393,46.4609281778394 14.1329642824529,46.4608982954147 14.1330414341906,46.4607949653293 14.1331726843863,46.4606872768447 14.1332504427207,46.4606523281612 14.1332778493677,46.4606399401117 14.1332976512813,46.4606227260325 14.1333282760655,46.4605962371208 14.1333702064121,46.4605792806867 14.1333902546355,46.4605711553943 14.1334014614625,46.4605376816267 14.1334723109734,46.4604868457784 14.1334664136498,46.4604646685564 14.1335421137481,46.4604117101443 14.1335742994656,46.4603606712712 14.1336213097172,46.4603189215994 14.1336202944735,46.4602926427638 14.1336418458291,46.4602800303303 14.1336802246637,46.4602817605702 14.1336832219892,46.4602569516447 14.133682940679,46.4602336473682 14.1337098034885,46.4602226946098 14.1337342878874,46.4601893213807 14.133737778773,46.4601662256158 14.1337428699394,46.4601325255502 14.1337751636748,46.4601074886731 14.1338267054124,46.4600673027219 14.1338714451868,46.4600291345367 14.1339836516062,46.4599727635399 14.1340414271677,46.4599335243923 14.134087241916,46.4598850177483 14.134073587764,46.4598511757363 14.1340282948693,46.4598010795571 14.1340724785836,46.4597486918716 14.1340719271628,46.4597342025777 14.1340708518075,46.4597117020151 14.1340689939843,46.4596892854976 14.134067203582,46.4596708281564 14.1340278710607,46.4596389509809 14.13399609398,46.4595985838833 14.1339920845747,46.4595722823753 14.134090540298,46.4594880964822 14.1340941179807,46.4594595132101 14.1340984278167,46.459425807209 14.1340769049121,46.4593955943746 14.1340713042311,46.4593875446667 14.1340921306034,46.4593303016923 14.134135665625,46.4593023808223 14.1341985847305,46.4592999781357 14.1343398504696,46.4592664091641 14.1343317118937,46.4592542016532 14.1343108010213,46.4591935837395 14.1343245010815,46.4591752436545 14.1343458804497,46.4591405872103 14.1343366980882,46.4591367389801 14.1343423683547,46.45910754175 14.1344201719243,46.4590120430033 14.1344489718647,46.4589938171856 14.134497894286,46.4589791624945 14.134531085416,46.4589302902223 14.1345961519939,46.4588416226313 14.1346429563377,46.4587880849419 14.1346384207616,46.4587703265929 14.1346368302553,46.4587644660168 14.1346294413073,46.45873723977 14.1347446338948,46.4587316236383 14.1351006918598,46.4587142635472 14.1351218734327,46.4586838340355 14.1351510504318,46.458641768922 14.1351555413136,46.458588360882 14.1351969608206,46.4585788673956 14.1351992344166,46.4585668286483 14.1352141614519,46.4584874083073 14.1351959948036,46.4584672076941 14.1351953257408,46.4584519077858 14.1352118526027,46.4584441154229 14.1352509055619,46.4584278562944 14.1352833351549,46.4583447895551 14.1352740614247,46.4583220470713 14.1353095464066,46.4583009025808 14.135384148815,46.4581278250785 14.135373658566,46.4581161396787 14.1353883699476,46.4580667675606 14.1354158075617,46.4580523099253 14.1354094858664,46.4579253148773 14.1354347847963,46.4578896981876 14.1354462153681,46.4578501979263 14.1355208195462,46.4577345210115 14.1355347512988,46.4576685885512 14.1355569347098,46.4576159440077 14.1355533690943,46.4576026915088 14.1355439987604,46.4575696017967 14.1355270558756,46.4575378943595 14.1355131416658,46.4575122377842 14.1353755464733,46.457314253913 14.1353610564353,46.4572756373253 14.1353486824405,46.4572431546746 14.1353141719553,46.4572192317194 14.1352818472957,46.4571970347053 14.1352757442038,46.4571631599449 14.1353494236127,46.4571058664857 14.1353840808526,46.4570629430375 14.1353885027633,46.4570303174586 14.1353751692198,46.4570008865257 14.1353812744172,46.4569441617868 14.1353960581913,46.4569313179132 14.1353779103002,46.4568277155303 14.1353593502796,46.4567008078675 14.1353656618356,46.4565899229102 14.1353571573783,46.4565597187545 14.1353580151832,46.4565137507079 14.1353640638752,46.4564276954057 14.1353626131984,46.4564042023382 14.1353497016417,46.4563727952553 14.1353358917546,46.4563405716512 14.1353789811512,46.4563241630524 14.1354639784096,46.4562919666622 14.1354993480924,46.4562780188135 14.1356130014578,46.4561871987175 14.1356449071826,46.4561617984862 14.1356398424474,46.4561281115265 14.1356387777196,46.4561213557492 14.1356106117401,46.4560996401031 14.1355858163808,46.4560294562381 14.1355363164131,46.4559903051315 14.135503370643,46.4559169106987 14.1354934264632,46.4558954227313 14.1355261362539,46.4558932408028 14.1355524622754,46.4558913704914 14.1356263436809,46.4558458644054 14.1356869459722,46.4558086251013 14.135801947304,46.4557230332434 14.1358277575809,46.4556056378218 14.1358398900803,46.4555710911461 14.135872097387,46.4554607616884 14.1358710334901,46.4554292642386 14.135908477499,46.4553746656096 14.1358850176856,46.4553352615454 14.1358889618488,46.4553081204827 14.1358929899652,46.4552756718388 14.1359138020159,46.4552437998558 14.1359676386054,46.4551815876605 14.1359805874678,46.4551447978914 14.1359708167667,46.4551287994281 14.1358805236195,46.4551091336089 14.1358448748363,46.4550749456518 14.1358565576106,46.4550523615502 14.1358199933665,46.4550349010417 14.1358011421075,46.4549922029006 14.1357073760441,46.4548958564705 14.135731042961,46.4547905008034 14.1357233261427,46.4547352010556 14.1357070645705,46.4547180738786 14.135689256722,46.454699945346 14.1356708051926,46.454681362097 14.1356604678326,46.4546600511075 14.1356472250096,46.4546331400329 14.1357226276182,46.4545654228425 14.1357536205533,46.4545318284282 14.1357522010579,46.454506356259 14.1358542424025,46.4544251648809 14.1358387775008,46.454407054074 14.1359102535304,46.4543077277008 14.1359196323781,46.4542744197804 14.1359185557322,46.4542272674893 14.1359501288787,46.4541569697394 14.1359488267155,46.4541158437182 14.1359590868654,46.4540515028823 14.135962433416,46.4540292156636 14.1359547092269,46.4540072946526 14.1359315068155,46.4539434207559 14.1359209095143,46.4538397854836 14.1358711534571,46.4537264075092 14.1358717517717,46.4536968119748 14.1358610939337,46.4536381611222 14.1358123044903,46.4535706750072 14.1358324403667,46.4535156756883 14.1358147672907,46.4534972782803 14.1358230868455,46.4534897836847 14.135870666957,46.4534444385593 14.1358892322069,46.4534064316497 14.1358776054626,46.4533925784243 14.135930278091,46.4533215403951 14.1358967257699,46.4532865585544 14.1358486893956,46.453294922665 14.1358406288594,46.4532860447201 14.1358339020675,46.4532504558281 14.1358196060792,46.4532325337868 14.1358468043408,46.4532083574931 14.1358394814116,46.4531939969647 14.1358236462094,46.4531910882466 14.13579672697,46.4531811680964 14.1357964425649,46.4531662309636 14.1357425087794,46.4531524178992 14.1357407186453,46.453142147816 14.1357567874516,46.4530973743264 14.1357196833343,46.453072982026 14.1356588033283,46.4530127819888 14.1356399590508,46.4529943757003 14.1356239967609,46.4529748215838 14.1354639569667,46.4527809865663 14.135463642551,46.4527268223771 14.1353059910932,46.4525713323151 14.1352881495645,46.4525307110102 14.1352747282748,46.4524986702546 14.1352297917513,46.4524839353077 14.1351509279684,46.4524579674678 14.1350847708039,46.4524010434145 14.1350741311811,46.4523918886779 14.1350768838546,46.4523814875635 14.135090884153,46.4523285866724 14.1351310145132,46.4522357714227 14.1350967002016,46.4521256587965 14.1350646484302,46.4520535305248 14.1350513675103,46.4520208610132 14.1350511149667,46.4519874803074 14.1350560892584,46.4517719502827 14.1349601821283,46.4516386093986 14.1349507949217,46.4514586887496 14.13502648537,46.4513643430974 14.1350505132186,46.451334834788 14.1350215257177,46.4513076246052 14.1349899094706,46.4512775753676 14.1349570212154,46.451246317123 14.1349240854017,46.4512054016387 14.1349104951346,46.4511840659622 14.1349247578988,46.4511218247691 14.1350176600115,46.4510338172264 14.135012148995,46.4509872611496 14.1350791339737,46.450974092356 14.1351197502906,46.4509327434999 14.1351416769381,46.4509043888865 14.1351903754196,46.4508211751895 14.1352899142158,46.4507907982916 14.1353472373331,46.4507547939225 14.1354695498999,46.4506507238254 14.1354807444913,46.4506425233047 14.1355706910239,46.4505766334622 14.1356862775624,46.4504698131965 14.1357158641826,46.4504426859694 14.135735872199,46.4504121574646 14.1357880972837,46.4503337518245 14.1359013385834,46.4501637415309 14.1359959009632,46.4500940096009 14.1361318688359,46.4500316979798 14.1361688078545,46.4500260386205 14.1362035036735,46.4500207229258 14.136288826831,46.4499425537733 14.1363539858696,46.4499048086778 14.1363916874355,46.4498830507753 14.1364195856966,46.4498556407048 14.1364798754882,46.4497965359183 14.1364814183379,46.4497318592579 14.1365235602125,46.449676216211 14.1365579576238,46.4496081888105 14.1366339924215,46.4495658472332 14.1367019428708,46.4494584863569 14.1367148957032,46.4494378011007 14.1367411373615,46.4494245936793 14.1368210195076,46.449384136172 14.1368354807726,46.4493768120356 14.1370639444575,46.4493670200057 14.1371533745918,46.449358337906 14.1372020040693,46.4493533965727 14.1372207136215,46.4493225880977 14.1372387496791,46.449293214056 14.137278940688,46.4492209115895 14.1372957495797,46.4491785726239 14.1373170652055,46.4491640683325 14.1373918672985,46.449133772909 14.1374500362582,46.4491181970118 14.1374934706286,46.4490465487188 14.1376221218423,46.4490056609768 14.1376320092332,46.4490025185719 14.1376788806464,46.4490099796174 14.1377203690737,46.4489708856479 14.1377313473869,46.4489350704539 14.1377502438391,46.4488995906766 14.137779502968,46.4488446539491 14.1380427624538,46.4486257624602 14.1380964785089,46.4485871203904 14.1381303180398,46.4485625437392 14.1381701893286,46.4485434107236 14.1381935357513,46.448532160486 14.1383383898088,46.4484672140965 14.1385038429891,46.4484496568691 14.1385414498325,46.4484503000331 14.1386286172038,46.4484529359361 14.1387120736444,46.4484267534728 14.1387884708735,46.4484024971264 14.1388182961024,46.4483930949464 14.1388480966376,46.4484017765128 14.138912408549,46.4484175556347 14.1389686220072,46.4484576692493 14.1390013507151,46.4484810242355 14.1390738347312,46.4485564248308 14.1391211772791,46.4485091871642 14.1391346624141,46.4484900688121 14.1391504673109,46.4484676616326 14.1391648435121,46.4484474366596 14.1391815467602,46.4484282188689 14.1392544470087,46.4483450056368 14.1394025111059,46.4482579494746 14.139502192712,46.4482345876248 14.1395485760984,46.4482234204734 14.1395967882476,46.4482283716655 14.1396092653253,46.4482295451731 14.139826808893,46.4482764364461 14.1399771379455,46.4483017689209 14.1400724758892,46.4483228190161 14.1402019410535,46.4483092173068 14.1402500544133,46.4483039109175 14.1402913365791,46.4482860473466 14.1403378670481,46.4482655241163 14.1403979982822,46.448174746672 14.1405971343665,46.447985147314 14.1407004930285,46.4479513755476 14.140744587065,46.4479367718547 14.1407587588299,46.4479046691229 14.140785758414,46.4478431526522 14.140807938622,46.4478155579373 14.1408837338326,46.4477212597833 14.1408885122795,46.4476574170791 14.1408548484172,46.4476129889857 14.1408483898922,46.4475880631087 14.1408466265822,46.4475812578284 14.1408312805607,46.4474314326889 14.1408263236191,46.447341065705 14.1408253757966,46.4473185661179 14.1408446612002,46.4473006270581 14.1409776570086,46.4471781874549 14.1411083051683,46.4470228910611 14.1411330786249,46.4469456130535 14.1411694874123,46.4469064796735 14.1411851152793,46.4468231049909 14.1412597735741,46.4466608201432 14.1412745982374,46.4466285423036 14.1413170288807,46.4466120365302 14.1414227227234,46.4465702743195 14.1415101998577,46.4464701647544 14.1416490468165,46.4464141660488 14.1416737651061,46.4463983369304 14.1417506430153,46.4462769147365 14.141829397577,46.4462183055486 14.1419309301498,46.4461845189599 14.141968434161,46.4462081925163 14.1419799193247,46.4462144866071 14.1420085138206,46.4462170403533 14.1420575619978,46.4461686446429 14.1420695717619,46.4461083649473 14.1420816406313,46.4460940603037 14.1421141909462,46.4460684831253 14.1421573862176,46.4460529724434 14.1422880233727,46.4460223728541 14.1423959672738,46.4459781074593 14.1424887840095,46.445993738451 14.1425332020734,46.4459583534512 14.1425995888249,46.4459330298265 14.1426581746354,46.4458822761747 14.1426788848346,46.4458647073627 14.1427066915789,46.4458759821081 14.1428465063214,46.4459323615867 14.1429959289788,46.4459155774071 14.1430260836537,46.4459182325604 14.1431017913085,46.4459376035523 14.1432156964416,46.4459779537411 14.1433651896015,46.4460147916577 14.1433855537222,46.4460109855181 14.1434325513074,46.4460019806666 14.1434756216576,46.4459861086717 14.1439932954992,46.445792410759 14.1441283638966,46.4457779468442 14.1443215953537,46.4457645477567 14.144370068345,46.445761041722 14.1443929900971,46.4457374117604 14.1443971881035,46.4457330840462 14.1444356872676,46.4456932455002 14.1444424258579,46.4456452519925 14.1444381122491,46.44558482109 14.1444371954549,46.4455719773746 14.1444418514993,46.4455406127157 14.1444499359764,46.4455230390976 14.1444599620974,46.4455109306088 14.144485622568,46.4454799405766 14.1445018013287,46.4454441636175 14.1445224554688,46.4453636151276 14.1445734088993,46.4452348894706 14.1446113211657,46.4451244201051 14.1445988964284,46.4450949969865 14.1445940983014,46.4450837795142 14.1445849593199,46.4450624136078 14.1446240604633,46.4450422829043 14.1447134258631,46.4449956271105 14.144875514878,46.4449510445333 14.1449357723419,46.4449468641589 14.1450300455215,46.444940323872 14.1450917259334,46.4449078559914 14.1451854471082,46.4448905625761 14.1452813060118,46.4448780534654 14.1453380071659,46.4448477075156 14.1453763340828,46.4448271209189 14.145411326604,46.4448033604463 14.1455043361885,46.4447399968633 14.1455199674331,46.4447127619774 14.145540328072,46.444677286851 14.1455428195485,46.4446344797928 14.1456099032309,46.4446060106773 14.1457663112164,46.4445334037535 14.1457874016202,46.4444830881705 14.1458469144975,46.4444560018849 14.1458781065213,46.4444504256364 14.1458841120502,46.4444493520171 14.1459247128608,46.4444414679746 14.1460193704515,46.4444058270079 14.1460665403256,46.4443690216585 14.146112312482,46.4442883905091 14.1461435261364,46.4442648715055 14.1461555470458,46.4442440953902 14.1461907450603,46.4441832614563 14.1462033054365,46.4441623922401 14.1462332347426,46.4441544284173 14.146643596087,46.4440466482739 14.1466945592742,46.4440252558233 14.1468010028376,46.4440015781751 14.1468504768368,46.4439838633112 14.1468935375919,46.4439684398031 14.1469163915498,46.4439384703632 14.1470134034413,46.4438102670938 14.1471040852801,46.4437457152306 14.1471644898334,46.4437114373137 14.147235969173,46.4436346861763 14.147241331418,46.4436330167323 14.1473795244978,46.4435763763852 14.1474035456629,46.4435633298925 14.1474512992391,46.4435474013399 14.1474811273645,46.4435375470674 14.1475083794279,46.4435259641561 14.1475538396125,46.4435068695179 14.147720726112,46.4434880500569 14.1477576705976,46.443489225076 14.1478823850941,46.4434956425578 14.1479020806551,46.443496668411 14.147930761889,46.4434981622815 14.1479533548095,46.4434681906876 14.1479871203194,46.4434228275007 14.1480599723733,46.4433831536788 14.1480573150059,46.4433448966674 14.1480051370643,46.4433092606974 14.1479872591306,46.4432970505885 14.1480121399652,46.4432622376515 14.1480540566595,46.4432450057836 14.1480816946547,46.44323369552 14.1481043387076,46.4432171297941 14.148247580015,46.4431120322119 14.1483651155162,46.4431113780461 14.148530242917,46.44309677289 14.1485890351953,46.4430656311612 14.1486826924502,46.4430271014993 14.1488531761332,46.4430780338527 14.1489260784776,46.4430601325729 14.1490276388151,46.4430155434875 14.1490547657625,46.4430035993963 14.1490750866162,46.4429857566125 14.1491050431323,46.4429592584353 14.149153290901,46.4429533195095 14.1492784575817,46.4429724245933 14.1494137129207,46.4430290320638 14.1497636142351,46.4429666756787 14.1498435811187,46.4429882331616 14.1500756279262,46.4430641831158 14.150112510631,46.4430693155917 14.1502430972339,46.4430579600938 14.150291055331,46.443053907904 14.1503350759389,46.4430687201237 14.150347115529,46.4430728582184 14.1503793384521,46.4430596021247 14.1504303848886,46.4430661892709 14.1504834827287,46.4430747709709 14.1505777194474,46.4430407425583 14.1506290162665,46.4430395940623 14.1506799396867,46.4430540975365 14.1507232149086,46.4430917564307 14.1507706483987,46.4430963372562 14.1507930327149,46.4430796790995 14.1508295600418,46.4430825594572 14.1508571138075,46.4430933804977 14.1508790041143,46.4430750092277 14.1509243149158,46.4430821833566 14.150979710556,46.4430936609233 14.1510105862061,46.4431000980621 14.1510378754551,46.4430939192683 14.1510744540952,46.443085637171 14.1511180307134,46.4430703958401 14.1511786184335,46.4430492527689 14.1512926044086,46.4430173496865 14.1512402777105,46.4429591106891 14.1514562203178,46.4425803202976 14.1516193470525,46.4422920073126 14.1516740550591,46.4420878215156 14.1516827672624,46.4420547772054 14.1516975845004,46.4420224979391 14.1518030801505,46.4417911579847 14.1519236099234,46.4415973569096 14.1519589167063,46.4415027004395 14.1519951692633,46.4414812865042 14.1520835014111,46.4414417248943 14.1520463695293,46.4414107698306 14.1520487913597,46.4412966159272 14.1521346396393,46.4411235204578 14.152150098628,46.4410917857056 14.1521577763146,46.4410582838345 14.1521896637129,46.4409239251861 14.1522257385461,46.4408803772502 14.1521476482709,46.4408470492728 14.1520470599928,46.440821021936 14.1519664893973,46.4407965824692 14.1517915885781,46.4407957352381 14.1517590534508,46.4407956738649 14.151767590866,46.440773874489 14.1517838416206,46.4407330586914 14.1518136513477,46.440623606408 14.1518451877219,46.4405957696719 14.1518282685995,46.4405287065434 14.1518041109566,46.4404919995716 14.1517754764075,46.4403915606577 14.1517697453852,46.4403710250657 14.1517693120423,46.4403694722961 14.1517760179196,46.4403674487109 14.1517989935732,46.440360515506 14.151893531413,46.4403318864279 14.1518983505116,46.4402980934606 14.1518988446527,46.4402974175263 14.1519269380626,46.4402589885871 14.1519827569376,46.440239057305 14.1520180222204,46.4402264650859 14.1520615962897,46.4402112233708 14.152088842264,46.4401830848447 14.1520934707067,46.4401783507531 14.1520713808485,46.4401006328629 14.1520623189461,46.4399465370926 14.1520915491753,46.4398911523768 14.1520957619136,46.4397454322616 14.1521537210505,46.4396669583042 14.1521665533401,46.4395696159589 14.1522280880251,46.4394787526129 14.1522184757494,46.4394524101237 14.1522015882115,46.4393413519533 14.1522293336081,46.4393229338497 14.1522189505277,46.439136529055 14.1523060269312,46.4390769846155 14.1523176872303,46.4390635755485 14.1523031571059,46.4390438543905 14.1522377526108,46.4390318534094 14.1521909030137,46.4390234088063 14.1521789203205,46.4389904809302 14.152174314918,46.4389777147187 14.1521510955345,46.4389133503131 14.1521497566082,46.4388822107726 14.1521608810467,46.4388362286143 14.1522058615774,46.438788967954 14.1523608983082,46.4387186482875 14.1524335267084,46.4386178231266 14.1521237106159,46.4382038238981 14.1481620196412,46.438581227649 14.1410370075655,46.4323469916971 14.1387425965991,46.4304675338632 14.1361777910434,46.4274129560752 14.1358553189824,46.4273422324301 14.135675368933,46.4272849110582 14.1354418154376,46.4271945249946 14.1352028190011,46.4272015350008 14.1350201875961,46.4270588106135 14.1349198622009,46.4269195876185 14.1348971395066,46.4268755102762 14.1348400755851,46.4267651350132 14.1347443061848,46.4264202744604 14.134705681389,46.4263204751757 14.1345636974669,46.425952682232 14.13445736208,46.4257412572152 14.1341882313131,46.4249812208961 14.1330315758017,46.4234880391228 14.1328946247071,46.4233947812917 14.1327554138277,46.4232963778534 14.1326977625665,46.4232563537271 14.1326460876608,46.4231512364399 14.1326812677074,46.4225900888818 14.1324944857709,46.4223577184741 14.1323990407842,46.4221988266789 14.1323306485096,46.4219994734996 14.1321520981603,46.4218306839726 14.132119364102,46.4215569259273 14.1321159298499,46.4215273896143 14.1307603419718,46.4208946793436 14.1306924253576,46.4208705008994 14.1302046444931,46.420701696435 14.1295787936983,46.4204945913584 14.1293111653839,46.4204060025941 14.1290494190342,46.4203075612662 14.1286406388137,46.4201536570289 14.12859274018,46.4201388068314 14.1281890999322,46.4200135506964 14.127819570879,46.4198867538909 14.1273307131556,46.4197131604861 14.1269706996432,46.419585443868 14.1266233664889,46.4194621415313 14.126471703968,46.4190613350009 14.12628915991,46.4187452242894 14.1261051669903,46.4184303617806 14.1260067651605,46.4181324377652 14.1219975988237,46.41494169763 14.122031041569,46.4148275120575 14.1223168700086,46.4145495383505 14.1226028270413,46.4142714749339 14.1226938389133,46.4140958312061 14.1226871328723,46.4139218669738 14.1226027405938,46.413563137291 14.1224507213063,46.4132117160094 14.1223256484513,46.4125915797295 14.121918698461,46.4126930912845 14.1211595789776,46.4129838023633 14.1205316592242,46.4131152801668 14.1197170519588,46.4131268265582 14.1192041817221,46.4130280486326 14.1184622264499,46.4127851694658 14.116755608434,46.4128253533142 14.1158407142523,46.4126759500976 14.1152491959474,46.4126713751424 14.1147053432352,46.4129044181667 14.1136848247616,46.4134538799476 14.1128006108328,46.4135300661128 14.1120891319059,46.4135186060214 14.1111093663814,46.413671141812 14.1098889192211,46.4143850108589 14.1088405300975,46.4155865877319 14.1070240349122,46.4165745077968 14.1054008757443,46.4167456309565 14.1038914746451,46.4167694413397 14.1024293739809,46.416526750906 14.1013254679421,46.4163995001435 14.1003668590839,46.4168188723179 14.0995712748381,46.4177495622437 14.0986116706723,46.4187559683983 14.0978853943466,46.4196456263098 14.097090929309,46.4199833129417 14.0957304493428,46.4203342438653 14.0932487118521,46.420563720588 14.0907905117758,46.4209177595611 14.0904454378983,46.4200136926206 14.0898270349077,46.4200799389169 14.0889582415363,46.4202450441206 14.0882940427269,46.4204828506023 14.087853980904,46.4206512746917 14.0875938459551,46.4208271608037 14.0874325871257,46.4210184105892 14.0866764986941,46.4214758116766 14.0859095977589,46.4219177363852 14.0850771123125,46.4222741992501 14.0841562844678,46.4225603115484 14.083302050315,46.4228779900229 14.0825258591289,46.4232039357383 14.0814370702095,46.4237825214619 14.0813085519943,46.4238507662093 14.0803498283648,46.4243992566221 14.0794674502448,46.4250641452902 14.0787864308357,46.4256997895198 14.0779054435207,46.4262720978167 14.0774538852755,46.4265542914228 14.0770949564293,46.4266440646772 14.076714041286,46.4267027994974 14.0764798753124,46.4266776963516 14.0760899882934,46.4266128274697 14.0757548682719,46.4266178569433 14.0753393436612,46.4267457645059 14.0751142755482,46.4268443512637 14.0749573797271,46.4268740320056 14.0748012691398,46.4268572942309 14.0745233957858,46.4267701138613 14.0742003790055,46.4267134271579 14.0738431443362,46.4267027971089 14.0735182966065,46.426754237906 14.0730797340548,46.4269206378241 14.0728761206537,46.427073466201 14.072526928384,46.4272405885032 14.0720659814727,46.4274145404205 14.0715608031214,46.4275649190569 14.0711459172797,46.4276542193198 14.0702490092747,46.4278400969284 14.0695754701619,46.4280354325374 14.0685650859832,46.4283285178613 14.0677351584482,46.4285149212744 14.0669940758429,46.4287329033438 14.0663551369589,46.4288589552609 14.0657721358632,46.4289855505654 14.0650652645829,46.4291652023736 14.0643586534936,46.4293293770582 14.0638772716276,46.4293871571086 14.0633179611511,46.4294290019224 14.0626104146419,46.4296472302499 14.0622501190081,46.4298064926749 14.0619225896722,46.4300200948548 14.0616943050388,46.4302963199782 14.0614305917125,46.4306957829767 14.0612589085451,46.4309338745109 14.0610216807318,46.4310864057708 14.0607402233249,46.4312154509287 14.06060555665,46.4312452045726 14.0604265287136,46.4312592086861 14.0600916454837,46.4312487193397 14.0598802464769,46.4311929095629 14.0596805660519,46.431113983437 14.0595377618572,46.4309738051478 14.0591388050718,46.4307850948809 14.0587601021992,46.4307125215337 14.0586034546858,46.4307266170257 14.058267908865,46.4307548040746 14.0578528444621,46.4308517920573 14.0574371132802,46.4309873702607 14.0570770559174,46.4311389708619 14.0568840423061,46.431314980439 14.0567790740562,46.4315690902946 14.0567051418258,46.4319701074852 14.056632940807,46.4322707321409 14.0565402251532,46.4324631332869 14.0564135388872,46.4326861138374 14.0561292672014,46.43296951325 14.0558247436465,46.4331369531117 14.0555984131904,46.4333050379237 14.0553708797779,46.4335426592978 14.0551003236091,46.4336794280497 14.0544595623749,46.4339058950823 14.0540544535928,46.4340724985077 14.0537962808108,46.4341475570883 14.0534156897705,46.4341830946213 14.0527220444911,46.4342390705305 14.0521946386112,46.4343737944944 14.0519024948981,46.4344640421115 14.051665761086,46.4345856982269 14.0510011176474,46.4349046170854 14.0503699096695,46.4352160722862 14.05004377901,46.4353446301152 14.0497748098006,46.4353888201291 14.0494391026319,46.4354168899607 14.0489471324223,46.4354360119062 14.0482890519029,46.4353764650935 14.0477430137723,46.435294635212 14.047320341082,46.4351829707304 14.0469205873607,46.4350406359266 14.0463644432438,46.4348969057201 14.0458296009218,46.4348152500196 14.0453496353136,46.4347880320365 14.0448239673048,46.4348145023953 14.0444429570085,46.4348808663337 14.0435880340369,46.4352136268962 14.0425659217738,46.4355217691335 14.0415551290492,46.4358145222283 14.040914152,46.4360486489571 14.0400461008042,46.4364894170265 14.0392791592928,46.4369000782108 14.0380947467469,46.4375389866208 14.0370901849657,46.438109850293 14.0367065568906,46.438322907684 14.035917864713,46.4386947658325 14.035343570719,46.4389448082921 14.0347920606329,46.4391719178409 14.0338357460149,46.4395423467165 14.0330028005038,46.4398829510787 14.031999913957,46.4403611148324 14.0311097528509,46.4407784154054 14.0301974623636,46.4411878739099 14.0294323089245,46.4414826025114 14.0290047483216,46.4416527952362 14.0269305236554,46.4420446186733 14.0268981888293,46.4419747966591 14.0267675967599,46.4417805195773 14.0266791622539,46.4417256949164 14.026489313001,46.4417164314857 14.0259516840774,46.4417890478857 14.0251788822758,46.4418906070597 14.0244726791078,46.4420159414226 14.0235748305949,46.4422323044725 14.0231149851657,46.442328783921 14.0227662350843,46.4424571606216 14.022280687305,46.4427388454208 14.021670494676,46.4431198685087 14.0214111374245,46.4432489158004 14.0209959145514,46.4433457685502 14.0205584362351,46.4434425191562 14.0202881593463,46.4435560854922 14.0197249349972,46.4438061442255 14.018937297803,46.4441083472338 14.0183837260698,46.4444435038618 14.0175031979268,46.4449380653117 14.0168933635203,46.4452959435836 14.0160814983736,46.4456983251642 14.0154393237913,46.4459863705584 14.0148999669379,46.4461516792209 14.0137119653562,46.4463422527412 14.012847857753,46.4465434376022 14.0117923459562,46.446820156426 14.0107246544445,46.4471507421599 14.0096797415427,46.4474662202677 14.0095815566489,46.4474830041061 14.0097483036998,46.4477696530718 14.0102333659579,46.4484693204317 14.0104612852064,46.4487493900883 14.0106382238776,46.4489193448097 14.0110889574306,46.4491867654484 14.011098307302,46.4492527043375 14.0111255143558,46.4493388609458 14.0110949956168,46.4494356746727 14.0111555920193,46.449597244935 14.0112885193069,46.4498546287695 14.0113078789535,46.4499572719574 14.0112741372738,46.4500667436263 14.0112705607309,46.4502643767579 14.0112461673786,46.4504398772302 14.0112132230968,46.4504980728793 14.0110933480516,46.4505766597872 14.0110614079532,46.4506944241988 14.0110472903009,46.4508846785806 14.0110040843592,46.450977603805 14.0107791653729,46.4511134924818 14.0106236071109,46.4512288378538 14.0105212868377,46.4513657865927 14.010496138869,46.4514821700792 14.0105172544797,46.4515884273651 14.0104149332531,46.451725375993 14.0102894165703,46.4518780484728 14.0102096517752,46.4520416432844 14.0101838296904,46.4521951784461 14.0101966906783,46.4523331237263 14.0101949614398,46.4524285668773 14.0100920002234,46.4526078855048 14.0100672337883,46.4527031292388 14.0100964748801,46.4527776075553 14.0101179748459,46.452862635312 14.0100782349542,46.4529365165312 14.0098027147363,46.4533211819624 14.0096590151107,46.4536220566959 14.0095269658518,46.4537110629833 14.0094563493767,46.4538006012324 14.0094540090495,46.4539224902155 14.0094585156832,46.454097520757 14.0094945090801,46.454230358205 14.0095773122811,46.4543159169819 14.0096754758447,46.4544015187423 14.0098323816877,46.4546361693673 14.0099674658248,46.4547964056798 14.0100115249495,46.4549080798732 14.0099862763229,46.4550298605027 14.0099767726554,46.4551304545596 14.00998195433,46.4552683333155 14.0099104368053,46.4554003298173 14.0097530395869,46.4556163343321 14.0096903551047,46.4556847084835 14.0097423824254,46.455780527091 14.0097941819254,46.4558817418944 14.0098384323155,46.4559828913117 14.0098511630046,46.4561208354135 14.0098875434199,46.4562324431464 14.0100828189721,46.4564621173117 14.0102108397487,46.4565957510258 14.010115131368,46.4567910569943 14.0101267997508,46.457411500303 14.0100933911511,46.4575596614179 14.0100888768684,46.4578087489116 14.0100619949799,46.4580205751962 14.0099757878057,46.4581152869703 14.0099511147161,46.4582052231782 14.0100035279856,46.4582799020473 14.0100863396553,46.4583653704943 14.0101543052395,46.4584295674669 14.0101446071866,46.4585408662102 14.0100954534519,46.458710123902 14.0101387123919,46.4588589485916 14.01025089981,46.4590188962917 14.0103403350237,46.4591628122963 14.0105295136219,46.4593128994713 14.0107033954555,46.459452237564 14.0108371838223,46.4596919948337 14.0108857258482,46.4599733904745 14.01076543715,46.4602533258326 14.0105191491206,46.4606610977241 14.0101653650463,46.4611812107142 14.0100840466309,46.4614297232465 14.0100099283059,46.4617047491625 14.0098552070179,46.4618152421825 14.0091052759388,46.462497465763 14.0090496867976,46.4625976603047 14.0090484348301,46.4626666562894 14.0091074399047,46.4627943848352 14.0091040742826,46.4629798733833 14.0091242923182,46.4631284987098 14.0092124185377,46.4633519374408 14.009295042321,46.463448111158 14.0093471384978,46.4635333139755 14.0093298534695,46.4636392386172 14.0092204372952,46.4637495833717 14.0091564907636,46.4638869530286 14.0091609983734,46.4640618933235 14.0091974431782,46.4641629752164 14.0092871102721,46.4643015857065 14.0093307563189,46.4644291810466 14.0093214404629,46.4645192500545 14.0092272875323,46.4646350352331 14.00907030646,46.4648192827716 14.0089370762574,46.4649717966488 14.0089120128706,46.4650829620119 14.0089464721869,46.4653006275633 14.0089808979023,46.4655129845896 14.0091241058342,46.465657367332 14.0092146063136,46.4657429928816 14.009205099037,46.4658435866621 14.0091494086319,46.4659491785052 14.0091173140252,46.4660818757145 14.0091431568083,46.4662937084491 14.0091937145283,46.4664638293954 14.0092896858555,46.4666714112588 14.0092633737339,46.4668513926932 14.0096136060041,46.4674269935329 14.0095397638696,46.4676861865933 14.0095822594658,46.4678773803857 14.0097911097466,46.4682079381931 14.0100215660095,46.4686181258754 14.0099543010836,46.46893828557 14.0097497190469,46.4692121814925 14.0097005539411,46.4693814386171 14.0097897170849,46.4695411870948 14.010166860032,46.4699049604179 14.010238930632,46.4701601083909 14.0102049382866,46.4703400234661 14.0100109081236,46.4708791517317 14.0100007819305,46.4714303981709 14.0099948213839,46.471759095698 14.0097091804738,46.4722655810105 14.0096899708537,46.4724774731264 14.0097608904422,46.472796129886 14.0094178565015,46.4733433235267 14.0092543629246,46.4735908532739 14.0088704776228,46.4737193325649 14.0086250100499,46.4738123928754 14.0083787426013,46.4739494408684 14.0081829399705,46.4742260190168 14.0080270570027,46.4746347485578 14.0078458230614,46.4752702512501 14.0079348807151,46.4756151575298 14.0052281925095,46.4787185392005 14.0051242340323,46.4792561026726 14.0053326495691,46.4799686748422 14.0057800194176,46.4804404063482 14.0063040865938,46.4809848680615 14.0066436194666,46.48136009538 14.0068731856626,46.4813533466226 14.0068770834776,46.4813532320311 14.0075674290387,46.4813782081846 14.0077266105637,46.4813839079146 14.0079972022945,46.4813938127276 14.0085138914271,46.4815503416765 14.0094046073343,46.4815722752385 14.0102241093724,46.4818296655476 14.0107114175639,46.4819478731742 14.0110555676828,46.4820026719971 14.0111836602737,46.4820055268368 14.0114939911107,46.4820124426816 14.012262562097,46.4820295669565 14.0123893206599,46.4820709679656 14.0125152612344,46.4820543317707 14.0128911737599,46.4820046744956 14.0129246826098,46.4820153569197 14.013340785501,46.4821480069096 14.0134631979566,46.4821158999632 14.0135563178071,46.482091475913 14.0136408700464,46.4821023835005 14.0140892025808,46.4821602191308 14.0145263620162,46.4821495017375 14.0146001142253,46.4821374364975 14.0154313385034,46.4820014515413 14.0155122166123,46.4819882198474 14.0155187224639,46.4819858296989 14.0156325770616,46.4819440011997 14.0157674280033,46.481930559938 14.0162308146219,46.4818843706326 14.0162596098059,46.481871651667 14.0164505901317,46.4817872944399 14.0165913416816,46.4817709163203 14.0167796207384,46.4817490075224 14.0167917794703,46.4817323872024 14.016872824911,46.4816216022315 14.0170267513874,46.481617727752 14.0172351918898,46.4816124807702 14.017310777792,46.4816533466172 14.0175062175472,46.4816164055059 14.0175491604627,46.4816082885845 14.0176354033422,46.4815919871976 14.0178582791825,46.4816408654449 14.0182930644498,46.4815591273371</coordinates></LinearRing></outerBoundaryIs></Polygon></MultiGeometry>
  </Placemark>
</Folder>
</Document></kml>
