<?xml version="1.0" encoding="utf-8" ?>
<kml xmlns="http://www.opengis.net/kml/2.2">
<Document id="root_doc">
<Schema name="pregledovalniklovisca" id="pregledovalniklovisca">
	<SimpleField name="lov" type="string"></SimpleField>
	<SimpleField name="lov_naziv" type="string"></SimpleField>
	<SimpleField name="luo" type="string"></SimpleField>
	<SimpleField name="luo_naziv" type="string"></SimpleField>
	<SimpleField name="povrsina" type="float"></SimpleField>
</Schema>
<Folder><name>pregledovalniklovisca</name>
  <Placemark id="pregledovalniklovisca.1">
	<Style><LineStyle><color>ff0000ff</color></LineStyle><PolyStyle><fill>0</fill></PolyStyle></Style>
	<ExtendedData><SchemaData schemaUrl="#pregledovalniklovisca">
		<SimpleData name="lov">0219</SimpleData>
		<SimpleData name="lov_naziv">STORŽIČ</SimpleData>
		<SimpleData name="luo">02</SimpleData>
		<SimpleData name="luo_naziv">Gorenjsko</SimpleData>
		<SimpleData name="povrsina">3955.24</SimpleData>
	</SchemaData></ExtendedData>
      <MultiGeometry><Polygon><outerBoundaryIs><LinearRing><coordinates>14.3613151277077,46.2476383382117 14.3608951789593,46.2478302425967 14.3605563182888,46.2479855302216 14.3604364794805,46.2480419925874 14.3603522561537,46.2480802996555 14.3601607953355,46.2481396899838 14.3598909080187,46.2482518148107 14.3597742722576,46.248311533433 14.3596129817115,46.2483525574032 14.3594876657979,46.2483780374662 14.359405637864,46.2483947626747 14.3592485784972,46.2484176353429 14.3591992111249,46.2484250063345 14.3589872320333,46.2484531491173 14.3586779536511,46.2484952313575 14.3586461296324,46.2484995514727 14.3582703832038,46.2485473778647 14.358143600329,46.2485651105633 14.3574587080379,46.2486101185878 14.3571882728776,46.2486574535714 14.3571513217509,46.2486676826442 14.3569811514179,46.2486914681749 14.3569442265154,46.2486994480096 14.3568806540287,46.2487126763008 14.3566430007566,46.2487624437145 14.3560807546903,46.2488326961485 14.3559438258963,46.2488528884993 14.355931096124,46.248854616241 14.3558835571512,46.2488608264553 14.3554208871637,46.2489220095253 14.3553021490814,46.2489392445923 14.3551693790255,46.2489586497119 14.3551041653095,46.2489679989301 14.3550774035778,46.2489718967431 14.3549810104953,46.2489858385587 14.3549620507009,46.2489879809071 14.3549816129304,46.249177843791 14.354968316869,46.2491836170039 14.3549124450426,46.2492257688965 14.3548701716562,46.2492916603268 14.3548619602633,46.2493504561625 14.3548645972293,46.249523758535 14.3548647089185,46.2495363553483 14.3548701862227,46.2499098630708 14.3548714540287,46.2500118992998 14.3548715920901,46.2500222469427 14.3548749814595,46.2502751794021 14.3548538468665,46.2505070098211 14.3548529485026,46.2505172616419 14.354840437831,46.2506551192229 14.3547853713507,46.2509381325488 14.354777323049,46.2509940501554 14.3546994396177,46.251265148226 14.3546446733529,46.2515445642411 14.3544719402896,46.2523828543999 14.3543433977453,46.2531022699205 14.3542594557469,46.2536791504986 14.3542131736783,46.2539646422803 14.3542118462163,46.2540777304238 14.3541830937282,46.2543393884613 14.3541261553066,46.2548033257284 14.3540590384466,46.2554160201802 14.3539456452807,46.2563022397594 14.3535617921594,46.2590438747291 14.3534014518174,46.2602809907093 14.3533893924586,46.2605785517578 14.3534120668636,46.2608345619631 14.3534951350066,46.2610731890863 14.3536109099821,46.2614428211501 14.3537264761178,46.2618303564283 14.3538338327093,46.2621880642542 14.3539328388698,46.2625279102075 14.3540495884413,46.2628261090507 14.3543154583192,46.2635715936696 14.3546769655997,46.2642046119567 14.3547437702655,46.2643597417186 14.3546908062103,46.2644844145955 14.354404479025,46.2647625226365 14.3539701979684,46.2652004848951 14.3535412091351,46.2656180516435 14.353131413728,46.2660576786358 14.3526610690193,46.2665268321756 14.3523302526856,46.2668354536107 14.3519478612642,46.267149809901 14.3516258800876,46.2674346366459 14.3514173861736,46.267600712877 14.3512849996408,46.2678805858749 14.3511775111351,46.2682382462268 14.3511138760476,46.2685185991101 14.3510429366773,46.2687032697822 14.3509544709945,46.2688998972174 14.350882755281,46.2691502432475 14.350889414163,46.2693115116507 14.3509307222965,46.2694610104287 14.3510053398489,46.2697122771395 14.3510284080204,46.269945256711 14.3509995610167,46.2702018742466 14.3508827272529,46.2706252509635 14.3507130606131,46.271149726403 14.3508208606113,46.2715026704618 14.3517897098594,46.2733353266429 14.3522879175406,46.2741740833687 14.352853053596,46.2751924415425 14.3530478087144,46.2754682292744 14.3531822946609,46.2757496138862 14.3533580207149,46.2761984001538 14.353566878005,46.2767430140118 14.3538094005961,46.2773713120083 14.3539596874521,46.2777663299506 14.3540080898527,46.2780531651952 14.3539439557686,46.2783872298108 14.3535549621868,46.2792568624691 14.353307629892,46.2797869299642 14.3531312297292,46.2801442915915 14.3529732914822,46.2803882124197 14.3527815179775,46.2805961325336 14.3517262582875,46.2817308221572 14.3504874580973,46.2830853411113 14.3487864816203,46.2849210853099 14.3481362665044,46.2856579410606 14.3474819764002,46.2863648990117 14.3469674017265,46.2869114211183 14.3466183050541,46.2873035946975 14.3461298930803,46.2878203917093 14.3452136836815,46.2888185175908 14.3450035229527,46.2891159313156 14.3448919625715,46.2898080774861 14.3449239197937,46.290023293939 14.3450829421978,46.2904124345878 14.3452493809028,46.2909091341163 14.3454253849002,46.2913222140763 14.3455337570221,46.291627479953 14.3455226301541,46.2918424495432 14.345476413039,46.2921049034541 14.3453855286086,46.292510517091 14.3451256453156,46.2933631336863 14.3448734529187,46.2942993776671 14.3446133404134,46.2951698059902 14.3443351592605,46.2961178658033 14.3441281836235,46.2968632664566 14.343841776542,46.2977813169389 14.343473385561,46.299063282333 14.3434609637833,46.2993857605159 14.343525105827,46.2997862341338 14.3435022612885,46.3002639440301 14.3433948694912,46.3006037812196 14.3432334586815,46.3011403465605 14.3431147949396,46.3016951516081 14.3430601201528,46.3019575555124 14.3429877229035,46.3020410833285 14.3429035729301,46.3020761386597 14.3426628765914,46.3021862303378 14.3423881015807,46.3022909971091 14.3420715933822,46.3024117180276 14.3419750217631,46.3024432822624 14.3416028320843,46.3025630516101 14.3411689827602,46.3026607812355 14.3408314597722,46.3028014413599 14.339921395775,46.3032267966831 14.3390549742423,46.3035088018676 14.3387777228389,46.3036024790848 14.3386080788218,46.3036755447716 14.3384650786547,46.303810665034 14.3381950459363,46.3040484276112 14.337538136392,46.3044700105415 14.3373195095902,46.3047074390535 14.3372168980089,46.3048409024017 14.3371234804104,46.3049870150215 14.3368723779425,46.3052472871773 14.3368175499336,46.3052938445263 14.3365029333894,46.3055671532555 14.3362293509397,46.3058823563085 14.3360889595629,46.3061121391034 14.3359917887994,46.3062675860498 14.3359326148462,46.3063727793837 14.3359357760924,46.3064012288529 14.3360799452012,46.306653717379 14.3360859567421,46.3067041365267 14.3360717233397,46.3067216883625 14.3359795309152,46.3067981689003 14.3359225249433,46.3067991874005 14.3357146832716,46.3069378862994 14.3356417652209,46.3069771402222 14.3353769580821,46.307102641518 14.3350900514552,46.3072411495756 14.3349911157195,46.3072953670491 14.3349525611436,46.3073164661314 14.3347395275447,46.3074332698892 14.3343319703037,46.307617679402 14.3341939805747,46.307712605996 14.3340827222486,46.3077978811809 14.3339027490249,46.3080573013369 14.3338318048255,46.3083081793586 14.3338215151076,46.3083216151825 14.3333589253785,46.308921010514 14.3332077470572,46.3091179770231 14.3330656886934,46.3093336206898 14.3327373201906,46.3098590296646 14.3323098521602,46.3105256545561 14.3319071551495,46.3111723588099 14.3318398167014,46.3112645462984 14.3318077299572,46.31130862491 14.331494694958,46.31233220352 14.3314814479974,46.3123751325764 14.3314510202278,46.312474823335 14.3311094788793,46.3134498292027 14.3308693118241,46.31371285095 14.3308503614476,46.3137336134948 14.3306018543875,46.3138604586017 14.3304875303246,46.3139188107042 14.330348952763,46.3141239445146 14.3301909862971,46.3144175867378 14.3298926891663,46.3150382633876 14.3298112272209,46.3151060744817 14.3296810958672,46.3152145373393 14.3294070580391,46.3154428981968 14.3288721065663,46.3160682119829 14.3287187718656,46.316247435245 14.3286947957107,46.316286162261 14.3285554318465,46.3165120726686 14.3284626134803,46.3167330379181 14.3283545474174,46.3170751953755 14.3283495604717,46.317111334706 14.3283466950601,46.3171332709695 14.3283354028597,46.3172177780359 14.3283099227179,46.3172944641877 14.3282686349658,46.3173471249945 14.3282306560815,46.3173734435187 14.3281767869921,46.3173931007317 14.3280880905112,46.3174149824994 14.3280373949141,46.3174193631069 14.3280132355136,46.3174199408959 14.3279267343857,46.3174215918086 14.3278380962959,46.3174280885653 14.3276517562712,46.3175131858762 14.3274388371991,46.3176691142121 14.3273437222094,46.3177590662192 14.3272580460604,46.3178840726697 14.3272060093905,46.3179872339341 14.3272097434701,46.3181381384278 14.3274847874651,46.3187198039256 14.3277468742127,46.3192572164304 14.32788566315,46.3195139117648 14.3280593985224,46.3198013126856 14.3284030784281,46.3203361440101 14.3285048981952,46.320494462323 14.3286222388526,46.3206897600513 14.3287907414992,46.3209702912283 14.3288238303931,46.3210254581369 14.3288967618104,46.3211569748982 14.3289610528893,46.3212729657804 14.3289722356,46.321293005112 14.3290429724974,46.3214447525124 14.3290729642655,46.3215089883049 14.3291698960168,46.3217169416494 14.3291776162728,46.3217865350129 14.3291992803905,46.3219796512521 14.3292670462441,46.322310874451 14.3292848217411,46.3223971715341 14.3293062708294,46.3225016644282 14.3294348261139,46.3232039270865 14.3294643590597,46.323252684949 14.329517191859,46.3233395474506 14.3295983202455,46.3234914453571 14.3296824942124,46.3236492092103 14.3297034436829,46.3236883796973 14.3297322170692,46.3237568368135 14.329743195987,46.3237829929346 14.3297525296239,46.3238056305179 14.3297627568861,46.323829532941 14.3297725956844,46.3238533431144 14.3297982139968,46.3239143140755 14.3298643614312,46.3241445791952 14.3299224164921,46.3242824859935 14.3299920026344,46.324412002999 14.3300562083121,46.3245674002509 14.3301500862853,46.3248134827073 14.3304900842124,46.3256756022684 14.3305164507904,46.3257179533157 14.3305517409081,46.3257740322805 14.3306347324931,46.3258695281225 14.3308041781151,46.326042905459 14.330873725329,46.3261653139053 14.3308614001144,46.3263240415776 14.3308078788326,46.3263784310599 14.3307452757925,46.3264320475881 14.3305516579924,46.3265153974484 14.3304680111554,46.3265693404723 14.3303644997163,46.3266334238576 14.33033913661,46.3266684541942 14.3303168809446,46.326725545755 14.3303106767776,46.326786959987 14.3303515688333,46.3270545049494 14.3303610489592,46.3270545604698 14.3303813162463,46.3271497790858 14.3302967833744,46.3273932868293 14.3302500361339,46.3275097061073 14.3302735634121,46.3275719242757 14.3303536980943,46.3276356436049 14.3308721037189,46.3278320273106 14.3310568463326,46.3279550196982 14.3311456356336,46.3280546877401 14.3311948260557,46.3281639309945 14.3312034385539,46.328224532208 14.3312118264232,46.3282822530174 14.331204219875,46.3283202664818 14.33119493209,46.3283683469224 14.3311445895563,46.3284175367884 14.3310642124992,46.3284481067627 14.3309832838608,46.3284493427364 14.3308659056239,46.3284042099627 14.3308068228796,46.3283606778614 14.3305996398507,46.328171424634 14.3305602212743,46.3281555388106 14.3305301081649,46.3281433962898 14.3304465694488,46.3281456962599 14.3304091217544,46.3281918123083 14.3304422297271,46.3282458991298 14.3305768141526,46.3283390878995 14.3306920117304,46.3284138988093 14.3307703541919,46.3285075678626 14.3308606043588,46.3286365753822 14.3309365716887,46.3288505223382 14.3310170148368,46.3290702535991 14.3312698374903,46.3293515439106 14.3312964930634,46.3293810305142 14.3313407029969,46.3294301435857 14.3314242537889,46.3295229429157 14.3314634669526,46.3295664484881 14.3314707709316,46.3295745886282 14.3315337960087,46.3296251612013 14.3316133542681,46.3296725914106 14.3316446318156,46.3296851903062 14.3317025346065,46.3297084714788 14.3317851436354,46.3297293778053 14.3318563355147,46.3297386110342 14.331884605794,46.3297421951411 14.3320073394999,46.329742462364 14.3320459449058,46.3297719286298 14.3322266674424,46.3298097825575 14.3321980824285,46.3298427251265 14.3322583597026,46.3298843740706 14.3323848847919,46.3298933002931 14.3324671689502,46.329919602519 14.3325336566396,46.3299525603382 14.3325462717159,46.3299832242866 14.3325590155836,46.3300139789568 14.3326664756241,46.3301061071853 14.3326959471587,46.3301284121733 14.3328405204507,46.3303407787956 14.3328878330739,46.3303912589354 14.3328909451911,46.3304878165022 14.3331576251591,46.3309447177746 14.3334445865635,46.3311437883919 14.3335762629676,46.3313597676918 14.3337065333463,46.3314242266765 14.334285999433,46.331858835108 14.3343733612589,46.3320343382043 14.3344200841125,46.3320908423486 14.334681790695,46.332199071574 14.3347767298556,46.3322211271287 14.3355315208594,46.3322729308105 14.3357922288495,46.332260050102 14.3358887929519,46.3322552127053 14.336352209955,46.3321922241541 14.3366453681562,46.3321810593519 14.3367399837172,46.332197713111 14.3369236785184,46.3322592393274 14.3369331811975,46.3322789981827 14.3370249233407,46.3323184877933 14.3371136062011,46.3323316879286 14.3374839020305,46.3323540776403 14.337813254658,46.3324219345483 14.3380001003635,46.3324700715326 14.3381850333444,46.3325368212313 14.3383768199383,46.3326061294878 14.3387360680435,46.3327586399055 14.3389409130995,46.3329516434999 14.3391112543793,46.3330438592233 14.3391192548936,46.3340186560205 14.3390763679431,46.3346135691143 14.3391419597897,46.3351098706765 14.3393339375506,46.3355200800655 14.3398368895429,46.3361243538094 14.3403411873787,46.336585218644 14.3403531956569,46.336612819165 14.3404419327899,46.3366221482484 14.3408066003702,46.336726278693 14.3414813872703,46.3367177507985 14.3415941548093,46.3367163308406 14.3418221296599,46.3367808032311 14.3429372597985,46.3366211294387 14.3434939846071,46.3364376366003 14.3437629166307,46.3364445786407 14.3438625165314,46.3364471295864 14.356836442378,46.3502373214126 14.3572123846799,46.3504429501105 14.3589810159014,46.3496399891091 14.3593740481193,46.3496954546718 14.36066940939,46.3491397549428 14.3619606450095,46.348713036154 14.363020549648,46.3485907931287 14.3636923570925,46.3487559412506 14.3646192612316,46.3489210888735 14.3658503800626,46.3490304578856 14.3683680735277,46.3491223276866 14.3696689082255,46.3491201403123 14.3705498632706,46.3490862359975 14.3716122380146,46.3490140525477 14.3724158190105,46.3489318890732 14.3730827410628,46.3487300115702 14.3733004380997,46.3487388294857 14.3735862005332,46.3487069528282 14.3739509544768,46.3485717673403 14.3741912629574,46.3485480705407 14.3750368319185,46.3488160260602 14.3755657746508,46.3489013340723 14.3758269450764,46.349028931278 14.375960039004,46.3490522633062 14.3761036959418,46.3490376807897 14.3764860769086,46.3491317379526 14.376707702065,46.349065433138 14.3769524998247,46.3490451543299 14.3780140823431,46.3488400873079 14.3785543803114,46.3487495157949 14.3785775034007,46.3485685944761 14.3781505184731,46.3485108676839 14.3782272405866,46.3475280673826 14.3779729361177,46.3473589849858 14.3778486061874,46.346993748818 14.3778576672697,46.3463483760806 14.3778041920308,46.345847986509 14.3774013452319,46.3453526168291 14.3786410795179,46.3435814104815 14.3788338874623,46.3413596564054 14.3812554245258,46.3398273666822 14.3811787766835,46.3395463772925 14.3814829913754,46.3391460161931 14.3812690904201,46.3387817506786 14.3810551894649,46.3386668916798 14.3806083741364,46.3377184752973 14.3805709414691,46.3376897600118 14.3804515134358,46.3376889395749 14.3803802131175,46.3375707965258 14.3802049331681,46.3375420811627 14.379985684689,46.3372926670898 14.3798632858091,46.3372483631552 14.3796707749494,46.3372204680669 14.379510349233,46.3371302191541 14.3793214033893,46.3370637630414 14.3791229508365,46.3369316710219 14.3789161799131,46.3368553692752 14.3785525482892,46.3364229906995 14.3785525482894,46.3362195172456 14.3788187361446,46.3359044600812 14.3787499115318,46.3355449590422 14.378613648701,46.3353677374246 14.3784393590338,46.335323978912 14.3783252785243,46.335157696245 14.3785692840585,46.3348163776077 14.3785724529616,46.3346632211165 14.3784932303855,46.3345100641964 14.3781858467907,46.3343941022429 14.3779249404404,46.3340330870399 14.3778277607472,46.3337800103151 14.3776017123304,46.3335706923696 14.3772563018989,46.3335415190732 14.377103138252,46.3334890071004 14.3769185826594,46.3332846566431 14.3767915294532,46.33309881239 14.3767329047469,46.3328625062025 14.376732904747,46.3325255493173 14.3762163735514,46.3321295129216 14.3761276442663,46.3319916653265 14.3761371509755,46.3318406889905 14.3760008881447,46.3317728589067 14.375947016793,46.3316722076596 14.3758361051867,46.3314249548967 14.3758487807989,46.3310882626666 14.3757739154645,46.3309452157059 14.3756619145477,46.3308936585356 14.3754954481099,46.3308817607202 14.3754035499217,46.3308418278035 14.3752688715426,46.3307553975552 14.3752569881562,46.3306996007401 14.3751856878377,46.3306700612267 14.375171823887,46.3306372395264 14.37507596457,46.3305891009971 14.374930591143,46.3305754252708 14.3748937526452,46.3304720366693 14.3748323551488,46.3303905291157 14.3747618470561,46.3303653656852 14.3744417878491,46.3303812295884 14.3743785088165,46.3303570234585 14.3743027522283,46.3301498349595 14.3742228364548,46.3300907553229 14.3741943163274,46.3299438765054 14.3741031113368,46.3298002795148 14.3739394176891,46.329710838913 14.3739040646146,46.3296570924259 14.3738348438888,46.3296648877212 14.3737130391782,46.3296529896384 14.3736607522781,46.3295824216464 14.373619754595,46.3295631385164 14.3736423330291,46.3294113349154 14.3734811374935,46.329127091002 14.3725077411145,46.3286915096993 14.3723112717784,46.3286202535834 14.3717387999168,46.3280618954658 14.3717675034387,46.328005101217 14.3718085890248,46.3279898518482 14.3718653039513,46.3279593931698 14.3719064593844,46.3279266896787 14.3719129937328,46.3279004538944 14.3718878340532,46.327863247431 14.3717177470509,46.3277907856322 14.3711667769137,46.3274313797422 14.37069107357,46.3272250670994 14.3705373866805,46.3269799484893 14.3704365671523,46.3269492529694 14.3699476719847,46.3268631564986 14.3698348392842,46.3268381524285 14.3698185165567,46.3268345535802 14.3697996181399,46.3267951318694 14.3698158784868,46.3266684516166 14.3698002563928,46.3266377751993 14.3697593592632,46.3266027308083 14.3696869584837,46.3265741706353 14.3695197995028,46.3264961434535 14.3693908781799,46.3264359613356 14.3692405478273,46.3263288757792 14.3692283491251,46.3259439102839 14.3690243332406,46.3256943732378 14.3684490240313,46.3253316707849 14.3683600970263,46.3251707603136 14.3683343973139,46.3251243729681 14.3682883413683,46.3250412547356 14.3682737285531,46.3247312220148 14.3682750722484,46.3244001341184 14.3683057120219,46.3243219381686 14.3684149237269,46.3241645514101 14.3685785248168,46.3240092643377 14.3686140341649,46.3236883519062 14.368366641269,46.3235415015283 14.3684307180649,46.323356334095 14.3684294175745,46.3231759339047 14.3682518863012,46.3231538998176 14.3682726279539,46.3230104197775 14.3682367767183,46.3229660456517 14.3679795988802,46.3229137004833 14.3680461805924,46.3228155496112 14.3680558674687,46.3227411966504 14.3679236908295,46.3226601214348 14.3676182742289,46.32248910617 14.3675895977371,46.3224307359498 14.3673884793279,46.3223597154848 14.3673634981817,46.3222962372708 14.3675053357824,46.3222600436277 14.3674435338346,46.3221350011191 14.3673391545064,46.3220535391647 14.3672102906419,46.3219331638558 14.3670152433564,46.3217863302685 14.367047344024,46.321637784916 14.36689043165,46.3214386187856 14.3669259552312,46.3213648588155 14.3669001794799,46.3213140620858 14.3667471378401,46.3211959815984 14.3666271407267,46.3209714675934 14.3666966367408,46.3209246174366 14.3667099946582,46.3206672826325 14.3666481929364,46.3203737228152 14.3665633030397,46.3203254776354 14.3665227325725,46.3202852155006 14.366519137277,46.3202816866884 14.3665924917301,46.320091713112 14.3665862732851,46.3200566797015 14.3665258889906,46.3200004727953 14.3665439046523,46.3198009255608 14.3667227498779,46.3197080758233 14.3667706937755,46.3196832392652 14.3667928796007,46.3196286593775 14.3667994078609,46.3195805607064 14.3667891143512,46.3195610698294 14.3667678843415,46.3195215446817 14.3665916905113,46.3194184509602 14.3665666940821,46.319378994881 14.3665603946788,46.3193397323493 14.3667057742157,46.319254794677 14.3665399204364,46.3189984464629 14.3664248376652,46.318933659053 14.3664544479182,46.3187083541793 14.3665677845084,46.3186768622263 14.3665666033965,46.3185091485294 14.366519376841,46.3184719085421 14.3665322251725,46.318450026642 14.3665825823156,46.3184522849946 14.3666111085126,46.3184108761156 14.3665925607863,46.3183190022837 14.3666556643313,46.3183081953527 14.3667031021812,46.3182820964112 14.3666752080665,46.3181224221669 14.3666820048804,46.3180285294039 14.3668059515119,46.3179664156435 14.3668723807295,46.3177010072096 14.366825381918,46.31764406481 14.3668822154249,46.3176026326661 14.3669736963944,46.3175744382099 14.3670024933154,46.3174869652334 14.3669903854284,46.3174671944077 14.3669680893119,46.3174300926154 14.36706633453,46.3172882113451 14.3675432465921,46.3170879641878 14.3675893361139,46.3170773325433 14.367600663132,46.3169394686172 14.3676451853658,46.3166252638451 14.3676536732819,46.3165647598466 14.3676594724312,46.3165234949168 14.36766822725,46.3164623625905 14.367672885059,46.3164299985439 14.3676782697863,46.3163908906408 14.3676676092225,46.3163469255043 14.367653346011,46.3162888148881 14.3676441720604,46.3162510660165 14.367717223436,46.3161091347947 14.3678342529548,46.3161172495385 14.3683257208344,46.3161517257193 14.3683749378595,46.3161626142676 14.3684780327545,46.3161855866751 14.3685337252845,46.316197950467 14.368797402617,46.3162921671773 14.3690487686246,46.3163617530729 14.3690982136124,46.3163754316893 14.3692347683799,46.3164133433874 14.3693150193985,46.3164355592152 14.3693803439725,46.3164572428056 14.3694485137271,46.3164799317374 14.3695604044102,46.3165172571698 14.3695759274503,46.3165223811723 14.3697302966397,46.3165694776364 14.369978005043,46.3166298642119 14.3701939020721,46.3166788285724 14.3702286107562,46.3166867573124 14.3702951809349,46.3167017893355 14.3704762826923,46.3167051258335 14.3708569138938,46.3166447804962 14.3709086278545,46.3166304896222 14.371314492545,46.3165549864058 14.3715133489097,46.3165159522497 14.3715606488831,46.3164788739838 14.3716616144611,46.3164725010483 14.3717039125905,46.3164640062299 14.3718172756727,46.3164408765761 14.3718321135439,46.3164378090852 14.371856034983,46.3164239049214 14.3718731594034,46.3164139221672 14.372120010409,46.3163677729252 14.3721855961403,46.3163553570802 14.3733013293949,46.3160418084626 14.3736465462648,46.3159891772319 14.3738814739163,46.3159748988164 14.3740160893529,46.3159667286835 14.3742576208709,46.3160223936478 14.3743361017731,46.3160405475392 14.3746053489758,46.316102571469 14.3747443106649,46.3161346415925 14.3747583178686,46.3161816834056 14.3749126565541,46.3162431681756 14.3750009008449,46.3162477892611 14.3754200279303,46.3162156203406 14.3758050266502,46.3162385961616 14.3758748377809,46.3162427560561 14.3761141979501,46.3162155413263 14.3763972371051,46.3161267537812 14.3765347454552,46.3160582254631 14.3766288962774,46.3160000772653 14.3766864333604,46.3159644922355 14.3767876491994,46.315890187517 14.3768478121857,46.3158291547312 14.3769326563289,46.3156642491403 14.3769816068184,46.3156072039077 14.3770425362408,46.3155586812575 14.3771442432539,46.315521087344 14.3773138722654,46.315493850114 14.3773824257681,46.3154828869962 14.3777501573855,46.315207416119 14.3778471501885,46.3150013689099 14.3780553149318,46.3143690106468 14.3780803235778,46.314293300528 14.3781150608589,46.3142528222542 14.378386569185,46.3141147525195 14.3786887497585,46.3139510269298 14.3787633913516,46.3138608309848 14.3788420235222,46.3137851421149 14.3794785216492,46.3133821959047 14.3795316174288,46.3133485647038 14.379686673388,46.3131739611551 14.3797629051237,46.3130232222022 14.3797844962478,46.3130084040148 14.3798198295551,46.3129839434153 14.3799367804952,46.3129296049731 14.3800790028226,46.3128794521562 14.3802233477466,46.3128367783211 14.3803272339602,46.3128355419523 14.3808987439878,46.3128282011417 14.3814083394627,46.3130150413987 14.3816374517251,46.3130085431238 14.3820133887228,46.3131196213425 14.382079516743,46.3131392326819 14.3823612445026,46.3132224491824 14.3827018115412,46.3132230287377 14.3827654612399,46.3132205832284 14.3830299313588,46.3132104942155 14.3830602613808,46.3132036400758 14.3835665014131,46.3130889573589 14.3835702468427,46.3130791706336 14.3836863164552,46.3130567635686 14.3836926667147,46.3130693938386 14.3840522208268,46.3129398826299 14.3841415942732,46.3128665872346 14.3844179049958,46.3122750714986 14.3848198092425,46.3118648041202 14.3849050544505,46.3118584248796 14.3849616461236,46.3118715952615 14.3850655345575,46.3119395428675 14.3858370473771,46.3123213009366 14.3858968936081,46.3123453749152 14.3859569260045,46.3123411987383 14.3860422059335,46.3123085470908 14.3860895829781,46.3122517593976 14.386201958705,46.3118859078267 14.3862808045793,46.311731849582 14.3863407404053,46.3117014009366 14.3863723716295,46.3117057993684 14.3865074293585,46.3118196185815 14.3867841485947,46.3120955167889 14.3870372240629,46.3125007568818 14.3871321096602,46.3125729729803 14.3879550188206,46.3128887729931 14.3884781189152,46.3131010260377 14.388942821161,46.3135091929098 14.3896387490638,46.314142082114 14.3899551179089,46.3144045084721 14.390068719186,46.3144640459786 14.3907497751185,46.3143800445094 14.3911851427835,46.3142628810774 14.3912593330195,46.3142584176141 14.3914636210891,46.3143247345292 14.3915953001339,46.3144403291247 14.3917598129563,46.3145340551671 14.3919015919053,46.3145467755158 14.3919428999075,46.3145451957636 14.3929071375283,46.3145087525499 14.3932482802051,46.3145284677129 14.3934943206476,46.3145650419748 14.3936818993833,46.3145927584035 14.3939473494953,46.3145884075218 14.3943175117444,46.3145082247857 14.3943776431735,46.314495227487 14.3945210952458,46.3144622478296 14.3947155420373,46.3144441133689 14.3950387171109,46.3144329577543 14.3965520653651,46.3143724862262 14.3976498185958,46.3144031966663 14.3979217437899,46.31442397277 14.398190415047,46.314457327137 14.3983436466309,46.3144677605111 14.3986519124069,46.3144189080641 14.3988794144507,46.3144293714183 14.3989782634388,46.3144259322989 14.3990145096806,46.3144122671785 14.3990492689306,46.3143802400065 14.3990737861408,46.3143230568944 14.3990923080359,46.3142797878811 14.3991270214406,46.3142044840596 14.3991676282996,46.3141482851947 14.399188193831,46.3141199622047 14.3992096177345,46.3141199848048 14.3992805960577,46.3140767214596 14.3993844828181,46.3140162664014 14.3996781927992,46.3139445718851 14.3998166042966,46.3139446687022 14.3999698958288,46.3139732744955 14.400154480117,46.3140374931014 14.4001923244096,46.3140557759422 14.4004959772412,46.3141674038246 14.4008653089636,46.314138389428 14.4011138226068,46.314008062762 14.4011633100803,46.3139469612582 14.4015037331242,46.3134251983358 14.4014943359341,46.3132390876614 14.4019082665883,46.3131321179217 14.4021077227975,46.3130944732304 14.4025610765307,46.3130514072346 14.4032533760246,46.3130405370271 14.4032863546902,46.3130406191677 14.4037809100753,46.3130055009161 14.4040212617682,46.3130278973119 14.4041780809745,46.3130424802688 14.404222615798,46.3130425323857 14.4042785769412,46.3130425540462 14.4045672683391,46.3129297037451 14.4046620482657,46.3128941186219 14.4049565542524,46.3127837268467 14.4051215110555,46.3127063097986 14.4053985520494,46.3125898878824 14.405871960995,46.3124566714185 14.4059065904072,46.3124361578582 14.406053504827,46.312322027226 14.4060947007879,46.3122705974474 14.4061657761488,46.3121816246881 14.4064289386466,46.3122075534196 14.4065790758609,46.3121674855644 14.4065848516849,46.3121856898278 14.4070851184651,46.3121257547295 14.4074147209057,46.3120709611803 14.4076737952931,46.3120185004912 14.4078116109126,46.3120252424521 14.4080094761486,46.3120501095674 14.4082416177785,46.3120991761892 14.4085337447754,46.3121723951564 14.4087742654456,46.3122512846769 14.4089375967525,46.3122880278224 14.4091097557064,46.3123007939064 14.4092305620974,46.3122835137778 14.4093601299079,46.3122483744087 14.409437705388,46.3122547132426 14.4095925319204,46.312273417182 14.4097041907795,46.3123098924042 14.4098936176308,46.3123227464542 14.4100834931028,46.3122938556292 14.4102479812295,46.3122229966991 14.4103955221043,46.3121221795329 14.4105171622814,46.3120271667796 14.4106563254678,46.3119084017099 14.4109072760894,46.3118140549708 14.4112009431024,46.3117438601359 14.4114773435025,46.3116855419133 14.4118573445719,46.3116038234918 14.4120644203799,46.3115809559826 14.4123314810519,46.3115823288944 14.4126505336848,46.3115540976574 14.4129783490587,46.3115198824127 14.4132282719098,46.3115211652431 14.4133490118848,46.3115098185548 14.4134180150699,46.3115042344387 14.4134786396657,46.3114686467177 14.4135309520916,46.3114211400624 14.413574436006,46.3113735881035 14.4137814468626,46.3113566552852 14.4139880735046,46.3113757088136 14.4140827858444,46.3113821323249 14.414194573588,46.3114066375878 14.4143057862975,46.3114728866762 14.414408304119,46.3115631135752 14.414544400394,46.3117310679411 14.4146893205035,46.3118752248043 14.4147573046194,46.3119652745992 14.4148082774147,46.3120312148416 14.4148167210466,46.312055190532 14.4148683306455,46.3120613927871 14.4148945486771,46.3120257182112 14.4149208309087,46.3119840158525 14.4149384809746,46.3119482074516 14.4149991041271,46.3119127088917 14.4151291796542,46.3118416668667 14.4152848348514,46.3117826317726 14.4154059562491,46.3117354761187 14.4154666454803,46.3117059157812 14.4155527863397,46.3117004179874 14.4156819070193,46.3117189822845 14.415827784455,46.3117734407927 14.4160771364101,46.311828517566 14.4160945276319,46.3118047638744 14.41609586235,46.311679260142 14.4160709800347,46.3115894312661 14.4160036918168,46.311433796415 14.4158938132379,46.311241955264 14.4158600414547,46.3111700752687 14.4158265268967,46.3110862303366 14.4158187185601,46.3110025167335 14.415819290017,46.3109488065295 14.4158977520019,46.3108595055596 14.4161319928945,46.3107113488533 14.4164010851658,46.3105334089643 14.4165399758554,46.3104265115883 14.4166271964814,46.3103314066411 14.4166885821673,46.3102360798587 14.4168885384941,46.3100638141944 14.4169927689372,46.309980671979 14.4170889376845,46.3098497135707 14.4171073468259,46.3097422012083 14.4171343243885,46.3096347325201 14.41715273241,46.3095273101125 14.417215571538,46.3092826373288 14.4173484913984,46.3089426816566 14.4175063539649,46.30867456038 14.4176820519482,46.3083527265898 14.4179823451428,46.3076670511262 14.4180963406831,46.3074704131881 14.4181840609922,46.3073274445602 14.4182459436214,46.3071723781553 14.418404749719,46.3068265247305 14.4185101101198,46.3066358705392 14.418720200494,46.3063261761975 14.4189648166388,46.306004690658 14.4191219075515,46.3058202368833 14.4192695414613,46.3057074423896 14.4195033727145,46.3055950853578 14.4198752532471,46.3054535577113 14.4199967985727,46.3053645624062 14.4201102174314,46.3052336888608 14.420355009506,46.3048942967909 14.4207747759627,46.3043107074431 14.4210015387797,46.3040429301566 14.4211167163296,46.3037447168689 14.4213011333375,46.3034050170028 14.421475914402,46.3031788125403 14.4215629850734,46.3030837029578 14.4216324809065,46.3030302513481 14.4216256756655,46.3028628692777 14.4216533959504,46.3026836955872 14.4217405328142,46.3025945243392 14.4217423533521,46.3024092814869 14.4221055934151,46.3024324412997 14.4221112995646,46.3024576622608 14.4221556415741,46.302499903224 14.4222658610317,46.302524032826 14.4223661466147,46.3025299378209 14.4224057166025,46.3025322070731 14.422530595503,46.3025202417854 14.4227939963208,46.3024951200686 14.4228109367211,46.302488997528 14.4229669182246,46.3024326526972 14.4232075762843,46.3023109654139 14.4234463588772,46.3021823403313 14.4234789002177,46.3021616309447 14.4236128656434,46.3020753935304 14.4237126572229,46.3019922227074 14.4238905698133,46.3018621202439 14.4239458893728,46.301835587349 14.4240234408436,46.3018058374629 14.4240858610048,46.3017830291155 14.4245352114837,46.3017026074315 14.4254486045935,46.3016012140283 14.4258964428254,46.3015036847384 14.4261314030697,46.3014790423277 14.4263833099409,46.3014973110653 14.4264823625952,46.3014844021446 14.4265512495286,46.3014886164493 14.426692925229,46.3014465902781 14.4268050017874,46.301392269347 14.4268472468354,46.3013744867452 14.4269118856101,46.3013255061599 14.4269813065512,46.3012411905569 14.4272806827881,46.3008774946665 14.427451611557,46.3007188305722 14.4275881802184,46.3006309820241 14.4276041260801,46.3006205351423 14.4276458159405,46.3005936623036 14.4277294560852,46.3005398279119 14.4278223759015,46.3004799218085 14.4281370695961,46.3002898560619 14.4283456151847,46.3001459541979 14.4283868019615,46.3001174590778 14.4283917700703,46.3001140649829 14.4284674748378,46.3000617198981 14.4288121811417,46.2998187188802 14.4286386374798,46.2997427252576 14.4285613253504,46.2997125581944 14.4285181691436,46.2997182806454 14.4284752045137,46.2997180658923 14.428449373815,46.2997179367731 14.4284581270717,46.2997000761205 14.4284414849566,46.2996402515889 14.4283736778332,46.2995324861612 14.4283227619478,46.2994606139643 14.4281961521933,46.2992032010419 14.4280859411696,46.2990415101352 14.4279412614454,46.2988616522851 14.4278393084698,46.298729783151 14.4277543649062,46.2986099653188 14.4276781801503,46.2984842531172 14.4275769129012,46.2982867076696 14.4275012836816,46.2980953186191 14.427433667838,46.2979695591758 14.4273998311494,46.2979156764867 14.4273574227923,46.2978497845911 14.4273326509494,46.2977481721857 14.4273252610277,46.297622804272 14.4273175657333,46.297539181803 14.4272844769947,46.2974135951896 14.4272275453469,46.2970849124303 14.4272119006517,46.296929632457 14.4271867561031,46.2968638269704 14.4271788744259,46.2967981079643 14.4271635414103,46.2966129588513 14.4271397039622,46.2964218289723 14.4271067970418,46.2962664624769 14.4270912836313,46.2961110931507 14.4270498106491,46.2959556837081 14.4270169042498,46.2958003171766 14.4269843145704,46.2956270477979 14.4269341470887,46.2954715047541 14.426874982128,46.2953697198207 14.4267727264564,46.2952677188283 14.426670216496,46.2951776827395 14.4265504504276,46.2950994363121 14.4263616405452,46.2950328096528 14.4261810223993,46.2950021226104 14.4260521300658,46.2949775431253 14.4258883382569,46.2949886870799 14.4256037209974,46.2950230664446 14.4254139753362,46.2950460456046 14.4251812018293,46.2950627800169 14.4248792593276,46.2951030086259 14.4246293529415,46.2951196557342 14.4244399194868,46.2951127641534 14.4242417900512,46.2951058284694 14.4240527330359,46.2950630393249 14.4238722416001,46.2950203830003 14.4236920689957,46.2949597336021 14.4235893768343,46.294887598249 14.4234783108526,46.294809482429 14.4233671163404,46.2947312758797 14.4232474806516,46.2946411503398 14.4231966974365,46.2945453439158 14.4231034555816,46.2944015481226 14.4230442988705,46.294299761226 14.4229854510299,46.2941562288527 14.4229017841868,46.2939288972246 14.422860638435,46.2937436171468 14.4228448812474,46.2936003021881 14.422845884972,46.2935047569916 14.4228904799532,46.2933616566939 14.4229263780229,46.2932186024531 14.4229625313632,46.293063583209 14.4229641622864,46.2929082997542 14.4229656001016,46.2927590434454 14.4229497846433,46.2926336326132 14.4229163899677,46.292526037482 14.422866303234,46.2923765210961 14.4227557411782,46.2922386656602 14.4226369277854,46.2920708977362 14.4224580171559,46.2918788935741 14.4223299492203,46.2917767581527 14.4221160197679,46.291644317939 14.4219105936021,46.2915179484409 14.4217650155118,46.2914395664348 14.4216365056904,46.2913672987086 14.4215253207366,46.2912890903655 14.421354419307,46.2911628945291 14.4212267957688,46.2910189231083 14.4211508837988,46.2908573988884 14.4211262525402,46.2907438194384 14.4211018725708,46.2906063986608 14.4210951307853,46.290433258306 14.421096703328,46.2902840026364 14.4211239769044,46.2901467533997 14.4212136675502,46.2898009949899 14.4212417574347,46.2895861939288 14.4212435806503,46.2894130969071 14.4212364623235,46.2892756735296 14.4211861309583,46.2891500876521 14.4211524906391,46.2890663332933 14.4211280487538,46.2889348503243 14.4211032297491,46.2888391743232 14.4210266963053,46.2887492645842 14.4209158948403,46.2886352486654 14.4207451917459,46.2884911484166 14.4205740457589,46.2883768264237 14.4203690139628,46.2882145572143 14.4201979984455,46.2881003252857 14.4200438666976,46.2880218976602 14.4198979807794,46.2879615060804 14.4197781137089,46.2878952182252 14.4196581205573,46.2878408958916 14.4196068495529,46.2878047367755 14.4195557031082,46.2877567919244 14.4195305091135,46.2876969225503 14.4194622293337,46.2876369243825 14.4193596200477,46.2875587574206 14.4192398809663,46.287480503357 14.4191460298576,46.2873964425289 14.4190609333248,46.2872945216569 14.4189683451335,46.2870910741174 14.4188507540956,46.2868098534843 14.4187758057886,46.2865706865304 14.4187267452938,46.2863257129725 14.4187285771753,46.2861525259615 14.4187129593241,46.285997244655 14.4186887767695,46.2858419197973 14.4186223951978,46.2856027962571 14.4185641372409,46.2854054610483 14.4185063851835,46.2851603531731 14.4184391238847,46.2850167754323 14.4183796036841,46.2849388267156 14.4183377845161,46.2848192209472 14.418321599625,46.2847176500341 14.4182797848093,46.2846099205848 14.4182042063961,46.2844185251658 14.4181712718495,46.2842810600774 14.4181557198713,46.2841197508446 14.4181574257783,46.2839586194028 14.4181247419093,46.2837852566756 14.4180839986765,46.2835641676713 14.4180341226243,46.2833967455386 14.4179674942711,46.2831814628816 14.4178836110204,46.2829780586266 14.4177994718685,46.2827866192982 14.4177325287116,46.2826012056397 14.417682654577,46.2824337833345 14.4176755419553,46.2822844832658 14.4176594887507,46.2821829128841 14.4176528823914,46.2819858401565 14.4176562349253,46.2816694250532 14.4176335756874,46.2813707819097 14.4176011466038,46.2811736675914 14.4176281705946,46.2810603503028 14.4175959992028,46.2808511810099 14.4175715054229,46.2807257249608 14.4175126231687,46.2805881274098 14.4174798193683,46.2804386963913 14.4174300717914,46.2802473419485 14.4174055157095,46.280127823699 14.4173730281166,46.2799486134456 14.4173140212819,46.279822891471 14.4172633277284,46.2797331107502 14.4172127612063,46.2796313643475 14.4171791955989,46.2795416708901 14.4171369403817,46.2794638094566 14.4170860575806,46.2793919321592 14.4170016737126,46.2792243335136 14.4169259208493,46.279062716984 14.4168754185494,46.27895503258 14.4168167307966,46.2787994411718 14.4167499216941,46.2786021511543 14.416666176762,46.2783867802368 14.4165989265952,46.278231145015 14.4165318019037,46.2780637240253 14.4164473586938,46.2779020627958 14.4163710389927,46.2777941564005 14.4163292925348,46.2776686119472 14.4162787899717,46.2775489609414 14.4162801847721,46.2774176085699 14.4162812623922,46.2773161253657 14.4163171704127,46.2771849491873 14.4164135347622,46.2770302389454 14.4164840796117,46.2768753068758 14.4165633764834,46.2767026049112 14.4166253534248,46.2765357526845 14.4166271273335,46.276368593256 14.4166030816335,46.2762013020785 14.4165533435553,46.2760219134717 14.416485968573,46.2758783337667 14.4163756463899,46.2757224785123 14.4162568237419,46.2755607315486 14.4161892609158,46.2754349652105 14.4160528030686,46.2753089369467 14.4158732717014,46.2751825984905 14.4157108689781,46.2750684035723 14.4155914796834,46.2749602764896 14.4155149112649,46.2748763008248 14.4153356992447,46.2747201823154 14.415224812822,46.2746300927836 14.4151314978665,46.27449825591 14.4150810648931,46.2743725765183 14.415031141929,46.2742111807051 14.4150064672707,46.2741035375497 14.4150164278757,46.273972228941 14.4150872894697,46.2737875184357 14.4151492699618,46.2736326332603 14.4152456953765,46.2734718960756 14.4154027002558,46.2732756595878 14.4155942777822,46.2730736614264 14.4157772911345,46.272871619176 14.4159690560507,46.2726517168372 14.4161259929289,46.2724614171569 14.4162225395032,46.2722888033879 14.416267196997,46.2721397672906 14.4162515266542,46.2719904231715 14.416209974846,46.2718469750435 14.4161598616256,46.2717033932057 14.4160666764002,46.2715595913674 14.4159645451836,46.2714396763966 14.4158021542057,46.2713253916169 14.4155965672883,46.2712348184644 14.4153994138082,46.2711442880625 14.4152361991303,46.2711076444038 14.4150383513673,46.2710946659971 14.4148399287357,46.2711235214513 14.4145724926383,46.2711758658791 14.4143392441266,46.271246379281 14.4140973701868,46.2713226962082 14.4138815660976,46.2713753935706 14.4134504682466,46.2714328344271 14.4131138843605,46.2715087533226 14.4127682248256,46.2716204336077 14.4125609174448,46.2716791102909 14.4123883751823,46.2717140326339 14.4122592243792,46.2717193069648 14.4121645170852,46.27171882007 14.4120525549039,46.2717182443657 14.4119147752602,46.2717175357589 14.4117428706628,46.2716928087406 14.411622857201,46.2716444158727 14.4114767687293,46.2716078549833 14.4113738824251,46.2715715163362 14.411245049145,46.2715350439851 14.4110476489776,46.2714802238345 14.4108669896305,46.2714613885749 14.4107297877944,46.2714189343449 14.4105150677178,46.2713580858294 14.410292106403,46.2712793798765 14.4099918211544,46.2711763418383 14.4097774885163,46.2710916512583 14.4095030223795,46.2709887452163 14.4093742576732,46.2709582092823 14.4091936644424,46.2709334335414 14.4090301983613,46.2709206223965 14.4087632715578,46.2709251805467 14.4084791539655,46.2709237109589 14.4082293510417,46.2709284464275 14.4080830110242,46.2709276888939 14.4078677822325,46.2709265744151 14.4077215711234,46.2709138507621 14.4075493483374,46.270907020285 14.407403137358,46.2708942962253 14.4072911769516,46.2708937158665 14.4071444499932,46.2709288540989 14.4070063512809,46.2709579187736 14.4068683161626,46.2709931017319 14.4067300880359,46.2710341317256 14.4065913441129,46.2711229341989 14.4063924018763,46.2712115139438 14.4061758821351,46.2713178165749 14.405993935729,46.2714303265712 14.4058117295311,46.2715548012492 14.4056208315656,46.2716911067994 14.4055077726381,46.2718039741203 14.4054381083664,46.2718752298579 14.4053598157947,46.2719405025018 14.4052381931975,46.2720533250119 14.4051516606651,46.2720886838273 14.4050739488899,46.2721122121263 14.4049878036692,46.2721117638388 14.4049278648197,46.2720875192429 14.4048941299913,46.2720157256672 14.4048609135495,46.2719080358114 14.4048534482716,46.2717946317893 14.4048808812801,46.2716455104521 14.4049261512182,46.2714426784737 14.4049972370505,46.2712400707957 14.4050590480122,46.2710912182772 14.4050609862194,46.2709120933855 14.4050284807715,46.2707387274287 14.4050213384961,46.2705954542485 14.4049973304857,46.2704281606421 14.4049652772664,46.2702130498233 14.4049415928323,46.270015887048 14.404900395284,46.26984256576 14.4048161925421,46.2696629924355 14.4047059791593,46.2695012780936 14.4046122460833,46.2694111775138 14.4045438113071,46.2693690739273 14.4044408695083,46.2693386669118 14.4043374745238,46.2693381282762 14.4042511397734,46.2693675492778 14.4041731087908,46.2694208561719 14.4040341054859,46.2695335868701 14.4039469295743,46.2696285931268 14.4038340646522,46.2697116789845 14.403730087484,46.2697767266328 14.4035915351631,46.269847711953 14.4034448096618,46.2698827554786 14.403298213827,46.2699058331655 14.4031774979304,46.2699231975581 14.4030395940741,46.2699343539591 14.4027289519097,46.2699984114218 14.4025049049138,46.270009207105 14.4023758218178,46.2700085324476 14.4021951704088,46.2699896835178 14.4020407902827,46.2699411008741 14.401912161849,46.269886714558 14.4018266700454,46.2698265256417 14.4017758161228,46.2697546415486 14.4017509735872,46.2696649890361 14.4017441654682,46.2695037228911 14.4017368370869,46.2693783530034 14.401764082485,46.2692471358732 14.4018519769477,46.2690863652111 14.4020088220651,46.2689080506246 14.4021055365951,46.2687234832036 14.4022104229137,46.2685867337689 14.4022630934271,46.2684914584538 14.4023251041854,46.2683246139035 14.4023614285402,46.2681576350488 14.4023634398706,46.2679725723107 14.4023482620907,46.2677814815347 14.4023236795876,46.267667897812 14.4022471419098,46.2675719469706 14.4021709934179,46.2674521554196 14.4020176588259,46.2672961511133 14.4018297532348,46.267157870243 14.4016075371402,46.2670133813365 14.4013937537666,46.266880902479 14.4010690592251,46.2666523815044 14.4009069085016,46.2665201721962 14.4007871757191,46.2664479266756 14.4006589479064,46.2663576420086 14.4005477118098,46.2662914689291 14.4004192240743,46.2662369916597 14.4002133567215,46.2661642937905 14.3999474940512,46.2660733761707 14.3996898030538,46.2660183098712 14.3994748550986,46.2659813720233 14.3992513457684,46.2659562651488 14.39903633243,46.2659372306493 14.398804066216,46.2659181050245 14.3986233645781,46.2659051883485 14.3984770381838,46.265904418584 14.3984082207709,46.2658981183168 14.3982703900943,46.2659034211446 14.3981410558086,46.265926583078 14.3979248009255,46.2660209952091 14.3977860556198,46.266109787067 14.3976988734629,46.2662048785577 14.3976461322527,46.2663060896191 14.3976103818776,46.2664313228467 14.3975918869021,46.2665445906731 14.3975646329618,46.2666758068294 14.3975811667557,46.2667415738271 14.3975880934833,46.266890874594 14.3976123396518,46.2670342384575 14.3976284803878,46.267135902373 14.3976277609635,46.2672015784561 14.3976095919651,46.2672850671144 14.3975660645051,46.2673385513071 14.3975049924793,46.2673948221466 14.39743594223,46.2674214499774 14.3973757495837,46.2674211327263 14.3973155583553,46.2674088491184 14.3972126893671,46.2673724977843 14.3970793355697,46.2673477719892 14.3969546024208,46.2673532322719 14.3968597716685,46.2673646983765 14.396808140966,46.2673644259936 14.3966965156611,46.2673339661777 14.3965934523463,46.2673035514406 14.3964391499356,46.2672490234343 14.3962673994958,46.2672003412655 14.3961131629088,46.2671398749851 14.3959589945858,46.26706141437 14.395813911655,46.2669471925294 14.3956856246664,46.2668629301296 14.3955062312652,46.266742588355 14.395395329043,46.2666465411797 14.3952590732908,46.2665084326359 14.395157323549,46.2663705964499 14.3950638074386,46.266262674587 14.3949786573951,46.2661726114621 14.3948846162991,46.2661124620405 14.3947989410363,46.2660701713699 14.3947131975794,46.2660458747634 14.3945411235872,46.2660270591291 14.3943432993388,46.2660140450109 14.3941712888948,46.2660012573106 14.3940679667966,46.2659946816161 14.3939215084126,46.2660058716573 14.3937835461753,46.2660230447419 14.393645715788,46.2660282520235 14.393550754706,46.2660516810298 14.3934039675921,46.266092649545 14.3932312989959,46.2661395086724 14.3930498066344,46.2661982870319 14.3928943249685,46.2662511750704 14.3927558342833,46.2663161194775 14.3926263646082,46.2663512407881 14.3924619287483,46.266416047004 14.3923146775678,46.2664988488393 14.3921935044177,46.2665579464255 14.3920983448935,46.2665991877126 14.3920466483153,46.2666049409824 14.3920035144714,46.266610649792 14.3919519501786,46.2666044373876 14.3918747689159,46.2665801841905 14.3917890295928,46.2665438291074 14.3916866303377,46.2664537617427 14.3915670422988,46.2663695409943 14.3914905225655,46.2662855493521 14.3913802894548,46.2661297601255 14.3913386754552,46.2659981788148 14.3913230717168,46.2658607977806 14.3913594304496,46.2656818561826 14.3913789296411,46.265478982118 14.3913977045636,46.2653298177479 14.3914086419576,46.2651268980897 14.3914097650103,46.2650254151255 14.3913850738773,46.2649237947462 14.3913256793595,46.2648398941326 14.3911803479923,46.2647495077434 14.3910943460123,46.2647371733777 14.3910082793147,46.2647306868133 14.3909309028157,46.2647243364518 14.3908536588708,46.2647060204053 14.3907849106499,46.2646936877599 14.3907249880387,46.2646575594001 14.3907172867732,46.264579872114 14.3907442250476,46.2644785267158 14.3907460100959,46.2643173955206 14.3907644535833,46.2642099766889 14.3907654452365,46.2641204593543 14.3907320646227,46.2640187925132 14.3906467925657,46.2639406918124 14.3903472438743,46.2637898305458 14.3899707241691,46.2635729678784 14.3897056209488,46.2634162605466 14.3896458332282,46.2633681659905 14.3895174281294,46.2633078286622 14.3894146389314,46.2632654425487 14.3893200156703,46.2632470326441 14.389208332807,46.2632345596815 14.389113707477,46.2632280259645 14.3889843119965,46.2632452390367 14.3888634074329,46.2632804918491 14.3888031534265,46.2632861079389 14.3887342744593,46.2632857396994 14.3886396481016,46.2632792955571 14.3885623442588,46.263254949479 14.3884766079814,46.2632306482185 14.3883906100008,46.2632182218632 14.3882185437196,46.2632113630819 14.3880462816994,46.2632104411787 14.3879172809883,46.2632038124444 14.3877278304718,46.2632087362241 14.3875900727602,46.2632079984088 14.3874522489207,46.2632131982581 14.3872977005304,46.2631825892328 14.3871603418897,46.2631460439835 14.3869970377614,46.2631212358304 14.3867647206572,46.2631081136139 14.3865239769483,46.2630828893947 14.3862143538127,46.2630573848805 14.3858356534385,46.2630493230318 14.3855856848395,46.2630719126525 14.3854392326309,46.2630830918633 14.3852754618971,46.2631001159557 14.3850254938555,46.263122614382 14.3848189874335,46.2631215034125 14.3846898576423,46.2631148703414 14.3845177922031,46.2631080059941 14.3843887299544,46.2630953447888 14.384268559108,46.2630648267951 14.3841485888727,46.2630164052271 14.3839945114853,46.2629439570565 14.3838661854983,46.2628656192982 14.3837467503309,46.262769514761 14.3836786080464,46.2627034675145 14.3835762258475,46.2626252692796 14.3834910992668,46.26253528763 14.3834578671883,46.2624216530872 14.3834680338212,46.2622784716681 14.3835211285141,46.2621592744696 14.3835650623504,46.2620819550457 14.3836346092058,46.2620225882482 14.3837468890833,46.2619814462562 14.3839111255463,46.2619225896389 14.3841707193622,46.261804594677 14.3844218850172,46.2616745873991 14.3846899036629,46.261568602961 14.3848459151319,46.2614678635061 14.3849931639109,46.2613850712065 14.3851321842375,46.2612724535563 14.3852800956962,46.2611418890341 14.3853668286293,46.2610765854181 14.3854539564429,46.2609875311091 14.3854980203,46.2608982452799 14.3855159420671,46.2608267234654 14.3854998878374,46.260731086343 14.3854322133722,46.2606232054014 14.3853469530915,46.2605451907318 14.3852191646862,46.2604190819275 14.3850741215811,46.2603048465224 14.3849629839602,46.2602326305648 14.3847829052147,46.2601659817297 14.3846020879409,46.2601769749442 14.3844037525836,46.260211716275 14.3842222705578,46.260270480732 14.3840662666654,46.2603591630755 14.3839278470807,46.260418159048 14.3837894272002,46.2604771548508 14.3836513383618,46.2605181577616 14.383495934866,46.2605531289525 14.383392418227,46.2605765034062 14.3832889025097,46.2605997877985 14.3831768969682,46.2606051217579 14.383116715423,46.2605929206798 14.3830051746454,46.2605683860944 14.3829541565164,46.2605025207731 14.3829039394446,46.2603768280091 14.3828364703904,46.2602511320661 14.3827861871817,46.260131377076 14.3827611789237,46.2600596239148 14.3827189196133,46.2599877776079 14.3826253054456,46.2598917212829 14.382488963135,46.2597656531907 14.3823521526971,46.2596813296706 14.3821984271687,46.2595670436931 14.382078801922,46.2594887508937 14.3819163147032,46.2593924116901 14.3817278830778,46.2593078083327 14.3815309592253,46.2592171305628 14.3814025108498,46.2591507556722 14.3812489174726,46.2590365590935 14.3811205376795,46.2589641560927 14.3809755737682,46.2588439776924 14.3808046695662,46.2587236586186 14.3806766213564,46.2586334423408 14.3805399512683,46.2585371510406 14.3804030799951,46.2584587630279 14.3803437709686,46.2583808852303 14.3802846699254,46.2582730476588 14.3802170076815,46.258165253617 14.3801324986956,46.2580215591064 14.3800483895598,46.2578539339894 14.3799636137692,46.2577339906627 14.3798536321476,46.2575602868865 14.3797689231641,46.2574344955527 14.3796241011643,46.2573023498181 14.379530496949,46.2572062909637 14.3794369600441,46.2571042942046 14.3793868210368,46.2569726620486 14.3793536623836,46.2568650547609 14.3792866107329,46.2567034598369 14.3792103975099,46.2565836523862 14.3791257541657,46.2564637991018 14.3790151043676,46.2563497426918 14.3789126108754,46.2562715395814 14.3787755443517,46.2562111430479 14.3785954192456,46.2561504223513 14.3784064585367,46.2561255524061 14.3781736342089,46.2561600954301 14.378000652015,46.256224834471 14.3778534682265,46.2563136463556 14.3777236806009,46.2563666536634 14.3775768406459,46.2564135398244 14.3774473895273,46.2564367677155 14.3773353862209,46.2564540623215 14.377220920597,46.2564711634597 14.377040220755,46.2564612717101 14.3768901474901,46.2564156475261 14.3768049058502,46.2563376265222 14.3767326689788,46.2562566172812 14.3766817257731,46.2561965977348 14.3766352309374,46.2561217569376 14.3766232418419,46.2560351379095 14.3766800887661,46.2559518632894 14.3767583585805,46.2558895790727 14.3769058408148,46.2557859247351 14.377002514968,46.2556102851733 14.3770013842836,46.2555268743882 14.3769249018055,46.2554428730251 14.3767879078298,46.2553764463272 14.3766767179033,46.2553221265113 14.3764963268192,46.2552853337652 14.3763674145425,46.2552726642961 14.3762295413262,46.2552838785113 14.3761003637201,46.2552831736532 14.3759798084232,46.2552884539047 14.3758337190587,46.2552578754968 14.3757133608731,46.2552572183499 14.3755845223645,46.2552266438468 14.3754473957386,46.2551720912022 14.3753106075335,46.2550877592997 14.3751570443535,46.2549615882496 14.3750292175515,46.2548534622344 14.374935761473,46.2547454340204 14.3748766063984,46.2546436214501 14.3748174452592,46.2545537751757 14.3748013491466,46.2544521980141 14.374802367458,46.254362590828 14.374812142738,46.2542670933323 14.3748565629834,46.2541360661349 14.3749267192914,46.2540229942132 14.3750399334266,46.2539101576239 14.3751533556206,46.2537675411088 14.3752500654535,46.2535889340638 14.3752864617171,46.2534219637458 14.3753315594253,46.2532311082265 14.3753766496356,46.2530523089795 14.3753610901432,46.2529148357078 14.3753276761917,46.2528191921421 14.3752852972369,46.252759218729 14.3752091603899,46.2526453471363 14.3751837586922,46.2526093991922 14.3751078992596,46.2524597199203 14.375014649395,46.252333878261 14.3748701915508,46.2521718574371 14.3747169094292,46.2520217545312 14.3746145587515,46.2519436382561 14.3744953004175,46.2518354684811 14.3743156005529,46.2517390241564 14.3741787550382,46.2516606287286 14.373947638924,46.2515578741922 14.3737762975467,46.2514792893775 14.3736134408537,46.25141874533 14.3733643991142,46.2513755432921 14.3732269429956,46.2513509470436 14.3730204191962,46.2513438764464 14.3727537894017,46.2513304475571 14.3725385022367,46.2513412325761 14.3723660059302,46.2513641285053 14.3721591355466,46.2513988017797 14.3719779419471,46.251433705702 14.3717878487479,46.251498341397 14.3715371780897,46.2515864865595 14.371191418276,46.251721883715 14.3708626459201,46.2518573733041 14.3706552942321,46.2519338785064 14.3704047556887,46.2520101455135 14.3701195687071,46.252122030212 14.3698690296042,46.2521982060675 14.3696271779536,46.2522745192463 14.3693853330945,46.2523388655837 14.3692043409756,46.2523557716815 14.3690751628922,46.2523670252457 14.3689117618881,46.2523541570261 14.3687401431421,46.2523114622413 14.368628769578,46.2522630717457 14.368552098952,46.2521969682509 14.3685010310831,46.2521489106897 14.3685283467198,46.2520177014446 14.3685642897895,46.2518806016424 14.3686002326766,46.2517435018246 14.368618920348,46.2516181830965 14.3686377442049,46.251480988719 14.3686135800468,46.2513376187398 14.3685546468044,46.2512178095164 14.3684783886957,46.2511158991028 14.3683503850677,46.2510137927321 14.3681964313761,46.2509352956065 14.3680251002337,46.2508567022154 14.3679137906759,46.2508143395346 14.3678365818325,46.2507840417038 14.3677855841173,46.2507300459995 14.3677868184016,46.2506226254108 14.3677964072092,46.2505330656156 14.3678062699139,46.250419664564 14.367790660764,46.2502882180876 14.3677578037003,46.2501566762249 14.3677155793285,46.2500728580579 14.3676646506228,46.2500129244749 14.3675534123306,46.2499645336581 14.3673646303462,46.2499038372691 14.3671503021968,46.2498429091892 14.3669612467902,46.2498060533905 14.3667636245293,46.2497811162013 14.3664976917646,46.2497079346849 14.3662750960898,46.2495992736048 14.3661212861324,46.2495088980588 14.3659503065899,46.2494004325386 14.3658056073469,46.2492623315706 14.3656180609418,46.2491060880985 14.3654213455402,46.2489915407715 14.3651815684966,46.24888872038 14.3650014129458,46.2488340061742 14.3648636918203,46.2488332411586 14.3647431497095,46.2488385096339 14.3646488275244,46.2488081145466 14.3644948156882,46.2487356402513 14.3643581288988,46.2486453574976 14.3642467666204,46.2485969627598 14.3641956361915,46.2485549310681 14.3640925490071,46.2485423913514 14.3639548286357,46.2485416252446 14.3638691349325,46.248505339314 14.3638264951101,46.2484692929001 14.3637236848936,46.248432821641 14.3635947994168,46.2484082614918 14.3634920571137,46.2483659421734 14.3633725515777,46.2482816920898 14.363244219427,46.2482093590953 14.3631930911668,46.2481672369912 14.3631510049399,46.2480834178751 14.363126028687,46.2480115704602 14.3630495168689,46.2479216213251 14.3629301416101,46.2478374614703 14.3628534240965,46.2477653256609 14.3627940138579,46.2476993144379 14.3626402238589,46.2475969679077 14.3625461123713,46.2475486676726 14.362443312643,46.247500318909 14.3623289247123,46.2474223943523 14.3622567552247,46.2473384070987 14.3621421911869,46.247197410461 14.3620815016831,46.2472418782814 14.3620249089179,46.2472685543226 14.3616941617202,46.2474628488141 14.3616401279152,46.2475036646747 14.3616049208047,46.2475202030197 14.3613424941444,46.2476492878215 14.3613151277077,46.2476383382117</coordinates></LinearRing></outerBoundaryIs><innerBoundaryIs><LinearRing><coordinates>14.4071120325698,46.2795294077647 14.4075503908893,46.2796114854373 14.4079126007641,46.2797157501403 14.4081269213643,46.2798044027921 14.4083417364507,46.2799436219884 14.4085020861574,46.280043511074 14.408636494047,46.2801545122855 14.4087595760337,46.2802810199624 14.4088926625172,46.2804184658656 14.4091759135769,46.2807948441287 14.4094161629696,46.2811520154155 14.4094372347428,46.2811836145289 14.409493810054,46.2812683906369 14.4095605990351,46.2813687846514 14.4097785569808,46.2817237706598 14.4099450339655,46.2819788913462 14.4105486814699,46.2829133970722 14.4109475648314,46.2835819666451 14.4110918059781,46.2838180768597 14.4113773057312,46.2841692688118 14.41189326588,46.2849953490254 14.412109692824,46.2853627386328 14.4123589904626,46.2857633165253 14.4126596332835,46.2862535899053 14.413082416517,46.2869491760522 14.4135720447797,46.2875720460714 14.4137000875486,46.2877349224254 14.413754792109,46.2878868059121 14.4138394052039,46.2882278740653 14.4138284475841,46.2886224354565 14.413823301215,46.288703383946 14.4137056635636,46.2890247008783 14.413636140527,46.2891546239198 14.4134429611199,46.2894520704111 14.4134031863918,46.2895306818875 14.4132333606609,46.2896706167607 14.4131109350181,46.2898078256164 14.4130849255465,46.289837022999 14.4127967007874,46.2901378492326 14.4127665111224,46.2901695442903 14.4118179018101,46.2911271892775 14.4115473981567,46.2913959834432 14.4112817732286,46.2916452781461 14.411234953826,46.2916904729414 14.4108086053414,46.2921007984724 14.4104901593252,46.292385358052 14.4103781235718,46.2924844693528 14.4102247539014,46.2925891255486 14.410153837177,46.292630056879 14.4101248499994,46.2926461922703 14.4100072119746,46.2927109049887 14.4098787869669,46.2927769114916 14.4095279624932,46.292921304784 14.4088793116107,46.2930970873765 14.4085697429714,46.2931342644224 14.4082421627212,46.2931565920003 14.4077947575201,46.2931571546455 14.4075265821339,46.2931350717532 14.4073061754316,46.2931005498092 14.4070218730598,46.2930454523742 14.4065051300117,46.2929405630286 14.4064841493892,46.2929363154079 14.4062345754248,46.2928745584079 14.4058726426594,46.2928089780729 14.4058168110953,46.2927988809905 14.4054758046759,46.2927186527341 14.4051611887598,46.2926465682701 14.404813669667,46.2925686434259 14.4045237839533,46.2925022642033 14.4042075106643,46.2924276492625 14.4038435595334,46.2923452272092 14.4035436827971,46.2922787934036 14.4031220962353,46.2921733954173 14.4030512311877,46.2921732953691 14.4030347476304,46.2921732992793 14.4024237409409,46.2920014998975 14.4021486966181,46.2919315033574 14.4018704216516,46.2918721959268 14.4016871936099,46.2918330891086 14.4016329378808,46.291821468702 14.4010795242292,46.2917011576084 14.4005016585078,46.2915620014399 14.4004519506004,46.2915499544574 14.3999347329864,46.2914434133905 14.3996365846346,46.2913859755982 14.399137445103,46.291300039472 14.3990431055533,46.2912865876809 14.3989740351339,46.291276777556 14.3989595212151,46.2912747218751 14.3986218491085,46.2911762263467 14.3982282323025,46.2910902114165 14.3977999458154,46.2909939356611 14.3971869885508,46.2908488196724 14.3971550136294,46.2908412733776 14.3971144949026,46.2908317026378 14.3963312844146,46.2906134366273 14.3961401670441,46.2905843561239 14.3959770378753,46.2905594719058 14.3958756347017,46.290539412221 14.3956065197858,46.2904863459955 14.3953842876748,46.2904424342998 14.3953544065495,46.2904333690476 14.3950483519587,46.2903405184411 14.3944225529649,46.2902313984625 14.3937869816236,46.2901142157276 14.393180895181,46.2899481511649 14.392520889353,46.2897759487297 14.392289596082,46.2897303633699 14.3922226441223,46.289717051511 14.3912378261231,46.2895065859155 14.3907278557534,46.2894169564816 14.3903893994518,46.2893330078944 14.3896770348353,46.2891789541177 14.388912626239,46.2890136411536 14.3885537303199,46.2889358759252 14.3882728845482,46.2888886678388 14.3881167890142,46.2888622805002 14.3877236374501,46.288784059417 14.3875843998568,46.2887473248619 14.387319432283,46.2886846343051 14.3871918980777,46.2886458926264 14.3869351637893,46.288589813269 14.3865412267502,46.2884311488413 14.3863276461509,46.2884041806933 14.3862327390086,46.2883609345075 14.3861647066667,46.2883400556397 14.3861267941412,46.2883182587854 14.3856622320315,46.2881504848122 14.3856066504382,46.2881303922872 14.3849597544098,46.2878693241246 14.3848953227206,46.2878399165172 14.3846635490816,46.287734211749 14.3832086526716,46.2870566199362 14.3818673564971,46.2864474627246 14.3814955151545,46.286265417564 14.3808829694079,46.2859885869765 14.380537702433,46.2858327745029 14.3796867920144,46.285438851613 14.3793756621595,46.2853060737438 14.3789725999917,46.285109095424 14.3788085036957,46.2850226404613 14.3787521085142,46.2850061390566 14.3783916711871,46.2848731805417 14.3782391002245,46.2848119796243 14.3779095456077,46.2846795474113 14.3776921876478,46.2846096258267 14.3770074647679,46.2843725090943 14.3763672478524,46.2841364407633 14.3759993866823,46.2840068531304 14.3746124957516,46.2835178343242 14.3745664823773,46.2835015675798 14.3742300671818,46.28343746606 14.3742141009038,46.2834492550021 14.3742121978231,46.2834340392854 14.3741209046228,46.2834168947157 14.3736545417378,46.2832545502178 14.3732710415101,46.2831091229708 14.3728657244805,46.2829538577697 14.3727184021009,46.2828999659965 14.3723507526978,46.2827760359987 14.3720346261898,46.2826518479771 14.3719606908375,46.2826262496541 14.3716212061058,46.2825022020921 14.371479429729,46.2824401517266 14.3712361429696,46.282358198961 14.3709848097642,46.2822763813528 14.3703334955366,46.2820278918774 14.3698141611021,46.2818359089792 14.3690917864134,46.2815725351835 14.3683184896115,46.2812918707285 14.3680316426775,46.2811169090773 14.3676697934687,46.2808629861562 14.3676665754312,46.2808607190526 14.3674436481808,46.2805668062162 14.3673188345445,46.2802269202461 14.3672924274624,46.2800973040497 14.3673247467434,46.2798711127122 14.3674804370015,46.279388373255 14.3675888009864,46.2791165366894 14.3678971772424,46.2783435807478 14.3681059324706,46.2778040912505 14.3681589030453,46.2776999261721 14.3684536611368,46.2768346716809 14.3687138532282,46.2762442708075 14.3692212879146,46.2751162993958 14.3693718461832,46.2748068153759 14.3698289353341,46.2737446929682 14.369848547428,46.2736976555537 14.3699698004217,46.2734199493361 14.3701897848972,46.272870800454 14.3703010361152,46.2726164315652 14.3705504105928,46.272038112788 14.3705978550741,46.2719284277412 14.3706712195888,46.2718552341901 14.3707192391917,46.2718199594109 14.3707906820983,46.2717672689074 14.3708316773557,46.2717562479647 14.3708539310141,46.2717390057557 14.3710684667755,46.2717895809391 14.3711673241367,46.2718128877154 14.3716046906662,46.2718241097177 14.3722645021259,46.2718410502094 14.3726388889729,46.2718570508748 14.3731844509361,46.2718806468524 14.3737979275831,46.2718991239043 14.3738802760945,46.2719253070007 14.3738980973733,46.2719098393742 14.3739409439892,46.2718729154121 14.3739591585379,46.27185709004 14.373974969983,46.2717902371707 14.3740488439921,46.2717402571149 14.3741506962222,46.2716715359676 14.3751858515164,46.2711748819019 14.3759338954506,46.2708247461775 14.3762622256915,46.2706685463436 14.3764667606572,46.2705714121532 14.3766030025547,46.2705930286927 14.3766628335191,46.2705797690763 14.3766819009289,46.2705687164539 14.3767366816162,46.2705088235663 14.3770541328678,46.2704421746498 14.3774957809658,46.2703493893632 14.3776833106295,46.2703101026244 14.3785909174946,46.2700737332384 14.3786747165962,46.2700518755137 14.3789114347022,46.2702865500887 14.3796756220942,46.2710437677482 14.3797512405493,46.2711146263771 14.3800972195669,46.2714405832914 14.3801385772387,46.2714777861697 14.3803167842044,46.2716557278556 14.3804939726829,46.2718320442363 14.3806832176241,46.2720208418315 14.3808312835134,46.2721681187928 14.3813846832645,46.2727526057607 14.3821965407081,46.2736728240955 14.3821777657831,46.2737386723662 14.3821363145839,46.273801878865 14.3821286571968,46.2738136238596 14.3821613179801,46.2738745316863 14.3833445085292,46.2734450933821 14.3834192897133,46.2734177852116 14.3838068561112,46.2732894147586 14.3840477947697,46.2732432076451 14.3843186432581,46.2732024694608 14.3845742971188,46.2732093341891 14.3848126528604,46.2731851547845 14.3850291794524,46.2732565880445 14.3852629870695,46.2733258645018 14.3855004712619,46.2734145042937 14.3859254211097,46.2736327210859 14.38630122989,46.2737901211457 14.3877500060404,46.274465033332 14.3882385968349,46.2746790836418 14.3883934483914,46.2747437024776 14.3884251769123,46.2747607869963 14.3885391953061,46.274810341774 14.3886743436735,46.2748733253221 14.3889145941804,46.2749826664159 14.3892010758871,46.2751118679564 14.3893853962719,46.275198686086 14.3895692002629,46.2752853212153 14.3902250072219,46.2755856393722 14.3904353047872,46.2756820414342 14.390712478008,46.2758088502602 14.3907787042718,46.2758392539132 14.3908784799704,46.2758864811463 14.3912223011333,46.2760409953638 14.3915848448174,46.2762039755978 14.3916278382018,46.2762233684745 14.3921019421223,46.2764360654961 14.3921425172883,46.2764746993905 14.3923276642551,46.2765345254604 14.3924517942285,46.2765855696161 14.3927790195272,46.2767397210234 14.3929396235389,46.2768131815081 14.3930386800142,46.2768553645798 14.3939616869995,46.2772620770236 14.3942076990747,46.2773803447343 14.3944357019283,46.2774844808544 14.3945753959753,46.277548291218 14.3947085048232,46.2776091874349 14.3949810524306,46.2777336220935 14.3952464571016,46.2778587380956 14.3954477926013,46.2779457263721 14.3956823986501,46.2780516043816 14.3960670930559,46.2782204456348 14.396661411965,46.2784900812278 14.3971025979897,46.2787025836983 14.3974377905391,46.2788543344648 14.3976461575692,46.2789397364087 14.3980167822589,46.2791029186652 14.3982164291014,46.2791908828469 14.398411675796,46.2792778338315 14.3984152823096,46.2792802820583 14.3985079440474,46.2793384417807 14.3986268372702,46.2793710973152 14.39874327092,46.2794269526286 14.3989650402838,46.2795093635817 14.399442910914,46.2797031556466 14.3996605655257,46.2797466756283 14.3996634536861,46.279779260741 14.3996649361143,46.2797979827488 14.3996917639139,46.2798010027225 14.3997343540103,46.2798103135288 14.3997681372771,46.2797824195541 14.4000347968557,46.2798539075261 14.4001684015557,46.2798823199841 14.400480923621,46.2799487391526 14.4006104864993,46.2799670530101 14.400944240776,46.2800142381889 14.4012116672913,46.2800393917343 14.4014407236699,46.2800609248407 14.4016359767259,46.2800765223616 14.4018410021625,46.2800765155083 14.4020232802601,46.28008007818 14.402305066199,46.280085510378 14.4025580467717,46.2800788250592 14.4033416070715,46.2800142679973 14.4034756494792,46.2799905849549 14.4036055337468,46.2799674198987 14.4037386676428,46.2799437318087 14.4038281158636,46.2799279132817 14.4041196073806,46.279887865669 14.4041658869966,46.2798800993298 14.4049649876018,46.2797460635949 14.4049909882292,46.2797416103252 14.4056856420145,46.2796301488108 14.4057416664044,46.2796211728759 14.406367805518,46.279521497336 14.4064766153935,46.279515044402 14.4066268459934,46.2795061071716 14.4068541793582,46.279506926879 14.4069102341755,46.2795071276968 14.4071120325698,46.2795294077647</coordinates></LinearRing></innerBoundaryIs></Polygon></MultiGeometry>
  </Placemark>
</Folder>
</Document></kml>
