{"type":"FeatureCollection","features":[{"type":"Feature","geometry":{"type":"Polygon","coordinates":[[[15.1572630732168,46.0899238908422],[15.1563322522146,46.0893271936167],[15.1556759519221,46.0889951816884],[15.1551084547778,46.0887863113219],[15.1539743231417,46.0886275091576],[15.1531594227568,46.0885915342554],[15.1521675074245,46.08865440199],[15.1515655350618,46.0887413978836],[15.1508568676632,46.0887300087919],[15.1501782551319,46.0885478931508],[15.1490672290935,46.0886547082635],[15.1482842293978,46.0886029113639],[15.1474234460057,46.0883798969469],[15.147141151406,46.0882804783525],[15.1467004672381,46.0882360572608],[15.1464579437279,46.0882120749999],[15.1461448608932,46.0881071149337],[15.1455871173486,46.087803800955],[15.1454185795429,46.0877372539981],[15.1453279682054,46.0877015591635],[15.1451783148342,46.0876860037019],[15.1450886780241,46.0876766701338],[15.144599720571,46.0876637934763],[15.1443773259126,46.0876217863197],[15.1440394470083,46.0874764529882],[15.14382490494,46.087420398749],[15.1438065303382,46.0874155632141],[15.143207655287,46.0874001195851],[15.1425685694123,46.0873361364419],[15.1421703377135,46.0872521458638],[15.14193461131,46.0872037623029],[15.1413247889949,46.0868500161184],[15.1411822031831,46.0867143299535],[15.1410395265787,46.0865427436617],[15.1408945310036,46.086424965146],[15.1408164260962,46.0863729658201],[15.1406897483569,46.0862884552552],[15.1405125147606,46.0862050864091],[15.1401272259803,46.0861725385365],[15.1401131283503,46.0861712961671],[15.139489164323,46.0861487557728],[15.1389489501029,46.0861611105048],[15.138689269518,46.086200025195],[15.1384703484327,46.0860951097336],[15.1384198580881,46.0860708776138],[15.1378890582912,46.0861767900281],[15.1374463656673,46.0862511027826],[15.1370100169244,46.086276819671],[15.1363978750868,46.0862766520275],[15.1357783230083,46.0862602943928],[15.1352287395613,46.0862492491487],[15.134499726639,46.0862051217541],[15.1341166210253,46.086218258397],[15.1334459326195,46.0862837354626],[15.1328836241285,46.0863582601045],[15.1321904010371,46.0864103497093],[15.1315132342837,46.0864723138956],[15.1314988822154,46.0864727802831],[15.1310640499182,46.0864855163152],[15.1309070809487,46.0864901049724],[15.130338216765,46.0865286345645],[15.1298202872262,46.0865620648826],[15.1295027547343,46.0865826694733],[15.1285861544512,46.0866663913818],[15.1282969718828,46.0866452122896],[15.1281143575857,46.0866318308778],[15.1275385399382,46.0865722814915],[15.1272836070426,46.0865995581831],[15.1268660053124,46.0865145461184],[15.1263031699273,46.0863631115382],[15.126114401751,46.0863723174764],[15.1257211556517,46.0863628534216],[15.1251339885311,46.0863140114374],[15.1246077686249,46.086283994779],[15.1238302447877,46.0862848397528],[15.1236264837309,46.0862392629972],[15.1233724561783,46.0860927880965],[15.1231809149084,46.0860758994082],[15.1219152874999,46.0862065505271],[15.1201428427896,46.0860140810783],[15.1178703410936,46.086227078767],[15.1156233307924,46.0865807265084],[15.1139820358237,46.0867755514647],[15.1122147376902,46.0870759273999],[15.110977567098,46.0872352214653],[15.1095123768304,46.0871134587632],[15.1077699775437,46.0872028405416],[15.1059903321788,46.0872251089009],[15.1045207588166,46.0875837531294],[15.1035176993986,46.0875848458903],[15.1021260632737,46.0877268187332],[15.1016942959575,46.0877980140574],[15.1010487760643,46.0877275062484],[15.1007271035892,46.0876855018888],[15.1005599691467,46.0875785787274],[15.1004109521525,46.0874077571103],[15.1002555227652,46.0872657329398],[15.1000068142248,46.0871687777388],[15.0994439824062,46.0869821206437],[15.0992011425034,46.086839271292],[15.0988087851525,46.0866026167886],[15.0985302320861,46.0864443211551],[15.0983020792789,46.0862684363638],[15.0980191877973,46.0860681248421],[15.0977662789836,46.0858573498621],[15.0975635588594,46.0854356298682],[15.0965268250565,46.0847157195396],[15.095944964623,46.0840482342002],[15.0958685237857,46.0836615852729],[15.0952873094668,46.0834334444813],[15.0944268641305,46.082326744579],[15.0942745184577,46.0818522514278],[15.0939456964984,46.0815360795443],[15.0938798770964,46.0809979921865],[15.0924436089426,46.0801115577411],[15.09232654469,46.0796915582331],[15.0915679476475,46.0790417378131],[15.0905828264038,46.0788490760792],[15.0899005952618,46.0785507170845],[15.0893547306672,46.0781472464117],[15.0893076805885,46.0778334496433],[15.0893786199347,46.0774886091615],[15.0893524839084,46.0769955653686],[15.0892254592744,46.0767139521511],[15.0888201997734,46.0765029159592],[15.0883390144144,46.0761863060966],[15.0878334169632,46.0764507730582],[15.0872773753345,46.076785726906],[15.0867211338809,46.0769974121199],[15.0861646414177,46.0770505584609],[15.0850771018716,46.0772274546275],[15.0843686941368,46.0772807051948],[15.0833565880683,46.077246177484],[15.0828402191672,46.0771602666487],[15.0823254647142,46.0778111593944],[15.0817542873459,46.078346921855],[15.0802163938267,46.0787916792059],[15.0791270157585,46.0789858852059],[15.0776475524745,46.0793593971038],[15.0763320824789,46.0810968940215],[15.0765607597479,46.0819982921314],[15.0764032520805,46.0828243693182],[15.0767191581314,46.0837771742671],[15.0765693098725,46.0848141479289],[15.0761916189928,46.0855700111782],[15.0752840442437,46.0865371248877],[15.074350515081,46.0871703506515],[15.0734925773919,46.0876805242399],[15.0722301574051,46.0879096856449],[15.0705371678247,46.0873657640057],[15.0686936638244,46.0875249729554],[15.0674573435134,46.0883866805482],[15.0657915986917,46.0891959872196],[15.064478754862,46.0896008131926],[15.0626346217569,46.0892853964135],[15.0615489913458,46.089602248373],[15.0596184855652,46.0897601880297],[15.0580906884892,46.0898234173516],[15.0565925252952,46.0896572652492],[15.054465192644,46.0894288623888],[15.0528778247489,46.089804713621],[15.0507811148909,46.0902432128617],[15.0488043786539,46.0906817124198],[15.0456142907731,46.0919985544214],[15.044099428302,46.0926493081275],[15.0420791150287,46.0931068726647],[15.040690337134,46.0934939079388],[15.0392001411991,46.0936876049512],[15.0364220064896,46.094110146586],[15.0354626295457,46.0946551566001],[15.0343012883382,46.0953056699191],[15.0328622963576,46.0962549682666],[15.0320796134196,46.096747173446],[15.0318527820644,46.0974502108254],[15.0312727301774,46.098610147348],[15.0304142177668,46.0991199967156],[15.0230381134593,46.0994551682218],[15.0212195683592,46.1000002281112],[15.0191483727087,46.1005101214516],[15.0179868481363,46.1015646353479],[15.0172544819739,46.1018985548747],[15.0161683234935,46.1021447048503],[15.014677738644,46.1020745456567],[15.0137935844632,46.1022502866295],[15.0126066104222,46.1029181268359],[15.0120257051867,46.1034629868996],[15.0087415973805,46.1036388260726],[15.0079332252367,46.1040078716881],[15.0050030464195,46.1050095468696],[15.0040177820166,46.1050622209937],[15.0035885162259,46.1058530235631],[15.0032350371288,46.1065910970841],[15.0024773240391,46.1076629851831],[15.0014921625501,46.108576785664],[15.0008607713825,46.1094026700986],[15.0005325907505,46.1103868154074],[15.0004570507179,46.111406048998],[15.0004825441372,46.1123550117615],[15.0005080384318,46.113303974361],[15.0017711799702,46.1122671837844],[15.0033375393282,46.1117576222248],[15.0056874909594,46.1117577094053],[15.0082141552972,46.111740100677],[15.0096292231535,46.1120387961175],[15.0117268809392,46.1130755581401],[15.0143804807921,46.1139189473685],[15.0172362054764,46.1146392492554],[15.0191569779002,46.115271735019],[15.0211789384562,46.1161677953319],[15.0223164275639,46.1168179153253],[15.0235297079228,46.1173449231171],[15.0249202427103,46.1183991304788],[15.0261847089831,46.1197873352089],[15.0278028380843,46.1208766347341],[15.0285614918267,46.1214739685183],[15.0293198834274,46.1217901269167],[15.0310945211116,46.1227940433881],[15.0334662903376,46.1240738905569],[15.0346293191294,46.124723879647],[15.0359441258316,46.1253210841719],[15.0381182747313,46.1260586202474],[15.040671125549,46.1262863655281],[15.0430976132128,46.1265668265226],[15.0464591090235,46.1266009596639],[15.0490871730987,46.1262134210923],[15.0505783396162,46.126160135976],[15.0518921889123,46.1259311919383],[15.054116232291,46.1258424355846],[15.0568959344986,46.1255250055678],[15.0590686467363,46.1248913830095],[15.0599026529651,46.1249262189929],[15.0608600773362,46.1250526672298],[15.0627597380195,46.1258211016221],[15.0641502681741,46.1261543148836],[15.0650600840188,46.1261538906529],[15.0667023159172,46.1257313238895],[15.0680662502182,46.1251507244457],[15.0688739182934,46.124394635057],[15.0689224804897,46.1230765695232],[15.0696034253652,46.1221096507852],[15.0703352281696,46.1213711418665],[15.0710930042908,46.121124682734],[15.0722291549121,46.1204211793869],[15.0740982574501,46.1198225520873],[15.0764736753249,46.1198388025545],[15.077736960551,46.1196271400518],[15.0797844728216,46.1199773498247],[15.0814274438055,46.1202574516986],[15.0825900103388,46.1202743426234],[15.0843341317606,46.1205192395081],[15.0865842551695,46.1210624430669],[15.0883038338552,46.1217114634997],[15.0899726469917,46.122149687679],[15.0912618896875,46.1223772009096],[15.0924747898532,46.1222884110008],[15.0937377315185,46.1219535768702],[15.095732084201,46.1208625124664],[15.0962103637458,46.1199307844261],[15.096057280831,46.1191752168757],[15.0973184224449,46.1179441077746],[15.0986550060989,46.1166074691705],[15.0998914381477,46.1157277933055],[15.1009260534554,46.115015275208],[15.1018083213923,46.1139952601449],[15.1025400427705,46.1135026247197],[15.1036766221252,46.1132556087943],[15.1069355971357,46.1129892506364],[15.1091343228417,46.1131630730275],[15.1106251596258,46.1132144550664],[15.1141610407494,46.1124907312294],[15.11575157626,46.1119092448936],[15.1168367579857,46.1113810691589],[15.1186541282926,46.1105533194125],[15.1193846519205,46.1096564106868],[15.1194331897078,46.1088303920419],[15.1199617883662,46.1079511452559],[15.1211218464024,46.1070535934724],[15.1219285889811,46.1062091324075],[15.1226347382379,46.1056283096216],[15.1233163038862,46.1053991303975],[15.12559010027,46.1053617445442],[15.1264234107837,46.1052027402396],[15.1275092251857,46.1049379980117],[15.1290050019843,46.1050322328051],[15.1304408321342,46.1053743969826],[15.1323602986933,46.1051087442917],[15.1338748454701,46.104562183128],[15.1349844616669,46.1037348194925],[15.1360693412761,46.1031184653687],[15.1368762763903,46.1024671639102],[15.138566550295,46.101533707859],[15.1399052840906,46.1014443516706],[15.141193126503,46.1012319570805],[15.1430854021946,46.1002805492252],[15.1434128770756,46.0998758817418],[15.1443211119348,46.0994353913001],[15.1459359696758,46.0986776419197],[15.1479296032831,46.0979194700243],[15.151159438025,46.0965796568144],[15.1524200155753,46.0956816525634],[15.1546127234226,46.093850866449],[15.1551110006611,46.0932005720568],[15.1560635843106,46.0919576205732],[15.1561228535353,46.0918802511103],[15.1561893935043,46.0917673315549],[15.1562035511149,46.0917433788578],[15.1572727895215,46.089930085751],[15.1572630732168,46.0899238908422]]]},"properties":{"fill-opacity":0,"stroke-opacity":1,"stroke":"#ff0000","lov":"1313","lov_naziv":"DOBOVEC","luo":"13","luo_naziv":"Zasavsko","povrsina":3373.08},"id":"pregledovalniklovisca.1"}]}