{"type":"FeatureCollection","features":[{"type":"Feature","geometry":{"type":"Polygon","coordinates":[[[15.0672333473515,46.0654766003937],[15.0672421141408,46.065351349467],[15.0672671920967,46.0651399824685],[15.0672664640916,46.0646470075847],[15.0672659285401,46.0643124792735],[15.0671894132963,46.0638899096829],[15.0668852402015,46.0634322030835],[15.0665304919846,46.0629393446874],[15.066327636537,46.0626753846369],[15.0663271093403,46.0622351350369],[15.0662759582895,46.0618301851508],[15.0662501169617,46.0615133065325],[15.0662030839836,46.0613086395843],[15.066138201623,46.0610927360044],[15.0661703363001,46.0609441678902],[15.0663769770662,46.0608135836273],[15.0664478691212,46.0606515865665],[15.0667446667785,46.0602600202668],[15.0668803159518,46.0602104544542],[15.0670483091447,46.0601878621593],[15.0671968825,46.0601382883883],[15.067623290964,46.0600525601871],[15.068204687947,46.0598812612926],[15.0675452989581,46.0596882055409],[15.0672092449136,46.0596749073138],[15.0671113681241,46.0596434733996],[15.0670537639958,46.0593555855991],[15.0668584594571,46.0582714950699],[15.0670709515706,46.0576460406631],[15.0671479778344,46.0572186116446],[15.0670377377426,46.0568992631835],[15.0668435159314,46.0565979588526],[15.0668946190418,46.0561075621944],[15.06695885814,46.0559005807963],[15.067120136598,46.0556800460762],[15.0674043680174,46.0556078983609],[15.0675527861535,46.0554413559426],[15.0676624219209,46.0552658387348],[15.067442563706,46.0551355040977],[15.0676942414337,46.0548654285946],[15.067752171174,46.0546809443366],[15.0682817293138,46.0544376051614],[15.0682555945126,46.0542036842512],[15.0691983452964,46.0536857577329],[15.0694117121228,46.0537935990699],[15.0696378389759,46.0537709676241],[15.070341487817,46.0532486782831],[15.0704316687563,46.0530281825196],[15.0703146769098,46.0524884008943],[15.0707669763801,46.0524880317746],[15.0708182710107,46.0521775841281],[15.0718644262638,46.0517225542555],[15.0720065697468,46.0517179660135],[15.0721808616332,46.0515918902003],[15.0724961597774,46.0506919342973],[15.0724113821068,46.0500936499854],[15.0720365071362,46.049994913649],[15.0716485832879,46.0497972110408],[15.0715774064923,46.0497162775452],[15.0713960146156,46.0493429920042],[15.0713958349313,46.0492035298361],[15.071434374993,46.0490280532046],[15.071517913878,46.0487760690857],[15.0716725877822,46.0484745536877],[15.0716590899458,46.0480291825307],[15.0714902649508,46.0473769645026],[15.0714703661014,46.0469765850917],[15.0717086582043,46.0463915937516],[15.0733021289251,46.0447304408426],[15.074628201563,46.0441440205718],[15.0748840134515,46.0440320134036],[15.0751293636649,46.043923881495],[15.0753101026992,46.0438112928606],[15.0754133101118,46.0436942563326],[15.0756326873415,46.0434916659277],[15.0758456580246,46.0433295684376],[15.0761102236559,46.043104453167],[15.0762586750215,46.0430053808768],[15.0764239929254,46.0428635586267],[15.076536145584,46.0427712584197],[15.0766110747281,46.0426703453837],[15.0769750266259,46.0424695448591],[15.0778981346269,46.0419649651211],[15.0787958202828,46.0417664030604],[15.0794611792378,46.0417389496897],[15.0806755728286,46.0416570307828],[15.08152972686,46.0413873970831],[15.0816183187292,46.0413594413594],[15.0824383797205,46.0411069205962],[15.0828645710606,46.0409896438681],[15.0835941937522,46.0407461779071],[15.08464902079,46.0405111045672],[15.0864331462776,46.0371928103014],[15.0869712159735,46.0359456065474],[15.0874424938845,46.0351219676333],[15.0876780345369,46.0346513032416],[15.0881159473624,46.0340627940008],[15.0883852116575,46.0335215609423],[15.0878062446018,46.0328924456845],[15.0886649211868,46.0326488477831],[15.0895547084945,46.0316764139453],[15.0898969330609,46.0316131621238],[15.0899869376503,46.0314331394029],[15.0902573206588,46.0308839829173],[15.0913995228753,46.0302622410855],[15.0916828038762,46.0297131607745],[15.0921597954411,46.0291369308806],[15.0916746912562,46.0287909134582],[15.0909832015459,46.0285395332291],[15.0882374004591,46.0261189919046],[15.0864162330562,46.0250982555654],[15.08463907565,46.0240110551094],[15.0843884460931,46.0232958406982],[15.0839619807205,46.0227135596593],[15.0833891161069,46.0223408482224],[15.0826988778561,46.0218967778567],[15.0824190480373,46.0212377250797],[15.0817139495357,46.0206863178887],[15.0807154888118,46.0201759630101],[15.0806979286764,46.0195577494188],[15.080582048714,46.0190920247078],[15.0808585420821,46.018459207138],[15.0810593992005,46.01794943991],[15.0810082607845,46.0175101225581],[15.0806784626958,46.0163855636552],[15.0810050498557,46.0156648932899],[15.0812347314348,46.0150042149723],[15.0817328118072,46.0145541587672],[15.081619928218,46.0141049881811],[15.0817310781709,46.0135526346766],[15.0820826155483,46.0133071075394],[15.0827565572983,46.0128570102774],[15.0830198996979,46.0124479672372],[15.0808495846611,46.0127559822105],[15.0784150744538,46.0130027737275],[15.0779462808126,46.0133505826265],[15.0773598382501,46.0135144678856],[15.076098870337,46.0138422880438],[15.073050420109,46.0138373489684],[15.071346239491,46.0137837199574],[15.0714042632375,46.0133135579222],[15.0710805822927,46.0126596324318],[15.0715497031209,46.0125367020906],[15.0716075128655,46.0119030531291],[15.0704746584301,46.011323050504],[15.0700005676181,46.0108780493047],[15.0688153582298,46.011054492726],[15.0682603053308,46.0109141926683],[15.0682347146111,46.0106857581928],[15.0674517354469,46.0098953314604],[15.0665683727439,46.0094739505594],[15.0636686035556,46.0104318706978],[15.0625277215354,46.0100761944852],[15.0611913861962,46.0105703476891],[15.0606249935221,46.0101932890175],[15.0601985307175,46.0103617700808],[15.0599727962776,46.0101094153096],[15.0594092620012,46.010098462592],[15.0582746313555,46.0108675341315],[15.0575267804889,46.0118159029107],[15.0573170200188,46.0113951893324],[15.0571415606077,46.0111755551526],[15.0572110362528,46.0110527027914],[15.0574944740486,46.0102981994766],[15.0574540676475,46.0093114498465],[15.057401794127,46.0083353231967],[15.0572466298907,46.0081284555021],[15.0572849773396,46.0077505357549],[15.0573363574569,46.0074895786555],[15.0569487464088,46.0072558340028],[15.0567418826306,46.0069950055339],[15.0562769685947,46.0069232543377],[15.0561476186694,46.0066983771187],[15.0558116757139,46.0064736008169],[15.0556176121627,46.0062217616605],[15.0556043304808,46.0058528650987],[15.055410471029,46.0056730065468],[15.0554038643353,46.0055220294272],[15.0552165054123,46.0053851760836],[15.0555003327607,46.0051511000725],[15.0554742662921,46.0049081765467],[15.0551512217955,46.0046563990612],[15.0549961921487,46.0045664973963],[15.0548023569324,46.0044046330354],[15.0544023339422,46.0046477603492],[15.0540280784175,46.0048368882547],[15.0533177247336,46.0046212785669],[15.0530335297798,46.0044774486003],[15.052478217532,46.0043607356451],[15.0520650028747,46.0043159364451],[15.0516387984609,46.0043252174218],[15.0511353691946,46.0044604083327],[15.0506318225583,46.0044696301556],[15.0501800037712,46.0045688034312],[15.0497797979321,46.0046319619026],[15.0493021048902,46.0046771571505],[15.0488244743911,46.0047943314686],[15.0484629535056,46.0048034829739],[15.0481014636925,46.0048486238691],[15.0477528309406,46.0048308647698],[15.0474557760745,46.0047320144956],[15.04705546678,46.0046781941905],[15.046732696656,46.0047053195357],[15.0463066324013,46.0047324858671],[15.0459063763103,46.0047416449733],[15.0456091403565,46.0044178490439],[15.045337782478,46.0041570255246],[15.0449762505778,46.004148170731],[15.0446534969934,46.0041932854755],[15.0444342302749,46.0044812953292],[15.0441114314046,46.0044724227351],[15.0436207032076,46.0043646394358],[15.0431947660826,46.0045537515884],[15.0427686527849,46.0045180112669],[15.0423811581727,46.0043292052327],[15.0420195779319,46.0042573576424],[15.0414643515083,46.0042215698762],[15.0405347222375,46.004230901001],[15.0401861217655,46.0042490193806],[15.0395276293764,46.0042492490189],[15.0390627985492,46.0042314135617],[15.0386495893865,46.0041775682183],[15.0384173300763,46.0043935898239],[15.0380041388755,46.0043668250307],[15.037358641505,46.0044930047712],[15.0369455578231,46.0046281036062],[15.0363644197056,46.0046552828982],[15.0358608688083,46.0046644396434],[15.035512258322,46.0046735461319],[15.0351765537349,46.0046736499489],[15.0345181178262,46.0047728247111],[15.0338854811109,46.0048359974859],[15.0333949049353,46.0049532011321],[15.0328654846482,46.0048903711441],[15.032503913053,46.004818493454],[15.0321552801909,46.0047915991628],[15.0318195903538,46.0048186860249],[15.0313546606381,46.0046298641492],[15.0311866719609,46.0043869739115],[15.0310403066006,46.0044813089944],[15.0297039796678,46.0047808355427],[15.0283927533654,46.0049572525534],[15.0271066624099,46.0050632870421],[15.026551917841,46.0052217756608],[15.0258458264805,46.0053451151528],[15.0253164389813,46.0056266796816],[15.0250644117495,46.0059431820539],[15.0247367012239,46.0062246994611],[15.0241313524965,46.0061545573532],[15.0230721470081,46.0060846845132],[15.0224417940937,46.0064365275493],[15.0203236818439,46.0071229933785],[15.0190379197705,46.0080025533808],[15.0187354172006,46.0084949537442],[15.0180547300518,46.0090930458069],[15.0158106626194,46.0105882442891],[15.0149534417401,46.0113620655877],[15.013238593605,46.0120483460418],[15.012532504906,46.0126990438818],[15.0119273132639,46.0130157350231],[15.0116246760626,46.0132971218872],[15.0112465257623,46.0137543289359],[15.0109186955306,46.0140181710074],[15.0099856073723,46.0144052440478],[15.008724466654,46.0146517021425],[15.0081949034801,46.014933186917],[15.0078922418946,46.015249744499],[15.0063790717126,46.0162347183747],[15.0057990043156,46.0166920082308],[15.0049667205556,46.0173251197786],[15.0041090800344,46.0176242346035],[15.0031505556799,46.0177474424107],[15.002671431641,46.0180289000378],[15.002242533133,46.0180992706118],[15.0016623968616,46.0180466444713],[15.0009308950177,46.0176952058938],[15.0003759490222,46.017800751103],[14.9997453187521,46.0182228295882],[14.9993165413652,46.0185218185779],[14.9982067201946,46.0197703154529],[14.9977526107005,46.0200165720849],[14.996567131289,46.0218628524096],[14.9960373209877,46.0219684672038],[14.9951796323481,46.0214410843369],[14.9941705626683,46.0211774973144],[14.9937576841916,46.0208937808391],[14.9932531101163,46.020612486837],[14.9926728757054,46.0201906430669],[14.989202169401,46.0200365986736],[14.9878682902617,46.0199803197695],[14.9862919942623,46.0199240864557],[14.9848896559779,46.0199190509487],[14.9847561107281,46.0199241618542],[14.983543513044,46.0198678485872],[14.982735226218,46.0196143565673],[14.9814014487977,46.0193045394311],[14.9797924908305,46.018928076046],[14.9796659696473,46.0202114731554],[14.979489306494,46.020510432234],[14.978076290232,46.0216707717421],[14.9769406346671,46.0228663304882],[14.9766124169396,46.0235344261285],[14.9761328283514,46.024466299037],[14.97610719464,46.0255036275224],[14.9754763124554,46.0261717458948],[14.9709300849944,46.0275147417538],[14.9671233714639,46.0306721370391],[14.9665210654764,46.0314457553766],[14.9659545847035,46.032544374171],[14.9652457677302,46.0333607822931],[14.965200308119,46.0339573087425],[14.9648964616879,46.0343693054557],[14.9645294742111,46.034724956845],[14.9640996230001,46.0347953637356],[14.9637708784293,46.034936252224],[14.9635432052845,46.0352004390113],[14.9633283448572,46.0352312320038],[14.9629112429268,46.0351607362729],[14.9624561130885,46.0351606776531],[14.9621401549941,46.0351077575845],[14.9618116280713,46.0349227478384],[14.9614829619025,46.0347553723699],[14.961230284216,46.0345527512014],[14.9608385604509,46.0344117154001],[14.9603836318937,46.0341385717393],[14.9599288178861,46.0338918792113],[14.9594233546596,46.0336628021709],[14.9590442702267,46.0333896800436],[14.9590354498357,46.0336130870732],[14.9591342224655,46.0342115521821],[14.9584950329373,46.0343540236324],[14.9589740788971,46.0348463647348],[14.959705540791,46.0351981607463],[14.9603867287306,46.0354093023392],[14.9609920315011,46.0358840433096],[14.961496207356,46.0365171045356],[14.9621016758974,46.0367809361792],[14.9625303063695,46.0373963324022],[14.9632114387568,46.0377480893072],[14.9634884036231,46.0385744262447],[14.9642512328772,46.0396905475432],[14.965010832506,46.0400359298154],[14.9645723586501,46.0405965239588],[14.9641178763542,46.0411239102734],[14.9635372578797,46.0414930771324],[14.9628555703931,46.0420907466938],[14.9616181112329,46.0434971989087],[14.9609362296848,46.0443058498659],[14.9609359075238,46.0447629265043],[14.9608347207123,46.0451497875204],[14.9611120876865,46.0455893236667],[14.9618184356556,46.0460465484789],[14.9620705730492,46.0463630770059],[14.9619945486359,46.0469960308292],[14.9621456532096,46.0474883380014],[14.9619436112091,46.0477871701463],[14.9612116490221,46.0478925555433],[14.9608834656884,46.0480331656678],[14.9608328046741,46.0482265960328],[14.9612364160006,46.0485079975963],[14.9630025265852,46.0495631877114],[14.9637847457788,46.0498973378931],[14.9643905521714,46.0498798030342],[14.9652740160345,46.0497217177116],[14.9659301734292,46.0497744609653],[14.9663843907413,46.0499854983871],[14.9665103633091,46.0502317087442],[14.9662831682406,46.0504778153159],[14.9659296545155,46.0506184323907],[14.9653488936161,46.0510755139914],[14.9645663840872,46.0513567178603],[14.9642632744588,46.0516731577481],[14.9644146151517,46.0518490173349],[14.9659543018631,46.0517261297501],[14.9668883812976,46.0514625056547],[14.9676456610868,46.051216369252],[14.9680494808587,46.0512340280964],[14.9684785191191,46.0514450501003],[14.9695884321094,46.05264076688],[14.9704463411644,46.0532034294331],[14.9714810176221,46.0535903174249],[14.9724655090427,46.0535727436617],[14.9729702169785,46.0537134959845],[14.9734496009612,46.0541178686684],[14.9740553598775,46.054293730092],[14.9752164420409,46.0541707211994],[14.9766048682018,46.0539772963844],[14.978018348601,46.0538014947343],[14.9794318709406,46.0538366683695],[14.980693898669,46.0539773404006],[14.98188010794,46.0540124451359],[14.9825868451805,46.0541179164032],[14.9838488207127,46.0544870915616],[14.9847069953917,46.0547156575991],[14.9855904052864,46.0548386790205],[14.9868020324101,46.0551374542717],[14.9873631655517,46.0551552428752],[14.9873179866026,46.0549227409955],[14.9883528241456,46.0546417674348],[14.9899178317803,46.0539917526379],[14.9909526272779,46.0537810264265],[14.992037936678,46.0536230200668],[14.9926438075174,46.0533595221469],[14.9930727589736,46.0530783751996],[14.9938047506786,46.0527796982126],[14.9954452428584,46.0520945210961],[14.9982974183727,46.052340772453],[14.9996353163801,46.0525868678503],[15.0020076792423,46.0520597736525],[15.0027899989496,46.051585315779],[15.0033200942531,46.0517259335114],[15.0039763002442,46.0516205511103],[15.004405312756,46.0513745420159],[15.0046391773347,46.0509637040259],[15.0052633346924,46.0509703351851],[15.0068532909723,46.0507418927427],[15.008367619545,46.0503903470548],[15.0101091796155,46.050460657218],[15.0124311985116,46.0504429729831],[15.0141220110589,46.05012660216],[15.0153334041224,46.0498629073855],[15.0161410852321,46.0500034281225],[15.0171004684215,46.0505305459016],[15.0179840298265,46.0507062226965],[15.0191704313269,46.0510575646798],[15.0203574033378,46.0522173251914],[15.021746228067,46.0532364030538],[15.0223773518559,46.0534648192533],[15.0234627392074,46.053411965878],[15.0239677575714,46.0536754895871],[15.0247256293372,46.0546771163159],[15.0248267766518,46.0548703619267],[15.0248269026498,46.0551515355612],[15.0250038306449,46.0554503058522],[15.0255088425653,46.0556435517462],[15.0274273855584,46.0559770967446],[15.0280839389897,46.0562932913588],[15.0291192785414,46.0568202889877],[15.0304852592143,46.05739415671],[15.0313413780092,46.0579094849517],[15.0323512419932,46.0580850157554],[15.0328563660395,46.0583835903984],[15.0331592153192,46.0582254159515],[15.0337140856546,46.0576453613675],[15.0342946342395,46.0576451886518],[15.0345727341538,46.058225087111],[15.0357342946928,46.0585235385622],[15.0366178552366,46.0586111649906],[15.0372743157915,46.0588570358246],[15.0380067568985,46.0592610545779],[15.0380575087717,46.0595773915574],[15.0386136233097,46.0602801835765],[15.0390175811608,46.0603679524458],[15.0397245080914,46.060473160211],[15.0408096020038,46.0600335175983],[15.0415922004937,46.060050870695],[15.0427277853074,46.0597517331834],[15.0441163113171,46.0598040213012],[15.0455301150999,46.0599441885429],[15.046767513448,46.0604006744559],[15.0479040654182,46.0609450053151],[15.0491667605865,46.0613136385089],[15.050556005415,46.062103916825],[15.0515662994669,46.0624549996088],[15.0533587521123,46.0625773532847],[15.0541166155088,46.0630339822857],[15.0553035338773,46.0632794970011],[15.056270910903,46.0633209534008],[15.0567800038692,46.063536192814],[15.0575005253654,46.0638409393167],[15.0589383944142,46.0639962243265],[15.0593797374947,46.063695297998],[15.0596742720489,46.0636610439148],[15.059900622854,46.0640435910346],[15.0603621467475,46.0641185676931],[15.0608430994674,46.064111564531],[15.0609512925025,46.0642345032981],[15.0609222069604,46.0644668353535],[15.061187477988,46.0646170425864],[15.0617667386991,46.0646715260577],[15.0622872191595,46.0647532112167],[15.0626898882778,46.0648965918421],[15.0630633734916,46.0651765698291],[15.0634761415634,46.0654429384865],[15.063800358437,46.0655862687486],[15.0642813709689,46.0656201898975],[15.0646348787713,46.0656064042547],[15.0649588821116,46.0656745119094],[15.0655876643196,46.0659475880801],[15.066490948798,46.0659608324243],[15.0673070817086,46.0655233442101],[15.0672333473515,46.0654766003937]]]},"properties":{"fill-opacity":0,"stroke-opacity":1,"stroke":"#ff0000","lov":"1322","lov_naziv":"DOLE PRI LITIJI","luo":"13","luo_naziv":"Zasavsko","povrsina":4291.83},"id":"pregledovalniklovisca.1"}]}