{"type":"FeatureCollection","features":[{"type":"Feature","geometry":{"type":"Polygon","coordinates":[[[14.9197291505134,46.0014548229797],[14.9203595169761,46.0015079001819],[14.9210651682219,46.0018245668542],[14.9219724744939,46.0021589124026],[14.9224509678204,46.0026161382675],[14.9231312246958,46.0031084987893],[14.9247444141673,46.0037419264644],[14.9253234762836,46.0044275663924],[14.9258523608498,46.0049902630476],[14.9261538673821,46.0058514420285],[14.9260047919173,46.006970021477],[14.9248257603203,46.0073615488574],[14.923962723504,46.0078150884481],[14.9246478493427,46.0087724402938],[14.9254035032665,46.0097297439488],[14.9262290879502,46.0109447796502],[14.9269673334408,46.0117302966853],[14.9275859489257,46.012471644748],[14.9278372586547,46.0131571527283],[14.9276850399306,46.0138248601003],[14.9276078369038,46.0148968778489],[14.9267991166125,46.0160035198828],[14.9267464634322,46.0176379034198],[14.9274263993355,46.0184466829979],[14.9275510573242,46.019413375806],[14.9273487935358,46.0198174202067],[14.9271706825867,46.0209069176863],[14.9267659932325,46.0216271877649],[14.926260643382,46.0222771200931],[14.9258309339869,46.0228568279041],[14.9256030467655,46.0234717562597],[14.9251729893493,46.0242974558023],[14.9249446267068,46.0251584668704],[14.9244643866958,46.0258260426451],[14.9243628993391,46.0261774219126],[14.9243868410399,46.027091234243],[14.9241845410072,46.0273899105691],[14.9239314524932,46.0279872730635],[14.9238294267298,46.0287252782076],[14.9236518953256,46.0293226902727],[14.9232729278164,46.0296739726405],[14.9231460903503,46.0301307854051],[14.9229931825165,46.0312202913495],[14.9229415745921,46.0320110551408],[14.9225159977401,46.0328825442178],[14.9233739976246,46.0328126715134],[14.9241562463401,46.0327779227124],[14.9256995297473,46.0327272002284],[14.9269319513546,46.0325154716118],[14.9275629763227,46.0323399703357],[14.928215673047,46.0320853003603],[14.9290012892696,46.032235061154],[14.9301502398013,46.0316105262963],[14.931121357916,46.0316558337018],[14.9316259348179,46.0316559567151],[14.9319036288313,46.0315857613138],[14.933272289565,46.031585398876],[14.9341828419713,46.0311805852076],[14.9348307595748,46.0312177566418],[14.9357892404139,46.0314642933773],[14.9363696439507,46.0314644380229],[14.9369497582997,46.0316053019389],[14.937392607323,46.0319304484999],[14.937885570193,46.0319218998261],[14.9385647202966,46.0314125531846],[14.9392388532573,46.0312264833905],[14.9401292382057,46.0311493040232],[14.9410085713445,46.0310156970929],[14.9416663039131,46.0305666947546],[14.9422101027199,46.0303555274965],[14.943380415552,46.0305118616318],[14.9445408976063,46.0306880636962],[14.9460038288466,46.0310928462027],[14.9478200710661,46.0315153171103],[14.9485667971327,46.0315816979233],[14.9491481221688,46.0318461274076],[14.9500706912334,46.0320313447286],[14.9504497898113,46.0320842356063],[14.9506266343803,46.0322340320912],[14.9507655239922,46.0323573590314],[14.9509804432383,46.0324014496397],[14.9513596301462,46.0323575234332],[14.9517642115876,46.0323752402012],[14.9520547560196,46.0325074471149],[14.9525097282459,46.0326660846724],[14.9532174959015,46.0326926495337],[14.9535208862147,46.0327632244623],[14.9539757355557,46.0329218561268],[14.9544055343839,46.0329131207739],[14.9553536998395,46.0327988657574],[14.9558844412599,46.0328869783223],[14.956352059755,46.0330808760146],[14.9569206827116,46.0333011728451],[14.9571862166043,46.0332220038378],[14.9575781922507,46.0330107065874],[14.9580334377658,46.0328346118197],[14.9584125956778,46.032825842793],[14.9586526280586,46.0329844674537],[14.9590442702267,46.0333896800436],[14.9594233546596,46.0336628021709],[14.9599288178861,46.0338918792113],[14.9603836318937,46.0341385717393],[14.9608385604509,46.0344117154001],[14.961230284216,46.0345527512014],[14.9614829619025,46.0347553723699],[14.9618116280713,46.0349227478384],[14.9621401549941,46.0351077575845],[14.9624561130885,46.0351606776531],[14.9629112429268,46.0351607362729],[14.9633283448572,46.0352312320038],[14.9635432052845,46.0352004390113],[14.9637708784293,46.034936252224],[14.9640996230001,46.0347953637356],[14.9645294742111,46.034724956845],[14.9648964616879,46.0343693054557],[14.965200308119,46.0339573087425],[14.9652457677302,46.0333607822931],[14.9659545847035,46.032544374171],[14.9665210654764,46.0314457553766],[14.9671233714639,46.0306721370391],[14.9709300849944,46.0275147417538],[14.9754763124554,46.0261717458948],[14.97610719464,46.0255036275224],[14.9761328283514,46.024466299037],[14.9766124169396,46.0235344261285],[14.9769406346671,46.0228663304882],[14.978076290232,46.0216707717421],[14.979489306494,46.020510432234],[14.9796659696473,46.0202114731554],[14.9797924908305,46.018928076046],[14.9814014487977,46.0193045394311],[14.982735226218,46.0196143565673],[14.983543513044,46.0198678485872],[14.9847561107281,46.0199241618542],[14.9848896559779,46.0199190509487],[14.9862919942623,46.0199240864557],[14.9878682902617,46.0199803197695],[14.989202169401,46.0200365986736],[14.9926728757054,46.0201906430669],[14.9932531101163,46.020612486837],[14.9937576841916,46.0208937808391],[14.9941705626683,46.0211774973144],[14.9951796323481,46.0214410843369],[14.9960373209877,46.0219684672038],[14.996567131289,46.0218628524096],[14.9977526107005,46.0200165720849],[14.9982067201946,46.0197703154529],[14.9993165413652,46.0185218185779],[14.9997453187521,46.0182228295882],[15.0003759490222,46.017800751103],[15.0009308950177,46.0176952058938],[15.0016623968616,46.0180466444713],[15.002242533133,46.0180992706118],[15.002671431641,46.0180289000378],[15.0031505556799,46.0177474424107],[15.0041090800344,46.0176242346035],[15.0049667205556,46.0173251197786],[15.0057990043156,46.0166920082308],[15.0063790717126,46.0162347183747],[15.0078922418946,46.015249744499],[15.0081949034801,46.014933186917],[15.008724466654,46.0146517021425],[15.0099856073723,46.0144052440478],[15.0109186955306,46.0140181710074],[15.0112465257623,46.0137543289359],[15.0116246760626,46.0132971218872],[15.0119273132639,46.0130157350231],[15.012532504906,46.0126990438818],[15.013238593605,46.0120483460418],[15.0149534417401,46.0113620655877],[15.0158106626194,46.0105882442891],[15.0180547300518,46.0090930458069],[15.0187354172006,46.0084949537442],[15.0190379197705,46.0080025533808],[15.0203236818439,46.0071229933785],[15.0224417940937,46.0064365275493],[15.0230721470081,46.0060846845132],[15.0241313524965,46.0061545573532],[15.0247367012239,46.0062246994611],[15.0250644117495,46.0059431820539],[15.0253164389813,46.0056266796816],[15.0258458264805,46.0053451151528],[15.026551917841,46.0052217756608],[15.0267886883909,46.0051540581866],[15.0269131822888,46.0049370059534],[15.0259705046592,46.0046852902242],[15.0248207215393,46.0035428457253],[15.0242523620507,46.0029581212073],[15.0233354353431,46.0024274513462],[15.0225476697668,46.0019777274409],[15.0219918112615,46.0005832012197],[15.0222495180455,45.9993144835019],[15.0218557986244,45.9987854979065],[15.0238040012998,45.9964495892682],[15.0247743410166,45.9956686569223],[15.0255027889297,45.995014907288],[15.0252291872924,45.9943368149369],[15.0249966912118,45.9937647952091],[15.0244655370909,45.992726040917],[15.0241115645929,45.9921098666726],[15.0233532862028,45.9914585937534],[15.0227975113429,45.9913179825994],[15.0224941454201,45.9909658743693],[15.0222917221492,45.9902791227196],[15.0219630649041,45.9899271079224],[15.0215082786949,45.9898568327127],[15.0204220348279,45.9898220310763],[15.0201192501905,45.9902976111042],[15.0198163375444,45.9907907357469],[15.0193112279616,45.9911607159493],[15.0186041029337,45.9915659977757],[15.0184020647696,45.9915132142355],[15.0186544279207,45.9911257341742],[15.0186542859424,45.9907031141763],[15.0184407204811,45.9901355764859],[15.0181227262617,45.989550419532],[15.0167608161221,45.9883803915076],[15.0164884964303,45.9885070282304],[15.0160348822195,45.9888551223421],[15.0153545673014,45.9895672006992],[15.014764818005,45.9901525762055],[15.0130178151596,45.9907541920915],[15.0123826171089,45.9908809497116],[15.0114068791578,45.9909603206346],[15.0111116794393,45.9904068137421],[15.0107030188552,45.9898374808333],[15.0104987054003,45.9892838737242],[15.0099993388798,45.9888411435862],[15.0090235331216,45.9883036144785],[15.0095086281646,45.9876417970226],[15.0099377951919,45.9868317007907],[15.0102153074144,45.9861272490885],[15.0099122101258,45.9859511914501],[15.0093563567574,45.9855815241848],[15.0090530930507,45.9851413827255],[15.0089772567677,45.9847011328127],[15.0090023370786,45.9841552422754],[15.0087649824784,45.9833636457335],[15.0084967340504,45.9830635936737],[15.008363509524,45.9820241024831],[15.007835776236,45.9811907753892],[15.0073663843249,45.9802830312165],[15.0069933427556,45.9798317312399],[15.0065257181809,45.9794716718912],[15.0061214679037,45.9791196151621],[15.0064242381666,45.9780100948643],[15.0067523677059,45.9775345485977],[15.0065501984223,45.9769358547266],[15.0052312065221,45.9761564535865],[15.0045958275478,45.975413182357],[15.0045764311304,45.9749391851737],[15.0045599129943,45.9749393657876],[15.0046215883014,45.9748232032115],[15.0051349099279,45.9730973352782],[15.0047055648888,45.9729037235416],[15.0044601155849,45.9727928818792],[15.0043907997474,45.9725434686694],[15.0042985200492,45.9723583897413],[15.0041832667123,45.9721089781052],[15.0040216834843,45.9717871365876],[15.0037910481728,45.9712078732389],[15.0029951798638,45.9696790992095],[15.0035256262967,45.9693655144984],[15.0032256753786,45.968102337155],[15.0033755589722,45.9672496212461],[15.0035138462775,45.966726670966],[15.0043125913998,45.9657819753544],[15.0042256814321,45.9647963706483],[15.0038092629663,45.9639734556019],[15.003757624123,45.9635325699395],[15.0038245724599,45.9633311991485],[15.0038738337428,45.9629756982668],[15.0026838472502,45.9623026142293],[15.0020104751791,45.9616553332136],[15.0013199634109,45.9611642485266],[15.0011472186,45.9615376551598],[15.0005952881358,45.9619102543181],[15.0002082359083,45.96222436553],[14.9993667727716,45.9626001080673],[14.9989784224082,45.9627068180157],[14.9983116390597,45.963029287781],[14.9978225128719,45.9632808552677],[14.9975257574018,45.9634428078658],[14.9971515876227,45.9635957600838],[14.9968161162197,45.9638566845739],[14.9966483638733,45.9642435809202],[14.9962601153935,45.9645054019586],[14.996003212199,45.9647384336953],[14.9955774031514,45.9650983259955],[14.9951903189816,45.9651972850525],[14.9947258077818,45.9654043016139],[14.9945064397185,45.9656472291435],[14.9940478781016,45.9656614225445],[14.9936453260947,45.9655678248053],[14.99322055822,45.9656770324571],[14.9928404259208,45.9658330293638],[14.9923485560285,45.965973361581],[14.9921709667209,45.9663129226641],[14.9896654839743,45.9670961530235],[14.9891932102893,45.9672219871093],[14.988558042553,45.9676174639845],[14.9881271335095,45.9679655408533],[14.9875909467408,45.9688093776258],[14.986823087436,45.9692652047824],[14.9865860918577,45.9696278741949],[14.9860569163681,45.9696279008362],[14.9857039177157,45.9699620315022],[14.9855768392158,45.9698755477177],[14.9852413591774,45.9698216087125],[14.9847510415068,45.9697495628062],[14.984338126318,45.9697495069654],[14.9839638855771,45.9698754227525],[14.9836154637217,45.9699563525576],[14.9833058221326,45.9698033469858],[14.9829703034021,45.9698842767091],[14.9825574069862,45.9698212305945],[14.9821187390486,45.9696502066532],[14.9817316583784,45.9695691662044],[14.9814478221672,45.9694431527877],[14.9810994207829,45.9694610910847],[14.980738143676,45.9693981368947],[14.9804025580836,45.9692991052227],[14.9799638976577,45.9691370706889],[14.9795768071724,45.9691010113978],[14.9790478404115,45.9689029663951],[14.9786607314215,45.9689208901565],[14.9780026469912,45.9689477584644],[14.9776026230568,45.9689926692347],[14.9770348464006,45.9690555404045],[14.9766864271153,45.9691185436882],[14.9762218373739,45.969271408749],[14.9758604849905,45.969397300692],[14.9754216977529,45.9695501679398],[14.9748539292238,45.9695770375014],[14.97445388581,45.9696489303178],[14.9741183718945,45.9696938432887],[14.9735892564527,45.9698376853094],[14.9732795393059,45.9699005971584],[14.9729568958717,45.9700085835444],[14.9725826720085,45.9700444851461],[14.9721052453596,45.9700263742298],[14.9716665575254,45.9699542847798],[14.9712021008755,45.9698102056195],[14.9708667154464,45.9696031736979],[14.9702989778488,45.9695670367924],[14.9698861225698,45.9694589564429],[14.9695376277966,45.9694048779288],[14.9692705711097,45.9695547079898],[14.9691503915381,45.9698726540504],[14.9689308688478,45.9701606106909],[14.9688403563102,45.9704935006199],[14.9687756857757,45.9707634136884],[14.9686465052848,45.9710153136478],[14.9685947574966,45.9712492393752],[14.9684655699485,45.9715101367959],[14.9681428150146,45.9717799779543],[14.9679362149048,45.9720138600821],[14.9677941339466,45.9722477600266],[14.9675100999727,45.9724906172053],[14.9672002974256,45.9726614847762],[14.9668647058089,45.9727963532793],[14.9666582309818,45.9730212354046],[14.966503188834,45.9733361090987],[14.9664384166701,45.9737499836534],[14.9661802330249,45.9739028681975],[14.9655605965187,45.9742535928756],[14.9655217094952,45.9745325093761],[14.9654570236661,45.9747935126636],[14.9653407460309,45.9750094218728],[14.9650954018384,45.9752522846597],[14.9646435708618,45.9755040808987],[14.9640111649794,45.9756028580143],[14.9634562104031,45.9756656656901],[14.9629269804879,45.9758544465729],[14.9626687894936,45.9759893277615],[14.9621782568413,45.9761961131641],[14.9615716676123,45.9762678922646],[14.961210242833,45.9763847400266],[14.9609390894286,45.9765915943451],[14.9604356718287,45.9767533794374],[14.9600613555934,45.9768433160271],[14.9594805736546,45.9769060953559],[14.959054587372,45.9770589041019],[14.958757672085,45.9771847648657],[14.9582671548832,45.9773375473639],[14.9579444527933,45.9774274058701],[14.9573250291217,45.9773821878536],[14.9569378471216,45.9774090356623],[14.9565764192471,45.9775078733863],[14.9562794747064,45.9776607207297],[14.9557373389548,45.9777954772402],[14.9553371827351,45.9779032937118],[14.9549628578764,45.9779841259257],[14.9546014448098,45.9780559643631],[14.9541239551617,45.9780378683089],[14.9537495751965,45.9781816802764],[14.9533882121258,45.9781905311443],[14.9529107065427,45.9781903353957],[14.9525234860297,45.9782531589445],[14.9519039251573,45.9783608720317],[14.9513876068495,45.9784686257196],[14.9510004461697,45.9784594627045],[14.9504842695572,45.9784052541614],[14.950110039316,45.978369100696],[14.9497614986844,45.9784679224768],[14.9490775833024,45.9783776430083],[14.9483588273447,45.9782849143347],[14.9472632367015,45.9780506543373],[14.9463463659718,45.9778475998406],[14.945920994061,45.9785179063735],[14.9455628373281,45.9789388276632],[14.945293836256,45.9796403380703],[14.9451145350005,45.9802016171103],[14.9439288995618,45.9805442129032],[14.9432357112463,45.9804191629328],[14.9422072608257,45.9800133921832],[14.9413572868969,45.9801221909902],[14.9402834135212,45.9804491503072],[14.9390082348157,45.9808540920773],[14.9379121696345,45.9811497952978],[14.9377819404265,45.9811544032654],[14.9364363607706,45.9812445393149],[14.9352239873348,45.9812088576389],[14.9342136439359,45.9812436413849],[14.9329001748661,45.9813487803937],[14.932420040572,45.9815774882845],[14.9321923085088,45.9819471577636],[14.9317619598118,45.9827217811604],[14.931356960191,45.9835492343849],[14.9310024607896,45.9842358130542],[14.9298960988447,45.9849332688839],[14.9274644302437,45.9848082134429],[14.9261758343795,45.9849656573213],[14.9252911534829,45.9854646329508],[14.924868804379,45.9864363740085],[14.9249895404884,45.9876407907613],[14.9249436566972,45.9883546352497],[14.9246178668706,45.9889206437221],[14.9239889696061,45.9896873677874],[14.9240341813,45.9907012541669],[14.9239238691317,45.9915089005917],[14.9236427929751,45.9928628604908],[14.9238249516043,45.9942647266553],[14.9228908985409,45.9950554438481],[14.922395118127,45.9955575371555],[14.9217434822765,45.9959866406857],[14.9213559458342,45.9963422317499],[14.9210209787628,45.9968573861439],[14.9206684591669,45.9972742730041],[14.9204037169449,45.9978754017657],[14.9202274169576,45.998108407896],[14.9199104470547,45.9983045148788],[14.9195053022829,45.9985864864342],[14.9194171694064,45.9987337158019],[14.9194343535832,45.9989913305286],[14.919574654837,45.9993717598296],[14.9196094206468,45.9997030775842],[14.9196970043601,45.9999361781548],[14.919943126365,46.0000835522845],[14.9200662463506,46.000206276351],[14.9199778771737,46.0004271066704],[14.9200302577403,46.0007216362063],[14.9200476274803,46.0009424505209],[14.9199064036717,46.0012858816367],[14.9196397935233,46.0013746811697],[14.9197291505134,46.0014548229797]]]},"properties":{"fill-opacity":0,"stroke-opacity":1,"stroke":"#ff0000","lov":"1321","lov_naziv":"GABROVKA","luo":"13","luo_naziv":"Zasavsko","povrsina":4078.56},"id":"pregledovalniklovisca.1"}]}