<?xml version="1.0" encoding="utf-8" ?>
<kml xmlns="http://www.opengis.net/kml/2.2">
<Document id="root_doc">
<Schema name="pregledovalniklovisca" id="pregledovalniklovisca">
	<SimpleField name="lov" type="string"></SimpleField>
	<SimpleField name="lov_naziv" type="string"></SimpleField>
	<SimpleField name="luo" type="string"></SimpleField>
	<SimpleField name="luo_naziv" type="string"></SimpleField>
	<SimpleField name="povrsina" type="float"></SimpleField>
</Schema>
<Folder><name>pregledovalniklovisca</name>
  <Placemark id="pregledovalniklovisca.1">
	<Style><LineStyle><color>ff0000ff</color></LineStyle><PolyStyle><fill>0</fill></PolyStyle></Style>
	<ExtendedData><SchemaData schemaUrl="#pregledovalniklovisca">
		<SimpleData name="lov">1303</SimpleData>
		<SimpleData name="lov_naziv">KRESNICE</SimpleData>
		<SimpleData name="luo">13</SimpleData>
		<SimpleData name="luo_naziv">Zasavsko</SimpleData>
		<SimpleData name="povrsina">4503.3</SimpleData>
	</SchemaData></ExtendedData>
      <MultiGeometry><Polygon><outerBoundaryIs><LinearRing><coordinates>14.7853129663336,46.0371807804383 14.783926631141,46.0367743562501 14.7824641283407,46.0364907673099 14.7810028202103,46.0359085319365 14.7804237658339,46.0355560650721 14.7797193400771,46.0349926301112 14.7784095761509,46.0343930181113 14.7777308699793,46.0337065335635 14.7771518590497,46.0333541400409 14.7763202792743,46.0330715207623 14.7755128891896,46.0330701177587 14.7746791659785,46.0333498319546 14.7738202435748,46.0336294901916 14.7730882598451,46.0336984004877 14.7719529506437,46.0336436849189 14.7710957667784,46.0334665183243 14.7703149451406,46.0331312310968 14.7700131616307,46.0328847199798 14.7692341440037,46.0320574404363 14.7688811856274,46.0320040913128 14.7682492249756,46.0322841664736 14.7675925656666,46.0324761914256 14.7668103749752,46.0324747781823 14.7661045515548,46.0323153381632 14.7650716567184,46.0319093176605 14.7641884353638,46.0319428593631 14.7633810623631,46.0319413706904 14.7622472308098,46.0315526609358 14.7616675103318,46.0313934557344 14.7610126026221,46.0311462738448 14.7604087099257,46.0307234720525 14.7601838209808,46.0302134663893 14.7603620213738,46.0298096679938 14.7612222378944,46.0292314830556 14.7612488861705,46.0288625471125 14.7607734153593,46.0279303910746 14.7598395210143,46.0280165190617 14.7588544072467,46.0282957098825 14.7578961592124,46.0281885021052 14.7570122230494,46.0283977100221 14.7562052885271,46.0283082650105 14.755826249746,46.0284657236897 14.7560525604225,46.0286418401372 14.7558738686228,46.0291509927575 14.7555455882586,46.0292206523314 14.7554433866341,46.029519154031 14.7552406087667,46.0297471690293 14.754584038576,46.029886483562 14.7533468196065,46.0301125392398 14.7528155837196,46.0304452924677 14.7520572479556,46.0307777307273 14.7513509373814,46.0307411956549 14.7506938720184,46.0309858486159 14.7504901704724,46.0314423021176 14.7501371051099,46.0313888948662 14.7499594093131,46.0316345005685 14.7490204830172,46.0325294130077 14.7492966928207,46.032811014112 14.7491445765265,46.0329688580666 14.7484373623512,46.0331257513137 14.7483605451563,46.0333715764476 14.7480316216185,46.0335467547564 14.7473509182136,46.0334400702017 14.7466368996661,46.0350552671123 14.7461805384195,46.0354936969232 14.7454960557637,46.0361777012323 14.7455665515264,46.0372847416007 14.7452122903042,46.0375125811381 14.7446579593079,46.0373358011276 14.744152232247,46.0375457535966 14.7442758926952,46.0380731090157 14.744249565053,46.0383190441314 14.7437936119597,46.0386871939338 14.7425033855194,46.0393700004453 14.7418978741504,46.039333724048 14.7414931509441,46.039543802749 14.7402809384055,46.0397524078632 14.7381853884086,46.0399593399797 14.7372250632161,46.0402562158312 14.7364680869582,46.0402547428952 14.7363663013139,46.0404126856822 14.7353075704923,46.040182239934 14.73490315227,46.0403220248507 14.7327085649564,46.0401596358766 14.7306393197439,46.0401555877756 14.7303355381319,46.0403482295253 14.7295027208736,46.0403466214709 14.7287695617761,46.0406263283998 14.7287933804075,46.0409074694192 14.7283882518969,46.0411877718244 14.7266704716244,46.0415357521709 14.7255820868897,46.0421837593113 14.7247981037995,46.0425159544905 14.7243421617419,46.0428489359142 14.7242144425357,46.0431473474584 14.7238599275176,46.0433750300097 14.7233017467532,46.0439712992524 14.7228210740768,46.0441812177644 14.7222625218552,46.0448477520259 14.7213012794642,46.0452674884947 14.7201384605182,46.0456340876365 14.7194051848316,46.0459136439943 14.7190245446474,46.0463170599152 14.718895540999,46.0468614558564 14.7186169677254,46.0470365829726 14.7169219881225,46.0478061888509 14.716541227551,46.0482270513638 14.7155792006887,46.048804914829 14.7152987114313,46.049349019391 14.7142859979717,46.0499266556209 14.7116480683324,46.0523809556084 14.7122510173982,46.0529093725565 14.7123760876288,46.0531380455407 14.7134588060725,46.0536323019331 14.7136841374814,46.0539666762014 14.7139860567424,46.0541605198073 14.7139073850438,46.0547051252948 14.7137035791814,46.0550560597207 14.7138529531596,46.0554605142325 14.713497498704,46.0558463389223 14.7134194949197,46.056285404221 14.713619000328,46.0567426203524 14.7142464010438,46.0574292646807 14.715349095184,46.0589601611035 14.7155720239457,46.0597688763915 14.7159211935349,46.0605602697571 14.716170459853,46.0611757817061 14.7176750911103,46.0630940967665 14.7178738502208,46.0637094799549 14.7180972820889,46.0644302848515 14.7185228368603,46.0651340419407 14.7184697074684,46.0656434420412 14.7185694076833,46.0658896804227 14.7187694358028,46.0662590720467 14.7192967679337,46.0668048096324 14.7210056485852,46.0683369560596 14.7215634139639,46.068571442404 14.7218728806634,46.0687251540227 14.7221689711349,46.0689688076752 14.7224390306047,46.0692483874939 14.7227352169136,46.0694739548376 14.7229540249289,46.0696634337015 14.7230695103889,46.0698346667775 14.72309423906,46.0700596651208 14.7231449565979,46.0702577337922 14.7231180174335,46.0705006020259 14.723052617881,46.0706534016994 14.7229732556551,46.0710131108141 14.7230111815711,46.0711841559022 14.7231777490356,46.0714814780902 14.7231772992124,46.0715714523488 14.7231248707286,46.0717152859144 14.7230464070559,46.0718951364835 14.7230196524187,46.0720750223344 14.7230831638264,46.0723001145661 14.7228624085037,46.0724975252612 14.7224867931602,46.0726405744409 14.7221104081982,46.0729365785681 14.7218380271911,46.0731158666739 14.7213194773828,46.0734025245797 14.7206848003237,46.0736439087417 14.7202576882137,46.0737418370588 14.7199211594111,46.0738219907147 14.7196362948658,46.0739112676472 14.7194675509398,46.074045816582 14.7193245704918,46.0741984235934 14.7191947452259,46.0743060750891 14.718987443894,46.0743955409229 14.7186893270519,46.0745477656164 14.7186244129977,46.0746016809908 14.7185461597433,46.0747364512762 14.718506644127,46.0748803144421 14.7184674028231,46.0749701930897 14.7182467577613,46.0751406024664 14.7181816140376,46.0752394146881 14.7180518217425,46.0753650600058 14.7178571216858,46.0755175375579 14.7176497677713,46.0756159983464 14.7174166487342,46.0756964000047 14.7173129022305,46.0757591261657 14.7172293811083,46.0759371606044 14.7168016930014,46.075637563752 14.717000397076,46.0762704921423 14.7170488416851,46.0766571458446 14.7162348355857,46.0777975437552 14.7149743064545,46.0773907784085 14.7155252922337,46.0782528542903 14.7158748858596,46.079009155928 14.7156946795312,46.0796588688265 14.7161223925924,46.0799584696675 14.7154628708097,46.0805368999801 14.7150819632046,46.0809402097267 14.7150024494645,46.0816428077538 14.7152254629135,46.0824515206982 14.7173383275919,46.0840724492426 14.7156170705897,46.0848243308556 14.7130594461972,46.0861191592366 14.7107041415592,46.0873265366836 14.7085531981819,46.0881125834094 14.709930110126,46.0903821081305 14.7104820645338,46.0910685775272 14.7111115026889,46.0914564329409 14.7119417568051,46.0920731477405 14.7125699005715,46.092689438362 14.7131059903247,46.0932039126664 14.7141278217658,46.0942213908298 14.7142014279037,46.0946431976933 14.7146767858176,46.0955051758847 14.7148001113664,46.0960676472586 14.714922805133,46.0967532026039 14.7147918293692,46.0976490263279 14.7148909367565,46.0980181708089 14.7154426670953,46.0987748851622 14.7163747215229,46.0992688246222 14.7167004072782,46.0997966153218 14.7171014931657,46.1003772269933 14.7171968978199,46.101449243918 14.7174461811295,46.1020998388788 14.7177211405887,46.1026626811702 14.7186536387049,46.1030862424579 14.718803534148,46.1034204179949 14.7195833889907,46.1040545870203 14.7209193414752,46.1046371145618 14.7213974087118,46.1050246326688 14.7222547925745,46.1053250756906 14.7230848507578,46.1060471579876 14.7241164975122,46.1068926264484 14.7266492550167,46.1106402217311 14.7279679608754,46.1107788695949 14.7289794521954,46.1106229167899 14.729713581107,46.1103082139174 14.7308768836479,46.11008233291 14.7319393162268,46.1098210234263 14.7335062191443,46.1097540570658 14.7350068162345,46.1097283938865 14.7361087431194,46.1097244649564 14.7382078941886,46.1092895852643 14.7408377962221,46.1087678762665 14.7428599266798,46.1085787274235 14.744601929703,46.108680705391 14.7450468305375,46.1090384484761 14.7449537295434,46.1093385764911 14.7445737787485,46.1099022296212 14.7450267958358,46.1099888069964 14.7462389170418,46.1101317749467 14.7464899990133,46.1105012284656 14.7470952468974,46.1107660151787 14.7481558252817,46.1109262624333 14.7493653665078,46.1117018037186 14.7493614340963,46.1125978531342 14.7498639035572,46.1132841110283 14.7505202575546,46.1134435409692 14.7511020988193,46.1132865439156 14.7517347854116,46.1130417490725 14.7523902764592,46.1133944320228 14.752488819848,46.114009622345 14.753167409279,46.1148718772898 14.7537720329852,46.1152947125471 14.7544779930871,46.1156826721687 14.7550312445376,46.1163162908915 14.7566209553204,46.1168640331889 14.7578830888535,46.1172090669304 14.7598799371085,46.1170898338601 14.7613465981948,46.1168466448444 14.7627107700591,46.1169370301468 14.7637200996122,46.1172902918704 14.7651602693866,46.1173719874842 14.767081895364,46.1178156251296 14.7677403645037,46.1174654341562 14.7683231010976,46.1170623607754 14.7686273938817,46.1168168965197 14.7688058141541,46.1164130915095 14.76949288814,46.115184435822 14.7700774146115,46.1143421006761 14.7710129122746,46.1141857131156 14.7719732545471,46.1141522728504 14.7730099123591,46.1139959807226 14.7739198816675,46.1139096989071 14.7747040251741,46.1136827114599 14.7751598925983,46.1134375283234 14.7755398873912,46.1131746493343 14.7760210580483,46.1128767872631 14.776780235592,46.1125793764084 14.7773627008775,46.1122466162944 14.7781958030778,46.1116410866496 14.7790327368492,46.1108167397777 14.7794646888424,46.1101673266758 14.780048101602,46.1095533835349 14.7804801710594,46.1088688765304 14.7810628631154,46.1084306473815 14.7825360001245,46.1063598110036 14.7854159308514,46.1064305753943 14.7883487266726,46.1058379810291 14.7920669921389,46.1046316751409 14.7951037032306,46.1031431269748 14.7970783514676,46.1019338786533 14.7985752964649,46.1000386864854 14.7994908483025,46.0981951810143 14.8006358540175,46.0957547244093 14.8024375833437,46.0932449418505 14.8070197827342,46.0900188879996 14.8106130391574,46.0878806126045 14.8151141328987,46.0861300485964 14.818297665222,46.0856600851222 14.8240796197158,46.0861774895055 14.8235806956987,46.0840859688901 14.822848482409,46.083997110668 14.8218632530805,46.0841012102687 14.8211311713904,46.0840124312258 14.8194653765227,46.0836938196725 14.8186082877748,46.0831655683241 14.8163617098576,46.0828109880083 14.8154519659775,46.0830029693604 14.8123955339584,46.0832446155787 14.8109569308013,46.0829438877677 14.8102493729713,46.0830658013594 14.8095424853224,46.0830296253554 14.8092132861232,46.0832927035235 14.8087100549606,46.0827296977352 14.8074225943261,46.0825521742909 14.8060077839359,46.0827433184071 14.8050984386351,46.0828122220069 14.8042398281912,46.0827933895272 14.8031041058458,46.0825632617995 14.8026257806665,46.0821056329602 14.8018950107664,46.0816301996231 14.8016187284136,46.0811904616479 14.8004827966318,46.0810305780566 14.7992481848111,46.0802028940056 14.7987212754803,46.079218088542 14.7982169709945,46.0789889322694 14.7955953175795,46.0776318564692 14.7944597359599,46.0774368231928 14.7937287052987,46.0770666977821 14.7924155535793,46.077099680762 14.7908509049233,46.0768336508773 14.7886571343532,46.0759339119846 14.7873465765737,46.0752641346857 14.7864376089574,46.0752274395854 14.7849723654052,46.075418229316 14.7838116653311,46.0751878625748 14.7832052448238,46.075309890137 14.7824207824294,46.0757653839535 14.7818150454294,46.0757115937596 14.7803235868611,46.0761483561845 14.780198742523,46.0757791276192 14.7797958647129,46.0754621790774 14.7794938089618,46.0752156943357 14.7793941118854,46.0748640585206 14.779396303388,46.074249171643 14.7791482600756,46.0730714558105 14.778569040375,46.0726663460184 14.7779143680765,46.0721557255776 14.7774350577399,46.0720494321676 14.7765015084216,46.0718721586665 14.7756947050062,46.0715544049114 14.7751664996443,46.0710439267626 14.7749661048291,46.0706043627367 14.7747152983528,46.0701646989752 14.7748433224875,46.0697080563581 14.7740863146679,46.0695837462688 14.7736076948601,46.0692841710283 14.7733065633212,46.0688268591836 14.7733346762546,46.0680537564597 14.7733379269564,46.0672279687131 14.7731125704975,46.0667356260455 14.7726089913034,46.0663832713273 14.7717260369415,46.0661884240923 14.7710715609781,46.065695309459 14.7704944297533,46.0655676466219 14.7701928504054,46.0651981413965 14.7696642447308,46.0648106328619 14.7699433638841,46.0644245705126 14.7700431482958,46.0639891101729 14.7699700487608,46.063321345164 14.7695167017023,46.0629304782087 14.7690127296184,46.0628100633876 14.7689405066006,46.0626481415041 14.7691693410931,46.0622620692115 14.7692206274389,46.0620512702391 14.7690445460264,46.061875282428 14.7685396241973,46.0618918962491 14.768109926957,46.0620317469474 14.7675043723536,46.0619427906907 14.7667219877119,46.0618886508761 14.7656339340886,46.0618023879276 14.7650802836602,46.0613620809555 14.7642728760918,46.0612376020715 14.7634924551044,46.0607266385541 14.7626638721059,46.0599064137806 14.762743353322,46.0590928401186 14.7629963680807,46.0585293983618 14.7631754661128,46.0579323319538 14.7635346256153,46.0565097521231 14.7636121034423,46.0560706516136 14.7635698531088,46.0556140281044 14.7637930803233,46.054999146556 14.7636428180266,46.0547177521488 14.7642516174453,46.0539633943058 14.7643556312428,46.053207993532 14.7647618050926,46.0526289372662 14.7657237222348,46.0519102980535 14.7660293929619,46.0512255796379 14.7667382122926,46.0506997710434 14.7672697994621,46.0502790487544 14.7680772749289,46.0503507811231 14.7685572778215,46.0502111221252 14.7690873476119,46.0502121042719 14.7695179004435,46.0498438930791 14.7699735727124,46.0494932760563 14.7707829620971,46.049037915598 14.7720979330551,46.0483725655808 14.7725031098336,46.0480394729283 14.7730089267863,46.0477416692621 14.7733898452057,46.0471448963963 14.774099773984,46.0462852340246 14.7750598778416,46.0459881382119 14.7762982146852,46.0455510371069 14.7764754134848,46.0454108416695 14.778471962763,46.0446762978022 14.7789769351596,46.0446069143778 14.7809236063765,46.0436614178904 14.7815811744805,46.0432935057786 14.7820876592363,46.0428023949867 14.7819881412721,46.0424156692108 14.7826461782359,46.0418896643073 14.782673301802,46.0413977281805 14.7829504246894,46.0412040869785 14.7829649311413,46.0406999800271 14.7836652429371,46.0402588965751 14.7841493088252,46.0399059368361 14.7849257329237,46.039456081709 14.7856346902119,46.0389428417364 14.7857121039183,46.0384685442395 14.7860424423786,46.0378365428313 14.7863969503002,46.0374681249024 14.7853129663336,46.0371807804383</coordinates></LinearRing></outerBoundaryIs></Polygon></MultiGeometry>
  </Placemark>
</Folder>
</Document></kml>
