<?xml version="1.0" encoding="utf-8" ?>
<kml xmlns="http://www.opengis.net/kml/2.2">
<Document id="root_doc">
<Schema name="pregledovalniklovisca" id="pregledovalniklovisca">
	<SimpleField name="lov" type="string"></SimpleField>
	<SimpleField name="lov_naziv" type="string"></SimpleField>
	<SimpleField name="luo" type="string"></SimpleField>
	<SimpleField name="luo_naziv" type="string"></SimpleField>
	<SimpleField name="povrsina" type="float"></SimpleField>
</Schema>
<Folder><name>pregledovalniklovisca</name>
  <Placemark id="pregledovalniklovisca.1">
	<Style><LineStyle><color>ff0000ff</color></LineStyle><PolyStyle><fill>0</fill></PolyStyle></Style>
	<ExtendedData><SchemaData schemaUrl="#pregledovalniklovisca">
		<SimpleData name="lov">1324</SimpleData>
		<SimpleData name="lov_naziv">RADEČE</SimpleData>
		<SimpleData name="luo">13</SimpleData>
		<SimpleData name="luo_naziv">Zasavsko</SimpleData>
		<SimpleData name="povrsina">5014</SimpleData>
	</SchemaData></ExtendedData>
      <MultiGeometry><Polygon><outerBoundaryIs><LinearRing><coordinates>15.0675707971451,46.0655455924899 15.0677660937207,46.0656399510462 15.0679074986323,46.0657415393302 15.0680158423042,46.065761269499 15.0681992326237,46.0657377666178 15.0685289230683,46.065801451963 15.0690126959576,46.0659721141552 15.0694560889526,46.0662030823557 15.0697566398446,46.0663216668491 15.0700226315536,46.0664024820615 15.0702642955527,46.0664617175172 15.0703695059783,46.0665570267079 15.0705285401896,46.0667935639613 15.0707270473137,46.0669652942886 15.0710190587051,46.0671729563592 15.071393044757,46.0673957723426 15.0715147148645,46.0675216618095 15.0715690484937,46.067654881332 15.0716330442635,46.0680624296732 15.0717354115879,46.0682539230274 15.0718762776712,46.0684275769589 15.0719970590302,46.0687621193044 15.0721201602542,46.0688916961849 15.0723013720248,46.0690741416936 15.0724462824421,46.0693719583196 15.0726955258237,46.0696786159969 15.0728257725088,46.0697342278219 15.0730545059129,46.0697773599964 15.0732839368401,46.0700542471939 15.0734637777264,46.0701719994367 15.0736254533891,46.0702384771567 15.0739823427933,46.0703165252529 15.0741865539302,46.0704828472548 15.07438237336,46.0706563723745 15.0746716347265,46.0707173669907 15.0749019150204,46.0707532064491 15.0751145343943,46.0709204210234 15.0752578234135,46.0709617154174 15.0754475914685,46.0709597008312 15.0758188249594,46.07093435207 15.0761715221152,46.0709665086883 15.0767872674789,46.0709840917537 15.0771299123994,46.0710378462442 15.0774256687901,46.0711177243211 15.0776616228248,46.071140957829 15.0779427486759,46.0711118843949 15.0783330212706,46.0715690521065 15.0786170676001,46.0720477956596 15.0789821141947,46.0724842841095 15.0798123777874,46.0727936722758 15.0808250950024,46.0732155745834 15.0817570618451,46.0738348414613 15.0824864748242,46.0742850935227 15.0834385842643,46.0747775568944 15.0840464997673,46.0751434007889 15.0840123892191,46.0754120020002 15.0838615925772,46.0756325521013 15.0835179651171,46.0757219691707 15.0833135537241,46.0757976975547 15.0831765425608,46.0763331500287 15.0830873889234,46.0766265341379 15.0829674212596,46.0768911484602 15.0828402191672,46.0771602666487 15.0833565880683,46.077246177484 15.0843686941368,46.0772807051948 15.0850771018716,46.0772274546275 15.0861646414177,46.0770505584609 15.0867211338809,46.0769974121199 15.0872773753345,46.076785726906 15.0878334169632,46.0764507730582 15.0883390144144,46.0761863060966 15.0888201997734,46.0765029159592 15.0892254592744,46.0767139521511 15.0893524839084,46.0769955653686 15.0893786199347,46.0774886091615 15.0893076805885,46.0778334496433 15.0893547306672,46.0781472464117 15.0899005952618,46.0785507170845 15.0905828264038,46.0788490760792 15.0915679476475,46.0790417378131 15.09232654469,46.0796915582331 15.0924436089426,46.0801115577411 15.0938798770964,46.0809979921865 15.0939456964984,46.0815360795443 15.0942745184577,46.0818522514278 15.0944268641305,46.082326744579 15.0952873094668,46.0834334444813 15.0958685237857,46.0836615852729 15.095944964623,46.0840482342002 15.0965268250565,46.0847157195396 15.0975635588594,46.0854356298682 15.0977662789836,46.0858573498621 15.0980191877973,46.0860681248421 15.0983020792789,46.0862684363638 15.0985302320861,46.0864443211551 15.0988087851525,46.0866026167886 15.0992011425034,46.086839271292 15.0994439824062,46.0869821206437 15.1000068142248,46.0871687777388 15.1002555227652,46.0872657329398 15.1004109521525,46.0874077571103 15.1005599691467,46.0875785787274 15.1007271035892,46.0876855018888 15.1010487760643,46.0877275062484 15.1016942959575,46.0877980140574 15.1021260632737,46.0877268187332 15.1035176993986,46.0875848458903 15.1045207588166,46.0875837531294 15.1059903321788,46.0872251089009 15.1077699775437,46.0872028405416 15.1095123768304,46.0871134587632 15.110977567098,46.0872352214653 15.1122147376902,46.0870759273999 15.1139820358237,46.0867755514647 15.1156233307924,46.0865807265084 15.1178703410936,46.086227078767 15.1201428427896,46.0860140810783 15.1219152874999,46.0862065505271 15.1231809149084,46.0860758994082 15.1233724561783,46.0860927880965 15.1236264837309,46.0862392629972 15.1238302447877,46.0862848397528 15.1246077686249,46.086283994779 15.1251339885311,46.0863140114374 15.1257211556517,46.0863628534216 15.126114401751,46.0863723174764 15.1263031699273,46.0863631115382 15.1268660053124,46.0865145461184 15.1272836070426,46.0865995581831 15.1275385399382,46.0865722814915 15.1281143575857,46.0866318308778 15.1282969718828,46.0866452122896 15.1285861544512,46.0866663913818 15.1295027547343,46.0865826694733 15.1298202872262,46.0865620648826 15.130338216765,46.0865286345645 15.1309070809487,46.0864901049724 15.1310640499182,46.0864855163152 15.1314988822154,46.0864727802831 15.1315132342837,46.0864723138956 15.1321904010371,46.0864103497093 15.1328836241285,46.0863582601045 15.1334459326195,46.0862837354626 15.1341166210253,46.086218258397 15.134499726639,46.0862051217541 15.1352287395613,46.0862492491487 15.1357783230083,46.0862602943928 15.1363978750868,46.0862766520275 15.1370100169244,46.086276819671 15.1374463656673,46.0862511027826 15.1378890582912,46.0861767900281 15.1384198580881,46.0860708776138 15.1384703484327,46.0860951097336 15.138689269518,46.086200025195 15.1389489501029,46.0861611105048 15.139489164323,46.0861487557728 15.1401131283503,46.0861712961671 15.1401272259803,46.0861725385365 15.1405125147606,46.0862050864091 15.1406897483569,46.0862884552552 15.1408164260962,46.0863729658201 15.1408945310036,46.086424965146 15.1410395265787,46.0865427436617 15.1411822031831,46.0867143299535 15.1413247889949,46.0868500161184 15.14193461131,46.0872037623029 15.1421703377135,46.0872521458638 15.1425685694123,46.0873361364419 15.143207655287,46.0874001195851 15.1438065303382,46.0874155632141 15.14382490494,46.087420398749 15.1440394470083,46.0874764529882 15.1443773259126,46.0876217863197 15.144599720571,46.0876637934763 15.1450886780241,46.0876766701338 15.1451783148342,46.0876860037019 15.1453279682054,46.0877015591635 15.1454185795429,46.0877372539981 15.1455871173486,46.087803800955 15.1461448608932,46.0881071149337 15.1464579437279,46.0882120749999 15.1467004672381,46.0882360572608 15.147141151406,46.0882804783525 15.1474234460057,46.0883798969469 15.1482842293978,46.0886029113639 15.1490672290935,46.0886547082635 15.1501782551319,46.0885478931508 15.1508568676632,46.0887300087919 15.1515655350618,46.0887413978836 15.1521675074245,46.08865440199 15.1531594227568,46.0885915342554 15.1539743231417,46.0886275091576 15.1551084547778,46.0887863113219 15.1556759519221,46.0889951816884 15.1563322522146,46.0893271936167 15.1572630732168,46.0899238908422 15.1572727895215,46.089930085751 15.1581100036391,46.0889422644604 15.160228642294,46.0879024416806 15.164419953749,46.0874925914421 15.1658330269959,46.087051201776 15.1682561449497,46.0865381316965 15.1707250051035,46.0844781798074 15.1716974541834,46.0836731553451 15.1717992805362,46.0831529460511 15.1717477338626,46.0827921332127 15.171702974928,46.0824934829621 15.1716517897364,46.0822488274226 15.1715137446936,46.0819296228355 15.1712940192625,46.0815376606154 15.171170158785,46.0812049380402 15.1711056597571,46.0808766252241 15.1711199053475,46.0805077056605 15.1712028189921,46.0801431819995 15.1712445449862,46.0800062672307 15.1713602499987,46.0796264884831 15.1715335190979,46.0792150419242 15.1717692055513,46.0788781807147 15.1720155447002,46.0786834638044 15.1724053967194,46.0784898796092 15.1727190838797,46.0783341987854 15.1732456456959,46.0781174613694 15.1740955912428,46.0778308585245 15.1747425569655,46.0776292265277 15.1753444113498,46.0774321588349 15.1757655143245,46.0772335665517 15.1762212160867,46.0771015010495 15.1769586044166,46.0768403333803 15.1774750595773,46.0766262013486 15.177976983205,46.0763168058135 15.1783422040608,46.0760337142572 15.1786485789863,46.0757048261262 15.178928143847,46.0753219939669 15.1791822866776,46.0748348296363 15.179489442945,46.0742720022255 15.1797636480946,46.0738351011925 15.1801378839894,46.0733108558002 15.1803206826778,46.0731126219045 15.1807329885497,46.0726899865296 15.1812255051781,46.0722087385332 15.1816002645781,46.0718122523291 15.1819469434457,46.0714481107136 15.1823951382006,46.0710182140553 15.1826945131415,46.0707775017866 15.1831142692691,46.0703512467223 15.1835739470459,46.0698421486495 15.184089432236,46.0693635504358 15.1842508356578,46.0692312965127 15.1846001973673,46.0689452409762 15.1853376344791,46.068433887242 15.185565722502,46.0682598646911 15.1857337774519,46.0681472124816 15.1860222945262,46.0679540160181 15.1864195471803,46.0676150613491 15.1868059769352,46.0672113406832 15.1871570139418,46.0667401950879 15.1876485884046,46.0660510772395 15.1880547346891,46.0654070854898 15.1884056844448,46.0648027724106 15.1887720534698,46.0642497187268 15.1891646871801,46.0637820970275 15.1896362541587,46.0633422353997 15.1901734796059,46.0629039721001 15.1907242266028,46.062528756484 15.1911771003789,46.0622967629392 15.1916741582759,46.0621348743763 15.1921169100826,46.0620423560576 15.1927219674083,46.0620521345168 15.1933464438671,46.0620708744733 15.1941027146687,46.062114490439 15.1947181799799,46.0621800254513 15.195293391891,46.0621925404028 15.1957379625159,46.0621773838606 15.196248399569,46.0621477164409 15.1968864297745,46.0620881351185 15.197437063119,46.0620224029506 15.1982684948563,46.0618310254925 15.1987867535063,46.061749147386 15.2000654415467,46.0615030827934 15.2010622637623,46.0612673973634 15.2017764012138,46.0610645038166 15.202626914433,46.0607975714878 15.2032672778399,46.0605346057574 15.2039070587059,46.0601852609769 15.2042925078002,46.0599146461555 15.204518052142,46.0597423895697 15.204757306886,46.059468435635 15.2049228766666,46.0591559238414 15.2049977962278,46.0588651685379 15.2049761152956,46.0585943810667 15.2048522241266,46.0582940848833 15.2044492652783,46.057703667052 15.2041318908886,46.0571535839227 15.2038704094222,46.0566888769662 15.2036683943507,46.0562276624491 15.2034945206502,46.0556512286958 15.2034285590349,46.0549333409292 15.2034245209969,46.0542207413771 15.2034865395092,46.0535134226898 15.2036326863211,46.0525252300674 15.2037359319273,46.0515038225767 15.2037241812689,46.0509087445618 15.2037154411709,46.0504646402828 15.203679342908,46.0497844885606 15.2035927374276,46.0490738349908 15.2035929450593,46.0488138048845 15.203643501907,46.0485059979521 15.2037957729167,46.0480981366384 15.2040462628306,46.0476945985762 15.2043820413608,46.0472936067286 15.2047992635095,46.0469041648056 15.2051994828306,46.0464958569568 15.2059655474909,46.046100295382 15.2064477238287,46.045878984919 15.2071754317594,46.0455969438759 15.207775567593,46.045409604697 15.2084767624753,46.0452274766178 15.209579245834,46.0449672299668 15.2099439744101,46.0449240920455 15.2105761775721,46.0448492388987 15.2112879329455,46.0448317297283 15.2123023747179,46.0448676397458 15.2132889200851,46.0449737739076 15.2140658302721,46.0450982875214 15.21509642956,46.0453337986619 15.2163215869755,46.0456571986416 15.217436234717,46.0459358078893 15.2185203472921,46.0461684870379 15.2195829672659,46.046355399541 15.2201029204286,46.0464191819655 15.2204390400049,46.0464599230349 15.2214356250355,46.0465452730728 15.2221851472223,46.0465644229475 15.2231175730464,46.0465032225845 15.2239029303832,46.0463730214976 15.2245404785268,46.0461828217421 15.2250369980869,46.045947908311 15.2253255240592,46.0457871830526 15.2258101671993,46.0454298326673 15.2262863666461,46.0449997065363 15.226672149568,46.0445472637975 15.2271114707422,46.0439498523597 15.2274036712044,46.0433660483917 15.227795093343,46.0427187929267 15.2279512434165,46.0425157661479 15.2281035373401,46.0423178754647 15.2285217392308,46.0419021616652 15.2290800135732,46.0413356361132 15.2297258617282,46.0406723877351 15.2299254335233,46.0404749393787 15.230091291938,46.0403108495981 15.2303357630292,46.0400679622957 15.2310332346979,46.0394604773301 15.2316567479016,46.0389973692563 15.2317009481919,46.0389700169787 15.2324890688833,46.0384815572206 15.2332635938822,46.0380506143108 15.2337315875465,46.0378172505629 15.2340850942434,46.037640984176 15.2350651436347,46.0372410994333 15.2357461431077,46.0370338320085 15.2364572533017,46.0368601492088 15.2360562717868,46.0360785477214 15.2359000023945,46.0357868985683 15.2355947041614,46.0356902643345 15.2353651204479,46.0355652209568 15.2351852615034,46.0354673375067 15.2350377748451,46.0353870224835 15.2348455626459,46.0351784035531 15.2345743462887,46.0349222592301 15.2341983196311,46.0345949781605 15.2339933199738,46.0343242106069 15.2339076216218,46.0341291382642 15.2338743591985,46.0340532666488 15.2335941175521,46.0337989379367 15.2333507857453,46.033627311036 15.2325075033098,46.0331427096756 15.2325510008698,46.0329182211748 15.2325872925112,46.0327313572596 15.2322244606829,46.032741362565 15.2318438550677,46.0328568545849 15.2313286076041,46.0329338382933 15.2308620528966,46.0328538032843 15.2301861348352,46.0328457190935 15.2295674411855,46.0328679278506 15.229255241763,46.032939005663 15.2289334837139,46.0329479283904 15.2285273702262,46.0328317723921 15.2282326498672,46.0327243901582 15.2277359987817,46.0326435926979 15.227320772905,46.0324777838377 15.226909162574,46.0323425581111 15.2269069498167,46.0320859510767 15.2271817505166,46.0319678066083 15.2272389174872,46.0317324957985 15.2270117164401,46.0314551015094 15.2265356078556,46.0313085755549 15.2263707264446,46.031075144662 15.2257132068046,46.0310750954153 15.2249464709791,46.0309646769179 15.224699031478,46.0313635772516 15.2243551710703,46.0316865466675 15.2239973762435,46.0319507880386 15.2234245506758,46.0318451077807 15.2229310374575,46.0318020732004 15.2225947261333,46.031691878296 15.2220781764606,46.0314119781761 15.221820383217,46.0312627587762 15.2214573311974,46.0309246132927 15.2210860211873,46.0307496990376 15.220699897302,46.0304872655474 15.2206014289795,46.0300887720547 15.2203634431116,46.0297529008947 15.2202685498053,46.0295380411846 15.2202131522011,46.0293150074569 15.2200120485444,46.0290924342186 15.2199266544023,46.0286990435123 15.2197229273276,46.0284329263988 15.2193937339164,46.0282213953346 15.2194038074777,46.0282209261172 15.2189151763939,46.0279986325701 15.2185315421054,46.0277704677284 15.2178951257851,46.0274111488563 15.2177235639269,46.0272734525703 15.2176781272961,46.0271826633225 15.2176683902167,46.0270384502828 15.2176318109692,46.0269005866761 15.2175684815432,46.0268253973028 15.217473623391,46.0267472087043 15.2172707630425,46.0266974778656 15.2170001829986,46.0265725653131 15.2167523978221,46.0265291271866 15.21649123384,46.0265326813602 15.2163245907008,46.0264953869032 15.2161124216856,46.0263766599978 15.2159364443706,46.0262640726715 15.2157604730216,46.0261860358638 15.2151924259836,46.0260940715646 15.2142225675332,46.025908203465 15.2137913660157,46.0257964508197 15.2129182967199,46.0258212944289 15.2127250111,46.0258749201638 15.2124504287442,46.0258816392403 15.2123468861228,46.0258944283079 15.2122525045434,46.0259384219595 15.2121580033767,46.0259511940647 15.2120770164105,46.0259513443689 15.2119059049513,46.0259265584285 15.2117932724083,46.0259267671999 15.2116762482282,46.025926983994 15.2115233542654,46.0259711753718 15.2114019165347,46.0259995625571 15.2112354456339,46.0260061686716 15.211068797586,46.0260001782236 15.2105151325922,46.0259854535437 15.2103530174314,46.0259826028647 15.2101909854927,46.0260017059591 15.2100921156128,46.0260206927376 15.2099660853696,46.0260303718204 15.2098624942231,46.0260305620789 15.2097545825538,46.0260495651673 15.2096377240739,46.0260936878822 15.2095207705692,46.0261127073339 15.2094172383832,46.0261285529133 15.209313811533,46.0261380998825 15.209205758419,46.0261539535497 15.2091472698319,46.0261603589173 15.2089896041808,46.0261386931679 15.2089131848563,46.0261513395488 15.2087964318569,46.0262237136888 15.2087334927596,46.0262488419927 15.2085850219686,46.0262679180418 15.208540107523,46.0262774474866 15.2084455338953,46.0262713216838 15.2082290265944,46.0261964963647 15.207976634942,46.0261279442854 15.2078277059882,46.026024742734 15.207642716754,46.0259153081815 15.2074849470191,46.0258654780404 15.2072911518159,46.0258187722112 15.2071650980051,46.0258221499247 15.2070887489148,46.0258535999541 15.2069174758828,46.0258194493284 15.2068362551937,46.0257568830328 15.2067728477528,46.0256911352915 15.2066195998784,46.0256412057972 15.2065609597212,46.0256068509625 15.2063943133546,46.0256008536955 15.2062770682807,46.0255415012105 15.2061914794889,46.0255197014916 15.2061102706643,46.025494744648 15.2060606608069,46.0254572241086 15.2060243678216,46.0253883678745 15.2057945386276,46.0253417244531 15.2054930323171,46.025367280288 15.2053511975935,46.0253293853618 15.2052966264334,46.0255914037036 15.2055662813001,46.0258235971014 15.2052428892413,46.0261138111992 15.2047738538308,46.0263506596796 15.2044346992089,46.0265366174718 15.2041327750672,46.0266611441037 15.2038230662988,46.0267415055833 15.2034390685686,46.0269231315433 15.2029503029633,46.0271376035905 15.2026379522631,46.0272738416573 15.2021855548294,46.0275095702531 15.2017325450858,46.0275780327018 15.2012721138505,46.0277373822063 15.2010414953743,46.0279021742846 15.2006028955092,46.0280631922246 15.2004434192653,46.0282916511921 15.2002904458012,46.0285326951736 15.2000318410203,46.0287831014128 15.1997214677744,46.0290066947051 15.1993074112177,46.0291712637903 15.1991406553838,46.029461277169 15.1989913346141,46.030038733215 15.1989028537445,46.0305802727066 15.1985500495876,46.0312600247675 15.1980404300609,46.0317279741531 15.1976749319761,46.0321495143931 15.1976544654842,46.0324962271191 15.1983514296896,46.0323233455935 15.1986578545658,46.0324692942421 15.1989931915263,46.0326438940579 15.1993016863573,46.0328975385698 15.1990181468335,46.0330822133884 15.1989210326512,46.0338111874927 15.1985244277501,46.034061830181 15.1982372027676,46.034338194885 15.1977942421951,46.0344159816999 15.1970996378412,46.0344610898939 15.196515375623,46.0344383423119 15.1959586510188,46.0344579231891 15.1954591872799,46.0345231112092 15.1949901219856,46.0345631419096 15.1942788801342,46.0346910391804 15.1938904309912,46.034769617947 15.193393048816,46.0347664117121 15.1930520470969,46.0348186343692 15.1926768798386,46.0350024583848 15.1923285102004,46.0351285615186 15.1918984833491,46.0352521914163 15.1913768485108,46.0353351240612 15.1909469792338,46.0353555477542 15.1906151601216,46.0354500364657 15.1899221073139,46.0356141365521 15.1894145178364,46.0356883092334 15.1890400194594,46.0357325675637 15.1880661760471,46.0357287755671 15.18773292717,46.0357846585988 15.1874125411661,46.035824143955 15.1870081781384,46.0357477869216 15.1858701972936,46.0358011993961 15.1846609827542,46.0358790091411 15.1841472975807,46.0363378151864 15.1837576800823,46.0365784079322 15.1832688775193,46.0367913558773 15.1826352205178,46.0369964354537 15.1821637018628,46.0370067253761 15.1815025267655,46.0370165049053 15.1809660766649,46.0369242305103 15.1805137372328,46.0368731197118 15.1801879291216,46.0368775927561 15.1798368453482,46.0369360901681 15.1790098821595,46.0372551831291 15.1786354140807,46.0373147032032 15.1783123699086,46.0372956828794 15.1778247798574,46.0372104256016 15.1769652999903,46.0371018090704 15.1764580389022,46.0371671060448 15.1759777158421,46.0373349317821 15.1753256254941,46.037441025741 15.1747848911482,46.0375450562482 15.1744542480787,46.0376566815915 15.1731868337605,46.0376498814209 15.1728699149624,46.0375236751829 15.1724224464052,46.0376670528125 15.1718774989691,46.037831449716 15.1714903116953,46.0379594371257 15.171124922027,46.0383691949517 15.1705983105275,46.0385758469278 15.1700184926461,46.0387069059449 15.1696444194295,46.0389018095976 15.1692638686322,46.0390917729411 15.1685289699588,46.0391687985195 15.167952568024,46.0394501916201 15.1672347945059,46.0395957452875 15.1668914267704,46.039695490518 15.1664859752717,46.0397729211842 15.1657132220252,46.0398112941764 15.1652300066604,46.0398075849368 15.1645994752494,46.0397070019862 15.1640682790906,46.0396430731191 15.1637466189455,46.0396581104852 15.1628658207831,46.0398606448962 15.1621521968605,46.0400619457284 15.1615232099005,46.0402244329177 15.1609436302989,46.0403173857495 15.160280788242,46.0403464796282 15.1598454032781,46.0403085797051 15.1593149991614,46.0400707943645 15.1590396006995,46.039324468529 15.1584710657932,46.0387596701133 15.1578963807324,46.039161307826 15.1574170167317,46.0392832564729 15.1567932406529,46.0393256827196 15.1564931397391,46.0395636302002 15.1562063388139,46.0399832198917 15.1558985707795,46.0403913205288 15.1556119519191,46.0405567267564 15.155132501709,46.0408848004839 15.1548445002859,46.0410195248996 15.1544353303232,46.0410702849966 15.1537124289083,46.0412972787005 15.1533378807705,46.0413475384201 15.1530303503679,46.041430908271 15.1528023954289,46.0416034269253 15.152425430719,46.0418096149311 15.1518294153445,46.0420458748658 15.1515062805414,46.0420004160056 15.1508456901963,46.041869115315 15.1505057032209,46.0418976359642 15.1498582187508,46.042168144177 15.1494259518192,46.042378893553 15.1487687259744,46.0425863352847 15.1481933895643,46.0428821132691 15.1477153456601,46.0428892103443 15.1465720689843,46.0429641024178 15.1457259416931,46.0430304167841 15.1446759210243,46.0432934902335 15.1435356752366,46.0434459072009 15.1425814666912,46.0436926453882 15.1420132191055,46.043797184875 15.1408790960657,46.0440270368424 15.1404066643175,46.044162581805 15.1400168740503,46.0442782289377 15.1397055620902,46.0444135735055 15.1391225255903,46.0447570922601 15.138565164557,46.0450367840969 15.1379569055859,46.0452714568042 15.1373424994903,46.0455304270984 15.1366418712653,46.0458290865082 15.1361471272414,46.0459394472891 15.1355334539021,46.0459761669222 15.1352115491849,46.0459621520691 15.134246414498,46.0458922089148 15.1333349298657,46.0462082808605 15.1329680065375,46.0462267034565 15.1322494328974,46.046166353667 15.1319314785587,46.0462378019386 15.1312998439417,46.046222333653 15.1308965602119,46.0462740823784 15.1304342208015,46.0462692123872 15.1297685658029,46.0461826936403 15.1293121869108,46.0461292254543 15.1285420268998,46.0460536148351 15.128044778429,46.046150446997 15.1277010936655,46.0461608188096 15.1273117104516,46.0460775757757 15.1268178022551,46.0458846770559 15.1264628086215,46.0455251674822 15.1260350913004,46.0449461962022 15.1262682738111,46.0446436203447 15.1263609336166,46.0443672924039 15.1262849854558,46.0440956495797 15.126081442689,46.0436810860604 15.1257385158491,46.0434494163468 15.1253413889823,46.0433603266564 15.1249836009143,46.0433545101319 15.1241954709888,46.0433698553368 15.1236485631831,46.043265986442 15.122630652703,46.0432581755095 15.1220802837394,46.0432822483602 15.1215801432604,46.0433503532662 15.1211760055473,46.0433606797781 15.1207800990818,46.0432350427843 15.1204660017516,46.043058931791 15.1199986817216,46.0426504835043 15.1197098702163,46.0423940854719 15.1193883947073,46.0420279503674 15.119056123611,46.0418670603529 15.1185185601712,46.0417712549723 15.118058964804,46.0419446640836 15.1174156665156,46.0420705730413 15.1169982600824,46.0420954744909 15.1164219306422,46.042058273164 15.1159504794019,46.0421272239818 15.115589990501,46.042123090331 15.1149798839224,46.0419345766197 15.1145673083791,46.0417963382332 15.1139398131309,46.0413791179265 15.1133259047386,46.0412833641977 15.1129678179882,46.0410603987575 15.1126791893151,46.040937416823 15.112142712011,46.0407938032191 15.1118169460138,46.0405771007446 15.111492410545,46.0405212728775 15.1110416763259,46.0406091681505 15.1100435517352,46.0403897827477 15.1089723575857,46.0401956515374 15.1083016005836,46.0400884080859 15.1079419768471,46.0399906746465 15.1072791143176,46.0398212444457 15.1064726305927,46.0396745282076 15.1055122997413,46.0396082068354 15.1048712802311,46.0394369429767 15.1042771091577,46.0395115367118 15.1038740966701,46.0394885999497 15.1031102464417,46.039472376144 15.1027367467991,46.0393396382384 15.1021213731422,46.0392673093033 15.1018123763369,46.0390099841754 15.1012017103843,46.0386829245092 15.1007170137252,46.0385671938469 15.0999095041787,46.0385483778134 15.0991632091344,46.0386600579189 15.098757824095,46.038823625075 15.0982273647216,46.0391278405915 15.0971764328412,46.0395471265268 15.0962777036327,46.0398301412518 15.0952331293086,46.0402061255454 15.094796496468,46.0403939981056 15.0932554220044,46.0404102918361 15.0913974495114,46.0404457135559 15.0909333309549,46.0405059176595 15.0894948435226,46.0408459919077 15.08464902079,46.0405111045672 15.0835941937522,46.0407461779071 15.0828645710606,46.0409896438681 15.0824383797205,46.0411069205962 15.0816183187292,46.0413594413594 15.08152972686,46.0413873970831 15.0806755728286,46.0416570307828 15.0794611792378,46.0417389496897 15.0787958202828,46.0417664030604 15.0778981346269,46.0419649651211 15.0769750266259,46.0424695448591 15.0766110747281,46.0426703453837 15.076536145584,46.0427712584197 15.0764239929254,46.0428635586267 15.0762586750215,46.0430053808768 15.0761102236559,46.043104453167 15.0758456580246,46.0433295684376 15.0756326873415,46.0434916659277 15.0754133101118,46.0436942563326 15.0753101026992,46.0438112928606 15.0751293636649,46.043923881495 15.0748840134515,46.0440320134036 15.074628201563,46.0441440205718 15.0733021289251,46.0447304408426 15.0717086582043,46.0463915937516 15.0714703661014,46.0469765850917 15.0714902649508,46.0473769645026 15.0716590899458,46.0480291825307 15.0716725877822,46.0484745536877 15.071517913878,46.0487760690857 15.071434374993,46.0490280532046 15.0713958349313,46.0492035298361 15.0713960146156,46.0493429920042 15.0715774064923,46.0497162775452 15.0716485832879,46.0497972110408 15.0720365071362,46.049994913649 15.0724113821068,46.0500936499854 15.0724961597774,46.0506919342973 15.0721808616332,46.0515918902003 15.0720065697468,46.0517179660135 15.0718644262638,46.0517225542555 15.0708182710107,46.0521775841281 15.0707669763801,46.0524880317746 15.0703146769098,46.0524884008943 15.0704316687563,46.0530281825196 15.070341487817,46.0532486782831 15.0696378389759,46.0537709676241 15.0694117121228,46.0537935990699 15.0691983452964,46.0536857577329 15.0682555945126,46.0542036842512 15.0682817293138,46.0544376051614 15.067752171174,46.0546809443366 15.0676942414337,46.0548654285946 15.067442563706,46.0551355040977 15.0676624219209,46.0552658387348 15.0675527861535,46.0554413559426 15.0674043680174,46.0556078983609 15.067120136598,46.0556800460762 15.06695885814,46.0559005807963 15.0668946190418,46.0561075621944 15.0668435159314,46.0565979588526 15.0670377377426,46.0568992631835 15.0671479778344,46.0572186116446 15.0670709515706,46.0576460406631 15.0668584594571,46.0582714950699 15.0670537639958,46.0593555855991 15.0671113681241,46.0596434733996 15.0672092449136,46.0596749073138 15.0675452989581,46.0596882055409 15.068204687947,46.0598812612926 15.067623290964,46.0600525601871 15.0671968825,46.0601382883883 15.0670483091447,46.0601878621593 15.0668803159518,46.0602104544542 15.0667446667785,46.0602600202668 15.0664478691212,46.0606515865665 15.0663769770662,46.0608135836273 15.0661703363001,46.0609441678902 15.066138201623,46.0610927360044 15.0662030839836,46.0613086395843 15.0662501169617,46.0615133065325 15.0662759582895,46.0618301851508 15.0663271093403,46.0622351350369 15.066327636537,46.0626753846369 15.0665304919846,46.0629393446874 15.0668852402015,46.0634322030835 15.0671894132963,46.0638899096829 15.0672659285401,46.0643124792735 15.0672664640916,46.0646470075847 15.0672671920967,46.0651399824685 15.0672421141408,46.065351349467 15.0672333473515,46.0654766003937 15.0673070817086,46.0655233442101 15.0675707971451,46.0655455924899</coordinates></LinearRing></outerBoundaryIs></Polygon></MultiGeometry>
  </Placemark>
</Folder>
</Document></kml>
