{"type":"FeatureCollection","features":[{"type":"Feature","geometry":{"type":"Polygon","coordinates":[[[14.8434246651244,46.0003140369279],[14.8435252929958,46.0010278678808],[14.8437974820352,46.0013849967715],[14.8445487054955,46.0013620872879],[14.8447971178625,46.0009906422719],[14.8450022282893,46.0009136308638],[14.8453094392767,46.0009377108889],[14.8454885420173,46.0009735838326],[14.8457441636411,46.00116422929],[14.8458798853403,46.0014795998312],[14.8460245753659,46.0016343743574],[14.846229027426,46.001795257539],[14.8466044607548,46.0018492080442],[14.8468691040262,46.0018613498438],[14.8472788362048,46.0018380543363],[14.8476546464689,46.0017551477551],[14.8479443317396,46.001957710553],[14.8483874986117,46.002219950727],[14.8487796713906,46.0024344342108],[14.849197524528,46.002559783605],[14.8497690877778,46.0027090873917],[14.8506902942483,46.0030015482076],[14.851457467296,46.0034425324756],[14.8519688374954,46.0037523548505],[14.8535736352141,46.0037421853662],[14.8545469238237,46.0036361763218],[14.8554347454791,46.0036252459374],[14.8567661181149,46.003698003584],[14.8576371718883,46.0035799631673],[14.858439670176,46.0035094287303],[14.8589697828376,46.003521781033],[14.8594206601958,46.0038748640157],[14.8601763475857,46.004192148005],[14.8606041289263,46.0045441183015],[14.8611329295539,46.0048785743925],[14.8614347493206,46.0051601168756],[14.8621156301034,46.0051960311292],[14.8626953239422,46.0053197267184],[14.864411003381,46.005022963484],[14.8652439774318,46.0046899563562],[14.866025780001,46.0046908754811],[14.8675904336432,46.0042532542681],[14.8686747946755,46.0042895961869],[14.8693298249649,46.0045538877879],[14.8694568399555,46.0041849498246],[14.8700388085171,46.0033948105871],[14.870521106915,46.0020421128513],[14.8704217545244,46.0014620122394],[14.8701201912469,46.0010047696285],[14.8701477985406,46.0000207286627],[14.8693930616965,45.9992993372137],[14.8693184821611,45.998842351478],[14.8694454840747,45.9984734131431],[14.869749295881,45.9979641330208],[14.869876334247,45.9975775588006],[14.8704076267737,45.9968400852938],[14.8704348989565,45.9959964964968],[14.8705880088942,45.9952761380127],[14.870640122779,45.9945733003637],[14.8711450296951,45.9940634338323],[14.871575485662,45.9932554790458],[14.8722833808621,45.9924301075138],[14.8732425896889,45.9918862772746],[14.874177175429,45.9911489621665],[14.87460657247,45.9907803501161],[14.8755676204731,45.9893928815361],[14.8757451757334,45.9889009925787],[14.8757224717814,45.9877410791152],[14.8758385101161,45.9867030546445],[14.8762309376075,45.9858171201693],[14.8770122098335,45.9858793276784],[14.8780215081337,45.9854935996316],[14.8785761319382,45.9854941002572],[14.8788782176174,45.9857052361583],[14.8791294934899,45.9860745864894],[14.8796820820203,45.9870767897535],[14.8800591741468,45.9875867238797],[14.8806127989223,45.9880616603965],[14.8808894559493,45.9883431260455],[14.8810899645757,45.9889232342041],[14.8811644937212,45.9895032110287],[14.8815154905157,45.990399832432],[14.8819178478203,45.9909449671624],[14.882370854574,45.9913495191649],[14.8832261925835,45.9922641084469],[14.884133169924,45.9926339354738],[14.8844516642163,45.9928670272891],[14.8849387560081,45.9932232860204],[14.885896105985,45.9935931496949],[14.8863998540926,45.9938922836757],[14.887886728405,45.9942801111864],[14.888239208136,45.9945089068376],[14.8884653421905,45.9949133023221],[14.889424144948,45.9945801511416],[14.8907861090923,45.9943702858186],[14.8912651733063,45.99437065263],[14.8917691972021,45.9945467652444],[14.8923237071667,45.9946526515361],[14.8931556483282,45.9946884331857],[14.8938117242268,45.9944077780022],[14.8944176526959,45.9939512585622],[14.8953526545829,45.9928624125074],[14.8953782907244,45.9926163500831],[14.8947724554954,45.9929674222832],[14.8945709174547,45.9929145102827],[14.8953285458095,45.9922296752298],[14.8959338120513,45.9921071400143],[14.8960854975821,45.9918963729454],[14.8957795303893,45.9914996575399],[14.8952310138477,45.9912407432807],[14.8937473299434,45.9900108331195],[14.8931338288921,45.9886533237706],[14.8923739325214,45.9876557595665],[14.8923747537988,45.9868989667548],[14.8918986089179,45.987023404969],[14.8915158000086,45.9868093476874],[14.8913146443382,45.986376188887],[14.891214584938,45.9860602755954],[14.8912943870933,45.9856469987037],[14.891335946038,45.9856482978988],[14.8915444474259,45.9850285566355],[14.8923367140668,45.9848155211251],[14.8924149433183,45.9839430008183],[14.8932083632061,45.9830532454815],[14.8933705491012,45.9824748466117],[14.895427125054,45.9801199860829],[14.8961338166753,45.9793829110165],[14.8967402855556,45.9782593806536],[14.8974217719575,45.9773817308424],[14.8986409100486,45.9762678259237],[14.8999454079128,45.9745209054739],[14.9000491869351,45.9726418294851],[14.8995971278233,45.9718687117474],[14.8998253676124,45.9708852845797],[14.89879417503,45.9699888358342],[14.8971070926417,45.9697416024001],[14.8949083850861,45.9675234696221],[14.8939419525757,45.9661668038484],[14.8927840265672,45.9646448422836],[14.8914108330551,45.9636488498843],[14.8903434184863,45.9633958050327],[14.8894627153208,45.9630085952353],[14.8888839942771,45.962072902653],[14.8880559181135,45.9603618105689],[14.8876755441113,45.9557206879196],[14.8875515137283,45.9535170251857],[14.8872754457916,45.9522501442818],[14.8857502223504,45.9506090648561],[14.8844562282728,45.9492815893801],[14.8835821331704,45.9482671084866],[14.883185645225,45.9476456807799],[14.8834528467828,45.9467486101535],[14.8835905953633,45.9460731110433],[14.8836227343623,45.9460622565229],[14.8835697196889,45.9460639120924],[14.883498529752,45.9455677046864],[14.8835261087951,45.9453321722003],[14.8836864751086,45.9445705875579],[14.8837928447221,45.943600560181],[14.883887138096,45.943409274221],[14.8836646705671,45.9433408451454],[14.8828391372314,45.943263521049],[14.8827694609555,45.943216571399],[14.8825824497512,45.9432157495669],[14.8824988043488,45.9431267659773],[14.883171382627,45.9427689857669],[14.8833473538954,45.9424984236657],[14.8833234160379,45.9423511062938],[14.8833019443255,45.9420119596939],[14.8833528038596,45.9418061434044],[14.8832129391835,45.9414047014844],[14.8829340642158,45.9411179281874],[14.8825827544548,45.9405053616592],[14.8825431832399,45.9403727843007],[14.8825182093856,45.9393740095095],[14.8828276969506,45.9388370721303],[14.8830326821841,45.9386854002409],[14.8835671962144,45.9384587530897],[14.8841058956815,45.9381399707913],[14.884782329518,45.9376299428854],[14.885229805116,45.9371399261445],[14.8856252106963,45.936882627164],[14.8860238733822,45.9366703187769],[14.8862514266124,45.9363842372498],[14.8860617158488,45.9363274524457],[14.8855137068094,45.9362961324727],[14.8855051497884,45.9361303854263],[14.8855034186263,45.9357810012151],[14.8853164134497,45.9357893615616],[14.8852834975832,45.9353044399585],[14.8855220223631,45.9353258238509],[14.8855953808909,45.9349580694045],[14.8843268395834,45.9347138532487],[14.8836684257318,45.9345149645197],[14.8832788545606,45.9344536525341],[14.8833298133554,45.9341357241334],[14.8834481799898,45.9335877020261],[14.8839063174834,45.9328601603753],[14.8839761954188,45.9327428106907],[14.8841609007129,45.9325336203943],[14.8842167068919,45.9324236344476],[14.8843717721538,45.9322667806808],[14.8844675802372,45.9320809840236],[14.8844807166092,45.9319646563671],[14.8843543389693,45.9319065830234],[14.8836506008258,45.9318156212481],[14.8828718959457,45.9316873276304],[14.8825097105832,45.9316126344045],[14.8823744354086,45.9315559893601],[14.8823611124919,45.9313315716827],[14.8821753852588,45.9306214575626],[14.8819886761972,45.9306197352904],[14.8810820921508,45.9304247139368],[14.8807319228141,45.9302835341535],[14.8806197054851,45.9301799427987],[14.8803700475587,45.9300701790427],[14.8802491580286,45.9300423393425],[14.8802455151906,45.9296979014384],[14.8798117099812,45.929597301001],[14.8794503566418,45.9295633587611],[14.8787046494089,45.9291635192041],[14.878152979485,45.9289538244605],[14.8786624725346,45.9283415292875],[14.8784656045947,45.9282127421255],[14.8782210919671,45.9279967155793],[14.8777435442574,45.9275076273773],[14.8773360714496,45.9269941384674],[14.877050846456,45.9265931616806],[14.8772456476492,45.9264857578745],[14.8774847936472,45.9263820903659],[14.8773564678558,45.9261054515106],[14.8772921464806,45.9258637925578],[14.8778079268038,45.9253154817087],[14.8782147122492,45.9249610441601],[14.8785182776876,45.9246976428107],[14.8786230328045,45.9245506406799],[14.878750786695,45.9244992191095],[14.8788929719571,45.9243332711504],[14.8790398930148,45.9242421894242],[14.8792751291273,45.9240924454349],[14.8798054934467,45.9238190225419],[14.8802851825837,45.923725859321],[14.8802660021517,45.9236519675723],[14.8799160521531,45.9233700602904],[14.8795532460497,45.9230728421705],[14.8792650790374,45.9227224349834],[14.8790375074037,45.9223143255358],[14.8787934467256,45.9219016092561],[14.8787403320656,45.9214862159102],[14.8788169914545,45.9212725102335],[14.8787863721855,45.92106525913],[14.8786345461446,45.9208670570763],[14.8785885742974,45.9206651882613],[14.8784962824824,45.920480455923],[14.8783686854376,45.9204642141774],[14.8783405714093,45.9204093878279],[14.8779819857804,45.919846194936],[14.8779234693813,45.9195461467305],[14.8777844158041,45.9194056328576],[14.8782672682793,45.9190880769726],[14.8781683583933,45.9188069711182],[14.8781945880316,45.9186031095349],[14.8781668301581,45.9183860536444],[14.8779858619202,45.9180777767833],[14.8779154459659,45.9178552765928],[14.8778902520181,45.9175866660944],[14.8778350785599,45.917350685458],[14.8775751470587,45.9171929462171],[14.8776286061484,45.9169180314422],[14.8777363706862,45.9166277885445],[14.8778445180462,45.9165150720787],[14.878035430233,45.9161653524424],[14.878225873389,45.9160289692761],[14.8783075621644,45.9159298108073],[14.8783582038699,45.9157621461447],[14.8783534088571,45.9155377364533],[14.8790401469895,45.9150479065183],[14.879155404378,45.9148639338942],[14.8792323973858,45.914432031881],[14.8793491056886,45.9141130038901],[14.8799854935382,45.9137662696828],[14.8803103150726,45.9131768957463],[14.8805300538848,45.913017145115],[14.8807105721589,45.9128123642096],[14.8809406983896,45.9123751319906],[14.8807782777909,45.9118948409193],[14.8809641066683,45.9112538525094],[14.8811565243083,45.9109058384855],[14.8815585330801,45.9105558820699],[14.8817878538144,45.9098833550062],[14.8818053594285,45.9095912149541],[14.8818458563061,45.9095194544861],[14.8820589496998,45.9091412276438],[14.8821452897379,45.9090288443638],[14.8822066867672,45.9087648225657],[14.8823268055181,45.9085260550151],[14.8825687299447,45.9082250578786],[14.8826671239893,45.9079573847145],[14.8826306529523,45.9075266230251],[14.8827003417431,45.9069344599472],[14.8825246146475,45.9064079985629],[14.8825097673646,45.9061754803301],[14.8823837356249,45.905921253001],[14.8821133037615,45.9052631456229],[14.8820074568395,45.9046694518452],[14.8820622638124,45.9044114516414],[14.8820119408111,45.904438842972],[14.8816826026574,45.9041533623025],[14.8812825556211,45.9043911190691],[14.8807718299458,45.9046115732143],[14.8803076063243,45.9047221207255],[14.8800094213189,45.9047561795957],[14.8795808703389,45.9047595078833],[14.8793876655037,45.9047026180173],[14.8788208824919,45.9043815169166],[14.8786258294276,45.9042865631213],[14.8785387958962,45.9042442709843],[14.8780483366948,45.9040339200214],[14.8779328226522,45.903931941632],[14.877519075382,45.9038290140199],[14.8772166849509,45.903608963313],[14.877115341325,45.9033942569119],[14.8766232773318,45.903157804461],[14.8762728165574,45.9025918239448],[14.8763373113088,45.9025672397869],[14.8757164591212,45.9017746699134],[14.8740613860202,45.9017817657242],[14.872334867006,45.9019217452536],[14.8708111236363,45.9022036434578],[14.8693627918269,45.9024718409327],[14.8692622104153,45.9026050732867],[14.86908499278,45.9028822725344],[14.8689803477188,45.9032083227883],[14.8685129815847,45.9032802182582],[14.8679588764939,45.9034608849764],[14.8675259611056,45.9035690773316],[14.8671451413268,45.9036652715739],[14.866695270349,45.9036406335788],[14.8661757255764,45.903809184924],[14.8653627499788,45.9037478547647],[14.8647221967718,45.9038558816475],[14.8643237355857,45.904048681935],[14.8633527107532,45.9045275573691],[14.8619465875725,45.9053553740638],[14.8612423483069,45.9061839377686],[14.8607007034151,45.9068241915826],[14.8596672601616,45.9076434357917],[14.8589216598938,45.907729346433],[14.857349122171,45.908102062253],[14.8566471405576,45.908063573049],[14.8564317969329,45.9077993975112],[14.8552981969633,45.9076472547162],[14.8540422707877,45.9075005231277],[14.8525987156085,45.907342378607],[14.850972736073,45.9073480978128],[14.8498439647676,45.9075651765608],[14.8493035017505,45.9077152681061],[14.8486030944776,45.9071489211106],[14.8481730066122,45.9064320362435],[14.847853939866,45.9057956478352],[14.8474199658392,45.9053755020665],[14.8467992767119,45.9052710170444],[14.8463132473504,45.9052703644277],[14.8462332956093,45.9049121446248],[14.8462347528014,45.9043843358771],[14.8459934741309,45.9037808886455],[14.8454812534644,45.9035162917877],[14.8451578204427,45.903308544733],[14.8441857432027,45.9033261188174],[14.8435370913307,45.9035514371787],[14.8414835284787,45.9040765977865],[14.8396193808713,45.9044698997908],[14.8379431102597,45.9052216401828],[14.8372400771952,45.9055599478765],[14.8368303921729,45.905851701977],[14.8362256253656,45.9060792908433],[14.8353699924778,45.905972697222],[14.8348656468462,45.9062356048863],[14.834209111915,45.9069201061458],[14.8334015817276,45.9075340207927],[14.8324691859689,45.9078314743341],[14.8321913197232,45.9081650646335],[14.8308290368805,45.9090594158932],[14.8302231708395,45.9095857878012],[14.8294394761814,45.9106390715189],[14.8299415578818,45.9110967273753],[14.8302173622808,45.9114485909841],[14.8305689200228,45.9117302935455],[14.8306680951623,45.9122225293804],[14.8304908161196,45.9125737199938],[14.8305152031075,45.9128198455412],[14.8299342043481,45.91316674669],[14.8293798181244,45.9133241013285],[14.8290013179862,45.9135871706033],[14.8285224636115,45.9137446340691],[14.8278407677481,45.9143412417547],[14.827159112296,45.9149201197472],[14.8267036826312,45.9156224265179],[14.8266007951469,45.9162900855533],[14.8267755951625,45.916747347769],[14.8265978939802,45.9172215310313],[14.825917234131,45.9174665853608],[14.8253355966781,45.9182389666629],[14.8248561942649,45.9185545946773],[14.8239724189693,45.9193441410696],[14.8234656689365,45.9203099900446],[14.8230607633474,45.9209069058083],[14.8231597206758,45.9214518739639],[14.8232567828269,45.9225942908684],[14.8233539427058,45.9236665250362],[14.823301578942,45.9242815313453],[14.8231739009317,45.9248612397947],[14.8222389543989,45.9258088734003],[14.82110440235,45.9262289180687],[14.8209513530338,45.9267910384848],[14.8206724736383,45.9273881424988],[14.8203188092064,45.9277039482216],[14.8199644584437,45.9282306592266],[14.8199896892154,45.9288812369122],[14.8205810045052,45.932203328292],[14.8205540870669,45.9327129187201],[14.8202255485927,45.9330639445212],[14.8197195189949,45.9337485960183],[14.8196324718396,45.9372105219966],[14.8198908832443,45.9428346072721],[14.8216097090213,45.9487069732507],[14.8216643202436,45.9550863531196],[14.8208785583629,45.9564911072711],[14.8206982257251,45.9576859007792],[14.8212482598914,45.9589872016521],[14.8214063938672,45.9607644964083],[14.8217702731338,45.9620746806604],[14.8269992138537,45.968843227702],[14.8270498017964,45.9702092441438],[14.8270560402267,45.9708582571132],[14.8272300308855,45.9716317818349],[14.8274045724849,45.9722294921704],[14.8274282071835,45.9727216114726],[14.8271739810218,45.9733891256923],[14.8270965021032,45.9739864549222],[14.8273974902364,45.9744262669136],[14.8301769171153,45.9802472517991],[14.8311067783169,45.9811448882383],[14.831533429233,45.981707872623],[14.8322372060339,45.9823942606855],[14.8331173579335,45.9830632665728],[14.8338702465652,45.9841714369431],[14.8357916385794,45.9861581997375],[14.8371413366702,45.9864325803752],[14.8382414549466,45.9870038749728],[14.8404372423908,45.9884157260876],[14.8410421343467,45.9884517498715],[14.8411657086691,45.9886615672357],[14.8410910454684,45.9889965364145],[14.8411400292287,45.9894711412226],[14.8414918339581,45.9898582592093],[14.842322920701,45.9901581311859],[14.8429522386802,45.9905104463112],[14.8433290856179,45.9909502292875],[14.8436543083081,45.9918469314521],[14.843376355226,45.992039910546],[14.8430539735249,45.9925140947225],[14.8429454194602,45.9928301232612],[14.8429694485126,45.993234420976],[14.8425900687183,45.9936380737759],[14.8422360059003,45.9939891239584],[14.842083310668,45.9944809947945],[14.8421830332894,45.9948677617207],[14.8422324811807,45.9951840974987],[14.8422540095502,45.9964670124197],[14.842831249533,45.9973640636221],[14.8434082902899,45.9983841093401],[14.8433442144869,45.9994965805737],[14.8434246651244,46.0003140369279]]]},"properties":{"fill-opacity":0,"stroke-opacity":1,"stroke":"#ff0000","lov":"1317","lov_naziv":"ŠENTVID PRI STIČNI","luo":"13","luo_naziv":"Zasavsko","povrsina":4855.96},"id":"pregledovalniklovisca.1"}]}