{"type":"FeatureCollection","features":[{"type":"Feature","geometry":{"type":"Polygon","coordinates":[[[14.9700246136542,46.1086859633261],[14.9692163497166,46.1082639469948],[14.9669937032769,46.1067518411221],[14.965958020945,46.1064352761061],[14.9624470837498,46.1049052352992],[14.961689622953,46.1041315606525],[14.9614373527722,46.1034458678411],[14.9609325061946,46.1029008089563],[14.9601500084817,46.1017579485453],[14.9598977044642,46.1011601574593],[14.9584836588919,46.1002280530218],[14.9576507541332,46.0991555169957],[14.9575502867828,46.0982764251387],[14.955783597479,46.0961312035203],[14.9532838185641,46.094847256638],[14.9520464371222,46.0943723063319],[14.9509099128944,46.0942313729835],[14.9499252325892,46.0936509672807],[14.9482331888383,46.0931934106038],[14.9470212181714,46.0927359623834],[14.9455059476835,46.0924718032924],[14.9441925370712,46.0924889846308],[14.9427781958827,46.0923127441594],[14.9408332006701,46.0923121138292],[14.9399494643229,46.0920304811385],[14.9390154245875,46.0915203682634],[14.9380557914524,46.0913617661731],[14.9363633781254,46.0914841922063],[14.9351005259635,46.0914133916392],[14.9344183080426,46.091571358249],[14.9336351533275,46.0917819875694],[14.9318919799147,46.0920450387907],[14.9306793547121,46.0922379359895],[14.9298458790696,46.0922375174588],[14.9290876731967,46.09253612644],[14.92807731852,46.0926059455788],[14.9271677863711,46.092711000289],[14.9248946529342,46.0926396187382],[14.9237757178283,46.0925737361637],[14.9221922199868,46.0924449047604],[14.9204244840857,46.0921099705601],[14.9179490211839,46.0921965758434],[14.9161805161542,46.0924769143801],[14.9135019024409,46.0932841537032],[14.9118851044634,46.0934413647029],[14.9095362636393,46.093316894016],[14.9077435346619,46.0928762932963],[14.9062545601135,46.0920842017246],[14.9031770217995,46.0896208197753],[14.9023949183609,46.0891103560687],[14.9013564931889,46.0907974860528],[14.9022403546941,46.0908859710356],[14.9023906491019,46.0916772496766],[14.9017591800781,46.0916767986683],[14.9019356487318,46.0918527613418],[14.9017330260022,46.0922042095921],[14.9022127502011,46.0923100716877],[14.9025910428525,46.092661926952],[14.9025399567845,46.0930311407152],[14.9025391825655,46.0934706677914],[14.9030684688405,46.094156637098],[14.9033449154367,46.0950007462543],[14.9043288263984,46.0957573634834],[14.9050853094498,46.096566598797],[14.905488728162,46.0970767309368],[14.906195153388,46.0976046557774],[14.9068510923728,46.0981676252801],[14.9071532799957,46.0987480292207],[14.9071276166476,46.0990117247519],[14.9067481255788,46.0993279474075],[14.906166752551,46.0995560977907],[14.9063429728693,46.0999782244458],[14.9062413926398,46.1003122178338],[14.9055834633564,46.100979829546],[14.9049009913035,46.1012431600134],[14.9049008100039,46.1013486103799],[14.905456294289,46.1015247920436],[14.9056580075856,46.1017885849816],[14.9056317956349,46.1023688110346],[14.9061112276598,46.1027031024101],[14.9068676836189,46.1036002302986],[14.9070943498191,46.1041103019644],[14.9068411983244,46.1044265372892],[14.9061578842231,46.1051645813918],[14.9057017656487,46.1059378091536],[14.9056254939878,46.1062893676004],[14.904614221886,46.1067282348557],[14.9036280049895,46.1072550195897],[14.902919567496,46.1078172121458],[14.9023629417204,46.1082563546195],[14.902084425576,46.1086253726795],[14.9017050315346,46.1089063980298],[14.9009464488766,46.1092750894233],[14.9002386562285,46.1094503744619],[14.8994289960588,46.1100827270305],[14.8987966095923,46.1105394203254],[14.8983668301775,46.1106270342617],[14.8976849205847,46.1105034305143],[14.8973056884606,46.1106086307606],[14.8970526802066,46.1108018487736],[14.8967740171978,46.1112236687423],[14.8963692885071,46.1114694732747],[14.8957881425086,46.1114866699455],[14.8954339935985,46.1116621570563],[14.8954334948759,46.1119258723849],[14.8952055635723,46.1122597396166],[14.8947501366934,46.112558307012],[14.8940677059908,46.1126984869729],[14.893005811471,46.1130492988817],[14.8923734825969,46.1133652361051],[14.8921961530902,46.1136112396529],[14.8921954940539,46.1140155850978],[14.8924473711074,46.1144201684048],[14.8923205894358,46.1146837647033],[14.8918147136622,46.1148943675306],[14.891259138725,46.1147181199078],[14.8910057091676,46.1151047694509],[14.8909542475571,46.1156145165858],[14.890751745456,46.11582540368],[14.8899932048835,46.1160884817683],[14.8892344572353,46.1163867346823],[14.8885010949371,46.1166674622615],[14.8878941283838,46.1169483091526],[14.8875904708967,46.1171414563264],[14.887211496785,46.1170884478809],[14.887254367296,46.1176368853122],[14.8874302284455,46.1181291296327],[14.8880104495681,46.1186042254697],[14.8885908224663,46.1190089583589],[14.8888418597119,46.119764989056],[14.8894713761184,46.1208376461957],[14.8896975184906,46.1214353855035],[14.8897210313163,46.1222965543268],[14.8901237477037,46.1230527280003],[14.8911811553173,46.1250221113417],[14.8926178970727,46.1268687561542],[14.8927845690046,46.1280017806797],[14.8933254024449,46.128378199794],[14.8935279493643,46.1286330162268],[14.8938200981015,46.1287943421668],[14.8940203006974,46.1289914819358],[14.8939877331531,46.1291039197454],[14.8944497529207,46.129221314018],[14.8949349083174,46.1292866325085],[14.8954888978443,46.1290846979394],[14.8958194548361,46.1287835854135],[14.8960868225964,46.128501309119],[14.8958311119807,46.1282288137942],[14.8957577236675,46.1278939520688],[14.8963060189831,46.1278211216009],[14.8968118316077,46.1276985842771],[14.8970897589563,46.1277163798384],[14.8975438966999,46.1281737678814],[14.8981498684274,46.128473024473],[14.8983767498347,46.128736851429],[14.8986973762223,46.1289017891896],[14.89892519518,46.1287261808604],[14.8990522668056,46.1283043131441],[14.8993561377398,46.1280056860656],[14.899786080783,46.1278301637993],[14.8997865909911,46.1275488142118],[14.9001405080345,46.1274787639313],[14.9007721966624,46.1275846740759],[14.9011511299563,46.1277079974267],[14.9017070233811,46.1277962918195],[14.9022381150964,46.1275681222404],[14.9025667389391,46.1276034928452],[14.9031472820411,46.1280257863069],[14.9038114092332,46.1284602037238],[14.9044936834778,46.1285837708237],[14.9052438082842,46.1288358735698],[14.9054960286055,46.1291349773445],[14.9062033407098,46.1293815499278],[14.9074164240916,46.1294526289347],[14.9077447396661,46.12968133937],[14.9082753284815,46.1297520363566],[14.9089321621245,46.1300161864916],[14.9092854196234,46.1303504523003],[14.9100184860869,46.1302981267576],[14.9104990409793,46.1301049691181],[14.9108274705881,46.130193130771],[14.91140843081,46.1304922974516],[14.912292133814,46.131090588725],[14.9131513940356,46.1311966047736],[14.9131256335201,46.1315305700534],[14.9131757366778,46.1318471379289],[14.9138828986371,46.1322342926759],[14.9140334513229,46.1329551905032],[14.9149164311155,46.1341511601473],[14.9166096407933,46.1343983077084],[14.917898451732,46.1347154103832],[14.9195160562718,46.1348217407173],[14.9212856993559,46.1346819832323],[14.9243290987143,46.1343458249291],[14.9251812765148,46.1339065014028],[14.9256460814303,46.1334759176129],[14.9257633552794,46.1328821632005],[14.925621796688,46.1322882404858],[14.9254929277052,46.1318832719622],[14.9255968466113,46.1315954216929],[14.9259595535827,46.1313347315378],[14.9265421881207,46.1310291945742],[14.9279012845432,46.1309220906221],[14.928198884832,46.1309582676881],[14.9287298662304,46.1305537152818],[14.9298953291846,46.1299516076048],[14.930296668866,46.1298168914495],[14.9307885026431,46.1297542082232],[14.9311380191656,46.1296644449173],[14.9319659774633,46.129979761084],[14.9325218452893,46.1304659522438],[14.9332205978719,46.130520347213],[14.9336001067362,46.1309955430201],[14.9341552472317,46.1317869187632],[14.9355199350068,46.1321039565619],[14.9364181794495,46.1324609380921],[14.9453627922006,46.133313931358],[14.9463374430226,46.1330393415071],[14.9469952286843,46.1324065889216],[14.947880362785,46.1317914813658],[14.9488412794865,46.1313522107446],[14.9502064502322,46.1310712837641],[14.9522538270082,46.1309838924039],[14.9532142631986,46.13105446954],[14.9537954473787,46.1313710558093],[14.9550840719178,46.1319339091629],[14.9554559794549,46.1311672032009],[14.95562383718,46.1305104555609],[14.9567028483641,46.1298714214021],[14.9572044796299,46.1298192452084],[14.9580176566458,46.1298599452532],[14.9587003081623,46.1294908490507],[14.9592314404298,46.1289107948107],[14.960015214768,46.1284361867317],[14.961051659321,46.128207829614],[14.963604418441,46.1282433110468],[14.9648679474131,46.1286303264062],[14.9657271287805,46.128964392281],[14.966308436934,46.1289469301092],[14.9667020813279,46.1289675596169],[14.9670365043755,46.1289095330786],[14.9672185077797,46.1285953947917],[14.9679771584153,46.1278042848592],[14.9681542266706,46.1275054392915],[14.967773248991,46.1273053193679],[14.9671129554574,46.1272179460863],[14.9666129002068,46.1266437642323],[14.9666383988927,46.1262042465236],[14.9670430385402,46.1257647487404],[14.967346684006,46.1252022255977],[14.967247663131,46.1211058384808],[14.9672736909918,46.1195410987224],[14.9669455046351,46.1187850380589],[14.9661375471882,46.1174488590896],[14.9657841817369,46.1166576072842],[14.9655577441337,46.1148291651945],[14.9658358028067,46.1145655330028],[14.9662654631853,46.1145479356091],[14.9665121395035,46.1146123400025],[14.966540472394,46.1143984786008],[14.9664981483502,46.114002847729],[14.9664176644034,46.1133875774955],[14.9671257016518,46.1123151954242],[14.9694662304496,46.1116171912627],[14.9714718440403,46.1105327946491],[14.9722261351466,46.1100797778603],[14.9700246136542,46.1086859633261]]]},"properties":{"fill-opacity":0,"stroke-opacity":1,"stroke":"#ff0000","lov":"1309","lov_naziv":"ŠENTLAMBERT","luo":"13","luo_naziv":"Zasavsko","povrsina":2204.6},"id":"pregledovalniklovisca.1"}]}