{"type":"FeatureCollection","features":[{"type":"Feature","geometry":{"type":"Polygon","coordinates":[[[15.007830544186,46.1881543857979],[15.0084524459322,46.1878338560124],[15.009104559487,46.1877261976649],[15.0100150852964,46.1881821970412],[15.0107970550662,46.1883305820791],[15.0116510349187,46.188373955418],[15.0126602230254,46.1884605825297],[15.0134365315173,46.1881911133731],[15.0140420002949,46.1880727254981],[15.0151754480572,46.1882563064763],[15.0159984404286,46.1882025700812],[15.0163554698596,46.1882026995068],[15.0164797562546,46.1883752507626],[15.0166197483288,46.1890762137031],[15.0170655322102,46.1895215165962],[15.0175049528456,46.1898960095948],[15.0188871161279,46.1906296129224],[15.0192091687433,46.1909628208274],[15.0199405420381,46.1914544903009],[15.0199741091003,46.1914893041523],[15.0208904209503,46.1914280484349],[15.0218766380278,46.1918895175383],[15.0234838548142,46.1920971272237],[15.024043032073,46.1924315320977],[15.024648770454,46.1928630054785],[15.0251223589431,46.1929881453483],[15.0256271720367,46.1931112068703],[15.0278318652636,46.1926154778412],[15.0283327299223,46.1926132854193],[15.0290741619743,46.1928204879381],[15.029654758438,46.192915710603],[15.0305649712925,46.193047101943],[15.0311728481211,46.1932630538829],[15.0317764177466,46.1936404160259],[15.0321037574459,46.1942119254266],[15.0323048256528,46.1944169180951],[15.0332833022261,46.1946865575096],[15.0346189708194,46.1949239604407],[15.0353645693897,46.1952798467751],[15.0362487273503,46.1955089119252],[15.036808835421,46.1955171904518],[15.0373521347277,46.1951936500009],[15.0378917083206,46.1951138460139],[15.0389052019139,46.1955604032494],[15.0404851698375,46.196362056983],[15.0415612077966,46.1963585217931],[15.0422756919456,46.196606496247],[15.0427534526313,46.1968392595319],[15.043363259404,46.1972535369709],[15.0437127969998,46.1973721686405],[15.0418916334073,46.1952095315283],[15.0407420367885,46.1941753432899],[15.0397629353378,46.1934365567304],[15.0443985348909,46.1906959699746],[15.046099911052,46.1901936047049],[15.052246321029,46.1886863349815],[15.0537140205534,46.1886123264305],[15.0577971393584,46.1875481082705],[15.0587544079076,46.187607092765],[15.0631552838935,46.1855527207929],[15.0643037770224,46.1854343052237],[15.0713230677279,46.1853737280759],[15.0759362646735,46.1834222001663],[15.0767264473592,46.1836222235889],[15.0771963093886,46.183741122214],[15.0769637278887,46.1833233519261],[15.0766913913373,46.1829115460656],[15.0764189398065,46.1824138148543],[15.0758995242202,46.1819506170852],[15.0748496094244,46.181427933061],[15.0746970727447,46.1807953386118],[15.0742154919807,46.1799344250384],[15.0738604599258,46.1791612418606],[15.0737832893816,46.1780188966347],[15.0736302470424,46.1768941448814],[15.0732750094159,46.1759452410466],[15.0728692499636,46.1749788232981],[15.0725395239493,46.1742057091874],[15.0718054039701,46.1736787468655],[15.0709196470376,46.1732574131092],[15.0701851974868,46.1724492726413],[15.0696531893866,46.1716410941478],[15.069247880789,46.1710612797147],[15.0692461960195,46.1694091826978],[15.0688906652789,46.1681263714661],[15.0688142290155,46.1675816262059],[15.068940394681,46.1671948428096],[15.0694202689722,46.1665444016904],[15.0697994012039,46.1663157273199],[15.0702797547519,46.16615725905],[15.0709113698511,46.1655067181638],[15.0717706843538,46.1649087556531],[15.0720225787227,46.1639420082219],[15.0729321613804,46.1630979266167],[15.0732600090806,46.1623068466536],[15.0733601113982,46.1613401930073],[15.0737641239384,46.1607775961663],[15.0741428444725,46.1602852838722],[15.074369688516,46.1595119006871],[15.0742929498689,46.1587737145062],[15.0740901641665,46.1583695932167],[15.074544558602,46.1576487864533],[15.0742405146273,46.1571392818564],[15.0736832655816,46.156366316161],[15.0731513848211,46.1555756965135],[15.0725182664161,46.1546795990503],[15.0720628058709,46.1543868417547],[15.071227682136,46.1538366342585],[15.0705435180426,46.1524661243242],[15.0695408106466,46.1504960371094],[15.0689719158316,46.1496208440837],[15.0669444042118,46.1471840213014],[15.067240033396,46.1464114199506],[15.0674370718174,46.1458963819197],[15.0678067267314,46.1452266656595],[15.0683860503319,46.144435177823],[15.0691443934977,46.1443820867569],[15.0696749266914,46.144030415514],[15.0703069048646,46.1439597587458],[15.0706862834587,46.1440475195193],[15.0710656241161,46.1442054589042],[15.0717481005288,46.1440469479803],[15.072405078441,46.1436951846125],[15.0728854365375,46.1436948793478],[15.073517102785,46.1433958505703],[15.073997069732,46.1430089218348],[15.0742745747348,46.1425166730355],[15.0746531419772,46.1420068125958],[15.0750066631463,46.1415496921783],[15.0742228059674,46.1414622090472],[15.0738433810824,46.1412339202855],[15.0742476321124,46.1410579387968],[15.0749553003401,46.1408993922699],[15.0751065303579,46.140459948892],[15.0753325367339,46.1391416776514],[15.0754838216899,46.1388428633549],[15.0744725460527,46.1387203519098],[15.0737136993887,46.1383340444505],[15.0730312427051,46.1383519374984],[15.0718939718099,46.1386688279442],[15.0714388280575,46.1386163883786],[15.071716561971,46.1382998649932],[15.0719941782586,46.1378955261087],[15.0718673913577,46.137438626586],[15.0711342712476,46.13740381523],[15.0705523240656,46.1369646515517],[15.0704504081479,46.1362090203949],[15.0701213718923,46.1357697882566],[15.069312388976,46.1356998317674],[15.0684527372255,46.1354717250852],[15.068022470393,46.1349973674692],[15.0674912841275,46.1346461526873],[15.066151378676,46.1344182212232],[15.0652154271746,46.1336628847247],[15.0643295849246,46.1325736174825],[15.0640254953894,46.1317124637162],[15.0638733628104,46.1312028440475],[15.0635695832431,46.1307108535676],[15.0629372367444,46.1302190436127],[15.0623552227328,46.1294811227054],[15.0620265671407,46.1292879465308],[15.0618530612284,46.1281588617265],[15.061847595775,46.1270910482044],[15.0621253267984,46.1267745474826],[15.0627065310386,46.1265986000248],[15.0627597380195,46.1258211016221],[15.0608600773362,46.1250526672298],[15.0599026529651,46.1249262189929],[15.0590686467363,46.1248913830095],[15.0568959344986,46.1255250055678],[15.054116232291,46.1258424355846],[15.0518921889123,46.1259311919383],[15.0505783396162,46.126160135976],[15.0490871730987,46.1262134210923],[15.0464591090235,46.1266009596639],[15.0430976132128,46.1265668265226],[15.040671125549,46.1262863655281],[15.0381182747313,46.1260586202474],[15.0359441258316,46.1253210841719],[15.0354356019395,46.1259471052553],[15.0354106111162,46.1265270882779],[15.0357394117327,46.1269136960859],[15.0354698773618,46.1273340506102],[15.034855067576,46.1277222994261],[15.0344004210235,46.1282672322524],[15.0341479316669,46.1288648280078],[15.0344260423101,46.1293041795633],[15.0349065420966,46.1297259237788],[15.03531105184,46.130094964453],[15.0354123407048,46.1306397279941],[15.0355389286458,46.1310791235452],[15.0358677230397,46.1314130057004],[15.0359183731588,46.1318875145729],[15.0356658996888,46.1323093933933],[15.0351604873518,46.1326433547966],[15.0348067487246,46.1331882576846],[15.0341750004021,46.1335047080826],[15.0337709557112,46.1343484274277],[15.032860979601,46.1345242325302],[15.0323808348265,46.134752814329],[15.0316731749422,46.135227447119],[15.0312436529119,46.1357371797557],[15.0309658279778,46.1362820496866],[15.030233019037,46.1372136595894],[15.0299297954053,46.1374948190025],[15.0291713702824,46.1375301050259],[15.0286658909164,46.1376531377495],[15.0282363851974,46.1382859436467],[15.0277562622379,46.1389186701869],[15.0276047212239,46.1394811358608],[15.0277564184447,46.1397447236336],[15.0282622066897,46.1401840338359],[15.0282370084446,46.140518024377],[15.0278832628035,46.1410277251688],[15.0277063652869,46.1416252868902],[15.0273779340058,46.1420471650663],[15.0267459379068,46.1424162988468],[15.0266449371881,46.1428732113509],[15.0265692603531,46.1435059273819],[15.0269739698704,46.1441913457805],[15.0277325996765,46.1448943122835],[15.0282383090886,46.1450875429255],[15.0283395139293,46.1452985072528],[15.0282384852051,46.1456851511391],[15.0285419871341,46.1460893295516],[15.0287191610576,46.1465110838915],[15.0286940341403,46.1472316929239],[15.0287447849725,46.1477413835051],[15.0289724152602,46.1480928548597],[15.0296805427188,46.1486201013448],[15.0302117481244,46.1492000251286],[15.0306166197906,46.1502545035345],[15.0306930043108,46.1516605076068],[15.0309964670544,46.1521349488125],[15.0314520557602,46.1532948595033],[15.0312499319042,46.1536991681843],[15.0315283253262,46.1544548733887],[15.0318318488885,46.1547711378472],[15.0326160931075,46.1555267882575],[15.0330209343302,46.1561594590178],[15.0338049992954,46.1565635728642],[15.033653609925,46.1575653875856],[15.0334261218278,46.1577763532661],[15.0329964826852,46.1583563601461],[15.0331735689426,46.1587254719497],[15.0307968022099,46.1594990129858],[15.0297346399934,46.1594112997046],[15.0293805907653,46.159551930511],[15.0290014111028,46.1601670890128],[15.0283946962785,46.1607295782281],[15.0279901859576,46.1612217452273],[15.0276363695567,46.162118061184],[15.0273331113177,46.1631550829488],[15.0271307741926,46.1629968671233],[15.0270042056887,46.1626102793832],[15.0267513294973,46.1623642602976],[15.0268269773941,46.1618897203366],[15.0266498979538,46.1614678742073],[15.0268773683876,46.1608703043265],[15.0269530131591,46.1603957641582],[15.0267506702363,46.1602024577605],[15.02632076149,46.1601321979566],[15.0255113957384,46.1598862128222],[15.0247275253485,46.1598862950938],[15.0236400775946,46.1600093395365],[15.0229825999115,46.1600621083476],[15.0219456808292,46.1599566827396],[15.0196950420918,46.15990400804],[15.0192650949227,46.1600622554425],[15.0189111774088,46.1606773761584],[15.0187593910469,46.1609585696008],[15.0184558904922,46.1609761639125],[15.0181019000755,46.1606246924916],[15.0178236386832,46.1606071013307],[15.0171661445203,46.1610639994354],[15.0170649978775,46.1614155425752],[15.0166098878265,46.1619252216931],[15.0165846408682,46.1623645678033],[15.0164582382952,46.162716113987],[15.0165088063413,46.1629446403172],[15.0170146906246,46.1632960940213],[15.0169893759447,46.1635069965089],[15.0164835598381,46.1638233286582],[15.0162812514994,46.1641045259282],[15.016306574685,46.1643506007842],[15.0168125177831,46.1652821165868],[15.016837854585,46.1655632810635],[15.0165342828658,46.1658621284342],[15.0162307856478,46.1659851661368],[15.0151937923383,46.1659674938505],[15.0146375046853,46.1660378359836],[15.0139292513386,46.1663541824312],[15.013549882972,46.1665650366622],[15.0130440904765,46.1666353650377],[15.0125888561472,46.166951673997],[15.0123611902089,46.1674789452942],[15.0124369910706,46.1682522617732],[15.0127153176376,46.1683928601723],[15.0129935616505,46.1687268115422],[15.0135499086934,46.1693068078414],[15.0136511757341,46.1698164971458],[15.0144099239497,46.1702734706861],[15.0147640822712,46.1706249529223],[15.0150930155245,46.171064341714],[15.0154976810709,46.171380725194],[15.0167624036332,46.1721013262626],[15.0181031271307,46.1730504344543],[15.0183815033519,46.1736128156363],[15.0186345670226,46.1747551705738],[15.0189635591373,46.1755812547273],[15.0196214040956,46.1767587189184],[15.0205574972278,46.1779538541878],[15.0210889161609,46.1786040867345],[15.020886637045,46.1790435550018],[15.0199506803139,46.1797289611504],[15.0183569809083,46.1804847364356],[15.0170668123468,46.1810999057643],[15.0161560369953,46.1818029116538],[15.0159284174809,46.1825849937843],[15.0065417338859,46.1885248875604],[15.0069620072681,46.1887068790464],[15.007830544186,46.1881543857979]]]},"properties":{"fill-opacity":0,"stroke-opacity":1,"stroke":"#ff0000","lov":"1311","lov_naziv":"TRBOVLJE","luo":"13","luo_naziv":"Zasavsko","povrsina":2578.99},"id":"pregledovalniklovisca.1"}]}