<?xml version="1.0" encoding="utf-8" ?>
<kml xmlns="http://www.opengis.net/kml/2.2">
<Document id="root_doc">
<Schema name="pregledovalniklovisca" id="pregledovalniklovisca">
	<SimpleField name="lov" type="string"></SimpleField>
	<SimpleField name="lov_naziv" type="string"></SimpleField>
	<SimpleField name="luo" type="string"></SimpleField>
	<SimpleField name="luo_naziv" type="string"></SimpleField>
	<SimpleField name="povrsina" type="float"></SimpleField>
</Schema>
<Folder><name>pregledovalniklovisca</name>
  <Placemark id="pregledovalniklovisca.1">
	<Style><LineStyle><color>ff0000ff</color></LineStyle><PolyStyle><fill>0</fill></PolyStyle></Style>
	<ExtendedData><SchemaData schemaUrl="#pregledovalniklovisca">
		<SimpleData name="lov">1315</SimpleData>
		<SimpleData name="lov_naziv">VIŠNJA GORA</SimpleData>
		<SimpleData name="luo">13</SimpleData>
		<SimpleData name="luo_naziv">Zasavsko</SimpleData>
		<SimpleData name="povrsina">5505.57</SimpleData>
	</SchemaData></ExtendedData>
      <MultiGeometry><Polygon><outerBoundaryIs><LinearRing><coordinates>14.7385065534362,46.0142691251773 14.7383832389011,46.013636309917 14.7385137844919,46.01265262823 14.7384390228159,46.0124591881205 14.7388961075704,46.0117572485832 14.7389243004954,46.0110896888993 14.739154570359,46.0103696844401 14.7398656620724,46.0092466911607 14.7400447301354,46.008702291912 14.7397954207839,46.0080341001363 14.7397725018814,46.0075245118867 14.7396478329631,46.0072079610678 14.7389689465859,46.0067321471443 14.7385160340298,46.0065028417769 14.7375090462751,46.0061141749056 14.7373588366785,46.0058502890058 14.7379161860321,46.005289126069 14.7384750966272,46.004394241463 14.7396861296462,46.004273738538 14.7401669559787,46.0038882040653 14.7405975388202,46.0034498273376 14.7411016559652,46.0035211520243 14.7418323817297,46.0036456227979 14.7424639032581,46.0034185074953 14.7429431235123,46.0034018609953 14.7437007657996,46.0031222962644 14.7447111696154,46.0027378389999 14.7461016540172,46.0019323182617 14.7472151743303,46.001038441202 14.7478974254681,46.0006884101526 14.7484044243981,46.000091993684 14.7504182002089,46.0003567109816 14.7552634189646,45.9995761160349 14.7592783661695,45.9983190338265 14.7599986247474,45.9978421435669 14.7604902071763,45.9979700416776 14.7613721337757,45.9981124297792 14.7614371742546,45.9973375979379 14.7616168002925,45.9966349862314 14.7619495301905,45.9955109731391 14.763009824181,45.9952319100352 14.7636419864644,45.9948114091034 14.7646514855925,45.9946024973657 14.7653324886076,45.9945335360309 14.7655842351181,45.994621959755 14.7659120758785,45.9946049963123 14.7664676004433,45.9944127731883 14.7668730612562,45.9939567000109 14.766925232964,45.9935525417138 14.7673802187758,45.9932898373386 14.7670930497296,45.9929067620582 14.7674078940013,45.9926924491949 14.7681906243659,45.9924303181148 14.7683174762189,45.992254851063 14.7681678560884,45.9918854636806 14.7681687362823,45.9916746503021 14.7683212717083,45.9913761473285 14.7688016971464,45.9910432170344 14.7691059520458,45.9906395672112 14.7691589806778,45.9900245941685 14.7692861891842,45.9897612195245 14.7700188915273,45.9894111575984 14.7713091357502,45.9883592204478 14.7727992217334,45.9877294765912 14.7736574953705,45.9874674580069 14.7746071409461,45.9867935200546 14.7742146224572,45.9866346562529 14.7732299449963,45.9860248242285 14.7724377365753,45.9855408845376 14.7760408795247,45.9780632860463 14.7761201756422,45.9771847278094 14.7770316920523,45.9761847077376 14.7775387052164,45.9754827066882 14.7784493970481,45.9746760336952 14.779033186797,45.9736754514133 14.7798571574931,45.9730196704467 14.7811048653101,45.9724666396809 14.7813586809991,45.9720102228368 14.7816894818394,45.9712375036684 14.7819942232867,45.9706581841271 14.7823992540463,45.9702019632049 14.7830068436971,45.9695528551195 14.7835375894377,45.9691495951965 14.7843458840764,45.9687117658381 14.7847250394205,45.9684312126994 14.7847767158227,45.9681150410022 14.7846019649889,45.9676928997403 14.7842252026402,45.9673582844579 14.7836970782984,45.9670937435351 14.782287067865,45.9667572515292 14.7812298261743,45.9664565089698 14.7808274469118,45.9662449219018 14.7801477137374,45.9660854367346 14.7795698687802,45.9656450559259 14.7789409556054,45.9653626630007 14.7786405400538,45.9648876327154 14.7787181773812,45.9643780632355 14.7774073725212,45.9640050822437 14.7769680490375,45.963362329534 14.7779650488703,45.9626708177865 14.7784830631733,45.9620555701614 14.7786707764169,45.9611827963678 14.778305025013,45.9605658344095 14.7778252959889,45.9599333535826 14.777413888842,45.9594460468537 14.7771843259818,45.9589436172215 14.7766939255037,45.9585977777607 14.7758686153636,45.9582537991997 14.7749484197638,45.9578644593237 14.7742955933993,45.9574939057262 14.7736510336779,45.9571863487466 14.7734464222745,45.9566814414575 14.7738598999674,45.9566461795497 14.774247210505,45.9567009315847 14.7747143733302,45.9562152570198 14.7754915372436,45.9556941990581 14.7755463228951,45.9549374187172 14.775521686738,45.9546490834492 14.7757294913756,45.9543971954193 14.7761178036893,45.9541997370528 14.7764817626054,45.9536417810945 14.7767945498309,45.9529755713894 14.776829815772,45.9521918487603 14.7770516069701,45.9519867736875 14.7777150693153,45.9517826480834 14.7788949017919,45.9513482773445 14.7788960248647,45.9510658409789 14.7783265007267,45.9504240997262 14.778274484356,45.9500118130354 14.777794871316,45.9498249884912 14.7772199595861,45.948699153391 14.7756877418823,45.9476067112738 14.7754370431248,45.9473074943088 14.7740499229271,45.9459489821263 14.7747586925663,45.9454663032758 14.7755895177722,45.9444587519918 14.7761098243655,45.9435586493754 14.7769920406089,45.9425872691597 14.7777700573958,45.941831895047 14.7781850028924,45.9414001799031 14.7787032312969,45.9410046542265 14.7792432998403,45.940531067979 14.7786402289518,45.9401784496816 14.7771061170515,45.9395780177985 14.7755462521839,45.9391356949926 14.7740116312409,45.938675855181 14.7727556103311,45.93786509716 14.7722054225817,45.9368974639831 14.772637429574,45.9359844231398 14.771650379818,45.9352636250117 14.7711323156759,45.9345228836853 14.7697476816291,45.9343795574305 14.7678842361258,45.9342704240754 14.7655457718234,45.9333871100133 14.7634141050476,45.9312563677031 14.7621718190036,45.9292682541083 14.7614878377288,45.9291948465424 14.760752075712,45.929139322005 14.7604290269276,45.9292107172758 14.7598735355228,45.9292726256935 14.7593384093627,45.9293360139412 14.758840198705,45.9293606072747 14.7582332722448,45.9293594148561 14.7576267498769,45.9292950558072 14.7570073237681,45.9292036728258 14.7565560667236,45.9290766538188 14.7563375857828,45.9288238910242 14.756404038601,45.9284005081522 14.7560947907053,45.9282647021857 14.7557847929034,45.9283001211528 14.755306797356,45.9283622629428 14.7548935484361,45.9283613773463 14.7545711324379,45.9282886133099 14.7543012274243,45.9280042439717 14.7542253766549,45.9276617160677 14.7542525169978,45.9273554006608 14.7544606635757,45.9269953977358 14.7548239160382,45.9266357272837 14.7553164146584,45.9262042603757 14.7553443899488,45.9257358067126 14.7556075678669,45.9250257263883 14.7560450039375,45.9243269047985 14.7558241199018,45.9225106835178 14.7558091281699,45.9224601739987 14.7558812608668,45.9224458417021 14.7558786537934,45.922393559093 14.7557819359607,45.9223988410815 14.7557720262806,45.922365438179 14.7556934513611,45.9223788568577 14.7554499399584,45.9220198648666 14.755078807379,45.9216876821745 14.7546277638817,45.9213515476396 14.7533264418398,45.9211691505666 14.7516357461998,45.9209367652541 14.7511770058462,45.9206268738183 14.7503521113855,45.9202932368964 14.7498651222503,45.919989486906 14.7490536457691,45.9194858120125 14.7484425171442,45.9191831329099 14.7480161891948,45.9190393089789 14.7470640039946,45.9186406734677 14.7466021628304,45.9181154398897 14.7453470728377,45.9174586915359 14.7445536928762,45.9170456324046 14.7436281006736,45.916539774035 14.7433948650424,45.9164629493835 14.742365619983,45.9160189326174 14.742107215301,45.9159218935574 14.7412821022202,45.9164941768182 14.7413055252703,45.9168632287495 14.7411532961558,45.9171089732732 14.7407238328965,45.9174243615621 14.7405209485737,45.9177227172538 14.7397628015264,45.9183008999809 14.7393076419648,45.918704132632 14.7372868093272,45.9200528600428 14.7364539644465,45.9204375766841 14.7357720366706,45.9208578175658 14.7344374047128,45.920889995149 14.733882841424,45.9210117946071 14.733175871182,45.9213792346982 14.7324178113595,45.9219398228933 14.7320627513712,45.9224487146457 14.7315062177268,45.9229746777175 14.7313786454507,45.9233082851141 14.7314018357167,45.9237125193679 14.7307712610523,45.9239219431997 14.7304177056346,45.9241144717261 14.7297868667455,45.9243766164028 14.7293829371185,45.9245865682356 14.7288772390201,45.9249896392257 14.7283726062315,45.9251993485044 14.7278422691568,45.9254969025001 14.7274140429312,45.9255310631197 14.7268589871484,45.9257406454114 14.7252181558825,45.9265276152715 14.7248399438584,45.9266146133826 14.7236562380084,45.9266293927261 14.7231015068256,45.9267686849852 14.7226218032618,45.927013610463 14.7221420959292,45.9272584439305 14.7214865265728,45.9273974831118 14.7209578470453,45.9273786477783 14.7203793310863,45.9272191430185 14.7201194357355,45.9288002232593 14.7202184587,45.9291343726008 14.7204690433125,45.9293809845589 14.7206686370533,45.9297681062981 14.7206597743733,45.9315078909562 14.7202540391132,45.9320341669303 14.7195930689933,45.9325419098988 14.7193938911848,45.9327877795048 14.7194670625552,45.9332625006648 14.7197425420732,45.933561901975 14.7201186467285,45.9338791846848 14.7213996109622,45.9345851290879 14.7218498930834,45.935183766546 14.722350870128,45.9357297085567 14.7223728590803,45.9363624836577 14.7225213673649,45.936890022378 14.7227212233845,45.9372068682517 14.7228696493386,45.9377520418226 14.7227172817939,45.9379976705935 14.7224900426287,45.9381025725813 14.7227134734464,45.9387358363447 14.7226619101525,45.9389641639444 14.7224840394196,45.9392800928122 14.722453063354,45.9404222810047 14.7220475843783,45.9409133819867 14.7218204197647,45.9410007371782 14.7215677539331,45.9411583021423 14.7211138612394,45.9412451033 14.7209869777369,45.9414205194537 14.7204851903095,45.9416443267227 14.7203549259148,45.9418759697651 14.7199515415432,45.9419452543109 14.7196470210738,45.9423839572366 14.7191673722277,45.9426138414764 14.718937464824,45.943190661107 14.7191610933487,45.9438062961768 14.7194104090545,45.9443165403534 14.7194332544043,45.9447735014377 14.7192553066658,45.9450717892152 14.7194554796735,45.9453534599831 14.719982913791,45.9456534783087 14.7199814092949,45.945952289343 14.719829448777,45.9461100970418 14.7197513870604,45.9466019916223 14.7195736120731,45.9468651890711 14.7194946606554,45.9475328069081 14.7191382534495,45.9482524697576 14.7188835925337,45.948796656098 14.7183783987047,45.9490415001425 14.7179964582667,45.949831368568 14.7178935385697,45.9502353824109 14.7174897334678,45.9503749293774 14.7167817833428,45.950865352687 14.7154450339334,45.9511432109778 14.7139557361213,45.9516843951969 14.7115515686589,45.9517790368611 14.7101895344052,45.951775770903 14.7086735877191,45.9530816250763 14.7086329163691,45.953851816321 14.7086001495756,45.9546150093817 14.7080949871673,45.9548597178348 14.707612793313,45.9555439313843 14.7074594208976,45.9559828974444 14.7069541480764,45.9562452360416 14.7064237143209,45.9565075977382 14.7055892149223,45.9570854437592 14.7052353042552,45.9573129834763 14.7049310855732,45.9576812846859 14.7039703608392,45.9583115194015 14.7033133834907,45.9586613563949 14.7026273222963,45.9592372264355 14.7018347194768,45.959902341612 14.7013653624299,45.9601678082498 14.701263564905,45.9603609030022 14.7003551518895,45.9606046121734 14.6997740115921,45.9609019009236 14.6993426780728,45.9614807593305 14.6989863685447,45.962165176846 14.6990035049935,45.9636942022885 14.6987694211055,45.9650819313213 14.6984635294868,45.9657665696379 14.6983858226095,45.9661529958366 14.6995153385024,45.9670345967412 14.700472984274,45.9670370206772 14.700749285022,45.9671958340926 14.7007227047824,45.9674593970925 14.7004310476213,45.9676357976535 14.7000161309224,45.9676509051494 14.6997644820004,45.9675624267727 14.6993360098279,45.967578935819 14.6990584746116,45.9676484773593 14.6990072624424,45.9677889765301 14.6992830256774,45.9680708805725 14.6990495008816,45.969353157584 14.6989217552764,45.9696867256248 14.6985928986533,45.9699143102876 14.6976578168583,45.9704040142627 14.6974521819172,45.9711767319205 14.6968941934668,45.9718431521526 14.6966897567832,45.9723697845556 14.6963100687323,45.9726851350749 14.6964692870681,45.9729487405254 14.6970384990886,45.9731615166703 14.6972630465492,45.9735858129486 14.6972602173504,45.9741287260421 14.6973066860675,45.9748844750112 14.6967219592212,45.9758320008625 14.6964173904622,45.9762353682846 14.697193836462,45.9771687785515 14.6976101502674,45.9774318034287 14.698802916654,45.9779462015461 14.6992817383144,45.9779650079515 14.6998860762319,45.9780895048926 14.6993554956512,45.9783341969738 14.6991018343588,45.9786323424254 14.6989738768051,45.9790010903617 14.6990437297519,45.9800908034685 14.6988901253612,45.9805473910012 14.6988628016102,45.9809690402052 14.7007224638738,45.9820458184981 14.7008723403072,45.9823273882624 14.7014003418555,45.9825923109396 14.7019548360724,45.9826113038108 14.7015757335742,45.9827861291047 14.701094445374,45.9832417732868 14.7007404437336,45.983451752368 14.7005624940609,45.9837325535593 14.6999581885423,45.9835904249725 14.6990524030225,45.9832541396763 14.6982963025976,45.9832346906606 14.6973140390545,45.9830563687727 14.6964083110164,45.982737698081 14.6959293527122,45.9827365147398 14.6949697961855,45.9830327705045 14.69428836522,45.9831892188336 14.6936331330144,45.9831347378546 14.6932056070334,45.982957866389 14.6912956632845,45.9818457391843 14.6907925244745,45.9816686543814 14.6903387426814,45.9816675157222 14.6898858445373,45.9815081085104 14.689534825918,45.9811557061814 14.6875932897585,45.9812560481137 14.6863833442899,45.9812528242294 14.6857032739138,45.9811455931811 14.6852756892077,45.9809862372937 14.6854492577087,45.9815139790856 14.6857499883087,45.981831074762 14.6859246572672,45.9821654587079 14.6857948149617,45.982850454806 14.6848344343726,45.9833048023386 14.6822809754875,45.9846336168258 14.6812449005946,45.985087723605 14.6804354850119,45.9855600004215 14.6798042470058,45.9857515935861 14.6783089448759,45.9871534603476 14.6779803077931,45.9873107138566 14.6772232414494,45.9874492117638 14.6766673779666,45.9876585458514 14.6762372073739,45.9879385951368 14.6758581175311,45.9881132450367 14.6748207931107,45.9887606496371 14.6739852733607,45.9893734397262 14.6734786345064,45.9898113493677 14.6731502783991,45.989915863406 14.6718145530762,45.9898243083195 14.6699990843571,45.9898543514608 14.6693455768952,45.9895010137931 14.6685391427722,45.98944604143 14.6677757710551,45.989313538706 14.667080487151,45.9888268111556 14.6665027550822,45.9884561324214 14.6660236432856,45.9884723687604 14.6647115663406,45.9886619768341 14.6641433576164,45.9886830725378 14.6654487467696,45.9895825289682 14.6659764372019,45.9898825250174 14.666151834433,45.9900586719338 14.6661999579083,45.9904278067248 14.6659704946394,45.9908489467851 14.6659674059293,45.9913409299855 14.6658895424495,45.9917096965268 14.6659368199853,45.9922193723234 14.6658083759284,45.9926056263094 14.6659326735693,45.9928870766246 14.666987049657,45.9936453273411 14.6674146803921,45.9938044814965 14.6684981489908,45.9939126320157 14.670086813668,45.9938815083423 14.6704636923339,45.9941108662524 14.6710158717314,45.9945163619403 14.671492123833,45.9949919983881 14.6720913450817,45.9959598875364 14.6722887390307,45.9966808059655 14.6728934274677,45.9967700854351 14.6732474125957,45.9965952838728 14.6739305382771,45.996210425733 14.6750915942194,45.9960200128755 14.6768810427029,45.9961473642122 14.6785196333912,45.9962216269974 14.6804575369081,45.9968237861252 14.6814895330723,45.9971424845036 14.6823670919118,45.9979880068581 14.6834221905252,45.9986758355666 14.683391546323,45.999589462045 14.6837411121836,46.0001876938308 14.6838641166192,46.0007151163617 14.6846924140047,46.0013847600082 14.6848394093016,46.0021230623958 14.6861193786854,46.0031803889636 14.6861058046597,46.005534854583 14.6860021507083,46.0060090153853 14.6856688152713,46.0069570800226 14.6856663272598,46.0073963378348 14.6855118802348,46.0079230844787 14.6856098384813,46.0084328900992 14.6853800492035,46.0089242484415 14.6853767317372,46.0094865914436 14.6858014531254,46.0101903850206 14.685674498389,46.0103306689305 14.6856957969857,46.0110159871449 14.6864223948492,46.0118435156261 14.6865721496976,46.0121250123621 14.6872992700125,46.0128647196837 14.6873732600969,46.0131635533741 14.6879254557569,46.0136216920922 14.6898664572043,46.0138195247953 14.6904946800601,46.0142426766028 14.6915046109037,46.0140693235409 14.6920837213328,46.0142463389273 14.6933685747181,46.0144953384969 14.6939989639179,46.0145319388193 14.6941996455802,46.0147432003312 14.6945261424472,46.0149724331721 14.6957096205119,46.0153440429361 14.6970444344723,46.0156984963039 14.6979521730814,46.0157709003863 14.6985547861622,46.0162642114788 14.699058168814,46.0164586270303 14.6996374234323,46.0166180590755 14.7002181054738,46.0165139515756 14.7006726473903,46.0164270561975 14.701277183746,46.0165690007788 14.7013515373591,46.016815190075 14.7016280882145,46.0169739106155 14.70188175807,46.0167284876198 14.7022335164861,46.0169753096068 14.7025083747034,46.0174502899774 14.7032867440606,46.0181021214878 14.7039168996373,46.018191392518 14.7041205371432,46.0178580182115 14.7052326622597,46.0174387235438 14.7055841607777,46.0177381705919 14.7059103860164,46.0180551868477 14.7059589838462,46.0183891235651 14.7061085761191,46.0187233199856 14.7064103340933,46.0188820937125 14.7068391441687,46.0189006498049 14.7074185393481,46.019042497342 14.7081491162985,46.0192197288229 14.7084002368056,46.0194311839778 14.7084738507494,46.0198002740706 14.7087253445769,46.0199413680801 14.7093301610908,46.0200657253298 14.7098334326112,46.0202951837002 14.7100995805525,46.0205495018807 14.7105037868257,46.0204098936987 14.7109351362573,46.019918905846 14.7113399763535,46.019656208897 14.7119457077223,46.0196049211403 14.7128031227904,46.0196596249857 14.7135591809785,46.0197843398066 14.7142645112553,46.0199792841719 14.7147436497984,46.0200331170938 14.7152234331039,46.0199112261667 14.7160316174393,46.0197197882747 14.7168645322766,46.0196162226711 14.7177476734563,46.0195655010802 14.7195890999351,46.0195696738842 14.7209771407837,46.0194322582591 14.7216338471509,46.0192579561871 14.7222665551639,46.0188201417745 14.7242646513734,46.0177000074831 14.7251000034641,46.017069307118 14.7261859479831,46.016790558327 14.7274713586465,46.0170218102902 14.7287832088424,46.0169719348894 14.7290590240672,46.0173239461518 14.7295885214312,46.0173777462599 14.7316064187057,46.0173821428452 14.7322123170388,46.0172604766419 14.7330697169815,46.0173149384586 14.7334979330117,46.0174564805875 14.7341039125795,46.0173171692122 14.7348853837478,46.0174242567644 14.7351456270764,46.0173134696025 14.7354312088513,46.017115823492 14.7359492918148,46.0169367092927 14.7364154573732,46.0168114587422 14.736880937197,46.0168303465953 14.7374496058927,46.0169035453447 14.7376571360266,46.0167957805174 14.7377616024173,46.0165798074286 14.7378407504495,46.0162556247535 14.7379197271063,46.015967522077 14.7381017200553,46.0157697216402 14.7383360078281,46.0154637992432 14.7386473116224,46.0152842891444 14.7386806492551,46.0148141495687 14.7385065534362,46.0142691251773</coordinates></LinearRing></outerBoundaryIs></Polygon></MultiGeometry>
  </Placemark>
</Folder>
</Document></kml>
