<?xml version="1.0" encoding="utf-8" ?>
<kml xmlns="http://www.opengis.net/kml/2.2">
<Document id="root_doc">
<Schema name="pregledovalniklovisca" id="pregledovalniklovisca">
	<SimpleField name="lov" type="string"></SimpleField>
	<SimpleField name="lov_naziv" type="string"></SimpleField>
	<SimpleField name="luo" type="string"></SimpleField>
	<SimpleField name="luo_naziv" type="string"></SimpleField>
	<SimpleField name="povrsina" type="float"></SimpleField>
</Schema>
<Folder><name>pregledovalniklovisca</name>
  <Placemark id="pregledovalniklovisca.1">
	<Style><LineStyle><color>ff0000ff</color></LineStyle><PolyStyle><fill>0</fill></PolyStyle></Style>
	<ExtendedData><SchemaData schemaUrl="#pregledovalniklovisca">
		<SimpleData name="lov">1302</SimpleData>
		<SimpleData name="lov_naziv">LAZE</SimpleData>
		<SimpleData name="luo">13</SimpleData>
		<SimpleData name="luo_naziv">Zasavsko</SimpleData>
		<SimpleData name="povrsina">5405.53</SimpleData>
	</SchemaData></ExtendedData>
      <MultiGeometry><Polygon><outerBoundaryIs><LinearRing><coordinates>14.7602982870992,46.026892781701 14.760350127881,46.0265238986476 14.760503506966,46.0260322310932 14.7603551840128,46.0252940265033 14.7600792067315,46.0249244556436 14.7594504307845,46.0244488700952 14.7590473333087,46.0243251136647 14.7588951914266,46.0245006060826 14.7591206331089,46.0249050740276 14.7599004876444,46.0254512501362 14.7599244348228,46.0257675663036 14.7597216127228,46.0260132246121 14.7592658408609,46.0264164379688 14.7591129073853,46.0268027428224 14.7586326487403,46.027012633454 14.7570921232189,46.027378721391 14.756865506288,46.0272728775971 14.7570176618288,46.0270974779696 14.7578761833573,46.0269058514338 14.7582052132543,46.0266604635078 14.7581808926078,46.0264319628646 14.7573775693988,46.0254640974676 14.757075731424,46.0252526423963 14.7567478608167,46.0252344896949 14.756545104042,46.0254625072209 14.7569710565756,46.0261485814516 14.7568688436768,46.0264821752206 14.7565654594587,46.0266221620061 14.7547232231808,46.0267767611501 14.7540917968157,46.0269336722082 14.7539159528646,46.026740025189 14.7546498893641,46.026214343409 14.7546525845355,46.0255467268264 14.7549319714495,46.0251079730866 14.7553119198483,46.0247397052833 14.7553381917406,46.0244937669222 14.7552135771789,46.024106962835 14.7551901230014,46.0236851946582 14.7550900243876,46.0235093468675 14.7547876619884,46.0234208818835 14.7534250235358,46.0235061268265 14.7530977124179,46.0233648775495 14.7530986783045,46.023118884972 14.7535037058275,46.0228034032265 14.7536818524674,46.0224172499208 14.7535060242038,46.0222236021491 14.7531021740403,46.0222755464351 14.752142364769,46.0225723696533 14.7514595837885,46.0229576042396 14.750878772119,46.0230969723857 14.7501222672829,46.0230427748976 14.7493410840074,46.0228479755996 14.7484075766697,46.0228637397493 14.7478519443048,46.0230031479412 14.7475247302754,46.0228443375619 14.7473753881884,46.0223696534918 14.7471993906058,46.0222463569646 14.7469716918,46.0223863957934 14.7473970712904,46.0231955021634 14.7480775383951,46.0233550021045 14.7488595497281,46.0233389978378 14.7491115299219,46.0234273679226 14.7491105763187,46.0236381798287 14.7487066323054,46.023707653705 14.7472691704264,46.0235993920597 14.7468916132957,46.0234053778725 14.7466407604455,46.0230710107214 14.7462625661713,46.0230175357066 14.7455299311165,46.0232796268229 14.7447726532873,46.0233659348791 14.7435874563569,46.0232580999992 14.743109041548,46.0230638469862 14.7423546192642,46.0225352486982 14.742053052267,46.0222534830946 14.742028881636,46.0220074338221 14.7423076969792,46.0217093420598 14.7427887863605,46.0213237083332 14.7426890099699,46.0210599436399 14.742361529669,46.0209362984924 14.7414787976208,46.0208993944777 14.7402438191041,46.0206508695164 14.7403458395396,46.0204050165712 14.7407752829172,46.0202653586699 14.7411792116554,46.0201959127515 14.7414327561228,46.0199153111502 14.7417651574919,46.0188969026433 14.7420691428735,46.0185987781935 14.7420702866419,46.0183527858979 14.7412903795678,46.0178768486687 14.7407101707157,46.0178931691737 14.7404586399377,46.017716964732 14.7405109795522,46.0172953651462 14.7404366976864,46.0169965654584 14.740740679734,46.0166984444355 14.7409185671785,46.0163825814358 14.7408693031835,46.0161189294156 14.740592843749,46.0158899426248 14.740114338534,46.0157307673363 14.739308193482,46.0155182970653 14.7389809189331,46.0153594618684 14.7386806492551,46.0148141495687 14.7386473116224,46.0152842891444 14.7383360078281,46.0154637992432 14.7381017200553,46.0157697216402 14.7379197271063,46.015967522077 14.7378407504495,46.0162556247535 14.7377616024173,46.0165798074286 14.7376571360266,46.0167957805174 14.7374496058927,46.0169035453447 14.736880937197,46.0168303465953 14.7364154573732,46.0168114587422 14.7359492918148,46.0169367092927 14.7354312088513,46.017115823492 14.7351456270764,46.0173134696025 14.7348853837478,46.0174242567644 14.7341039125795,46.0173171692122 14.7334979330117,46.0174564805875 14.7330697169815,46.0173149384586 14.7322123170388,46.0172604766419 14.7316064187057,46.0173821428452 14.7295885214312,46.0173777462599 14.7290590240672,46.0173239461518 14.7287832088424,46.0169719348894 14.7274713586465,46.0170218102902 14.7261859479831,46.016790558327 14.7251000034641,46.017069307118 14.7242646513734,46.0177000074831 14.7222665551639,46.0188201417745 14.7216338471509,46.0192579561871 14.7209771407837,46.0194322582591 14.7195890999351,46.0195696738842 14.7177476734563,46.0195655010802 14.7168645322766,46.0196162226711 14.7160316174393,46.0197197882747 14.7152234331039,46.0199112261667 14.7147436497984,46.0200331170938 14.7142645112553,46.0199792841719 14.7135591809785,46.0197843398066 14.7128031227904,46.0196596249857 14.7119457077223,46.0196049211403 14.7113399763535,46.019656208897 14.7109351362573,46.019918905846 14.7105037868257,46.0204098936987 14.7100995805525,46.0205495018807 14.7097452823221,46.0207770521122 14.7094656523804,46.0211981498109 14.7087267237269,46.0226547821772 14.7083969819809,46.0230230234004 14.7078157847471,46.0232148977406 14.7070825955091,46.0235470123439 14.7051372695914,46.024087085402 14.7028863022601,46.0252062270626 14.7021269265032,46.025713964971 14.7018226877805,46.026011982192 14.7016442284191,46.0263629629974 14.7015646349478,46.0271359194805 14.7012336832198,46.0277149504784 14.7009036377742,46.0281007143033 14.7003688531308,46.0290833814173 14.699734808858,46.0297143388368 14.6981900650853,46.0308176048321 14.6974043878956,46.0314833292392 14.6968482866057,46.0316928492767 14.6958640126954,46.0317255949164 14.6949812387403,46.0316706964645 14.6943502024891,46.0317394618518 14.6937184535203,46.0319135837193 14.6928835597594,46.0323332406997 14.6923016581237,46.0326480311194 14.6909370669879,46.0330487912301 14.6899266913152,46.0332395029161 14.688260746089,46.0333758735017 14.687378151559,46.0332858262084 14.6861663745011,46.0334056823626 14.6850300927878,46.0335610043173 14.6822083967825,46.032780569868 14.6808726344045,46.0325135782983 14.6801160441251,46.032441371978 14.6793592806387,46.032421796109 14.6780489344712,46.0321197521839 14.6773176729201,46.0320475087014 14.6755012342454,46.0320076352242 14.6741405141481,46.0316877681359 14.6732073838741,46.0316325579197 14.6723505257435,46.0314370162595 14.6718966749605,46.0314006236472 14.6711893700079,46.0315393134451 14.6703815913313,46.0316074378942 14.6686387953806,46.0319365692681 14.6678071861622,46.0317762473659 14.6668974561541,46.0320197739286 14.6654544554343,46.0328416287495 14.663762527854,46.0331005633593 14.6626762733395,46.0333260814863 14.6622455706058,46.0336235297145 14.6616879219636,46.0340613230109 14.6611820430273,46.0342707281169 14.65991872919,46.0345659661923 14.6592347306421,46.0350209167372 14.6582997187623,46.0352642993631 14.6577177867039,46.0355262775717 14.6562794408956,46.0355397762618 14.6554483602634,46.035291459636 14.6548425161751,46.0353249022129 14.6539826354428,46.0356562928904 14.6516829689965,46.036247197719 14.6508728853218,46.0366666231754 14.650062807845,46.0371035881838 14.6498849841748,46.0372963118555 14.6491767894593,46.0375754049493 14.6482150486654,46.038047071746 14.6474041477918,46.0386070123217 14.6471241785493,46.0389927746653 14.6470944166322,46.0397306649268 14.6465089459283,46.0405723794201 14.6461783315792,46.040975527962 14.6459484101666,46.0414317133278 14.6458446025769,46.0419058343316 14.6465270027883,46.0417321339984 14.6493505188781,46.0421970087423 14.6516185821841,46.0427306630105 14.6527504290421,46.0433488221693 14.65400930356,46.0438443577273 14.6555201950186,46.0443757297761 14.6563512142375,46.0446767710864 14.6569037229791,46.0451351480628 14.6573534808665,46.0458919339095 14.6569488465064,46.0460489875207 14.6567199515742,46.0463294745505 14.6565654863727,46.0468386332309 14.6563354081263,46.0473299290824 14.6561557395541,46.0478390113369 14.6569093738109,46.0484384450283 14.6575637121362,46.0487565820443 14.6585456026749,46.0491634206399 14.6579353116444,46.04993484708 14.6570227591772,46.050600002001 14.6566162183336,46.0510381326572 14.6562090575063,46.0516168019874 14.6554219256608,46.0523876826338 14.6541800068052,46.0532627240912 14.6536951890341,46.0541223231541 14.6533875857161,46.0549120966422 14.6529556928166,46.0553853175441 14.6512590555732,46.0562942156827 14.6498419458633,46.0568699557746 14.6489822567493,46.0571134920605 14.6483377753488,46.0569857250918 14.6469625920583,46.0571603572355 14.6458465699779,46.0580356962566 14.6444518876178,46.0590683348098 14.6437886266091,46.0601908741883 14.643381586805,46.0606993163905 14.6432015291947,46.0612434663681 14.6428955329088,46.0617344969477 14.6427897336578,46.0625073260005 14.6430890874147,46.0630880633536 14.6432124228245,46.0635452540426 14.6435123523687,46.0640380859231 14.6440147472226,46.0644436416881 14.6443391196373,46.0650771791119 14.6444869018146,46.0656749860087 14.6450131720283,46.0662915139931 14.6455393585969,46.0669431296491 14.6464942744115,46.0676837956386 14.6471732017863,46.0681250634875 14.6480026498272,46.0687424229252 14.6486065220236,46.0690779998282 14.6493633292088,46.0691680500219 14.6499445573096,46.0696318552826 14.6507721721174,46.0700154327642 14.6514522682913,46.0702809566396 14.65132366911,46.0706670986743 14.6513715579925,46.0710889593591 14.6515715058206,46.0714233776896 14.6515409538651,46.0718411301621 14.651409807091,46.0726314337204 14.6512271141561,46.0735796664149 14.6508687999391,46.0743517305253 14.6507392999201,46.0748785003015 14.6506783498722,46.0765474459142 14.6557379020466,46.079126642081 14.6560594172595,46.0802344854007 14.6557007993387,46.0810591983434 14.6557222955626,46.0816566985112 14.6558722996707,46.0819030524688 14.6558936000864,46.0825531874153 14.6561133714911,46.083766084499 14.6563625318433,46.0843289987174 14.6561058590743,46.0849959324397 14.6553483862436,46.0849762857542 14.6548165639042,46.0852032178196 14.6548401343388,46.0854668262164 14.6549895072926,46.0858361752832 14.6549363200378,46.0862577282111 14.6545797287996,46.0867487251524 14.6535399533815,46.0874310986986 14.6501296024861,46.0875621516345 14.6502265017142,46.0882300635298 14.6502148590328,46.0900924223441 14.6501804240531,46.0915505428646 14.6496427500444,46.092708674413 14.6492572887052,46.0937617296743 14.6494764007086,46.0950625407127 14.6502813547985,46.0955918999286 14.6508104125487,46.0958217839366 14.6506772000922,46.0969282490935 14.6509017907938,46.0973681030545 14.651731588266,46.0979853432604 14.6518817288317,46.0982141570457 14.6515876868312,46.0986347937714 14.6517252830502,46.098986835164 14.6523300594336,46.0992344877881 14.6522778327426,46.0994978654957 14.6515181705227,46.0997944487278 14.6517939032394,46.1001466410972 14.6523224588138,46.1004643318991 14.6535790861363,46.1015043882352 14.6543597199591,46.1019106487207 14.6545322500181,46.102596419019 14.6551867757063,46.1029847474623 14.6566256760359,46.1031643500583 14.6553101888129,46.1034594671962 14.6538414448242,46.1040176415285 14.6536340137076,46.104877982506 14.653782970853,46.1053000558795 14.6537342112821,46.1061461214627 14.6536973207485,46.1061500585711 14.6538253205975,46.1063663858643 14.6541449307001,46.1069701846226 14.6544878328424,46.107987936899 14.6547065579784,46.1081775448964 14.654705676088,46.1083394968548 14.6547953832555,46.1084747299884 14.6547812674545,46.1086637243816 14.6548562425266,46.1090868322597 14.6549971334043,46.1093121945278 14.655086169399,46.1095553951085 14.6550592311128,46.1097262658798 14.6550703711311,46.1100142187434 14.6554538169201,46.1107801606138 14.6556083232695,46.1108975934028 14.6558911293362,46.1111863643031 14.6559283147018,46.111447402991 14.6556536806989,46.1119234420889 14.6556918178878,46.1120315266479 14.6558722573407,46.1121400396921 14.6562189885151,46.1125729617066 14.6563579924568,46.1131042305148 14.6562783575731,46.1134279900125 14.6562360226646,46.1139947033365 14.6564334712401,46.1155518590536 14.6568414350775,46.1165248109239 14.6570843648172,46.1170114030978 14.6572167725579,46.1172741663149 14.6575516144942,46.1175655181237 14.6580984859318,46.1178617321362 14.6587328335371,46.1180518546942 14.659972511803,46.1183768484677 14.6606538726233,46.1185191437085 14.6618920694621,46.1185399080331 14.6634339420043,46.1184735583048 14.6642428573964,46.1185351405104 14.6648893242774,46.1186090172587 14.6667437501153,46.1185698113479 14.6676022064638,46.1186774012579 14.668534190082,46.1191892739559 14.6701487214129,46.1196325705417 14.6706263510975,46.1200554788236 14.671812745262,46.1202868868449 14.6742927235994,46.1197131041573 14.676367198235,46.1193316556423 14.6784181527266,46.1186513875673 14.680795421954,46.1183408003129 14.6824138918441,46.118133868076 14.6834750976414,46.1181539067269 14.6849419194181,46.1179465186676 14.6859571850974,46.1171934355753 14.6870223530749,46.1165106602435 14.6872511885343,46.1162652059036 14.6873320013003,46.1154044594618 14.687512560022,46.1147723412917 14.6878704610382,46.1140527119165 14.6886319379704,46.1134570868095 14.6894185266326,46.1128790698718 14.69055603364,46.1127938897323 14.6917685630001,46.1128494410886 14.6929075300979,46.1125006155896 14.6942249135569,46.1118886302105 14.695240102786,46.111082738516 14.6965580053759,46.110365277093 14.6971170836774,46.1098043277303 14.6983049669975,46.1097191139441 14.7002496609625,46.1098640509063 14.7011092231817,46.1097780365115 14.7026238803317,46.1100274381515 14.7042381737166,46.1105405235932 14.7057510541998,46.1111060503632 14.7072160250149,46.1111970876023 14.7078481748629,46.1111106197802 14.7087053010538,46.1114638886397 14.7093098236229,46.1118342339571 14.711277646456,46.1124006635312 14.7122870740725,46.1126312046427 14.7130536018183,46.1127278748012 14.7136086091185,46.1126005128995 14.713851570295,46.112324359179 14.7143361604556,46.1121787325207 14.7151446113664,46.1121980252038 14.7165592251207,46.1122536370592 14.7172943340917,46.1118159310464 14.7193945558402,46.1112404092317 14.7216688790264,46.1111747997176 14.7233382268727,46.110861961327 14.723921346111,46.1104590247526 14.7247045498476,46.1104781888493 14.7266492550167,46.1106402217311 14.7241164975122,46.1068926264484 14.7230848507578,46.1060471579876 14.7222547925745,46.1053250756906 14.7213974087118,46.1050246326688 14.7209193414752,46.1046371145618 14.7195833889907,46.1040545870203 14.718803534148,46.1034204179949 14.7186536387049,46.1030862424579 14.7177211405887,46.1026626811702 14.7174461811295,46.1020998388788 14.7171968978199,46.101449243918 14.7171014931657,46.1003772269933 14.7167004072782,46.0997966153218 14.7163747215229,46.0992688246222 14.7154426670953,46.0987748851622 14.7148909367565,46.0980181708089 14.7147918293692,46.0976490263279 14.714922805133,46.0967532026039 14.7148001113664,46.0960676472586 14.7146767858176,46.0955051758847 14.7142014279037,46.0946431976933 14.7141278217658,46.0942213908298 14.7131059903247,46.0932039126664 14.7125699005715,46.092689438362 14.7119417568051,46.0920731477405 14.7111115026889,46.0914564329409 14.7104820645338,46.0910685775272 14.709930110126,46.0903821081305 14.7085531981819,46.0881125834094 14.7107041415592,46.0873265366836 14.7130594461972,46.0861191592366 14.7156170705897,46.0848243308556 14.7173383275919,46.0840724492426 14.7152254629135,46.0824515206982 14.7150024494645,46.0816428077538 14.7150819632046,46.0809402097267 14.7154628708097,46.0805368999801 14.7161223925924,46.0799584696675 14.7156946795312,46.0796588688265 14.7158748858596,46.079009155928 14.7155252922337,46.0782528542903 14.7149743064545,46.0773907784085 14.7162348355857,46.0777975437552 14.7170488416851,46.0766571458446 14.717000397076,46.0762704921423 14.7168016930014,46.075637563752 14.7172293811083,46.0759371606044 14.7173129022305,46.0757591261657 14.7174166487342,46.0756964000047 14.7176497677713,46.0756159983464 14.7178571216858,46.0755175375579 14.7180518217425,46.0753650600058 14.7181816140376,46.0752394146881 14.7182467577613,46.0751406024664 14.7184674028231,46.0749701930897 14.718506644127,46.0748803144421 14.7185461597433,46.0747364512762 14.7186244129977,46.0746016809908 14.7186893270519,46.0745477656164 14.718987443894,46.0743955409229 14.7191947452259,46.0743060750891 14.7193245704918,46.0741984235934 14.7194675509398,46.074045816582 14.7196362948658,46.0739112676472 14.7199211594111,46.0738219907147 14.7202576882137,46.0737418370588 14.7206848003237,46.0736439087417 14.7213194773828,46.0734025245797 14.7218380271911,46.0731158666739 14.7221104081982,46.0729365785681 14.7224867931602,46.0726405744409 14.7228624085037,46.0724975252612 14.7230831638264,46.0723001145661 14.7230196524187,46.0720750223344 14.7230464070559,46.0718951364835 14.7231248707286,46.0717152859144 14.7231772992124,46.0715714523488 14.7231777490356,46.0714814780902 14.7230111815711,46.0711841559022 14.7229732556551,46.0710131108141 14.723052617881,46.0706534016994 14.7231180174335,46.0705006020259 14.7231449565979,46.0702577337922 14.72309423906,46.0700596651208 14.7230695103889,46.0698346667775 14.7229540249289,46.0696634337015 14.7227352169136,46.0694739548376 14.7224390306047,46.0692483874939 14.7221689711349,46.0689688076752 14.7218728806634,46.0687251540227 14.7215634139639,46.068571442404 14.7210056485852,46.0683369560596 14.7192967679337,46.0668048096324 14.7187694358028,46.0662590720467 14.7185694076833,46.0658896804227 14.7184697074684,46.0656434420412 14.7185228368603,46.0651340419407 14.7180972820889,46.0644302848515 14.7178738502208,46.0637094799549 14.7176750911103,46.0630940967665 14.716170459853,46.0611757817061 14.7159211935349,46.0605602697571 14.7155720239457,46.0597688763915 14.715349095184,46.0589601611035 14.7142464010438,46.0574292646807 14.713619000328,46.0567426203524 14.7134194949197,46.056285404221 14.713497498704,46.0558463389223 14.7138529531596,46.0554605142325 14.7137035791814,46.0550560597207 14.7139073850438,46.0547051252948 14.7139860567424,46.0541605198073 14.7136841374814,46.0539666762014 14.7134588060725,46.0536323019331 14.7123760876288,46.0531380455407 14.7122510173982,46.0529093725565 14.7116480683324,46.0523809556084 14.7142859979717,46.0499266556209 14.7152987114313,46.049349019391 14.7155792006887,46.048804914829 14.716541227551,46.0482270513638 14.7169219881225,46.0478061888509 14.7186169677254,46.0470365829726 14.718895540999,46.0468614558564 14.7190245446474,46.0463170599152 14.7194051848316,46.0459136439943 14.7201384605182,46.0456340876365 14.7213012794642,46.0452674884947 14.7222625218552,46.0448477520259 14.7228210740768,46.0441812177644 14.7233017467532,46.0439712992524 14.7238599275176,46.0433750300097 14.7242144425357,46.0431473474584 14.7243421617419,46.0428489359142 14.7247981037995,46.0425159544905 14.7255820868897,46.0421837593113 14.7266704716244,46.0415357521709 14.7283882518969,46.0411877718244 14.7287933804075,46.0409074694192 14.7287695617761,46.0406263283998 14.7295027208736,46.0403466214709 14.7303355381319,46.0403482295253 14.7306393197439,46.0401555877756 14.7327085649564,46.0401596358766 14.73490315227,46.0403220248507 14.7353075704923,46.040182239934 14.7363663013139,46.0404126856822 14.7364680869582,46.0402547428952 14.7372250632161,46.0402562158312 14.7381853884086,46.0399593399797 14.7402809384055,46.0397524078632 14.7414931509441,46.039543802749 14.7418978741504,46.039333724048 14.7425033855194,46.0393700004453 14.7437936119597,46.0386871939338 14.744249565053,46.0383190441314 14.7442758926952,46.0380731090157 14.744152232247,46.0375457535966 14.7446579593079,46.0373358011276 14.7452122903042,46.0375125811381 14.7455665515264,46.0372847416007 14.7454960557637,46.0361777012323 14.7461805384195,46.0354936969232 14.7466368996661,46.0350552671123 14.7473509182136,46.0334400702017 14.7480316216185,46.0335467547564 14.7483605451563,46.0333715764476 14.7484373623512,46.0331257513137 14.7491445765265,46.0329688580666 14.7492966928207,46.032811014112 14.7490204830172,46.0325294130077 14.7499594093131,46.0316345005685 14.7501371051099,46.0313888948662 14.7504901704724,46.0314423021176 14.7506938720184,46.0309858486159 14.7513509373814,46.0307411956549 14.7520572479556,46.0307777307273 14.7528155837196,46.0304452924677 14.7533468196065,46.0301125392398 14.754584038576,46.029886483562 14.7552406087667,46.0297471690293 14.7554433866341,46.029519154031 14.7555455882586,46.0292206523314 14.7558738686228,46.0291509927575 14.7560525604225,46.0286418401372 14.755826249746,46.0284657236897 14.7562052885271,46.0283082650105 14.7570122230494,46.0283977100221 14.7578961592124,46.0281885021052 14.7588544072467,46.0282957098825 14.7598395210143,46.0280165190617 14.7607734153593,46.0279303910746 14.7602982870992,46.026892781701</coordinates></LinearRing></outerBoundaryIs></Polygon></MultiGeometry>
  </Placemark>
</Folder>
</Document></kml>
