<?xml version="1.0" encoding="utf-8" ?>
<kml xmlns="http://www.opengis.net/kml/2.2">
<Document id="root_doc">
<Schema name="pregledovalniklovisca" id="pregledovalniklovisca">
	<SimpleField name="lov" type="string"></SimpleField>
	<SimpleField name="lov_naziv" type="string"></SimpleField>
	<SimpleField name="luo" type="string"></SimpleField>
	<SimpleField name="luo_naziv" type="string"></SimpleField>
	<SimpleField name="povrsina" type="float"></SimpleField>
</Schema>
<Folder><name>pregledovalniklovisca</name>
  <Placemark id="pregledovalniklovisca.1">
	<Style><LineStyle><color>ff0000ff</color></LineStyle><PolyStyle><fill>0</fill></PolyStyle></Style>
	<ExtendedData><SchemaData schemaUrl="#pregledovalniklovisca">
		<SimpleData name="lov">1306</SimpleData>
		<SimpleData name="lov_naziv">MLINŠE</SimpleData>
		<SimpleData name="luo">13</SimpleData>
		<SimpleData name="luo_naziv">Zasavsko</SimpleData>
		<SimpleData name="povrsina">2266.3</SimpleData>
	</SchemaData></ExtendedData>
      <MultiGeometry><Polygon><outerBoundaryIs><LinearRing><coordinates>14.839178315355,46.1407918551469 14.8395735512835,46.140812024888 14.8396366228918,46.1413789509956 14.8397139710929,46.1414870285396 14.8402050994892,46.141739643936 14.8406835222177,46.1419112627145 14.8409805021913,46.142208591115 14.8410834829234,46.1424066775742 14.8412507958596,46.1427398145897 14.8413407570581,46.1429648749754 14.8413658697234,46.143234832403 14.8414037975356,46.1435497946852 14.8414937606684,46.143774854921 14.8416355787317,46.1439729946731 14.8420042575017,46.1443709207613 14.8420654248343,46.1444369563538 14.8422417713907,46.1447386133214 14.8424516346923,46.1449081441549 14.842487149974,46.1449368948552 14.8427457323251,46.1450902069398 14.8427712626346,46.1452162058805 14.8428227589117,46.1453152482711 14.8428611572384,46.1454682571254 14.8429380312909,46.1457472826445 14.8430153920536,46.1458553578877 14.8430017823946,46.1460892719771 14.8430403607524,46.1461792990979 14.8427153335767,46.1466737101169 14.8425728891693,46.1466915088647 14.8424171917489,46.1468172581268 14.8422091227732,46.1471498753933 14.8419241795779,46.1472034661973 14.8415867591152,46.1474999137161 14.841554192623,46.1475709481377 14.8413798196804,46.1474366448705 14.8412505765334,46.1473644861618 14.8413156634328,46.1472386127551 14.8412253850028,46.1471215210337 14.8404624400366,46.1467966419043 14.8394013020561,46.1466781896626 14.8391290151251,46.1468307628312 14.838947367219,46.1469744656688 14.838441305463,46.1473876325618 14.838686708406,46.1475769247837 14.8386084596889,46.1477747574004 14.838530289334,46.1479455978328 14.8381139352878,46.1486648018491 14.837117174103,46.148654478497 14.8366637430244,46.1487707978496 14.8358088706494,46.1489315265584 14.8349934209646,46.1488943627623 14.8349652984042,46.1496411071578 14.8347561776677,46.1503066132836 14.8346906950858,46.1505584460241 14.8345339173036,46.1510350817789 14.8341956769926,46.1515835234468 14.834000973444,46.1517541915874 14.8336764558195,46.1520416368584 14.8327162651066,46.1527600281504 14.8321714560648,46.1531101283455 14.8314195521898,46.1534420158746 14.8306145286489,46.154205605072 14.8309750140057,46.1549079359509 14.830949037853,46.1549348897418 14.8313625645863,46.1551874277386 14.8317734357145,46.156312708039 14.8319416929926,46.1563309503204 14.8319673406948,46.1564119646085 14.8316041630956,46.1566273677492 14.8310469398021,46.156788498715 14.8299581563009,46.1571827698392 14.8297635305818,46.1573175311004 14.8294913034785,46.1574250941417 14.8289340938697,46.1575772174114 14.8286623386049,46.1575318234398 14.8285456446541,46.1575856328566 14.8282980213638,46.1581071101682 14.8279864122564,46.1583855609656 14.82773998738,46.1585201508248 14.8275068744204,46.1585377941029 14.8273129418797,46.1584475273579 14.8271964136699,46.1584473512686 14.8267031063889,46.1588604846654 14.8263270573815,46.1590399518359 14.8259638121399,46.1592643342533 14.825820733702,46.1594710563947 14.8258202226745,46.1596330086985 14.8259876939041,46.1599031855414 14.8260000462312,46.1600921495915 14.8257797604631,46.1601457984374 14.8256239584034,46.1602805217709 14.8254808760488,46.1604872434445 14.8257134012931,46.1606585486362 14.8259458712381,46.1608478480482 14.8270053347493,46.1615782449064 14.8278436248117,46.1626951866995 14.8271567586287,46.1628830953922 14.8269223009874,46.1633236126615 14.8266233781032,46.1636740577951 14.8266223040762,46.1640159568597 14.8267120140338,46.1643130066265 14.8266988673157,46.1643759683983 14.8261273266449,46.16494202578 14.8256218568401,46.1650852140122 14.8251160137761,46.1653453654325 14.8247273378938,46.1654077518566 14.8243644450506,46.1655061661111 14.8237035168491,46.1656671016642 14.823080942389,46.1659810482749 14.8229380088784,46.1661337824935 14.8217980142092,46.1662310722898 14.8212277450952,46.1663831374152 14.8208912933604,46.166310631703 14.820852415896,46.1663195681669 14.8205164039712,46.1661121012932 14.8204904759608,46.166121057965 14.8203741658708,46.1660488962 14.8202449067446,46.165976713955 14.8194812782834,46.1658585446647 14.8193646461281,46.1658853525808 14.8192093132591,46.1658671122616 14.818833783163,46.1658665177472 14.8182896154697,46.1659557178775 14.8178622280672,46.1659730324978 14.8175900540687,46.1660445775932 14.8168652186728,46.1659444474894 14.8163438919701,46.1669513180061 14.8159149052869,46.1674455739715 14.8156035417094,46.167616022397 14.8143855113679,46.167838985709 14.8139316929156,46.1680091981797 14.8132567800049,46.1684580566372 14.8129321475517,46.168718449875 14.8124003114075,46.1689785023363 14.8119307982259,46.169949447712 14.811811913458,46.1706331426757 14.8121614221531,46.1706786144061 14.8124456589774,46.1708770233632 14.8128345092325,46.1707786895321 14.8132105904116,46.1706263492564 14.813703131904,46.1705011897172 14.8138714870706,46.1705014639526 14.814259999003,46.1705020958572 14.8148822821866,46.1703051629496 14.8154001460862,46.1703508972796 14.8158018776679,46.1702705689005 14.8167729843049,46.1703621032741 14.8172763503443,46.1708757593977 14.8177937459492,46.171065530113 14.8185708075248,46.171057768625 14.8189849591875,46.1711393115645 14.8198012259085,46.1710236352806 14.8200997039986,46.1708351604945 14.8202946644671,46.1706195301136 14.8203728649701,46.1704666976213 14.8204380268444,46.1703408367217 14.8209177451523,46.1701706390677 14.821500713818,46.1701084792111 14.82186358394,46.1700280688414 14.8220062403137,46.1699653094092 14.8221750578445,46.1698216141007 14.8222138795878,46.1698306718602 14.8224601079571,46.169777070265 14.8226413823112,46.1697863490259 14.8227191704461,46.1697594775524 14.8229782039077,46.1697508815851 14.8231468163996,46.1696701661621 14.8234967598428,46.1695807332263 14.8238989048145,46.1693654163537 14.8241449574406,46.1693657951231 14.8245337341482,46.16932140563 14.8249089738355,46.1694209521297 14.825271720825,46.1693764302828 14.8261911809143,46.1693778319347 14.8264245948008,46.1692792154226 14.8267872828821,46.1692527734062 14.8272015456513,46.1692983872344 14.827564177262,46.1692899374241 14.8280820420319,46.1693357042871 14.8286252491002,46.1695614543524 14.8287935457055,46.1695797012797 14.8292850962914,46.1697603839384 14.8297513509645,46.1697880713972 14.8304890175066,46.169951030411 14.831201613207,46.1698441163101 14.8322117058099,46.1698546007045 14.8339081356261,46.1698750727914 14.8353196831893,46.1699310092043 14.8357601265661,46.1698866559535 14.8368353181416,46.1697802271017 14.8374048372658,46.1698800097026 14.8382336016833,46.1698991802153 14.8395935373385,46.1698471122607 14.8400080764122,46.1698026163183 14.8404482809046,46.1698392210632 14.8408629225332,46.1698038095149 14.84188609562,46.1697692397503 14.842287733221,46.1697068129155 14.8430871216283,46.1695360630516 14.8435704947523,46.1694656462297 14.8446322066941,46.16953898317 14.8452276379614,46.1696387620153 14.8464574372013,46.1698563574529 14.8476741911862,46.170064924893 14.8481525606431,46.1703534773501 14.8489288943223,46.1706063424634 14.8493173339824,46.1706338472548 14.8500425348712,46.1706437982219 14.8510137461449,46.1706720602212 14.8513762704851,46.1707535084907 14.8520884746295,46.1707814243313 14.8531376560492,46.1707107080396 14.8534484673918,46.1707111069125 14.8544324185201,46.1708203325755 14.8549112084592,46.1709648992462 14.8559463350577,46.1713171059251 14.8565285170742,46.1715967566584 14.8579271447333,46.1716164081875 14.8587297879276,46.1717343687448 14.8599588043454,46.1722487311917 14.8602673158472,46.1732118275182 14.860562393451,46.1743188643778 14.8607945865126,46.1746880394949 14.8612084884261,46.1749044796049 14.8621536528934,46.1750225889928 14.8635521430332,46.1751861294086 14.8645880666197,46.1752683374825 14.866012518523,46.1753599895721 14.8670594490514,46.1763058454063 14.8688451282194,46.1770097025448 14.8699835223841,46.1775958316318 14.8711231422875,46.1777230851553 14.8719158727779,46.1753550596253 14.8725020188739,46.1735805339171 14.8728094184459,46.1720342281373 14.8734437492098,46.171244062997 14.8738273994682,46.1695221194682 14.8741156229814,46.1696002645283 14.8747230889633,46.1694425780113 14.8754059525116,46.169443234327 14.8759634892877,46.1689690490181 14.8766463472074,46.1689696079451 14.8772789733794,46.1688471147243 14.8785178811751,46.1690943363274 14.8792769743706,46.1689367866289 14.8801114307606,46.1690781138633 14.8807690372242,46.1690787116527 14.8813508317393,46.1690440472533 14.8817301189529,46.1691147098022 14.8823114803223,46.1693437531952 14.8827169406029,46.1689221029173 14.8832737400028,46.1687643189547 14.8842096391709,46.1687650907969 14.8852473726534,46.1684319745636 14.8865374266055,46.1683802676918 14.8872206585145,46.1682576796861 14.8881059148563,46.1682584596317 14.8890674115211,46.1680833179994 14.8892724165231,46.1666594114215 14.8896270084243,46.1664487657352 14.8902343708993,46.1662382719541 14.8904631389299,46.1656757950922 14.8908685350361,46.1653069302163 14.8914759148906,46.1650787949424 14.8920833159472,46.1649034710971 14.8924127799597,46.1645520738896 14.8926666323297,46.1640599756123 14.8929957125458,46.1639020201064 14.8941085072741,46.1639204212596 14.8946905074746,46.1637450599955 14.8950446632417,46.1636749361675 14.8952957658748,46.1636622101964 14.8964105100809,46.1636056425027 14.8967397085255,46.1633773167535 14.8976264849383,46.1625164345687 14.8976775375196,46.1622879466236 14.8975515852784,46.1619889405765 14.8977549473762,46.1613913361186 14.897705687966,46.1606528762458 14.8975522582097,46.1607892292628 14.8973766799497,46.1612075403929 14.8970650872401,46.1615852405794 14.8966762577,46.1617873310536 14.8961903853674,46.1618814534256 14.8957347184888,46.1614760662479 14.8954443544289,46.1610303402779 14.8950762025221,46.1605710460786 14.8947469264903,46.1600982903693 14.8945056996965,46.1593556931842 14.8943895307283,46.1591666406697 14.8942449415445,46.1586738097345 14.8942942836993,46.1582621346143 14.8943044209209,46.1580393684958 14.893995585493,46.1571144201878 14.8942702843171,46.1557850392053 14.8945154141915,46.154678405604 14.8944098558562,46.1540235673044 14.8944892899983,46.1531732062252 14.894130188883,46.1522112317524 14.8941571189478,46.1513322102464 14.8945128374283,46.1512159326747 14.8948902104137,46.1514206113627 14.8954446498012,46.1513719939813 14.8960657000906,46.1515615058351 14.8966391071564,46.1513392499838 14.8972509288651,46.1512723210036 14.8979000563724,46.1509129164105 14.8987316090276,46.1508208928315 14.8996453763519,46.150580118304 14.9003692814268,46.1505932579119 14.901061889491,46.1502998242044 14.9017782099684,46.1501355194581 14.9020309499981,46.1499669449773 14.9017013529725,46.1496764956323 14.9018378788263,46.149413348786 14.9025175295184,46.1494071823295 14.9030612280452,46.1491935063576 14.903289726522,46.1485959120302 14.9040239574768,46.1480161978839 14.9047324449832,46.1477177165884 14.9054159137835,46.1472083108591 14.9058676124149,46.1468007410389 14.9062474944488,46.1464495243084 14.9066978945744,46.1466499952722 14.9072219002887,46.1468057171031 14.9080097193984,46.1461111236885 14.9082724555396,46.1457468495812 14.9082242833335,46.1455240349386 14.9080207827208,46.1453754140375 14.9077391655456,46.1453414467894 14.9072440479201,46.1453342980528 14.9068652832373,46.1454150567952 14.9064572628415,46.1454957003711 14.9063119224598,46.1453268798214 14.9064288273487,46.1451649321308 14.9064680037135,46.1449625223495 14.9061870235486,46.1446315471049 14.906401627448,46.144105284193 14.9068391607232,46.1437883926807 14.9093840924954,46.1430952079065 14.909723292663,46.1413915449551 14.9094204706036,46.1410397761556 14.9087131693392,46.1406876842415 14.9077784204395,46.1402827697386 14.9065661396096,46.1395963615942 14.9062887955335,46.1391214304661 14.9057265468823,46.1385905699555 14.9055190177178,46.138394614636 14.9050516739889,46.1381537262167 14.9044129469385,46.13807653583 14.9036273638812,46.137677650129 14.9031224553505,46.1376839714124 14.9022461894824,46.1378530068763 14.9018166717009,46.1376769190221 14.9016909093767,46.1372900115373 14.9009391441844,46.1371759949532 14.9005707164069,46.1369327445314 14.8999979830428,46.1369457410711 14.8988604744554,46.1368661027763 14.8974558772834,46.1362754298466 14.8962035434332,46.1362877957155 14.8961316953539,46.1360905967768 14.8956265646021,46.1358792369264 14.8955005835409,46.1356330421169 14.895855817301,46.134894857185 14.8949984750448,46.1336987639942 14.894671457473,46.1328722287814 14.8948748432945,46.1322219014448 14.8953309017645,46.1316068953149 14.895438004537,46.1308135093444 14.8958570249512,46.1299971943691 14.8961784446235,46.129464298479 14.8960868225964,46.128501309119 14.8958194548361,46.1287835854135 14.8954888978443,46.1290846979394 14.8949349083174,46.1292866325085 14.8944497529207,46.129221314018 14.8939877331531,46.1291039197454 14.8940203006974,46.1289914819358 14.8938200981015,46.1287943421668 14.8935279493643,46.1286330162268 14.8933254024449,46.128378199794 14.8927845690046,46.1280017806797 14.8910395754211,46.1285099257337 14.8900273373935,46.1291064764512 14.8888647887803,46.1290175370855 14.8873234260025,46.1288227631142 14.8863889836217,46.1285054881702 14.8849552142912,46.1279834621844 14.8836309970664,46.1277452191228 14.8823062306033,46.1277702253275 14.880962497138,46.1277689238963 14.880130567061,46.1274653805489 14.8788047913655,46.1267727989684 14.87736818634,46.1271730026866 14.8760033785566,46.1280927785745 14.8746979812748,46.1279597225234 14.8732787230269,46.1278792504095 14.8716132951066,46.1279301170424 14.8704779553125,46.1278499286821 14.8687008473959,46.1270846481413 14.866545007731,46.1264900297375 14.8661180641993,46.1269371533644 14.8670163063156,46.1271814927619 14.8678764561179,46.1275573236911 14.8683675087767,46.1279525180627 14.8686318213625,46.128196202943 14.8687538972058,46.1285580403402 14.868497964611,46.1287616282295 14.8676271916434,46.1288133481867 14.8667859199784,46.1284900825288 14.8664564551774,46.1281674097272 14.8657086809863,46.1279298109754 14.8650465162153,46.1278238510408 14.8651588160177,46.128310745209 14.8649497509055,46.1286590593029 14.8645141059228,46.1287900863818 14.8637858389362,46.1286709045298 14.8628123092822,46.128255408106 14.8622741283952,46.1277812255407 14.8603288000196,46.1290573117174 14.8604469175027,46.1281474547162 14.8602037267772,46.1270882484551 14.8587716757085,46.1282835979746 14.8576746021638,46.1291771228395 14.8572947122011,46.129457909212 14.8568628083689,46.1302834241588 14.8559762459402,46.1309677354642 14.8553945611804,46.1311076310569 14.8543588329566,46.1308778711931 14.8538799717237,46.1304027351659 14.8538271507695,46.1311935424716 14.8534963471548,46.1319839937116 14.8531145583825,46.1329150982693 14.8526079806685,46.1333187009576 14.8520270277165,46.133124595534 14.8508118144104,46.1337908955551 14.8504588414414,46.1334740845635 14.8499785255908,46.1334910901789 14.8496738322928,46.1339827595513 14.8497199211747,46.1355471137173 14.8498698508995,46.1361448300849 14.849767064435,46.1367246693556 14.8501203402441,46.1369360328335 14.8498662485725,46.137375133804 14.8493597980484,46.1377083620717 14.8481703181783,46.1381462227322 14.8465004900817,46.1386361518928 14.8453875336158,46.1388631866034 14.8440976558805,46.1390372444025 14.8428329385586,46.1392815921291 14.8405057446946,46.1397354379769 14.8385605374158,46.1402994551158 14.839178315355,46.1407918551469</coordinates></LinearRing></outerBoundaryIs></Polygon></MultiGeometry>
  </Placemark>
</Folder>
</Document></kml>
