<?xml version="1.0" encoding="utf-8" ?>
<kml xmlns="http://www.opengis.net/kml/2.2">
<Document id="root_doc">
<Schema name="pregledovalniklovisca" id="pregledovalniklovisca">
	<SimpleField name="lov" type="string"></SimpleField>
	<SimpleField name="lov_naziv" type="string"></SimpleField>
	<SimpleField name="luo" type="string"></SimpleField>
	<SimpleField name="luo_naziv" type="string"></SimpleField>
	<SimpleField name="povrsina" type="float"></SimpleField>
</Schema>
<Folder><name>pregledovalniklovisca</name>
  <Placemark id="pregledovalniklovisca.1">
	<Style><LineStyle><color>ff0000ff</color></LineStyle><PolyStyle><fill>0</fill></PolyStyle></Style>
	<ExtendedData><SchemaData schemaUrl="#pregledovalniklovisca">
		<SimpleData name="lov">1301</SimpleData>
		<SimpleData name="lov_naziv">PUGLED</SimpleData>
		<SimpleData name="luo">13</SimpleData>
		<SimpleData name="luo_naziv">Zasavsko</SimpleData>
		<SimpleData name="povrsina">8164.33</SimpleData>
	</SchemaData></ExtendedData>
      <MultiGeometry><Polygon><outerBoundaryIs><LinearRing><coordinates>14.5483386122034,46.0824354855256 14.5510937329116,46.0821293564877 14.5548542007006,46.0824066113302 14.5596178924974,46.0835834054143 14.5623673042054,46.0840149593972 14.5712377834675,46.0832029012942 14.5733609245699,46.082964313752 14.5755577886933,46.0830070431402 14.5806521368187,46.0839205603359 14.5853429822129,46.0847972968613 14.5900088934143,46.085638750923 14.5939210897898,46.085967899758 14.5968010625693,46.0858543793079 14.6004426715899,46.0851809264795 14.6149579820579,46.0787612570724 14.6206550329604,46.0764946644889 14.6232861594294,46.0757647592185 14.626800599505,46.0750725912373 14.6299332462484,46.0748359743619 14.6341739770091,46.075041813112 14.6385131834289,46.0756343399319 14.641513493502,46.0763457766788 14.6433861324055,46.0761519794152 14.6453550885006,46.0757945153521 14.6468714739371,46.075587948238 14.6486620844554,46.0759268247746 14.6506783498722,46.0765474459142 14.6507392999201,46.0748785003015 14.6508687999391,46.0743517305253 14.6512271141561,46.0735796664149 14.651409807091,46.0726314337204 14.6515409538651,46.0718411301621 14.6515715058206,46.0714233776896 14.6513715579925,46.0710889593591 14.65132366911,46.0706670986743 14.6514522682913,46.0702809566396 14.6507721721174,46.0700154327642 14.6499445573096,46.0696318552826 14.6493633292088,46.0691680500219 14.6486065220236,46.0690779998282 14.6480026498272,46.0687424229252 14.6471732017863,46.0681250634875 14.6464942744115,46.0676837956386 14.6455393585969,46.0669431296491 14.6450131720283,46.0662915139931 14.6444869018146,46.0656749860087 14.6443391196373,46.0650771791119 14.6440147472226,46.0644436416881 14.6435123523687,46.0640380859231 14.6432124228245,46.0635452540426 14.6430890874147,46.0630880633536 14.6427897336578,46.0625073260005 14.6428955329088,46.0617344969477 14.6432015291947,46.0612434663681 14.643381586805,46.0606993163905 14.6437886266091,46.0601908741883 14.6444518876178,46.0590683348098 14.6458465699779,46.0580356962566 14.6469625920583,46.0571603572355 14.6483377753488,46.0569857250918 14.6489822567493,46.0571134920605 14.6498419458633,46.0568699557746 14.6512590555732,46.0562942156827 14.6529556928166,46.0553853175441 14.6533875857161,46.0549120966422 14.6536951890341,46.0541223231541 14.6541800068052,46.0532627240912 14.6554219256608,46.0523876826338 14.6562090575063,46.0516168019874 14.6566162183336,46.0510381326572 14.6570227591772,46.050600002001 14.6579353116444,46.04993484708 14.6585456026749,46.0491634206399 14.6575637121362,46.0487565820443 14.6569093738109,46.0484384450283 14.6561557395541,46.0478390113369 14.6563354081263,46.0473299290824 14.6565654863727,46.0468386332309 14.6567199515742,46.0463294745505 14.6569488465064,46.0460489875207 14.6573534808665,46.0458919339095 14.6569037229791,46.0451351480628 14.6563512142375,46.0446767710864 14.6555201950186,46.0443757297761 14.65400930356,46.0438443577273 14.6527504290421,46.0433488221693 14.6516185821841,46.0427306630105 14.6493505188781,46.0421970087423 14.6465270027883,46.0417321339984 14.6458446025769,46.0419058343316 14.6459484101666,46.0414317133278 14.6461783315792,46.040975527962 14.6465089459283,46.0405723794201 14.6470944166322,46.0397306649268 14.6471241785493,46.0389927746653 14.6474041477918,46.0386070123217 14.6482150486654,46.038047071746 14.6491767894593,46.0375754049493 14.6498849841748,46.0372963118555 14.650062807845,46.0371035881838 14.6508728853218,46.0366666231754 14.6516829689965,46.036247197719 14.6539826354428,46.0356562928904 14.6548425161751,46.0353249022129 14.6554483602634,46.035291459636 14.6562794408956,46.0355397762618 14.6577177867039,46.0355262775717 14.6582997187623,46.0352642993631 14.6592347306421,46.0350209167372 14.65991872919,46.0345659661923 14.6611820430273,46.0342707281169 14.6616879219636,46.0340613230109 14.6622455706058,46.0336235297145 14.6626762733395,46.0333260814863 14.663762527854,46.0331005633593 14.6654544554343,46.0328416287495 14.6668974561541,46.0320197739286 14.6678071861622,46.0317762473659 14.6686387953806,46.0319365692681 14.6703815913313,46.0316074378942 14.6711893700079,46.0315393134451 14.6718966749605,46.0314006236472 14.6723505257435,46.0314370162595 14.6732073838741,46.0316325579197 14.6741405141481,46.0316877681359 14.6755012342454,46.0320076352242 14.6773176729201,46.0320475087014 14.6780489344712,46.0321197521839 14.6793592806387,46.032421796109 14.6801160441251,46.032441371978 14.6808726344045,46.0325135782983 14.6822083967825,46.032780569868 14.6850300927878,46.0335610043173 14.6861663745011,46.0334056823626 14.687378151559,46.0332858262084 14.688260746089,46.0333758735017 14.6899266913152,46.0332395029161 14.6909370669879,46.0330487912301 14.6923016581237,46.0326480311194 14.6928835597594,46.0323332406997 14.6937184535203,46.0319135837193 14.6943502024891,46.0317394618518 14.6949812387403,46.0316706964645 14.6958640126954,46.0317255949164 14.6968482866057,46.0316928492767 14.6974043878956,46.0314833292392 14.6981900650853,46.0308176048321 14.699734808858,46.0297143388368 14.7003688531308,46.0290833814173 14.7009036377742,46.0281007143033 14.7012336832198,46.0277149504784 14.7015646349478,46.0271359194805 14.7016442284191,46.0263629629974 14.7018226877805,46.026011982192 14.7021269265032,46.025713964971 14.7028863022601,46.0252062270626 14.7051372695914,46.024087085402 14.7070825955091,46.0235470123439 14.7078157847471,46.0232148977406 14.7083969819809,46.0230230234004 14.7087267237269,46.0226547821772 14.7094656523804,46.0211981498109 14.7097452823221,46.0207770521122 14.7100995805525,46.0205495018807 14.7098334326112,46.0202951837002 14.7093301610908,46.0200657253298 14.7087253445769,46.0199413680801 14.7084738507494,46.0198002740706 14.7084002368056,46.0194311839778 14.7081491162985,46.0192197288229 14.7074185393481,46.019042497342 14.7068391441687,46.0189006498049 14.7064103340933,46.0188820937125 14.7061085761191,46.0187233199856 14.7059589838462,46.0183891235651 14.7059103860164,46.0180551868477 14.7055841607777,46.0177381705919 14.7052326622597,46.0174387235438 14.7041205371432,46.0178580182115 14.7039168996373,46.018191392518 14.7032867440606,46.0181021214878 14.7025083747034,46.0174502899774 14.7022335164861,46.0169753096068 14.70188175807,46.0167284876198 14.7016280882145,46.0169739106155 14.7013515373591,46.016815190075 14.701277183746,46.0165690007788 14.7006726473903,46.0164270561975 14.7002181054738,46.0165139515756 14.6996374234323,46.0166180590755 14.699058168814,46.0164586270303 14.6985547861622,46.0162642114788 14.6979521730814,46.0157709003863 14.6970444344723,46.0156984963039 14.6957096205119,46.0153440429361 14.6945261424472,46.0149724331721 14.6941996455802,46.0147432003312 14.6939989639179,46.0145319388193 14.6933685747181,46.0144953384969 14.6920837213328,46.0142463389273 14.6915046109037,46.0140693235409 14.6904946800601,46.0142426766028 14.6898664572043,46.0138195247953 14.6879254557569,46.0136216920922 14.6873732600969,46.0131635533741 14.6872992700125,46.0128647196837 14.6865721496976,46.0121250123621 14.6864223948492,46.0118435156261 14.6856957969857,46.0110159871449 14.685674498389,46.0103306689305 14.6858014531254,46.0101903850206 14.6853767317372,46.0094865914436 14.6853800492035,46.0089242484415 14.6856098384813,46.0084328900992 14.6855118802348,46.0079230844787 14.6856663272598,46.0073963378348 14.6856688152713,46.0069570800226 14.6860021507083,46.0060090153853 14.6861058046597,46.005534854583 14.6861193786854,46.0031803889636 14.6848394093016,46.0021230623958 14.6846924140047,46.0013847600082 14.6838641166192,46.0007151163617 14.6837411121836,46.0001876938308 14.683391546323,45.999589462045 14.6834221905252,45.9986758355666 14.6823670919118,45.9979880068581 14.6814895330723,45.9971424845036 14.6804575369081,45.9968237861252 14.6785196333912,45.9962216269974 14.6768810427029,45.9961473642122 14.6750915942194,45.9960200128755 14.6739305382771,45.996210425733 14.6732474125957,45.9965952838728 14.6728934274677,45.9967700854351 14.6722887390307,45.9966808059655 14.6720913450817,45.9959598875364 14.671492123833,45.9949919983881 14.6710158717314,45.9945163619403 14.6704636923339,45.9941108662524 14.670086813668,45.9938815083423 14.6684981489908,45.9939126320157 14.6674146803921,45.9938044814965 14.666987049657,45.9936453273411 14.6659326735693,45.9928870766246 14.6658083759284,45.9926056263094 14.6659368199853,45.9922193723234 14.6658895424495,45.9917096965268 14.6659674059293,45.9913409299855 14.6659704946394,45.9908489467851 14.6661999579083,45.9904278067248 14.666151834433,45.9900586719338 14.6659764372019,45.9898825250174 14.6654487467696,45.9895825289682 14.6641433576164,45.9886830725378 14.662756351825,45.988732254288 14.6617977984271,45.988817688828 14.6606388030175,45.9887092504256 14.6600844774518,45.988655056698 14.6588978148747,45.988933148103 14.6576347419164,45.9893339964 14.6570026896801,45.9895959128034 14.6562691874274,45.9899805187091 14.6550029949985,45.9908557753144 14.6541682998063,45.991275243006 14.653612748929,45.9914143739925 14.6523777426803,45.9913583477725 14.6515200537616,45.9914263674121 14.650661478569,45.9916349214015 14.6496005819228,45.9919308459439 14.6463433338647,45.9926776062877 14.6455104533413,45.9927982939 14.6440449809204,45.9932687255028 14.6434948164192,45.9925820187159 14.642968255878,45.9921412890535 14.6425945741035,45.9914550390106 14.6422180557592,45.991190409326 14.641438966515,45.9908192434064 14.640861854099,45.9903959807083 14.6403628956071,45.9895863313095 14.6398382113285,45.9888645057587 14.6382534675943,45.9883329570835 14.6377277906722,45.9877692975656 14.6367722051116,45.9873976299647 14.6363906797711,45.9879061347383 14.633642654195,45.9878984384 14.6328100634735,45.9880014890202 14.6308147864884,45.9885229542196 14.6295275242423,45.9887476893422 14.6290473428588,45.9889220361802 14.6280335474118,45.9896922705492 14.6276261666878,45.9902884789432 14.6271441851706,45.9907088080464 14.6260061302767,45.991232712582 14.6250715829102,45.991476006578 14.6246432616014,45.9914395997144 14.6243165872801,45.9912805273543 14.6240640010376,45.991332513063 14.6238607064508,45.9915778402985 14.623382866041,45.9914008121884 14.6230553606132,45.9913647315539 14.6220437200642,45.9918185617508 14.6217156052429,45.991852747017 14.6212848862553,45.9921677683617 14.6205986858388,45.9929564769273 14.6197381584641,45.9934107881533 14.6180708156571,45.9938803048107 14.6174392611129,45.9940540967707 14.617109078351,45.9944045296247 14.6163498139259,45.9948064281629 14.616270272475,45.9953508793758 14.6156136433215,45.9955071215578 14.6154341230202,45.9959282378439 14.6155283747227,45.9968773578372 14.6153509259279,45.9970173941074 14.6146401315915,45.9976829855442 14.6135808935018,45.9977149497874 14.6122425035774,45.9979920432889 14.6111084675022,45.9979008228586 14.6102533433177,45.9975819122599 14.6070978090599,45.9980819044585 14.6063892739702,45.9984311847279 14.6059332379981,45.9987285152627 14.6048967741773,45.9990942904662 14.6039873028755,45.9993199530267 14.6030770744916,45.9996685136389 14.6028723952661,46.0000720670867 14.6020900423814,46.0001575228706 14.601432053357,46.0004716774743 14.6010763030904,46.0008571552895 14.6007683692254,46.0015766118005 14.6005115414301,46.0022083390232 14.5997492631006,46.002996655157 14.5989634362612,46.0035565232254 14.5985309703812,46.004064721508 14.5979696154644,46.0043620998647 14.5971132488515,46.0048158046593 14.5966310377968,46.0052184578727 14.5960720085061,46.0057964715373 14.5960190934239,46.0061301870112 14.5953879712529,46.0062160413308 14.5949067624107,46.0064956929671 14.5949756288578,46.007409557478 14.5947208886754,46.0077426468164 14.5942907924606,46.0079345700927 14.5925985241922,46.0082629925013 14.5916153847677,46.0082072074345 14.5913134984879,46.008100765965 14.5908849419602,46.0080818672413 14.5903541153778,46.0082383242791 14.5901753993264,46.0085364051702 14.5896400193228,46.009290285695 14.5893867983783,46.0094300092825 14.5891802926536,46.0100618909952 14.5881941262359,46.0104101494657 14.5874328665642,46.011022662255 14.5874290793741,46.0115146392215 14.5870486360172,46.0117945312613 14.5864687111153,46.0117751589472 14.585612858171,46.0115615144017 14.5847067849291,46.0113125901898 14.583646087649,46.0114848147151 14.582840078788,46.0113592378478 14.5824613325165,46.0114106708975 14.5820046646763,46.0117606291533 14.5815289062051,46.0113022582274 14.5803189813803,46.0112104546478 14.5797904866862,46.011068149644 14.57880704488,46.011047344094 14.5787802685711,46.0112405146054 14.5784016485721,46.0112919346684 14.5779733440359,46.0112202623338 14.5773178934664,46.0111829293049 14.5763593622133,46.01119737557 14.5755011381394,46.0112999133436 14.5747169702677,46.0115959894517 14.5744136152901,46.0116828570944 14.5736789812812,46.0121021081548 14.5726695371703,46.0121690596804 14.5723401832249,46.0123611868829 14.5719339416118,46.0126936581756 14.5716277275235,46.0131495005949 14.5711678541358,46.0139034870554 14.5704047260905,46.0147267835295 14.5697451520522,46.0152164727136 14.568580333904,46.0157924287361 14.5670893764303,46.0163054142201 14.5670028504256,46.0164046001966 14.5664660317416,46.0174577167689 14.5660878157778,46.0183421875851 14.5657843836295,46.0187789495181 14.5654956201408,46.019156112143 14.5655344428789,46.0196738929385 14.5658726318107,46.020292234905 14.5655785681362,46.0216915070801 14.5656106985915,46.0223384679728 14.5656959916435,46.0233219617119 14.5655818943217,46.0236579489434 14.5653561288162,46.0240194245588 14.5651482771888,46.024484440431 14.5652746641134,46.0254977825838 14.5661882070003,46.0269073104906 14.5664232728509,46.027736162529 14.5666602672045,46.0283191166474 14.5669919571836,46.0286696609132 14.5674125681097,46.0295111802801 14.5674335150885,46.0300384292892 14.5677020748913,46.0311814213729 14.5676696325173,46.0320950052369 14.5678663418155,46.0327457358997 14.5680586822429,46.0339412543013 14.5682496556027,46.0353299453762 14.5684728047583,46.0358226867329 14.5689504393493,46.0360527581145 14.5694550435271,46.0360544801321 14.5705914207062,46.035935308225 14.5706906827693,46.0361464947892 14.57023005892,46.0369707428903 14.5704525517751,46.0375512942798 14.5692412542955,46.0375648206199 14.5693620214248,46.0382504424211 14.5696114687782,46.0386202833019 14.5704987636882,46.0445094827399 14.5681492528303,46.0448353395544 14.5672596878157,46.0456230423308 14.5668505617295,46.0462892929944 14.5658322278385,46.0474103965332 14.565118260563,46.048321656108 14.5649882930859,46.0487956037261 14.5645049039385,46.0492859302972 14.5637159981579,46.0500914436982 14.5618986341423,46.0501203923934 14.5596196814923,46.0510437829125 14.5574977170203,46.051264755461 14.5556317590051,46.0510474227267 14.5530388556062,46.0502300500726 14.5511702459512,46.0503465340643 14.5499795968763,46.0508693800187 14.5492895091488,46.0519211763348 14.5490446287784,46.0540639714808 14.5485066585255,46.0550283663734 14.5471145966882,46.0554802952458 14.5448944986147,46.0553493798106 14.541946223404,46.0547588787702 14.5413425747453,46.0544930991713 14.5409917357453,46.0541931514325 14.5402673484817,46.053294442014 14.5397693028221,46.0524843658065 14.5397470226093,46.0521329209168 14.5399559860086,46.0513077850345 14.5399619665149,46.0505874633506 14.5392105463137,46.0499169963084 14.5385565677922,46.0496510888077 14.5343526206317,46.0483705991125 14.5336211902368,46.0483151609762 14.5319051060287,46.0482912301759 14.5304668351437,46.0482683252526 14.5289528659434,46.0482275449976 14.5284742468806,46.0481203897494 14.5283204148855,46.048400929336 14.5267029760509,46.0486584118218 14.5277539684273,46.0496990101264 14.5291347331008,46.0505475997353 14.5300875665248,46.0512715070773 14.5305109255333,46.0519407768411 14.5306559952771,46.052679263533 14.5304951825831,46.0537681188823 14.5291386236954,46.0559593845692 14.528222827181,46.0567817646105 14.5268265061466,46.0577077802937 14.5254582002029,46.058299995551 14.5237890195831,46.0586627630103 14.5206597210039,46.0585805807884 14.5206482113491,46.0598807701496 14.522087059248,46.059886255673 14.524162317955,46.0621782246596 14.5252332986225,46.0638514549344 14.5264712906546,46.0666498805817 14.5295448233747,46.0674169272382 14.5318117664507,46.0680227730232 14.5341565586846,46.0684003534028 14.5358053820348,46.0704621908401 14.540581124964,46.0759967978538 14.5404288799689,46.0760840917233 14.5412290165038,46.0770358260653 14.5421046664433,46.0780054023648 14.5421999869407,46.0786734009607 14.5424737725384,46.0791487570063 14.5429500749216,46.0795721968191 14.5442812479273,46.0804379456112 14.5450584822649,46.0811084783609 14.5459828147706,46.0823065751493 14.5463437550334,46.0828818703501 14.5483386122034,46.0824354855256</coordinates></LinearRing></outerBoundaryIs></Polygon></MultiGeometry>
  </Placemark>
</Folder>
</Document></kml>
