<?xml version="1.0" encoding="utf-8" ?>
<kml xmlns="http://www.opengis.net/kml/2.2">
<Document id="root_doc">
<Schema name="pregledovalniklovisca" id="pregledovalniklovisca">
	<SimpleField name="lov" type="string"></SimpleField>
	<SimpleField name="lov_naziv" type="string"></SimpleField>
	<SimpleField name="luo" type="string"></SimpleField>
	<SimpleField name="luo_naziv" type="string"></SimpleField>
	<SimpleField name="povrsina" type="float"></SimpleField>
</Schema>
<Folder><name>pregledovalniklovisca</name>
  <Placemark id="pregledovalniklovisca.1">
	<Style><LineStyle><color>ff0000ff</color></LineStyle><PolyStyle><fill>0</fill></PolyStyle></Style>
	<ExtendedData><SchemaData schemaUrl="#pregledovalniklovisca">
		<SimpleData name="lov">0312</SimpleData>
		<SimpleData name="lov_naziv">DOLENJA VAS</SimpleData>
		<SimpleData name="luo">03</SimpleData>
		<SimpleData name="luo_naziv">Kočevsko Belokranjsko</SimpleData>
		<SimpleData name="povrsina">3373.09</SimpleData>
	</SchemaData></ExtendedData>
      <MultiGeometry><Polygon><outerBoundaryIs><LinearRing><coordinates>14.7979252251488,45.6846179976733 14.7976501072004,45.6846897658284 14.7974607870015,45.6847857104993 14.7972652688596,45.6849979898552 14.797138618173,45.6851944644584 14.7970402907355,45.6854752118518 14.7969936899888,45.6856877551695 14.7968155149439,45.6858600228049 14.7967062238635,45.6860123468938 14.7966657037133,45.6861406782704 14.7967103756548,45.6864256389307 14.7967098522079,45.6865701481483 14.7965720174798,45.6866983062789 14.7963542482859,45.6867420991882 14.7960907045362,45.686769703321 14.7957866960774,45.686909621302 14.7955340478275,45.6871178363038 14.7952695066621,45.6874182603623 14.7950511474365,45.6876225765365 14.7947989186559,45.6877144446984 14.794489580226,45.687729905366 14.7941517589311,45.6877051821785 14.7935050228141,45.6876157433355 14.7930069240007,45.6875706611094 14.7927149620404,45.6875741809277 14.7923654043047,45.687633743731 14.792010038823,45.6877013032354 14.7917120753818,45.6877650071174 14.7914485991488,45.68777253481 14.7910994869999,45.6877116994471 14.7906360509303,45.687598464362 14.7901499893758,45.6874249882829 14.7895036544399,45.6872311490949 14.7891890523927,45.6871101739069 14.7888685459041,45.6870574828253 14.7885764958848,45.6870850169401 14.7881296219507,45.6871443866574 14.7876941279722,45.6872157433006 14.7873676476364,45.6872151361405 14.7870129553199,45.6871382612081 14.7866182783498,45.6870091212857 14.7862634817939,45.6869602280465 14.7860112814111,45.6870079859834 14.7857535701573,45.6870194705226 14.7855533781135,45.6869629465351 14.7852442562274,45.6869222341802 14.7849634566992,45.6869618377156 14.7846312368364,45.6869852369681 14.7842363091168,45.6869564176102 14.783858657773,45.686875440356 14.7834639281508,45.6867623061214 14.7831379200149,45.6866734160046 14.782891604464,45.6866930140459 14.7826103870016,45.6867740924355 14.7824057070208,45.6865847418256 14.7823673423266,45.6865459767429 14.7822654812422,45.6863280276352 14.782124837569,45.6861792901688 14.7818940655588,45.686097866567 14.78156060682,45.6860117471386 14.7814197134913,45.6859277949438 14.7813685924623,45.6858683093872 14.7811124906221,45.6856986539285 14.7809074402565,45.6856064798323 14.7807920246016,45.6855738651278 14.780727989222,45.685534150416 14.7805741020501,45.6854906638758 14.7800873498528,45.6851783922184 14.7798951586185,45.6850817419762 14.7797027985199,45.685028282174 14.779574720038,45.6849515509135 14.7794472359356,45.6847236518334 14.7793193000143,45.6846109279797 14.7792559037812,45.6844092470661 14.7791922106494,45.684283149955 14.7792051049999,45.6842687778433 14.7791923982643,45.6842354601489 14.7792440746761,45.6841527770771 14.7794241134576,45.6840739411375 14.7794885669305,45.6840065794679 14.7794247676451,45.6839074767094 14.7792966319473,45.683846041859 14.7791042872769,45.6837898816231 14.7788348678187,45.6837461692888 14.7786806641485,45.6837845626988 14.7785263288986,45.6838562487844 14.7783722348593,45.6838667477383 14.7781159022154,45.6837600720746 14.777897769926,45.6837326537876 14.777436180503,45.6835895848003 14.7768718038384,45.6834688086108 14.7767180112377,45.6834037214934 14.7766796454851,45.6833667541057 14.776628567619,45.6832982683385 14.7766678068731,45.6831156826715 14.7767581020283,45.683006981567 14.7769125373242,45.6829101032426 14.7770281882997,45.6828815349405 14.7774132708406,45.6828921838006 14.7776702290393,45.6828395950696 14.7779790060567,45.6826683309263 14.7781079308546,45.6825291101079 14.7781215577882,45.6823293776888 14.7779945795751,45.6819441002454 14.7779568973813,45.6817343701463 14.7779715069682,45.6812862906992 14.7779977112694,45.6811522691886 14.778462836868,45.6803946279671 14.7760266198568,45.6796932410172 14.7754777836703,45.6791316688119 14.7749001776402,45.6788009298619 14.7741512450938,45.6782703603313 14.7739402488051,45.6782936081766 14.7737549301286,45.6782519398087 14.7736710006419,45.6781512641834 14.7736803540852,45.6779326275476 14.7738001052371,45.6774896155696 14.7738011765628,45.6772237221803 14.7737269348832,45.6768217174929 14.7735344844499,45.6764490824094 14.773357945219,45.6763009825817 14.7731811052277,45.6762593300874 14.7730207941867,45.6762885256608 14.7729329244239,45.6764966583999 14.7730599015646,45.6768388406682 14.7730848825726,45.6770098552653 14.773032883594,45.6771717187903 14.7727890675337,45.6772809216816 14.7724095362425,45.6773038314023 14.7720642433142,45.6772086623859 14.7716684415827,45.6770660610866 14.7714324582773,45.6770479528253 14.7711538351909,45.6771301781 14.7708244203763,45.6772653899409 14.7702278409157,45.6773478745184 14.7699720637121,45.6774612764715 14.7697862526699,45.6775097621902 14.7696122944392,45.6774850265207 14.7696129284584,45.6773305294608 14.7694512915849,45.6771187467218 14.7692429502706,45.6769963110996 14.7689996285302,45.6768901810172 14.7686403712123,45.6767593407073 14.76827203384,45.6766518760565 14.7680449585021,45.6764978167067 14.7677762226201,45.6762373140026 14.7674732417451,45.6760948867777 14.7672123205691,45.6759939359817 14.7670524974175,45.6759049783572 14.7667910813704,45.6758926574478 14.7662338872843,45.6760747212078 14.7656096610284,45.676108984968 14.7652215936083,45.6761791836124 14.7645375074513,45.6764378225223 14.7641747273582,45.6765070799239 14.7638510924214,45.6764857156654 14.7634983022929,45.6764076017468 14.7630503233173,45.6761952168016 14.7625432762347,45.676049743616 14.7620947135018,45.6759766451897 14.7614851291282,45.6759782535887 14.7612912148423,45.6763017822789 14.7607361606604,45.6770608755023 14.7605162973697,45.6774473355621 14.7605006653828,45.6780725846241 14.7576925109842,45.6773738952963 14.7557822514842,45.6768361471679 14.7513461084203,45.6756731043216 14.7510229905346,45.6761451638654 14.7423574844352,45.6736737719163 14.7404097014459,45.6740929962462 14.7401108264308,45.6735524270277 14.7399050327299,45.6731737659171 14.7396324260287,45.6728938419817 14.7392104563352,45.6725786636529 14.7357179922194,45.6716836889367 14.7356801837409,45.6715084971652 14.7356160332774,45.6715033997377 14.7346673606777,45.671322946752 14.7346664257047,45.6715208142502 14.7347314343084,45.6718061170798 14.73478820204,45.6720971595535 14.7347288412335,45.6723821735764 14.734586528804,45.6726204743658 14.7344363313932,45.6727888409074 14.734128582497,45.672916169006 14.7339042339427,45.6729680159994 14.7337791265308,45.6730957684042 14.7338283748171,45.6732123193861 14.7340768532314,45.6733233954639 14.7344664644227,45.6734464967209 14.7346982223172,45.6735925354316 14.7348046825113,45.6739069984298 14.7348606279428,45.674372693165 14.7348426228873,45.6746519542983 14.734749713313,45.6750008672558 14.734590533923,45.6753031056964 14.7343406139099,45.6754946355368 14.7340248102448,45.6755578776719 14.7337761842512,45.675475865237 14.7334949502321,45.675259883581 14.7334041863896,45.6751549332361 14.7332132206907,45.6751486386518 14.7330798744762,45.675253065769 14.7329710586736,45.6754623786269 14.7330197818944,45.6756894260784 14.7331679172619,45.6759574673878 14.7333825440602,45.676225573701 14.7334314904749,45.6764061009899 14.7332717745858,45.6768189236243 14.7332040301973,45.6771096758674 14.7332279089165,45.6773250575212 14.7332687333208,45.6774590454107 14.7332095351082,45.6776799918859 14.7330757024183,45.6779124615742 14.7329753183076,45.678075183593 14.7328998916679,45.6782262662684 14.7328822904111,45.6784183357283 14.7329080650663,45.6786937395234 14.7327784918601,45.6786238807928 14.7326107696995,45.6785592415464 14.7323670289966,45.6784194693683 14.7321844671214,45.6782637333994 14.7315082676074,45.6775072009912 14.7313182144079,45.6773086147811 14.7311204350143,45.6771422234666 14.7306584611464,45.6768746098619 14.7304657982983,45.6768463511823 14.7302224364272,45.6767105344686 14.7298687018969,45.6765446724125 14.7294049347134,45.6767845455802 14.7290440949473,45.6770806295496 14.7287986892238,45.6773949827553 14.7278677489023,45.6788100685578 14.7241709504945,45.6787832967784 14.7241323793781,45.6787958010651 14.7244512759996,45.6792067964958 14.7247193202421,45.6795178789678 14.7247800621266,45.6802198812288 14.7241371863486,45.6804297873144 14.7230318021741,45.680715143727 14.722658622328,45.6808987005244 14.722079086092,45.6813022089889 14.7217952009139,45.6815984570112 14.7216018642566,45.6817554536763 14.7214990559999,45.6817776984812 14.7210230329038,45.6819879936042 14.7207911364806,45.6821538928719 14.72066175724,45.6823560349637 14.7205062320892,45.6826525935016 14.7202994455555,45.6829310300298 14.7200287840823,45.6831463226247 14.7192801198591,45.6839633169022 14.716318467492,45.6857638187029 14.7132666422555,45.6875612274799 14.7147891987962,45.6885908265295 14.7148496839825,45.6893207265526 14.7097510939746,45.6921216943658 14.7077165816775,45.6957103610485 14.7072661320448,45.695933261157 14.706505861421,45.6964460035089 14.7058998284942,45.6969276444593 14.7050493819596,45.6974906243489 14.7044839236029,45.6975782445744 14.7040075081023,45.697825359536 14.7037491395707,45.6981189285453 14.7011053064464,45.7002886883024 14.7010529054732,45.7004829106111 14.7000491921842,45.7008708882694 14.6980042223672,45.701456677551 14.6967273783923,45.7024997764988 14.6991318096801,45.7050804045741 14.7021663785939,45.7082248271141 14.7089435921868,45.7150667245247 14.7114839521795,45.7172071562976 14.7133125547732,45.7188268270714 14.7142177684115,45.7201923056097 14.7159541179069,45.7197710259813 14.7164552488785,45.7197434768793 14.7173041861107,45.7195242275658 14.7178445896092,45.7193501006602 14.7186156106491,45.7192962140107 14.7197469704289,45.7191108447023 14.7201987654285,45.7186458509097 14.7203535490936,45.7185184569663 14.7208672405397,45.717874729883 14.7216844662471,45.7169184265926 14.7222641740768,45.7164257519053 14.7228437978717,45.7159480108705 14.723403492614,45.7151857887689 14.723984051996,45.7145134152536 14.7250775306634,45.7138572109468 14.7261484010713,45.7134854618336 14.7271970962557,45.7132334144269 14.7283955458334,45.7129817134883 14.7298076398678,45.7127454422645 14.7309204534206,45.7125085390966 14.7317985839815,45.712166246524 14.7325052508957,45.7119282837731 14.7332430911384,45.7119669910927 14.7335765778931,45.7120640489341 14.7338962609519,45.7123635309347 14.7348090736743,45.7129668164575 14.735405425059,45.7134323211082 14.735869154723,45.7134775747916 14.7363059009493,45.7134704853588 14.7367697196332,45.7131413246599 14.7373111695981,45.7127177705402 14.7376854189299,45.7123407101692 14.7381892208893,45.7117245959811 14.7382289247348,45.711473639898 14.7385118220305,45.7114032027102 14.7388199285708,45.7114354008251 14.7393580922138,45.7117119717508 14.7396398403615,45.7118889769619 14.7402400776309,45.7126308869814 14.7409934856215,45.713612490535 14.7426424082585,45.7153600481028 14.743739251462,45.7170991458948 14.7445687775348,45.7182887517183 14.7450525778941,45.7192696344563 14.7456935277831,45.7195653004537 14.7460264291298,45.7198062899478 14.7462414394648,45.7205509096433 14.7464962920576,45.721008578262 14.7468935824191,45.7212173149026 14.7484951830492,45.7221782481537 14.7492253404875,45.7226459539441 14.7506219709325,45.7234660369527 14.7513276869668,45.7236592343154 14.7531646079079,45.7236991199997 14.7540889201406,45.7238495815555 14.7558870375257,45.7239812103656 14.7559766359398,45.7240569856615 14.7562463404999,45.7240755575515 14.756438291842,45.724248730094 14.7567461787537,45.7243501645491 14.7572461349281,45.7245986751601 14.7576317139307,45.7245599021968 14.7580162862306,45.7247541761128 14.7582216940178,45.7247879038781 14.7586061497938,45.725010069605 14.7595434269315,45.7251415284358 14.7601851635836,45.7252868465288 14.7608011210095,45.7254528026293 14.7612228220614,45.7259827718184 14.7617744352269,45.7261764822037 14.7617868121022,45.7262871843816 14.7626077168091,45.7266317197912 14.7637389774281,45.7267752445552 14.7648710561085,45.7270620091953 14.7657717278303,45.7264649471263 14.7669934829454,45.7257637055378 14.7677220574947,45.7253908689443 14.7683431779228,45.7251526011081 14.7692563749582,45.7250228971064 14.7702272815894,45.7245724303001 14.7708909114913,45.7243641976763 14.7718534483413,45.7242911697658 14.7730940487313,45.7242038394849 14.7741006190389,45.7237866134504 14.774895879697,45.7227849867456 14.7763731991487,45.7219263212378 14.7768497349315,45.7216204182461 14.7775058300503,45.7213859479487 14.7782810114238,45.7210847592709 14.7791584684592,45.7209067669091 14.7794806975487,45.7205031052322 14.7799644466135,45.7201193696336 14.7808099180528,45.7196073838752 14.7818681044622,45.7194904543464 14.7825488713747,45.719507048804 14.7831137272332,45.7196008027954 14.7837169384717,45.7197423164786 14.7837934269913,45.7198945289495 14.7841269518824,45.7200166338104 14.7843319739402,45.7201501927131 14.7849077448709,45.7207496509569 14.7855099515159,45.7211916893532 14.7855993894434,45.7213187302436 14.7863932341872,45.7220076709411 14.7865338313744,45.7221950938878 14.786687549888,45.7223105564757 14.7870080609609,45.7224821180397 14.78725120807,45.7227291185737 14.7887118346489,45.7237945027044 14.7890322215471,45.7240029504513 14.7895574545938,45.7243998346899 14.7898651259613,45.7245749637564 14.7903141127795,45.7247512512386 14.7905577247744,45.7248803706322 14.7910194626332,45.7250836729478 14.7927256788981,45.7257823326367 14.7934541442045,45.7268220301301 14.7948106652335,45.7283100568101 14.7974198714277,45.7315999092577 14.798232562887,45.7322025083587 14.7995808748747,45.7318903089728 14.8006299597785,45.7315327615163 14.8014168289776,45.7313098999696 14.8021071274977,45.731071029166 14.8028764273165,45.7312370237382 14.8037320895483,45.7311785696763 14.8044881647825,45.7311595303453 14.8045268608617,45.7311164058169 14.8051655004093,45.7309862148123 14.8061597270706,45.7307978666677 14.8069315388216,45.7305355300138 14.8085257394381,45.7301681221245 14.809765574494,45.7302898675662 14.8106211942241,45.7299334356596 14.8114566417532,45.7298412374357 14.8120216354352,45.7299393475885 14.8128426431435,45.7303230235108 14.8135864907411,45.7307309524126 14.8138942153204,45.7309231129888 14.8153697071523,45.7315948733233 14.8196040182746,45.729347620476 14.8163881789239,45.7265487751849 14.8129683729152,45.7233716747812 14.8124432001511,45.7229101120051 14.8123536626409,45.7227938897062 14.8118669038011,45.7223728786974 14.8113799914905,45.7219996451614 14.8110470321641,45.7216886610496 14.8104575832422,45.7212116859414 14.8092153151972,45.7200893564338 14.8079092610844,45.7188148382484 14.8071021869245,45.7181737142291 14.808157180438,45.7176895936245 14.8123649192153,45.715516433378 14.8119539973763,45.7154815650207 14.8115047289889,45.715390843735 14.8113126677639,45.7152087651747 14.8113267540618,45.7148398665003 14.8111867285936,45.7144635147398 14.8101110962626,45.7134440472192 14.8097756273252,45.7138897948379 14.8038440273824,45.7094014098589 14.803536458372,45.7092083219324 14.80179480414,45.7077755146224 14.799015309128,45.7056533137622 14.788540035636,45.697578391235 14.7824965036304,45.6930364884152 14.7820099016836,45.6926990308863 14.7814825442096,45.6929373737535 14.7813151967956,45.6930477305688 14.781289320939,45.6930980705708 14.7811475398743,45.693237270096 14.7810187594426,45.6933351029599 14.7808131259992,45.6933850981682 14.7805691768593,45.6933828302644 14.7803767876871,45.6933293716215 14.7802359518118,45.6932265221118 14.7800951538018,45.6930813812834 14.7799927288081,45.6930064996025 14.7815865016971,45.6926190386829 14.7822292267806,45.6924286053847 14.7828462614713,45.6922399192642 14.7833858382116,45.6921590605633 14.7838737677342,45.6921527861233 14.7848493642627,45.6922086163041 14.7853631590039,45.6921537942937 14.7858770317239,45.6920782744136 14.7873290515862,45.6917760398141 14.7892053570497,45.6913143136015 14.789745010232,45.6912082302216 14.790400396439,45.6910537667479 14.7909143194365,45.690960228021 14.7913510480884,45.690908837261 14.7921215259252,45.6908769486664 14.7926479079549,45.6908851037273 14.7934570680489,45.6908082856521 14.7940220597985,45.6907913093987 14.7950881682629,45.6906690522444 14.7964116571166,45.6904167711176 14.7976196549194,45.690108571667 14.7989820397337,45.6897078603898 14.7990853120722,45.6895514744769 14.7992275866486,45.6892592851475 14.7992152693313,45.6891134936818 14.7992543330408,45.6889605939942 14.7993192159728,45.6887321552879 14.7994225370249,45.6885613721084 14.7995002733326,45.6883644493324 14.7995265421079,45.6881989296826 14.7998354843651,45.6879709186467 14.7999514613552,45.6878505467182 14.8002226977508,45.687394005827 14.8006096797011,45.6868799882365 14.800610152832,45.6867468165794 14.8005077439178,45.6866629550956 14.8001348346573,45.686830568573 14.7993243895794,45.6872853536277 14.7991187043369,45.6873605765348 14.7988745809017,45.6874140458928 14.7986947877663,45.6874290260769 14.7985407812669,45.6874134577765 14.7983484858436,45.6873348347146 14.7983102260231,45.6872636818725 14.7983365200908,45.6870919537919 14.798401067509,45.6869930881641 14.7985427706396,45.6868592658264 14.7988145042735,45.6862658673429 14.7991888270757,45.6857032422007 14.7991504932318,45.6856527852176 14.7988046208213,45.6854416201059 14.7987663746093,45.6853668681597 14.798753856046,45.6852777644923 14.7987798739195,45.6851824300009 14.7987424313328,45.6848836256822 14.7986783872303,45.6848430211979 14.7983962073357,45.6847363455089 14.7981396448149,45.6846819036222 14.7980629772362,45.6845818887348 14.7979252251488,45.6846179976733</coordinates></LinearRing></outerBoundaryIs></Polygon></MultiGeometry>
  </Placemark>
</Folder>
</Document></kml>
