<?xml version="1.0" encoding="utf-8" ?>
<kml xmlns="http://www.opengis.net/kml/2.2">
<Document id="root_doc">
<Schema name="pregledovalniklovisca" id="pregledovalniklovisca">
	<SimpleField name="lov" type="string"></SimpleField>
	<SimpleField name="lov_naziv" type="string"></SimpleField>
	<SimpleField name="luo" type="string"></SimpleField>
	<SimpleField name="luo_naziv" type="string"></SimpleField>
	<SimpleField name="povrsina" type="float"></SimpleField>
</Schema>
<Folder><name>pregledovalniklovisca</name>
  <Placemark id="pregledovalniklovisca.1">
	<Style><LineStyle><color>ff0000ff</color></LineStyle><PolyStyle><fill>0</fill></PolyStyle></Style>
	<ExtendedData><SchemaData schemaUrl="#pregledovalniklovisca">
		<SimpleData name="lov">0311</SimpleData>
		<SimpleData name="lov_naziv">RIBNICA</SimpleData>
		<SimpleData name="luo">03</SimpleData>
		<SimpleData name="luo_naziv">Kočevsko Belokranjsko</SimpleData>
		<SimpleData name="povrsina">5448.04</SimpleData>
	</SchemaData></ExtendedData>
      <MultiGeometry><Polygon><outerBoundaryIs><LinearRing><coordinates>14.6966122694204,45.7024130889569 14.6952024456806,45.7018992331711 14.6948803322807,45.7020954321672 14.694555614806,45.7027694233303 14.6946519327434,45.7039484340265 14.6941367755723,45.7042169994889 14.6934398793147,45.7048405006221 14.6933225763125,45.7051551197888 14.6931503083321,45.7061264534166 14.6911832461203,45.7088655768824 14.6899105410302,45.7113363388186 14.6866536494814,45.7104235032062 14.6865499450291,45.7105941827338 14.6865107350111,45.7107155495694 14.6859548793907,45.7113528884226 14.676902380104,45.7109363191982 14.6745540632101,45.7105932149172 14.6745032928047,45.7101128413861 14.6743069630479,45.7096397013288 14.6740665517912,45.7099454012621 14.6735662123029,45.7103559060861 14.6732618060332,45.710423511519 14.6731526132448,45.7105372051882 14.6730539421563,45.7106966392351 14.6730313491829,45.7108487325351 14.6731815126038,45.7111761533064 14.6731478698568,45.711350980211 14.6725033078997,45.7120411785466 14.6722840673633,45.712413161321 14.6721953742186,45.7127323395068 14.672171311337,45.7131352954354 14.6721800997963,45.7134775184349 14.6721026335628,45.7137434599486 14.6720146046614,45.7139485439193 14.6720569955954,45.7141235886673 14.6722515593737,45.7142610080702 14.6725655779023,45.71439876955 14.6727276025881,45.71454374326 14.6727807806862,45.7147416737912 14.6728224646941,45.7150383704961 14.6728209561293,45.7152968815341 14.6727869988287,45.7155249760436 14.6728838155382,45.7156849695136 14.6731217581761,45.7158300699891 14.673206372728,45.7162105716133 14.6732374915699,45.7164692659046 14.6732039348939,45.7166287961473 14.672772242741,45.7169747970516 14.6657102061989,45.7160396958177 14.6657766731335,45.7157498816068 14.6656493520523,45.71556054903 14.665175923285,45.7152532272479 14.6652155050447,45.7150778803238 14.6652155856379,45.7150643834124 14.6649622147806,45.7144742652108 14.6647971728694,45.7141498495229 14.664476923725,45.7140049398857 14.6639899422153,45.7138190476578 14.6634537195192,45.7132776733009 14.6632741165099,45.7132411516994 14.6629784831854,45.7132762724129 14.6625168222506,45.7131534352803 14.6620926384375,45.7132061701083 14.6619510194795,45.713282235029 14.6617328305153,45.7132545949295 14.6614511541586,45.7131052919336 14.6611567439072,45.71293795427 14.6608746897301,45.7128516354379 14.6603993481386,45.7128682197125 14.6601291851312,45.7129394011686 14.6598969535564,45.7131096740251 14.65967849323,45.7131270197015 14.6592560021363,45.7129008078865 14.6588876277621,45.712224850953 14.6587728806952,45.7120850377008 14.6586709501789,45.7119498516536 14.6586326375508,45.711913744772 14.6584663792404,45.7117962725418 14.6583892063262,45.7118140380263 14.6574374946702,45.7120181448022 14.6569108385396,45.7120255625899 14.6571613986061,45.713248796932 14.6578038518425,45.7142001125817 14.6582110026206,45.7150681182304 14.6587368767731,45.7158902267596 14.6592222014961,45.7163487787005 14.6599002532601,45.7168007039346 14.6599234767722,45.7172073969979 14.6599332435314,45.7177149186128 14.6600472737876,45.7179753028868 14.6605862914542,45.7180569884944 14.660930943569,45.7184170357895 14.6609545337878,45.7187644321849 14.6609543378767,45.718796824737 14.6608870351012,45.7193050172033 14.6607947202308,45.7197006591891 14.6610104797783,45.7201341077339 14.6614717872306,45.7203244354253 14.6618170560386,45.7205855027421 14.6622383845196,45.7210159579616 14.6623010104922,45.7212823965361 14.6625023812678,45.7219749445385 14.6625622355764,45.7227021667618 14.6623392341874,45.7234672450213 14.6622604144003,45.7237558505774 14.6626816779278,45.7242016004702 14.6627701649351,45.7244412107175 14.663021544624,45.7253660555425 14.66316070926,45.7257245895763 14.6631707389097,45.7261934191803 14.6633077496581,45.7269109700271 14.6633952653634,45.727313442048 14.6635086013006,45.7282944764589 14.6636109467032,45.7307645696399 14.6637143290369,45.7320356717843 14.6636728112361,45.7327876083576 14.6638133590226,45.7340329049222 14.6638662021147,45.7344772050456 14.6639915847563,45.7349958625386 14.6646557825069,45.7368617632348 14.66541086236,45.7385577722987 14.6685411294013,45.7394137938272 14.6684842915663,45.7406580604776 14.6678856062246,45.741693347867 14.6681618523427,45.7424826501546 14.6687024569502,45.7429679544278 14.6691775957446,45.7434854595554 14.6693525057772,45.7442251559223 14.6696074282278,45.7449093853908 14.6700223387848,45.7455103945144 14.6703557248818,45.7464040533818 14.6719633671168,45.747482687422 14.6721985436597,45.7481668540178 14.6724738476533,45.7487814002354 14.6734457692953,45.7495513555186 14.6741601963663,45.7500694329995 14.6748162474896,45.7503503313972 14.6755517837929,45.7506453087389 14.6761874428083,45.7510098231103 14.6768430327424,45.7513743003144 14.677439217994,45.7516549242627 14.6778162632065,45.7519350173301 14.6785898876952,45.7525648994643 14.6793441664235,45.7530970033028 14.6796604561072,45.7535303362254 14.6799366350052,45.7540332006875 14.6802933077091,45.7543969101245 14.6809097836954,45.7546217847618 14.6818934518467,45.7549235324172 14.6826112111121,45.7551063890331 14.6833969135562,45.7553679822664 14.6840924772292,45.7557047244171 14.6847473883427,45.7562086235894 14.6849634110101,45.7567671874388 14.6845284391414,45.7572423430708 14.6835811208277,45.7580048260679 14.6829843932273,45.7577799307997 14.6809841864739,45.7590018747048 14.6806194697124,45.759704231658 14.6811203442426,45.7597875127108 14.6813128503842,45.7598438375895 14.6818774095027,45.7600541651187 14.6829298562809,45.760350426273 14.6833476505979,45.7604870052233 14.6837849555811,45.7606974204558 14.6842221065018,45.7609357274603 14.6849378768766,45.7612585730317 14.6854562595529,45.7614325834199 14.686251770054,45.761705611209 14.6866368818771,45.7618047465451 14.6873046381443,45.7619361475539 14.6876131430462,45.7619414904631 14.6881140431323,45.7620256406919 14.6888080817618,45.76205542698 14.6891166174709,45.7620553670989 14.6893614152531,45.7619579544546 14.6900565249537,45.7617942785545 14.6907777339963,45.7615595846658 14.6913577472129,45.7612849135784 14.6917579899141,45.7609719629808 14.6921697670533,45.7608983895263 14.6922724156134,45.7609337583368 14.6924390238992,45.7610268866057 14.6932462989037,45.7615041525395 14.6942581245817,45.7621925140277 14.694948888111,45.7628242219825 14.6955248529612,45.7633160605121 14.696933474577,45.7643374817383 14.6970742621334,45.7644539295491 14.6987339948984,45.7642153713647 14.6994804519208,45.7640661704065 14.6999941485928,45.7641682982134 14.7003664074099,45.7642745518907 14.7008152552926,45.7644835823555 14.7011740420054,45.7647058725682 14.7013788749742,45.7648683724496 14.7015831238262,45.7651406462622 14.7017357914885,45.7654424785169 14.7017736170447,45.7655820465336 14.7018372416802,45.7657054854301 14.7020294729952,45.7658211615389 14.7021839595925,45.765781973043 14.7024539518419,45.765780876869 14.7027493317508,45.7658410326281 14.7033639462473,45.7663123264533 14.7035295165667,45.7666078911335 14.7036178061149,45.7669545438084 14.7037841607198,45.7671025426675 14.7041050244493,45.7672077510487 14.7042455013009,45.7673871752628 14.7042828732141,45.7676140219694 14.7046027339238,45.7679099842521 14.7049106948011,45.7680250548112 14.7051921279272,45.7682948219298 14.7051783845869,45.7684630493205 14.7051395008703,45.7685223358687 14.7061329495734,45.7678653409097 14.7062608894466,45.7679853434858 14.7068510031734,45.7682351142659 14.7072876008112,45.7683388109638 14.7077119352894,45.7683290996516 14.7079570336162,45.7681731609525 14.7086515156427,45.7681344428873 14.7091394498947,45.7682562594312 14.7093959476532,45.7683801848863 14.7099598195486,45.7687352395744 14.7104747608241,45.7686087738016 14.7105896592764,45.7687665301198 14.7113601890383,45.7689412410951 14.7115653917585,45.7690407374363 14.711872886809,45.7692502671548 14.7123098903268,45.7692783623645 14.7124121231259,45.7694000928921 14.7128617682644,45.7694705084633 14.7131709585406,45.7693507117096 14.7141098247794,45.7692954774869 14.7144680019933,45.7696535942025 14.7146212974887,45.7698483342297 14.7146215131595,45.7698060441166 14.7147368202377,45.7698864143566 14.7148256564548,45.7701151855899 14.7149406115197,45.7702648394211 14.7154024244797,45.7704981393208 14.7155431516624,45.7706370591152 14.7158635827263,45.7708358126257 14.7159251677663,45.7709883920365 14.7161378858606,45.7712569713994 14.7162033974831,45.7716750016482 14.7161679016898,45.7720061301446 14.7159840191879,45.772439557114 14.7158394799395,45.773050162368 14.7159668038773,45.7732979241104 14.7164800867697,45.7735043534485 14.716839972654,45.7735331397206 14.716798642932,45.7740774165717 14.7169241342522,45.7746886920044 14.7171790698438,45.775156319679 14.7176965704954,45.7758817586669 14.7183899377394,45.7764909247432 14.7192065215568,45.7767647640308 14.7201402829081,45.7768797099246 14.7210798861728,45.7771390803369 14.7221036371811,45.7773127168123 14.72325702431,45.7772245464616 14.7246827764156,45.7770031308524 14.7258111676161,45.7768704243635 14.7265828628722,45.7769444375738 14.7270826704391,45.7772920554794 14.7278757059584,45.7781883479996 14.7283110221458,45.7785798970244 14.729477240417,45.7794050810178 14.7304632409389,45.7802748179631 14.7310896280073,45.7810537205426 14.7327818512262,45.7821895481127 14.7349638855763,45.7830782330737 14.7360815798955,45.7833254755528 14.7369173231153,45.7833660942699 14.7377916128939,45.7834418874964 14.7384597865313,45.783564891757 14.7399104106055,45.7841286877379 14.7410911886583,45.7846487537383 14.7418673243332,45.7849029033397 14.7423896286848,45.7841997196849 14.7440045572943,45.7820345639062 14.7447359707657,45.7806986487397 14.7457700284135,45.7787198657119 14.7472694884523,45.7763470908367 14.7476126019536,45.7758542189546 14.7478627084551,45.7754827037976 14.7500299283827,45.7738398414392 14.750800807892,45.7731132268533 14.7566322615543,45.7686168044849 14.7599855630968,45.7661817468066 14.7622808538781,45.7645462068217 14.7638280776599,45.7634848597827 14.7646917161273,45.7629404618341 14.7652178348823,45.7631718934803 14.7659171235779,45.7619594951746 14.7663745265541,45.7618362586493 14.7665700503544,45.759865641064 14.7692875437523,45.7581700836577 14.7731272816929,45.7558482725025 14.7773509493996,45.7533194055288 14.7808336222722,45.7510583636566 14.7839709671877,45.7492185705476 14.7869113928326,45.747330454023 14.7906944112292,45.745278783677 14.7934345072171,45.7437894643514 14.7973264205565,45.741627993745 14.8021128940339,45.7389699001354 14.8087401843047,45.7352479807381 14.8134776175475,45.7325977842086 14.8153697071523,45.7315948733233 14.8138942153204,45.7309231129888 14.8135864907411,45.7307309524126 14.8128426431435,45.7303230235108 14.8120216354352,45.7299393475885 14.8114566417532,45.7298412374357 14.8106211942241,45.7299334356596 14.809765574494,45.7302898675662 14.8085257394381,45.7301681221245 14.8069315388216,45.7305355300138 14.8061597270706,45.7307978666677 14.8051655004093,45.7309862148123 14.8045268608617,45.7311164058169 14.8044881647825,45.7311595303453 14.8037320895483,45.7311785696763 14.8028764273165,45.7312370237382 14.8021071274977,45.731071029166 14.8014168289776,45.7313098999696 14.8006299597785,45.7315327615163 14.7995808748747,45.7318903089728 14.798232562887,45.7322025083587 14.7974198714277,45.7315999092577 14.7948106652335,45.7283100568101 14.7934541442045,45.7268220301301 14.7927256788981,45.7257823326367 14.7910194626332,45.7250836729478 14.7905577247744,45.7248803706322 14.7903141127795,45.7247512512386 14.7898651259613,45.7245749637564 14.7895574545938,45.7243998346899 14.7890322215471,45.7240029504513 14.7887118346489,45.7237945027044 14.78725120807,45.7227291185737 14.7870080609609,45.7224821180397 14.786687549888,45.7223105564757 14.7865338313744,45.7221950938878 14.7863932341872,45.7220076709411 14.7855993894434,45.7213187302436 14.7855099515159,45.7211916893532 14.7849077448709,45.7207496509569 14.7843319739402,45.7201501927131 14.7841269518824,45.7200166338104 14.7837934269913,45.7198945289495 14.7837169384717,45.7197423164786 14.7831137272332,45.7196008027954 14.7825488713747,45.719507048804 14.7818681044622,45.7194904543464 14.7808099180528,45.7196073838752 14.7799644466135,45.7201193696336 14.7794806975487,45.7205031052322 14.7791584684592,45.7209067669091 14.7782810114238,45.7210847592709 14.7775058300503,45.7213859479487 14.7768497349315,45.7216204182461 14.7763731991487,45.7219263212378 14.774895879697,45.7227849867456 14.7741006190389,45.7237866134504 14.7730940487313,45.7242038394849 14.7718534483413,45.7242911697658 14.7708909114913,45.7243641976763 14.7702272815894,45.7245724303001 14.7692563749582,45.7250228971064 14.7683431779228,45.7251526011081 14.7677220574947,45.7253908689443 14.7669934829454,45.7257637055378 14.7657717278303,45.7264649471263 14.7648710561085,45.7270620091953 14.7637389774281,45.7267752445552 14.7626077168091,45.7266317197912 14.7617868121022,45.7262871843816 14.7617744352269,45.7261764822037 14.7612228220614,45.7259827718184 14.7608011210095,45.7254528026293 14.7601851635836,45.7252868465288 14.7595434269315,45.7251415284358 14.7586061497938,45.725010069605 14.7582216940178,45.7247879038781 14.7580162862306,45.7247541761128 14.7576317139307,45.7245599021968 14.7572461349281,45.7245986751601 14.7567461787537,45.7243501645491 14.756438291842,45.724248730094 14.7562463404999,45.7240755575515 14.7559766359398,45.7240569856615 14.7558870375257,45.7239812103656 14.7540889201406,45.7238495815555 14.7531646079079,45.7236991199997 14.7513276869668,45.7236592343154 14.7506219709325,45.7234660369527 14.7492253404875,45.7226459539441 14.7484951830492,45.7221782481537 14.7468935824191,45.7212173149026 14.7464962920576,45.721008578262 14.7462414394648,45.7205509096433 14.7460264291298,45.7198062899478 14.7456935277831,45.7195653004537 14.7450525778941,45.7192696344563 14.7445687775348,45.7182887517183 14.743739251462,45.7170991458948 14.7426424082585,45.7153600481028 14.7409934856215,45.713612490535 14.7402400776309,45.7126308869814 14.7396398403615,45.7118889769619 14.7393580922138,45.7117119717508 14.7388199285708,45.7114354008251 14.7385118220305,45.7114032027102 14.7382289247348,45.711473639898 14.7381892208893,45.7117245959811 14.7376854189299,45.7123407101692 14.7373111695981,45.7127177705402 14.7367697196332,45.7131413246599 14.7363059009493,45.7134704853588 14.735869154723,45.7134775747916 14.735405425059,45.7134323211082 14.7348090736743,45.7129668164575 14.7338962609519,45.7123635309347 14.7335765778931,45.7120640489341 14.7332430911384,45.7119669910927 14.7325052508957,45.7119282837731 14.7317985839815,45.712166246524 14.7309204534206,45.7125085390966 14.7298076398678,45.7127454422645 14.7283955458334,45.7129817134883 14.7271970962557,45.7132334144269 14.7261484010713,45.7134854618336 14.7250775306634,45.7138572109468 14.723984051996,45.7145134152536 14.723403492614,45.7151857887689 14.7228437978717,45.7159480108705 14.7222641740768,45.7164257519053 14.7216844662471,45.7169184265926 14.7208672405397,45.717874729883 14.7203535490936,45.7185184569663 14.7201987654285,45.7186458509097 14.7197469704289,45.7191108447023 14.7186156106491,45.7192962140107 14.7178445896092,45.7193501006602 14.7173041861107,45.7195242275658 14.7164552488785,45.7197434768793 14.7159541179069,45.7197710259813 14.7142177684115,45.7201923056097 14.7133125547732,45.7188268270714 14.7114839521795,45.7172071562976 14.7089435921868,45.7150667245247 14.7021663785939,45.7082248271141 14.6991318096801,45.7050804045741 14.6967273783923,45.7024997764988 14.6966122694204,45.7024130889569</coordinates></LinearRing></outerBoundaryIs></Polygon></MultiGeometry>
  </Placemark>
</Folder>
</Document></kml>
