<?xml version="1.0" encoding="utf-8" ?>
<kml xmlns="http://www.opengis.net/kml/2.2">
<Document id="root_doc">
<Schema name="pregledovalniklovisca" id="pregledovalniklovisca">
	<SimpleField name="lov" type="string"></SimpleField>
	<SimpleField name="lov_naziv" type="string"></SimpleField>
	<SimpleField name="luo" type="string"></SimpleField>
	<SimpleField name="luo_naziv" type="string"></SimpleField>
	<SimpleField name="povrsina" type="float"></SimpleField>
</Schema>
<Folder><name>pregledovalniklovisca</name>
  <Placemark id="pregledovalniklovisca.1">
	<Style><LineStyle><color>ff0000ff</color></LineStyle><PolyStyle><fill>0</fill></PolyStyle></Style>
	<ExtendedData><SchemaData schemaUrl="#pregledovalniklovisca">
		<SimpleData name="lov">1001</SimpleData>
		<SimpleData name="lov_naziv">KUNGOTA</SimpleData>
		<SimpleData name="luo">10</SimpleData>
		<SimpleData name="luo_naziv">Slovensko goriško</SimpleData>
		<SimpleData name="povrsina">4365.56</SimpleData>
	</SchemaData></ExtendedData>
      <MultiGeometry><Polygon><outerBoundaryIs><LinearRing><coordinates>15.5450201627668,46.6342956067402 15.5450510822124,46.6345003134842 15.5449994586323,46.634796189771 15.5455355056104,46.6355790437129 15.545878629699,46.6360867081441 15.5460972514319,46.6364350951711 15.5460715031689,46.636796883823 15.5460501362937,46.6369969815574 15.5460459306448,46.6370333481358 15.5461116721689,46.6370502808716 15.5461119445669,46.6370503510318 15.5461152047784,46.6370511907479 15.5461296220496,46.6370531175154 15.5463075962993,46.637076902369 15.5466873820105,46.6370730190607 15.5467871867735,46.6370888653943 15.5469184154867,46.6371097008659 15.5470584849394,46.6371416357931 15.5471047070692,46.637152174093 15.5471216903211,46.6371606381624 15.5471669306711,46.6371831849061 15.5472898688491,46.6372639267011 15.5473467323143,46.6372944232564 15.5474184471298,46.6373469805087 15.5474460036265,46.6373466687247 15.547464971643,46.6373405371686 15.5476671960983,46.6372751662892 15.5477021639004,46.6373022963968 15.5481991765722,46.6376879043665 15.548233044166,46.6376786268845 15.5483756717751,46.6376395562026 15.5483993932677,46.6376665021828 15.5486394075761,46.6379391400917 15.5489240110669,46.6382612048543 15.5492551378479,46.6386239803519 15.5492810068436,46.6386177504018 15.5498371862283,46.6384838056845 15.5498375676053,46.6384852455574 15.5499052279609,46.6387406931187 15.54996650901,46.6389361658302 15.5500237545363,46.6391200522153 15.5502313370773,46.639393542098 15.5503056549488,46.6395219268195 15.5503463533155,46.6396582103357 15.5503998178665,46.6397524180376 15.5504453871999,46.6397764897812 15.5504737544822,46.6398302432703 15.5505626264058,46.6398738092931 15.5505911008658,46.6398781190945 15.5507834159808,46.6399072270798 15.5507867235153,46.6399077276909 15.5509367897492,46.6400476228966 15.5510376789016,46.6401683219856 15.5510437666278,46.6402147154075 15.5510970648556,46.6402666392966 15.5510542313342,46.640280520523 15.5507152231689,46.6404047772214 15.5504191332491,46.6405107431716 15.5497307203881,46.6407652395293 15.5492843822952,46.6409716972424 15.5491289778769,46.6410399181227 15.549141672302,46.6411455678773 15.5489214203158,46.6413630842829 15.5486712129096,46.6414275766348 15.5486699710489,46.6414278967295 15.5486683621425,46.6414367211653 15.5485007263054,46.6414193517022 15.5483441560909,46.641411195513 15.5482533978299,46.6414218967895 15.5482447388659,46.641422917761 15.5481703931954,46.6414467552519 15.5479764514707,46.6415537548331 15.5479356635012,46.6415763518442 15.5477672356972,46.6416617268759 15.5476560343836,46.6417095816065 15.5475470043046,46.6417396124653 15.5474668499231,46.6417704047185 15.5473716706556,46.6418009089319 15.5472271518029,46.6418350677912 15.5471431266153,46.6418576913768 15.5471014836189,46.6418732747891 15.5470399210384,46.6419342965568 15.5470055951914,46.6419889803858 15.5470423871691,46.6419975312312 15.547232423757,46.6420599588846 15.5469818281696,46.6427882639375 15.546975687841,46.6428061093021 15.5468422394121,46.642772469961 15.5467210214988,46.6427340037965 15.5465432608482,46.64272333737 15.5462126726029,46.6426224442303 15.5456822364431,46.6424519290542 15.5456258278098,46.6424337956021 15.545722669245,46.6428931525714 15.5455719172386,46.642889056495 15.5455254981044,46.6428877952026 15.5453799323628,46.6428707651816 15.5453503816829,46.6428673079657 15.5452488444988,46.6428893838588 15.5451613708271,46.6429590749004 15.5451711538238,46.6429836791081 15.5451573394708,46.6430128940794 15.5449684079032,46.6432947595335 15.5448876504221,46.6433829514688 15.5446998327561,46.6434506908941 15.5445186048251,46.6434982461529 15.5444279040314,46.6435589553344 15.5443216917871,46.6438704748556 15.5447264055713,46.6440027787206 15.5448274513257,46.6440486303361 15.5448557947721,46.6440743157458 15.5447050657554,46.6442193396871 15.5445499090314,46.6444048694168 15.5445016234993,46.6445789144627 15.5444955513978,46.6447028272017 15.5444711350521,46.6449774311146 15.5445275273761,46.6451295659463 15.5445689105984,46.645243986268 15.5446038282976,46.6453129143153 15.5446752080192,46.6454484238957 15.5447335661648,46.6455229981627 15.5447111866716,46.6455319214246 15.5443908188674,46.6456959256422 15.5444814584878,46.6458240564094 15.5444450343689,46.6458523892433 15.5440193646969,46.6459765884729 15.5438696846242,46.64608364043 15.5443159551829,46.6462288832576 15.5447169410856,46.6463784784044 15.5449893777405,46.6466056058483 15.5452875645458,46.6467039578973 15.5454801067008,46.6467672761407 15.5455367867574,46.6468306121769 15.5455441767702,46.6468509993236 15.5455989834532,46.6469228910729 15.5457616867074,46.6470846844489 15.5458372604811,46.6471301168523 15.5459410822142,46.6471525629447 15.5460578917429,46.6472713010147 15.5461480278546,46.6474136475299 15.5463539711198,46.6477436508039 15.5464725963481,46.6480684028906 15.5465336304762,46.6482265422361 15.5466024314519,46.6483775370924 15.5466773379851,46.6485509943362 15.5468020514944,46.648740587391 15.5468696053436,46.6487241900795 15.5477699566034,46.6485056435252 15.5483127818145,46.648364495124 15.5488804719187,46.6482537234794 15.5492429974065,46.648176052099 15.549549468042,46.6480974792578 15.5495540016931,46.6481043662803 15.5495623381641,46.6481170301216 15.5496108481251,46.6481028012269 15.5499359041199,46.6480074553955 15.550251544323,46.647944400789 15.5507373945926,46.647867211094 15.5509273410214,46.6478282408218 15.5510494328453,46.647796974307 15.5511687364963,46.6477741779382 15.5511978788162,46.6477682694095 15.551202372217,46.6477673583836 15.5513850058898,46.6476901868446 15.551412394084,46.6476911209497 15.5514658996651,46.6476929457987 15.5515962274353,46.6478550668405 15.5516545330532,46.6479489805885 15.5517526550681,46.64812996974 15.5517796997878,46.6481815700136 15.5518400165158,46.6483190177145 15.5519336117785,46.6484658412913 15.5520204816211,46.6485307838872 15.5520301056731,46.6485379786711 15.5521083916807,46.6485761305293 15.552215096852,46.648628131993 15.5523403714754,46.6487040887199 15.5523831880558,46.6487922293946 15.5523845395239,46.6487950114735 15.5523854313159,46.648795665203 15.5523961224602,46.6488035023614 15.5526777654204,46.648801422506 15.5526916883352,46.6488215976955 15.5526540167294,46.6489067979325 15.5527012997625,46.648969995858 15.5527090489304,46.6489868721106 15.5527526363713,46.6490078936168 15.5527958451978,46.6490430416631 15.5528170426001,46.6490591332008 15.5528068185266,46.6490942695024 15.55274217615,46.6491993926846 15.5527581022355,46.6492366518059 15.5528593455513,46.6492874434925 15.552939659667,46.6493612776721 15.5529270891965,46.6494097403511 15.5528058002931,46.6494046585501 15.5528008240615,46.6494547938841 15.5528217969719,46.6495001255877 15.5528330578786,46.6495154554336 15.5529536783134,46.6495959322873 15.5530030382299,46.6496192649249 15.5529785613957,46.6496659858259 15.5529619094572,46.6496729037521 15.5529597987227,46.6497862716254 15.5529390007656,46.6499119652396 15.5529257389301,46.6499438774368 15.5529215575963,46.6499950885267 15.5529668639319,46.6500052157067 15.5531071487233,46.6500537492469 15.5532060463466,46.6501561926738 15.553202800192,46.6502606593588 15.5531719152336,46.6503451971661 15.5531550509608,46.6503697495599 15.5530518968015,46.6505546793362 15.5530543629444,46.6505659132147 15.5531812803592,46.6506871141525 15.5532061213577,46.6507903112428 15.553208838268,46.6508015980925 15.553289005393,46.6508991838461 15.5533080388335,46.6509196708378 15.5533546576983,46.6509698498259 15.553459974684,46.6511378474665 15.5534946465434,46.6512596759045 15.5534947994611,46.6512602132186 15.5534977702113,46.6512707450731 15.5535270605177,46.6513745843526 15.5535207713396,46.6514112310957 15.5534944933401,46.6514351093454 15.5534735180853,46.6514665191135 15.5533792070874,46.6514810100506 15.5532914217127,46.6514307835264 15.5532292127065,46.651415969989 15.5530556663721,46.6514627818214 15.5530236944247,46.6514792202762 15.5530054600457,46.6514975715851 15.553001986377,46.6515156716165 15.5530872789199,46.6515776960079 15.5530887733897,46.6517371092027 15.5530555499989,46.6519512098374 15.553114756221,46.652094330029 15.5530850465443,46.6521020308247 15.5529907045122,46.6521007774747 15.5529632184714,46.6520830969753 15.5528348752295,46.6521043194773 15.5528254143378,46.6521118323988 15.552795455583,46.6521848499062 15.5528340605082,46.6522423318226 15.5528827686555,46.6522655776855 15.5529837222016,46.6523770979352 15.553035918348,46.6525117951993 15.553009712106,46.6525684207418 15.5529776952577,46.6527215182993 15.5529924742144,46.6527358414883 15.5529742473458,46.6528446989084 15.5529851349669,46.6528746050847 15.5530068751424,46.6530206953385 15.5529383540686,46.653104605245 15.5529095986903,46.6531419003118 15.5529327665984,46.6531588819585 15.5529093218366,46.6531916530428 15.5527470912922,46.653246866543 15.5527316754554,46.6532598062047 15.5527364972469,46.6533355345781 15.5525596516178,46.6533797525536 15.5525432716943,46.6533878386627 15.5525120097864,46.6534228066072 15.552514595061,46.6534457355417 15.5525827684182,46.6535199884139 15.5525650570977,46.6535512922734 15.5524243456123,46.6536156679182 15.5523765721416,46.6536329921744 15.5523352327421,46.65366629936 15.5522468675658,46.6537005532485 15.5521487302122,46.6537759688462 15.5520175825444,46.6538044912301 15.5519678854874,46.6538639288433 15.5518890897538,46.6539398806703 15.5518747534761,46.6539562337284 15.5518694559181,46.6539877474993 15.5519255710042,46.6540582803305 15.5518220277625,46.6540904479117 15.5518346199978,46.654352189215 15.5518599148634,46.6543598942847 15.5518024309564,46.654463093015 15.5516606079419,46.6544570294322 15.5516044623461,46.6545119996553 15.5515943881788,46.6545492043173 15.551670212547,46.6546306181399 15.5516691155511,46.6546512257185 15.5516952912301,46.6546555978231 15.5517529101506,46.6546940954673 15.5517415319572,46.6547700819163 15.5516112127548,46.6549188848098 15.551694594345,46.6550624289058 15.5516682394632,46.6551303905877 15.5515505081043,46.6551808894874 15.5513248261764,46.6551515685623 15.5512732410175,46.6551539763101 15.5512293926656,46.6551720009004 15.5511432858235,46.6552616622982 15.5510777237581,46.6553158679165 15.5510671813443,46.6553713379441 15.550935418033,46.6555326523235 15.5507236883989,46.6556937217142 15.5506504536958,46.6557001019364 15.5505763904875,46.6556763473842 15.5504661380976,46.6557044075614 15.5504286151104,46.6557277993895 15.5503735185657,46.6557833937125 15.5503671510152,46.6558125734262 15.5503832755231,46.6558693545699 15.5505263822152,46.6559886811409 15.5506063609009,46.6560030507616 15.5506263744034,46.6560310239364 15.5506179684889,46.6560782067335 15.5504352645048,46.656151328775 15.5504252396823,46.6561677508693 15.5504221613914,46.6561862987365 15.5504570463197,46.6562376816022 15.5504571905563,46.6562518955841 15.5504790332259,46.6562798599833 15.5505985317485,46.6563130223546 15.5505825870304,46.6563769751568 15.5505819948586,46.6563958709295 15.5505727000051,46.6564198466925 15.5505671511951,46.6564395760128 15.550496399317,46.6564975848434 15.5504958535749,46.6565339338536 15.5503525173425,46.6567398365233 15.550351985194,46.6567775349602 15.5503666722562,46.6567956375049 15.5503358749909,46.6568123394397 15.5502920882569,46.6568108406828 15.5501456049467,46.656809655815 15.5501393375029,46.6569775630512 15.5500506649927,46.6571239146943 15.5499583801555,46.6572748719085 15.5498403146121,46.6574605899574 15.549773034024,46.6575390039935 15.5496409954804,46.6577514189853 15.5495728491807,46.6578218300595 15.5495430364586,46.6578584095956 15.5494966092874,46.6579961910102 15.549423472395,46.6581157475446 15.5493691244713,46.6581681889448 15.5493259064132,46.6582745566459 15.5492371332081,46.6583468658682 15.5491499900216,46.6584124197272 15.5490382454344,46.6585002232746 15.5488807460433,46.6586117274099 15.5487942618473,46.6586262669619 15.5487067834223,46.6587104451039 15.5486636497821,46.6587219876995 15.548560791363,46.6588100180618 15.5485368345778,46.6588184997797 15.5485069869525,46.6588517504546 15.5485088704474,46.6589475554913 15.5485558614304,46.6590331580198 15.548579205931,46.6590933234878 15.5486033815741,46.6591193877544 15.5486587498387,46.6591551514293 15.5486682239979,46.659161271006 15.5486874617732,46.6592158782359 15.5486812221543,46.6592578324322 15.5486450098699,46.659501544724 15.5485999744812,46.6596997763778 15.5485450978971,46.6599844227817 15.5483621759233,46.6612007434103 15.5482834264875,46.6616059687896 15.5481153477628,46.6621198513991 15.5480961593396,46.6623417100186 15.5480982399313,46.6625217224253 15.5481539040005,46.6628007501982 15.5481570160797,46.6628163500575 15.5481568975586,46.6628171786478 15.5481184476641,46.6630859835809 15.5480685040754,46.6634455477887 15.5479886148655,46.6637902310232 15.5478889488515,46.664091825118 15.5478843009668,46.664381988289 15.5479226216028,46.6646437862768 15.5479822632344,46.6648945962239 15.5467909088749,46.6648877904462 15.5465068017331,46.6647963027202 15.5462899541813,46.6645968936415 15.5460324953058,46.6647377500763 15.5461118160964,46.6650749245557 15.5460854705644,46.6652877302973 15.54606631217,46.6653568920927 15.5459407090894,46.6658103147608 15.545912987497,46.6658995135155 15.5459007136358,46.6660433379774 15.5459919615222,46.6662153924326 15.5460100812396,46.666249558323 15.5462331848673,46.6664726890722 15.5464563374779,46.6667004973837 15.5466880506615,46.6667531902548 15.5468102330295,46.6667794859713 15.5468283189706,46.6667833783591 15.54681895423,46.6668785173176 15.5468191348049,46.666883464592 15.5467252556539,46.6670084263364 15.5466298732978,46.6671269176211 15.5465269692217,46.6672382474614 15.5464236113113,46.6673175514335 15.5461419772865,46.6675376936784 15.5458433643637,46.6677071753293 15.5456375228232,46.6677972235785 15.5447668273684,46.6680910632828 15.5444901307098,46.6681662425162 15.5443500749541,46.6681965077666 15.5442942370348,46.6682191749628 15.5442022934675,46.668277370544 15.5441217931336,46.6683428888538 15.5440523791966,46.6684192402909 15.5439962841081,46.6685074938544 15.5440261716653,46.6687379348757 15.544002561896,46.6689117716688 15.5439333602272,46.6690223990995 15.5436930009715,46.6692855978601 15.5436887789478,46.6692902210432 15.5437854476928,46.6693380734529 15.5441519003695,46.6695197721416 15.5446101311293,46.669691406477 15.5448718864623,46.6697543061073 15.5454514835323,46.6699078156665 15.5460763926213,46.6700961028478 15.5462316783452,46.6701428244993 15.5462347501246,46.6701437487191 15.5462377652313,46.6701447509319 15.5462654351434,46.6701539483257 15.5463398264932,46.6701176966748 15.5464267590282,46.6700938903694 15.5465597922335,46.6700667149811 15.546637501388,46.670009575156 15.5466744907822,46.6699191624517 15.5467334191471,46.6698011152823 15.546794979036,46.6697107650597 15.5467642927095,46.6696096998504 15.5468631466706,46.6695499397725 15.546872557046,46.6694981642931 15.546927610168,46.6694754096289 15.5469607643601,46.669445382404 15.5469856018461,46.6694200731647 15.5470462624933,46.6693831669593 15.5471227795374,46.6693505032744 15.5471391030639,46.6693142655889 15.5471427206924,46.6693062345672 15.5471492126527,46.6693017030712 15.5471865853854,46.6692756162624 15.5471937686138,46.6692714749171 15.5472037368439,46.6692657279337 15.54726648085,46.6693964184822 15.5472989179639,46.6694298650879 15.5473463809485,46.6694788051003 15.5473491112384,46.6695396307431 15.5473499217976,46.6695576884247 15.5473407297364,46.6696180996434 15.547316271415,46.6697456985887 15.5473241959748,46.6698704436454 15.5474218527318,46.6700214182528 15.5474268233663,46.6700291026893 15.5474830573373,46.6700844326713 15.547500614165,46.6701015609457 15.5475023284016,46.6701032333378 15.5474953597962,46.6701508587403 15.5475250143564,46.6701884126288 15.5475471993004,46.6702627983819 15.5475816758815,46.6703895755303 15.5476390047974,46.6704368032453 15.5477362398099,46.6706048442778 15.5477782058445,46.6706449481777 15.5477921584684,46.6706935530258 15.547811378956,46.6707073157805 15.5478429638828,46.6707677117237 15.5478467313368,46.6707783996478 15.547894247646,46.6708374597701 15.5479224943146,46.6708420348283 15.5479411872405,46.670845062481 15.5479654623442,46.6708489942619 15.5480475498309,46.6709147261725 15.5481478248465,46.6709695749664 15.5483007070027,46.6711344699909 15.5483210709559,46.6711440291249 15.5483742146688,46.671168975519 15.5483779227399,46.671170716137 15.5484036853041,46.6711851671656 15.5484392272057,46.6712102772763 15.5484646674515,46.6712187021095 15.5484679554345,46.6712465758293 15.5485854010143,46.671306200097 15.5486452762832,46.6713723979324 15.5486959087795,46.6714034633285 15.5487411138719,46.6714108601617 15.5487454431036,46.6714115685456 15.548769089293,46.6714154377228 15.5487856755377,46.6714271437269 15.5488750607839,46.6714905908847 15.5489257390931,46.6715519745216 15.5489653124117,46.6715879510204 15.5489940803649,46.6716281177892 15.5492526017965,46.671989620244 15.5495219974406,46.6720954763168 15.5498818864044,46.6722319351847 15.5502907502943,46.672364558748 15.5505569611162,46.6724652996312 15.5509444897177,46.6725687845464 15.5509630403944,46.6725737125613 15.5510273152789,46.67259078725 15.5510268302971,46.6725889322654 15.550907648809,46.6721330764167 15.5509169939522,46.6721312305548 15.5510108239658,46.6721126971078 15.5511855820977,46.6720703601035 15.5512207309685,46.672061844878 15.5518356183027,46.6719031497579 15.5520896905794,46.6718385880098 15.5521272297474,46.6718286005728 15.552267819968,46.6716450210751 15.5523176886138,46.6716008769263 15.5523364207885,46.6715537342512 15.5523603920154,46.6715291725525 15.5523617163854,46.6715278155591 15.5523919104283,46.67149687772 15.5524760334038,46.6714539176155 15.5524853212492,46.6714509645214 15.5525179817762,46.6714405800151 15.5525208665732,46.6714390639878 15.5526534419214,46.6713693924217 15.5527273372069,46.6713103776047 15.5527677487606,46.6712873310008 15.5527850309593,46.6712646660252 15.5528172319872,46.6712695485515 15.5528909629058,46.6712457111551 15.5529204785775,46.6712435892747 15.5530207585232,46.6711958724542 15.5530443169692,46.6711863121505 15.5530522032009,46.6711993918146 15.5530617327868,46.6712151970454 15.5532124359086,46.6715364570642 15.5535289083727,46.6720923562246 15.5536048297257,46.6722061558416 15.5530945555379,46.6723827978636 15.5532080313162,46.6725265548251 15.5532343843396,46.6725602546434 15.5532395640222,46.6725581548332 15.5535101944611,46.6724484424315 15.5537846273943,46.6723426639431 15.5542644102099,46.6722647693454 15.554558110817,46.6722427073752 15.5547713921871,46.6722266857902 15.5547694527476,46.6722222248824 15.554713703514,46.672093995649 15.5553172398543,46.6719126653957 15.5554928714205,46.671859092754 15.5556288944998,46.6718278632939 15.5556526000703,46.6718224207254 15.5556641467158,46.6718179710437 15.5558133762522,46.6717604629209 15.5562759528692,46.6716113903318 15.556779857103,46.6713888823892 15.5569681737268,46.6712981797272 15.5570274007205,46.6712493996965 15.5570844471296,46.6712173639413 15.5571705752627,46.6711791588202 15.5573405438292,46.6711345175506 15.5576172344889,46.6710717226251 15.557942442811,46.6709864688334 15.5583430949113,46.6710187015557 15.5584121450532,46.6710101776731 15.5585044234892,46.671010896842 15.5586739168571,46.6710217649795 15.5587452072373,46.6710277144962 15.5587503106097,46.6710285931142 15.5588905372171,46.6710527350151 15.558906170821,46.6710605756657 15.5590681235243,46.6710879438451 15.5591201184292,46.6710984857101 15.5591420013355,46.6710990051756 15.5591955483277,46.6711002762785 15.5591947642749,46.6711058973179 15.5591872729191,46.6711596043667 15.5591944206101,46.6712950583444 15.5592553872258,46.671478471093 15.5592941331642,46.6716616325576 15.5593175992493,46.671883913969 15.5593871552921,46.672177672999 15.559434953709,46.6723260632389 15.5596336062278,46.6726416823473 15.559813613821,46.6728855094447 15.5598913992703,46.6731024868183 15.5599072984152,46.673249863367 15.5599469528377,46.6734447156958 15.5599430741862,46.6735373996988 15.5600218242148,46.6735819073446 15.5600854271868,46.6735771876918 15.5601379428099,46.673587276712 15.5601848255475,46.6735961337614 15.5602154877733,46.6735910355078 15.5602429253809,46.6735900914728 15.5602638169353,46.6736133803488 15.5602570792148,46.6736443616574 15.5603173264111,46.6736563919904 15.5603645342785,46.6736840502758 15.5604410593788,46.6737029282078 15.5604550316439,46.6737269706679 15.5604627263757,46.6737379987999 15.560469270407,46.6737392874813 15.5604872441645,46.6737428269558 15.5605367237228,46.6737525706796 15.5605870168555,46.6737878608716 15.5606411988083,46.6738073879304 15.5607125600527,46.6738198134278 15.5608011477356,46.6738676010696 15.5608360143824,46.6739025169289 15.5608641614581,46.6739069672296 15.5608668555605,46.6739399715585 15.5608802461149,46.6739456637462 15.5609180226161,46.6739838940594 15.5610304298155,46.6740094331068 15.5610735762905,46.6740108409305 15.5611002267841,46.6740222258963 15.5611182556623,46.6740466982114 15.561150924072,46.6740838739047 15.5611713611169,46.6740884519077 15.5612136974035,46.6740873446032 15.5612890216984,46.6741542697179 15.561306319329,46.6741964688981 15.5613217710422,46.6742118672539 15.5613372644417,46.6742051481968 15.5613456604871,46.6742015070637 15.5613618476643,46.6741944871284 15.5614378031155,46.6741834984651 15.5614816581945,46.6741902106538 15.5615490353976,46.6742217279778 15.5616492343229,46.6742547035457 15.5617229802277,46.6742953660403 15.5617678888445,46.6743406683737 15.5617835131984,46.6743727095345 15.5618268222059,46.6743897703652 15.5618627741392,46.6743905834554 15.5618705326557,46.6744077288683 15.5618571350313,46.6744265975572 15.5618942183515,46.6744356819565 15.5619090093543,46.6744503637489 15.5619284906899,46.6744509878046 15.5619424788724,46.6744638742148 15.5619461530299,46.6744904861142 15.5619661616948,46.6745041526476 15.5619858322361,46.6745356341113 15.562021297728,46.6745525534596 15.5620155626461,46.6745793015391 15.5620408422851,46.6745844853626 15.5620812623162,46.6745876155533 15.5621254134094,46.6746354405143 15.562162218638,46.6746555020476 15.5621895540367,46.6746572570291 15.5622588619743,46.6746732003245 15.5623119794687,46.6746529668379 15.5623266629442,46.6746276761005 15.5623304705152,46.6746211179569 15.562333149893,46.6746022119236 15.5623603069779,46.6745993794733 15.5623993770579,46.6746235682362 15.5623805172031,46.6746503603355 15.5623801849666,46.6746508323068 15.5623520867961,46.6746637455817 15.5623933003844,46.6746803666656 15.5624040978947,46.6746754554287 15.5624647070624,46.6746844240056 15.562528154224,46.6747437176024 15.5625313591286,46.6747467126937 15.5625231212648,46.6747505402158 15.5625096362035,46.6747568057174 15.5625092646251,46.674783977283 15.5625002701713,46.6747955881663 15.562490009719,46.6748088333119 15.5624820504656,46.6748191078512 15.562481712477,46.6748495180281 15.5624970330922,46.6748522316592 15.5625245786398,46.6748742278823 15.5625187392219,46.6748909003043 15.5625106891321,46.6749086631862 15.5625420333639,46.674944045667 15.562662305805,46.6749967141771 15.5627039649939,46.6749932705348 15.5627293177312,46.675005471196 15.5627429813911,46.6750248366566 15.5627373166149,46.6750457366333 15.5627720890737,46.6750713858598 15.5628338396039,46.675089525161 15.5628684131022,46.6750834173324 15.562892039746,46.675093017434 15.5628876774933,46.675138651665 15.5628915817216,46.6751496083124 15.5629099243954,46.6751538364434 15.5629232107565,46.6751454205565 15.5629281035891,46.6751423213227 15.5629472369956,46.6751471753196 15.5629469529372,46.6751530562439 15.562946806688,46.6751560840724 15.5629443113567,46.6751675220335 15.5629610324023,46.6751666300716 15.56302573581,46.6751670314352 15.5630509580018,46.6751792326671 15.5630707029212,46.6751666620982 15.5630730319755,46.6751651793092 15.5630795530183,46.6751700260559 15.5631075432714,46.6751908297186 15.5630955695594,46.6752083420522 15.5631384329567,46.6752704775515 15.5631774579265,46.6752776626915 15.5632155435566,46.6752699180833 15.5632739157441,46.6752773678198 15.5633062574947,46.6752954717039 15.5633674865951,46.6753137032496 15.563390974704,46.67534768472 15.5634165779396,46.6753588044027 15.563441966332,46.6753618281963 15.5634956236258,46.6753935018949 15.5635696808477,46.6754009642005 15.5636134238006,46.6754344859957 15.5636672500582,46.6754572521459 15.5637313517708,46.6754626042055 15.5637922396267,46.6754856953695 15.5638238985769,46.6754758230411 15.5638512007533,46.6754743390128 15.5638605165914,46.6755029022974 15.5638961835613,46.675539072796 15.5639337015794,46.675564708137 15.5639767770186,46.6755842883506 15.5641667084159,46.6756233869041 15.5644509815849,46.6756722759087 15.5646815042575,46.6757307859494 15.5647802448512,46.6757613368839 15.5648135997764,46.6757887918047 15.5648365528183,46.6757713150601 15.5648704158349,46.6757597222081 15.5648807388491,46.6757595356028 15.5650621268287,46.6757562565667 15.5651120293364,46.6757410757575 15.5651256459412,46.6757307523808 15.5652821280815,46.6756831071172 15.5652897824098,46.6756818026133 15.5653336360176,46.675674328765 15.5653865079681,46.6756653179205 15.565410059912,46.675666413677 15.5654721624521,46.6756693029804 15.5655586461996,46.6756776022457 15.5655665503968,46.6756763955001 15.5656098017636,46.6756697922385 15.5657256619182,46.6756248662124 15.5658668701261,46.675579094985 15.5659233679663,46.6755947395466 15.5659702696214,46.6755801130006 15.5660165888746,46.6755973372851 15.5661127707918,46.6755956019291 15.5661718444857,46.6755700291894 15.5664940814409,46.6755618667418 15.5665302429576,46.6755576392312 15.5665843723884,46.675546755219 15.5666178202197,46.6755330047206 15.5666742955637,46.6754839634582 15.5666841459705,46.6754759976639 15.5667398220501,46.6754630366995 15.5667839684745,46.6754510650489 15.5668236285338,46.6754403099942 15.5668356818356,46.6754327496887 15.5668810242002,46.6754043091421 15.5669089702667,46.6753894162575 15.5669712732021,46.6753602284635 15.5670859498433,46.6753397776781 15.5672579565499,46.6753395548223 15.5673405444768,46.6753503011376 15.5673717404685,46.6753399427956 15.5673805333722,46.6753370231906 15.5673922550374,46.6753331311149 15.5674288317943,46.6753810815514 15.5674481446035,46.6754030274493 15.5674749818934,46.6754445486179 15.5675214292027,46.6755613640382 15.5675246702405,46.675576476491 15.5675511108249,46.6756997644767 15.567584256492,46.6758818712021 15.5675987147855,46.6759020418333 15.5675968404599,46.6759352485886 15.5676243266857,46.6759638113941 15.5676228955829,46.6760143793903 15.5676404796846,46.6760459601921 15.5676202881696,46.6760649532214 15.5676181524506,46.6760981612729 15.5676455561144,46.6761313127485 15.5676472531346,46.6761685502559 15.5676493057655,46.6762147825995 15.5676676477782,46.6762438405879 15.5676431746283,46.6762908342898 15.5676420761536,46.6763176883863 15.5676420298892,46.6763188193959 15.5676255861487,46.6763302305667 15.5676211376655,46.6763333176005 15.5675896369027,46.6764456614699 15.5675774889117,46.6764838673141 15.5675674332713,46.6765136214722 15.5675497326663,46.6765659966334 15.5675229730083,46.6766451768616 15.5675204838577,46.6767445116686 15.5675100429363,46.6767585081837 15.5675638895041,46.6768578334584 15.5676386094054,46.6769158507315 15.5676421999758,46.677083979359 15.5676615301928,46.6770950392435 15.5676680452001,46.6771679693397 15.5676628112122,46.6772048813623 15.5675804979941,46.6773579619834 15.5675762756311,46.6774415613294 15.567614653722,46.6775365549643 15.5675997049003,46.6775569614329 15.5676255983095,46.677595608322 15.5677836246753,46.6776701257988 15.5677872698913,46.6776936787977 15.5678316783647,46.6777279153946 15.5678850860845,46.6777352974479 15.5679596608329,46.6778292116498 15.5680009115318,46.6778489793319 15.5680143437237,46.6778709543173 15.5680488415064,46.6779073992108 15.5680374366109,46.677954148173 15.5680796605803,46.678004409461 15.5681218385907,46.678187460741 15.5682234425262,46.6784406602589 15.5682244489519,46.67844938196 15.568259640662,46.6787389875744 15.5682063850835,46.6789457239363 15.5682506630266,46.6793663648065 15.5682596806782,46.6794160711956 15.5683164010215,46.6798264840602 15.5682536472538,46.6800125754126 15.5681906521956,46.6801632213409 15.5681177563285,46.6803046498973 15.5681486120573,46.6802999123782 15.5684187072743,46.6802584421766 15.5687839967242,46.6802147028041 15.5688524201422,46.6802209107309 15.5690331205511,46.6802373051321 15.5692517676072,46.6801787211381 15.5693721631608,46.6801464622856 15.5695327561842,46.6799293849153 15.5695439943485,46.6799493709554 15.56967209062,46.6801771772419 15.5699748960159,46.6806555475986 15.5700678381638,46.6808047879037 15.5701238712535,46.6808874573171 15.5701411061418,46.6809104027198 15.5701605042844,46.6809007541911 15.5702507288964,46.6808558768809 15.5702787307808,46.6808461109684 15.5703313965848,46.6808323535806 15.5703546661569,46.6808279397501 15.57035548961,46.6808277835554 15.5704137160683,46.6808167389912 15.5705058171444,46.6807990063557 15.5705278176835,46.680795999507 15.5705423226591,46.6807940170864 15.5707073574293,46.6807714613538 15.5710249877079,46.6807202154619 15.5711460020897,46.6806800264622 15.5712673279699,46.6806446039738 15.5717093551514,46.6805642158424 15.571834641203,46.6805572921676 15.5720703962665,46.6805391101561 15.572198478682,46.6805122896288 15.5724734464498,46.6804814953862 15.5731562310275,46.6800899641712 15.5732560912256,46.6800150620733 15.5732648999041,46.6800262327727 15.573488222599,46.6803094369969 15.5739968480103,46.6806675600843 15.5742689132749,46.6809056842811 15.5743553788279,46.6810470366061 15.5743597457373,46.6810520527782 15.5744457159428,46.6811466252326 15.5745203725685,46.6812467423496 15.5746589242818,46.6814305667151 15.5747003518378,46.6814788502835 15.5747246523195,46.6814673731535 15.5747344299995,46.6814627551473 15.5748880471798,46.6813784050887 15.5750322181583,46.6812908635212 15.5752270756734,46.6811879526921 15.5754292750095,46.6810625131231 15.5755597904861,46.681006347704 15.575745154626,46.6807975038621 15.5757672672892,46.6807994065838 15.5764119094543,46.680854873979 15.5767921710718,46.6808425216971 15.5768765891467,46.6808400269054 15.5770623542579,46.6808658100766 15.5771430679159,46.6808714307053 15.5772061748401,46.6809053894013 15.57723539939,46.6809123492827 15.5772809133347,46.6809391094476 15.5773542322925,46.6809745459606 15.5774968625816,46.6810127814363 15.5775533218059,46.6810116867754 15.5775604356247,46.6810065678392 15.5775661645701,46.6810024454243 15.5775946896795,46.6810027220776 15.577602769849,46.6810028004426 15.5776053983348,46.6810015197962 15.5776456844797,46.6809818916357 15.5776700663591,46.6809760107243 15.5777999066571,46.680954842907 15.5778150773053,46.6809549121154 15.5778467065186,46.6809550564011 15.5778480584806,46.6809522265551 15.5778506703639,46.6809467595166 15.5778914701747,46.6809359374828 15.5779360606608,46.6809360312725 15.5779543476483,46.6809360697314 15.578040608254,46.6809347343314 15.5780716218589,46.680925581058 15.5780776269531,46.680924830992 15.5780789827955,46.680941647773 15.5780394279456,46.6810937101086 15.5779484980016,46.6813314096063 15.5778366806333,46.6817557138761 15.5775731755988,46.6823349853676 15.5773625260307,46.6828083695233 15.5773573688925,46.6828887351029 15.5774163191696,46.6830599126553 15.5774211728476,46.6830983036039 15.5775619320606,46.6831567007924 15.5775960433296,46.6831682241745 15.5776773290679,46.6831903952646 15.5777943308739,46.6832029395291 15.5779162472511,46.6832105107272 15.5780431597285,46.6832207555333 15.5782523510933,46.6832604531 15.5783805931697,46.6832797325081 15.5784596214853,46.6832916132348 15.5787802102951,46.6833330857306 15.5788448782845,46.6833414852975 15.5790746453189,46.6833369939773 15.5791093077496,46.6833388877671 15.5792420750749,46.683322021874 15.5792478314812,46.6833224425627 15.5794919625319,46.6832675867471 15.5797174414921,46.6831922227187 15.5804141671185,46.6829966470658 15.5805536579614,46.6829574903528 15.5806346970467,46.6829335387023 15.5812368799755,46.6827555570014 15.5818007519237,46.6825906626749 15.5818234299248,46.6825843397143 15.581809618513,46.682515496049 15.5817891756703,46.6824743056368 15.5817172633564,46.6824120549767 15.5816440655073,46.6823761708206 15.5815728977672,46.6823538607928 15.5815020147554,46.6823316399606 15.5814350240418,46.6823078741172 15.5814070098443,46.6822979356914 15.5814177212307,46.682285016137 15.5816213137244,46.6822050813221 15.5823293154618,46.681950385385 15.5823435361815,46.6819606837583 15.5829788341394,46.6824207485471 15.5830721523749,46.682491975895 15.5842735269603,46.683209983306 15.5845669738527,46.6832744195075 15.5847628132484,46.6833174221728 15.5850380439164,46.6833735707656 15.5852024956698,46.683407119469 15.5853605548598,46.6834341416058 15.5856270919529,46.6834797087999 15.5856285324756,46.6834860428351 15.585641091159,46.6835412637961 15.5856932788815,46.6837615930747 15.5856730725969,46.6839603412131 15.5856420196171,46.684098957672 15.5856638079698,46.6841039701491 15.5863275594216,46.6842566657602 15.5867786209821,46.6842735162713 15.58729291248,46.6839848761559 15.5873880740251,46.6838400758786 15.5874231899969,46.6837866422897 15.5874448363262,46.6837511776582 15.5875060370021,46.6836509082183 15.5877979669647,46.6836044259719 15.5878197835713,46.6836061761625 15.5879169826972,46.6836139737024 15.5880646185049,46.6836258172276 15.5883588940931,46.6835907471648 15.5885859627567,46.6835183263581 15.5887079585292,46.6834367294322 15.5890122952459,46.6832931070309 15.5892591360741,46.6832479327387 15.5894900800623,46.6832435943724 15.5897423574272,46.6832415746678 15.5897671553266,46.6832451828174 15.5900319800246,46.6832837150347 15.590378310533,46.6834673483701 15.5905087596767,46.6836903172656 15.5905378920508,46.6837401112105 15.5905669701982,46.6838229370975 15.5906417762606,46.6840360126746 15.5907052862354,46.6842737345993 15.5906856230121,46.6844726607436 15.590565736969,46.6849517181867 15.5905755933764,46.6851244018194 15.5905390551281,46.6852264317821 15.5904592824166,46.6855118553778 15.5904323231265,46.6856410903957 15.5904130645759,46.6857334099279 15.5902758984718,46.6858320666644 15.590031701892,46.6860077037887 15.5899241657947,46.6860849091778 15.5899390879669,46.6860856182833 15.590072754125,46.686091970046 15.5903032352719,46.6860920407617 15.5904454044383,46.6860978747397 15.590499675385,46.6861114494229 15.5905378615838,46.6861261163522 15.5906203231359,46.6861577889221 15.5907346920871,46.6862157663068 15.59092479226,46.6862771310641 15.5909854423061,46.6863002089545 15.5910373455955,46.6863244115835 15.5910772202524,46.6863484963942 15.5911419142735,46.6864186954257 15.5912357124205,46.686532287519 15.5913144423062,46.6866307531727 15.5914583162393,46.6868285642322 15.5915509953134,46.6869353244388 15.5916487122874,46.6870245151771 15.5917372247282,46.687096839851 15.5918195381588,46.6871761238891 15.5918727389754,46.6872471916355 15.5918688583131,46.6872868866504 15.5919043556949,46.6874965933639 15.5919396019638,46.6875755809804 15.5920082646496,46.6876617728987 15.5921333049965,46.6877626973352 15.592235353139,46.6878292837203 15.5922752449768,46.6878509497304 15.5923904117186,46.6879134987854 15.592393449781,46.687915581645 15.5924598301349,46.6879610911689 15.5925480916062,46.6880341362314 15.5927960303535,46.6882071158375 15.5929001054626,46.6883034698171 15.5931085586281,46.6884998645171 15.5931576167292,46.6885385654241 15.593204792034,46.6885626540509 15.593244651753,46.6885830071653 15.5934555252324,46.6886659417613 15.5936233195424,46.6887308364035 15.5936545565956,46.6887482070851 15.5939621669628,46.6889192657537 15.5940044714141,46.6889619598491 15.5940699577407,46.6890322430498 15.5941269604844,46.6891038297838 15.5941713766505,46.689148312168 15.5942420512572,46.689238630706 15.5943938295875,46.6893807080997 15.5945850847968,46.6895578467629 15.5947503457528,46.6898084423581 15.5948477317263,46.689890344815 15.5949537836542,46.6899517798894 15.5949886842672,46.6899646321877 15.5950429174444,46.6899846037512 15.5951232200354,46.6900109059706 15.5955100342314,46.6901015582753 15.5958950027415,46.6901788139776 15.5961371382622,46.6902146186506 15.5965623628682,46.6903380847287 15.5968110936716,46.6903671961199 15.596895654355,46.6903763813811 15.5969843995706,46.6903856347139 15.5972235599129,46.6903767396021 15.5974512639148,46.6903604366464 15.5975327491076,46.690351554367 15.597669370777,46.6903037887168 15.5979075423991,46.6902645788604 15.5981553290539,46.6902081347749 15.598268137092,46.6901824445506 15.5984096896528,46.6901550744731 15.5984936062106,46.6901296250833 15.5986574175289,46.6901407336078 15.5989973387712,46.6901519097426 15.5992311977032,46.6901366506124 15.5992924403615,46.690129852334 15.5993891855868,46.6901295255253 15.5996701294737,46.6901159081248 15.59990877067,46.6900838889046 15.6000444179581,46.6900664440038 15.6001857616424,46.6900439309773 15.6002722938511,46.6900186464938 15.6004882348073,46.6899557069399 15.6006386507595,46.6899024673974 15.6008767027183,46.6898410304255 15.6013190399314,46.6897150936782 15.6016160348385,46.6896519059409 15.6017414594856,46.6896441391173 15.6018302555766,46.6896109245547 15.6019580556837,46.6895698576433 15.6021267579671,46.6894799938114 15.6023764940962,46.6892821040265 15.6027003007009,46.6890320932084 15.6027862436288,46.6889540899406 15.6028854422093,46.6888219472958 15.6029381062791,46.688749337267 15.6030082792412,46.6886523441657 15.6030680114293,46.6885805065186 15.6031282873049,46.6885340363417 15.603276095156,46.6884584955326 15.6035284688539,46.6883690881005 15.603634506044,46.6883347015988 15.604017308969,46.6881591373825 15.6043740019385,46.6881043540017 15.604448181801,46.6880973046941 15.6044511855591,46.688097018929 15.6047277074528,46.6881099523844 15.6048087835927,46.6881116830496 15.60495824126,46.688102256242 15.6051316936212,46.6880990899209 15.6053516722153,46.6881295943287 15.6055187560302,46.6881531809714 15.6056782134467,46.6881728492417 15.6060554211923,46.6881172322988 15.6061088451103,46.688112990824 15.6062191260962,46.6881075484497 15.6063608887407,46.6881114755244 15.6064817725201,46.6881539285098 15.6066488288907,46.6881866901651 15.6068396457075,46.6882047510983 15.6070433324176,46.6881812691778 15.607259068204,46.6881247054805 15.6074265037911,46.6880863009965 15.6076272378506,46.6880210895523 15.6078840953945,46.6879592682085 15.6079546667309,46.6879103117072 15.608061700076,46.6878834729371 15.6081794130651,46.6878180719148 15.6083210611407,46.6877536231148 15.6084653234381,46.687689160237 15.6085514018448,46.6876707092961 15.6085275667142,46.6876437563338 15.6082860427757,46.6874525136013 15.6081700123398,46.6873726045934 15.6079558690374,46.6872251252942 15.6075484319245,46.6870325132585 15.6068195752657,46.6865760255298 15.606718650133,46.6865006640025 15.6067135796619,46.6864968778369 15.6066955121824,46.6864828286437 15.6066742791081,46.6864663178849 15.6065562306906,46.68661844626 15.6063863818459,46.6868380535457 15.6061894606103,46.686881560853 15.6060295235053,46.6869238823202 15.6058298263483,46.6870114869869 15.6055416738929,46.687092092286 15.6051863682941,46.6867436449464 15.6050566067709,46.6866495602692 15.6050450780986,46.6866412012858 15.6052022809496,46.6864945352361 15.6053362428329,46.686385687625 15.6054080959595,46.6862642133992 15.6055083463239,46.686086810007 15.6055393414784,46.685947468755 15.6056116200433,46.6857705731519 15.6056087686769,46.6855622272374 15.6056088759616,46.6854495117038 15.6056088815395,46.6854436515909 15.6055253720925,46.6853875949701 15.6053769320588,46.6853236049717 15.6049872734658,46.6851288204875 15.6044627848278,46.6848356945595 15.6042962929917,46.6847389124544 15.604270149043,46.6847237148603 15.6047228086123,46.6842268708161 15.6047714691863,46.6841730771715 15.6047774324182,46.684166484886 15.6044749603055,46.6840403315933 15.6040777073656,46.6838785116209 15.6039638780273,46.683858060485 15.6039478703148,46.6838571287307 15.6039298670626,46.6838560808201 15.603985845101,46.6836004620675 15.6040983810617,46.6832469316583 15.6041204128759,46.6831828495627 15.6042245918237,46.6831703340091 15.604287010008,46.6831055887775 15.604385685779,46.6830450603327 15.6044789327074,46.6829783528327 15.6045468035318,46.6829922988429 15.6045519391305,46.682972209306 15.6046026644313,46.6828202587216 15.6046469387286,46.6826876848768 15.6046804259535,46.6825959225885 15.6046832653497,46.6825466198519 15.6046838206936,46.682536976958 15.6046715941095,46.6825190483828 15.6044970579438,46.682498070732 15.604495927912,46.6824979349116 15.6044651837704,46.68244888596 15.6044742146437,46.682344387793 15.6046309016271,46.6821641678402 15.6046487885575,46.6820098716872 15.6046324921018,46.681931777393 15.6046567802128,46.6818122642303 15.604857445614,46.6816021227745 15.6049897350874,46.6814967030171 15.6051060456567,46.6814119698126 15.6052455060796,46.6813283735608 15.6052794672062,46.6812206845926 15.6053548305473,46.6811448944279 15.6053908798459,46.6811656657708 15.6059460887005,46.6815200716814 15.6063964683993,46.6816410290395 15.6067879877235,46.6818169960791 15.6070085499863,46.6818901380868 15.6072087650125,46.6820139485126 15.607493428771,46.682172846809 15.6076864134206,46.6822695250657 15.6080628799237,46.6824196574796 15.6082435660784,46.6825152305922 15.6085269566175,46.6826766521211 15.6087204660136,46.6827964470832 15.6089631761371,46.6828855713897 15.6095286075365,46.6830061739273 15.6095761801248,46.6830168063763 15.6098400122317,46.6829033029673 15.6100152479756,46.6828045758966 15.6101777648133,46.6825631404293 15.6104185025495,46.6822216951482 15.610604765568,46.6820693785905 15.6107707232697,46.6822786964847 15.6108270154307,46.6823496958157 15.6108899696567,46.6824337865634 15.6109377050735,46.6824975486743 15.6114201449739,46.6820867062685 15.6119282228416,46.6827546863485 15.6119274297964,46.6827555180714 15.6116474827896,46.6830491165015 15.6116643480575,46.6830530907009 15.6126162488786,46.6832773954431 15.6129986795584,46.6833751194958 15.6132122966821,46.6834223765511 15.6132555425485,46.6832007386108 15.6132151651272,46.6829826976403 15.6132621931126,46.6826794402985 15.6133427423946,46.6825082531863 15.6134312590794,46.6824173628923 15.6137131620712,46.6822152271543 15.6142970373388,46.6821862452153 15.6144609973699,46.6821781061556 15.6146093013828,46.6821607559122 15.614829715305,46.6822082433448 15.6151796882288,46.6824065365293 15.6152068851337,46.6824301413157 15.6152199141253,46.6824237269662 15.6152538138951,46.682407037635 15.6154007526543,46.6823154717962 15.6159225975004,46.682039347371 15.6159364044344,46.6820579859681 15.6159371452845,46.6820587675735 15.6159964726229,46.682121358502 15.6160065340161,46.6821130669799 15.6164773371357,46.6817250776883 15.6168244563288,46.6814311774399 15.6172241839275,46.680959129615 15.6172275807777,46.6809584918006 15.6177194662122,46.680866131003 15.6180544042955,46.6807775051376 15.6189550627366,46.6804000874983 15.6196020495881,46.6799938980643 15.6198852938632,46.679820708801 15.6203594488972,46.6798931706939 15.6207898079235,46.6799307815054 15.6208303303981,46.6799764443026 15.6212131181002,46.6805394431166 15.6215917778836,46.6805708540316 15.6216368373062,46.68060569154 15.6217447684139,46.6806891377783 15.6217606900398,46.6807096534727 15.6219564274435,46.6806343677403 15.6219922169786,46.680620588331 15.6221378363152,46.6805521422333 15.6222155111769,46.6804976503107 15.6223763017652,46.6803616469135 15.6226042566393,46.6802008070935 15.6227735206999,46.6800401963058 15.6228223215954,46.6799188364489 15.6228455533311,46.6797678370094 15.6229224008646,46.6796528919484 15.6229648984137,46.6795737277275 15.6229274992987,46.6795505728459 15.6220622461819,46.6793304551029 15.6220974041315,46.6789883931215 15.6223294741524,46.6787082364968 15.6225082254508,46.6783383134916 15.6227530509614,46.6780310967679 15.6230127018517,46.677876741034 15.6231661336004,46.6775790175983 15.6234364716775,46.6772176807918 15.6236824254886,46.6770094185158 15.6242427858446,46.6768624170643 15.6245287744103,46.6767259073695 15.6248385933456,46.67640033811 15.6251853628169,46.6758676441583 15.6254553675786,46.6754793144614 15.6254917743653,46.6752362070502 15.6254235194822,46.6749846751407 15.6254096581932,46.6749614496918 15.6252902283754,46.6747604884372 15.6249086162312,46.6745376580535 15.6243546931743,46.6741178413724 15.6241162317638,46.6738402474492 15.6238635646761,46.6734637677637 15.6235340377041,46.6732226555314 15.6232829289614,46.6729811151974 15.6229271385013,46.6727401442634 15.6225708620551,46.6724451951904 15.6222670720738,46.6721679527847 15.6219632852058,46.671890709544 15.6217639494028,46.6716039013243 15.6212375859828,46.6712918789639 15.6210133552648,46.6711131639362 15.6209570342142,46.6707715982868 15.6211378315454,46.6705816880535 15.6213186265829,46.6703916875738 15.6211311315905,46.6699968545025 15.6208905415865,46.669530336303 15.6207698361654,46.6692610927619 15.621185858193,46.669069905965 15.6212594987428,46.66866465838 15.6213604359751,46.6683492286628 15.6216454589473,46.6681317616328 15.6217963953252,46.6676181342257 15.6222104398082,46.6672560186171 15.6225601718321,46.6669841276672 15.6228190474038,46.6667667999226 15.6230106948075,46.6663968951081 15.6230342460335,46.6661718513397 15.6228468568118,46.6657860168383 15.6225830283195,46.6655715337859 15.6221995311033,46.665177768482 15.6221050668556,46.6649173800696 15.6219974056419,46.6646570633102 15.6219425574401,46.6644324458692 15.6218221678709,46.6641901913598 15.6220942034392,46.6639817902474 15.6224995917607,46.6640065752833 15.6228143375494,46.6641038253147 15.6233256079696,46.6642449871394 15.6236792476202,46.6643150330229 15.6241366995171,46.664321445238 15.6248044973668,46.6644257600056 15.6251838595496,46.6644596742743 15.6255339747916,46.6642238484535 15.625503766925,46.6638821418546 15.6255751449954,46.6634653877917 15.6253710308868,46.6630237796302 15.6253615818659,46.6628842935974 15.6252801879515,46.6627044460361 15.6252320202568,46.6625048941707 15.6250296428702,46.6622587725615 15.6249202960586,46.6620230284298 15.6246931793565,46.6617956643456 15.6245931546573,46.6616543335867 15.624446749354,46.6614682727319 15.6242936082425,46.6612418535724 15.6243080496621,46.6610547348517 15.6243454881666,46.6609015878621 15.6244940048133,46.660465430417 15.6245440563572,46.6603183322114 15.6245603626642,46.6602705610596 15.6242837719143,46.6600921379235 15.6242613064926,46.6600929802286 15.6241770215985,46.6601040560842 15.6239444680951,46.6601300652339 15.6235785561282,46.6601836107618 15.6230390407294,46.6602193875919 15.6226023702592,46.6602217645867 15.622183077706,46.6602240454172 15.6222140119781,46.660004629306 15.6223437950535,46.6595629985559 15.6223423385186,46.6595157741625 15.6223291177585,46.659092374606 15.6223230909097,46.6588973603953 15.6216797135964,46.6588766570498 15.62160555719,46.6588706723451 15.6217852601323,46.6584407364471 15.621836878792,46.6583614654771 15.6220080213363,46.6582108312289 15.6220487685861,46.6581748930687 15.62221091876,46.6580947510436 15.6222085731497,46.6578902703083 15.6222065320214,46.6578604125826 15.622205429918,46.6577643345217 15.6221945559003,46.6576820744502 15.6221592868632,46.6571589319861 15.6221583912358,46.6570808460612 15.6221318935281,46.656752792875 15.6221282694484,46.6566988327649 15.6221508315594,46.656433129381 15.6220431117152,46.6561548193361 15.6219257749127,46.6560404801811 15.6230435072272,46.6560693960059 15.6242311122635,46.6560388118126 15.6242309735432,46.6560267570755 15.6262483292243,46.6567374431577 15.6280405865762,46.656126104132 15.6290965551056,46.6552903630364 15.6310960528431,46.6544853981383 15.6314764046927,46.654374260259 15.6307122391218,46.6533436815925 15.6290109553636,46.6520772333575 15.6288257340437,46.6507956897961 15.6287162435648,46.6493292982464 15.6296330834179,46.6483935530983 15.6301600739545,46.6467385967506 15.6310038773025,46.6457852490937 15.6312661173211,46.6448804484074 15.6317210466821,46.6441455196896 15.6327601699781,46.6416208030705 15.6330149172701,46.6410633102753 15.6334405708906,46.6409136790835 15.63347977509,46.6402101029635 15.6337829338016,46.6399852168051 15.6341885074942,46.6398954318729 15.6348739729599,46.6396135433716 15.6356981567816,46.6390200453097 15.6366604048387,46.6380496224231 15.6370812268741,46.6374911959195 15.6374341249109,46.6372111433102 15.6378896569196,46.6375847551018 15.637469996239,46.6382414217006 15.6379054326876,46.6388493285389 15.6388071618477,46.6388554532078 15.6391635434278,46.6386604843391 15.6392680557415,46.6384734895082 15.6398157248264,46.6381070527527 15.6410623701244,46.6366618670429 15.6414075323944,46.6360609342523 15.6415184898684,46.6358677834048 15.641610758283,46.6357068553666 15.6416362897705,46.6356679365329 15.6417065254038,46.635753550787 15.6419528886214,46.6360764986821 15.6419790617421,46.6367323889712 15.6421272408444,46.6368702860503 15.6424680234186,46.6362754024253 15.6426664087339,46.6360094262589 15.6432521231525,46.6359808540364 15.6441830484938,46.635710664329 15.6446031904987,46.6356199506518 15.6442215632922,46.6358744567748 15.643857599525,46.6360657955509 15.6440080612093,46.6363077688385 15.6443501739608,46.6363221265704 15.6445905011972,46.636322212281 15.6450129012274,46.6363222607908 15.645069325251,46.636311236637 15.6450942970338,46.6363243209432 15.6455430289661,46.6364188639907 15.6458640840648,46.636727077275 15.6458802500797,46.6367355328503 15.6462437854803,46.6370240724277 15.6465274169485,46.6372491860504 15.6469984786207,46.6373424276267 15.6470221761633,46.6373471518144 15.6469280738777,46.6371229471622 15.6471458126575,46.6367618489912 15.6474943666285,46.6364180034604 15.6477522457733,46.6361376469454 15.6479589552298,46.6359475463533 15.6480712104472,46.6355149803563 15.6480544988484,46.6352091881746 15.6479859770526,46.6349396761146 15.6479171338398,46.6346431758028 15.6480184989877,46.634381698193 15.6481580758821,46.6340390339441 15.6481800063903,46.633688039407 15.6481623050054,46.6333102793517 15.6478830075043,46.6328890175678 15.6475539447206,46.6326749603062 15.6477587097741,46.6323229307839 15.6479504129142,46.6319709748482 15.6481168543405,46.6316911350973 15.6485318465363,46.6314457831866 15.6488294961705,46.6312281752859 15.6492012179393,46.6306412824706 15.6490924443035,46.6302820324598 15.6488540518695,46.6300044876365 15.6488361553466,46.6295997385062 15.6489759301501,46.6292750652055 15.649181833487,46.6290309866415 15.6494899662412,46.6285884003781 15.649682720514,46.6283263121936 15.649796262753,46.6279927900926 15.6500138387411,46.6276226900987 15.6500977069989,46.6269924456452 15.650106541738,46.6266505213995 15.6499187769312,46.6262377406388 15.6500182865034,46.6258233277264 15.6500400945454,46.625463336332 15.6501115480585,46.6248871422982 15.650199050563,46.6245717609364 15.6503263935483,46.6243011364781 15.6504794179045,46.6239942891263 15.6505413639599,46.623715039515 15.6505255048805,46.6234812157404 15.6504047575961,46.623212001528 15.6503873909747,46.6228522326039 15.6504209597064,46.6223842137841 15.650731093184,46.6221125494301 15.650910978672,46.6218686154132 15.651076511633,46.6215168024579 15.6517135938936,46.621288257766 15.6521171633903,46.6211869944967 15.6526780598033,46.621138812542 15.6528423896412,46.6206880401962 15.6527744038178,46.6204635107421 15.6527320765502,46.6202118447625 15.6527675698067,46.6199057545845 15.6529465726526,46.6195897587577 15.6530605097829,46.619292217425 15.6535532903476,46.6190105058138 15.6536798459824,46.6186769049532 15.6536751906379,46.6182900735073 15.6537201604694,46.6176870376903 15.6537146388752,46.6172282375243 15.6537245548614,46.6169672765382 15.6541396274676,46.616739986487 15.6538080177986,46.6163190370769 15.6535967484654,46.616122316802 15.6535398726859,46.615735783503 15.6536267139315,46.6153574258512 15.6537929677614,46.6150685813561 15.6540893378598,46.6147430059443 15.6534626187188,46.6145668332178 15.651963555243,46.6141554196131 15.6502748143974,46.6139512691208 15.6485861912606,46.6135371998861 15.6471153844964,46.6133880864059 15.6457305436689,46.6128918257368 15.6448509476957,46.6117993686564 15.6447829686278,46.6107796149647 15.6447751948612,46.610663601219 15.644615018302,46.6107303597694 15.6441570553588,46.6106429721634 15.6437538686194,46.610771195549 15.6433111987995,46.6108727393737 15.6429854821121,46.6109285507176 15.6425812264674,46.6109668088756 15.6421255795897,46.6110863244462 15.641747005658,46.6110884486694 15.6411726175418,46.6110916692367 15.640896673691,46.6109402713603 15.6407102012336,46.6106264310017 15.6405739321079,46.6101413717388 15.6403747284111,46.6098545922096 15.6399929839726,46.6095868270487 15.6394826105743,46.609481720479 15.638698636594,46.6094231229831 15.6383593413404,46.6094340134208 15.6379534044104,46.609328407206 15.6375370280911,46.6094566822553 15.6370288754887,46.6095404832989 15.636702843873,46.6095692883887 15.6361810029485,46.6095991815779 15.6356324220905,46.6095752406922 15.6351758501419,46.6096047666408 15.6347712832484,46.609616008807 15.6340915335052,46.6095388079834 15.6338545689015,46.6093691836218 15.6333158994142,46.6090752753774 15.6327787035341,46.6089074003656 15.6320343244577,46.6088845250375 15.6316077836009,46.6086221974431 15.6308051810998,46.6087113747079 15.6304396504577,46.6087223863137 15.62994329562,46.6086981303377 15.6296177863065,46.6087718959218 15.6291742713431,46.6088013260638 15.6288752843814,46.608910930513 15.6285904062464,46.6092471737727 15.6282805326046,46.6094091073609 15.6277470893857,46.6095649797357 15.6274757616499,46.6098093793839 15.6271906504894,46.6099908769759 15.6268677512129,46.6102805414214 15.6263611296306,46.6104992372931 15.6259754123681,46.6110141607965 15.6259912628545,46.611392745483 15.6256812759802,46.6115465755421 15.6251867606047,46.611684229587 15.6246375434423,46.6116063491798 15.6242189743971,46.611536660103 15.6236721342295,46.6116655963765 15.6233065061638,46.6116585922902 15.6227981798587,46.6117423310103 15.6223025217919,46.611781015031 15.6221234949727,46.6120968734102 15.6218113179736,46.612197534336 15.6215785996865,46.6123967264817 15.6211779173766,46.6127497742329 15.6208522688808,46.612814518854 15.6201867861172,46.6128452084338 15.6198754223567,46.6130178332831 15.6195262257656,46.6133076193041 15.619072380952,46.6135799771592 15.6183988495412,46.6140514483412 15.6177766063448,46.6144416682599 15.6174010745114,46.6147135965128 15.6171434451744,46.6150208743746 15.6169890306822,46.6152197246124 15.6164304077489,46.6154656467993 15.6159735710956,46.6154771040716 15.6154400325756,46.6156329193528 15.6150116476937,46.6158511438079 15.6142150595429,46.6158374298553 15.6141529350924,46.6161166610329 15.613647223831,46.6164252624134 15.6132726732353,46.6167871387139 15.6128210017712,46.617257477218 15.6126952126869,46.6176809956728 15.6125292390975,46.6180147621565 15.6124677122236,46.6183479692779 15.6124180236129,46.6185731526422 15.6120927350918,46.6186738570883 15.6116807122359,46.6191888722903 15.611437431634,46.6196040206326 15.6113619285309,46.6198563315241 15.6109993837323,46.6201281690677 15.6107926038661,46.6203182037353 15.6104171997287,46.6206081914106 15.6099335988747,46.6205657871771 15.6093035500998,46.6202722535763 15.6088429102703,46.6199598216866 15.6083956642552,46.6196653100882 15.6078960970086,46.6193620780547 15.6075412612336,46.6191570389686 15.6070312612347,46.6190877725698 15.6062212695674,46.6190470839738 15.6058159229808,46.6189952509558 15.6051869168742,46.6187916560409 15.6046772236568,46.618749367605 15.6044775456819,46.6184175451206 15.6041871097126,46.6181312750437 15.6037026356615,46.6180078788261 15.6029841543955,46.6179756810868 15.6026442984787,46.6179414850269 15.6023557691636,46.6178260474787 15.6019553203418,46.6182150130253 15.6017361573846,46.6184680733833 15.601583867628,46.618864728783 15.6015101129555,46.6192789644543 15.601395127028,46.6194954895677 15.6012721328189,46.6201799745687 15.6011980753412,46.6205672214619 15.6012546838811,46.6209627783444 15.6014537230432,46.621249626213 15.6015114611268,46.6217351438725 15.6016489069116,46.6223551926396 15.6021101934302,46.6227396234495 15.6024377204504,46.6228368628146 15.6029391180971,46.6232930525265 15.6024719493409,46.6235564174907 15.6016542186817,46.6240015583281 15.6012892069426,46.6240574573972 15.6007939189511,46.6241411195196 15.6005110307149,46.6245384588278 15.6006197699965,46.6249247454295 15.6009499955715,46.6252648853058 15.6012936129632,46.625622947194 15.601034845284,46.6258402272786 15.6006995189866,46.6262198490351 15.6003128506831,46.6266807093172 15.600080488663,46.6269248386838 15.5994834879135,46.627260935562 15.5989112063164,46.6274708564247 15.5982609665258,46.6277171688122 15.5976894675429,46.627999052878 15.597313080283,46.6281989454851 15.5967490864402,46.6291646230743 15.5964413097409,46.6296790385419 15.5957305053242,46.6291699313705 15.5951381291934,46.6287411738567 15.5949263991261,46.6284993647576 15.5948026634799,46.6279332174027 15.5942149352339,46.6279272747625 15.5933924501168,46.6279495369653 15.5928189588296,46.6280514734488 15.5922571501163,46.6280273930873 15.591905553117,46.6281192693915 15.5916595983562,46.6283184685043 15.5912970941735,46.628608236269 15.5909236813885,46.6290959860925 15.5908086327398,46.6293125004856 15.5907339993697,46.6296547595404 15.5904221518711,46.62980031609 15.5897806045616,46.6296506815836 15.5892432385004,46.6294735169338 15.5885891924928,46.629387006809 15.5880930553781,46.6293985548277 15.5873224883666,46.6293935164618 15.5868783916403,46.6293867987 15.5865449851688,46.6299552989878 15.5863153006752,46.6304422966845 15.5861468706445,46.6307122502176 15.5858200269356,46.6305348004759 15.5854790355461,46.6304015958642 15.5852164009312,46.6302680794254 15.5847682910081,46.6299015070314 15.5845567329526,46.6296596779327 15.5843968301415,46.6293635145755 15.584196495547,46.6289506906216 15.5839035938207,46.6284304686032 15.5836006357099,46.6281891041161 15.5832063676329,46.6279572009886 15.5830211967815,46.6277512211739 15.5828599264491,46.6274723361685 15.5826351663199,46.6270694401686 15.5821753301352,46.6268108773033 15.5819748291665,46.6263800567772 15.5811884557755,46.6261142437698 15.580272374551,46.6259299634464 15.5796440544815,46.6257892016268 15.5790553910648,46.6256932190504 15.5784148822899,46.6256335722593 15.5777098500227,46.625646131191 15.5768223885521,46.62569559241 15.5761956082008,46.6256988407408 15.5756549702109,46.6257101990854 15.5754055312003,46.6258932767848 15.5751499930414,46.626425365785 15.5746177514927,46.6267249305988 15.5741787023216,46.6268722512964 15.5741580063183,46.6268786528352 15.5736363431467,46.6269443363081 15.5730873269235,46.6268931076374 15.5722989612194,46.6264472200092 15.5715347357197,46.6263085328887 15.5711323303207,46.6264638458193 15.5711109916089,46.6264712396503 15.5699229837251,46.6265041538569 15.5696209475543,46.6263437178226 15.569461042549,46.6260386267654 15.5685574589298,46.6258092970165 15.5680469739485,46.6256948759106 15.5673659859851,46.6255093247579 15.5666842500635,46.6253392475422 15.5663971975703,46.6261005285363 15.5662581923727,46.6265330571802 15.5661590733999,46.6270463583458 15.5661097477025,46.6273254994141 15.5653337937657,46.6276529467419 15.5653121973026,46.6276607905966 15.5645153517052,46.6276377351145 15.5642652781867,46.6274500385433 15.563921649131,46.6270558790235 15.5637234407302,46.6268320288545 15.5627313868354,46.6268728993657 15.5619221471421,46.6269128635254 15.5614640844809,46.626816148939 15.5606939421803,46.6267851986514 15.5604426960435,46.6273805702075 15.5602254370942,46.6278404647301 15.5597318107974,46.6280947876977 15.5595553329402,46.6286984281514 15.559467166311,46.6290137429085 15.559143106404,46.6292493305873 15.5589229582782,46.6294303397434 15.5586905828761,46.6296923782318 15.5584447761152,46.6299184951071 15.5579778878932,46.6302356565886 15.5574312194064,46.6305548242799 15.557404843241,46.6305679979602 15.5572035004242,46.630291881249 15.5568586125437,46.6297717534471 15.5565825298153,46.6295931634226 15.5563710058523,46.6293422854163 15.5562359944115,46.6289111915465 15.5558027530386,46.6286883802119 15.5550433246508,46.6284941401695 15.5545604296626,46.6285234718722 15.5542823404849,46.6281469591541 15.5532181527291,46.6278401951814 15.5528100776554,46.6280477416848 15.5524719280142,46.6281843251896 15.5524441781901,46.6281908468259 15.5519036565705,46.6282808132446 15.5515865031322,46.6284405942242 15.5515720025369,46.6284401243324 15.5515560208023,46.6284481184526 15.5505893157565,46.6284168780117 15.5501159229395,46.6280952749388 15.5497998753945,46.6278358905941 15.5493946972228,46.6278018502774 15.5489387406819,46.6279119989654 15.5486295381219,46.6279545969067 15.5485807389414,46.6282302190991 15.5485179904666,46.6284824268177 15.548487506772,46.628489860268 15.5481748268787,46.628563512168 15.5477171372422,46.6285027274793 15.5472444971618,46.6285392665108 15.5468890081385,46.6288231019998 15.5463165053436,46.6290328506169 15.5458495533995,46.6293499629231 15.5458207574596,46.6293564879418 15.5454801219132,46.6294041754788 15.5450723155799,46.629109228899 15.5445912308725,46.6291638805043 15.5440736753359,46.6293585118087 15.543958398434,46.6295839767368 15.5439286826047,46.6295899658521 15.5435115084662,46.6296109313976 15.5429164708018,46.6298678226005 15.5424870377472,46.6299691828502 15.5424664487862,46.6299826139046 15.5424845988986,46.6300126483336 15.5426564774055,46.630301436051 15.5427958114036,46.6305352283158 15.5428922296563,46.6308262629351 15.5429087507025,46.6309242482351 15.542961128204,46.6310163954701 15.5430308351895,46.6311045018951 15.5431504259033,46.6312573274189 15.5431807167795,46.6313348248634 15.5431999994829,46.631356325319 15.5433770373336,46.6318074772526 15.5435348373237,46.632215266371 15.5443584649623,46.6327022986888 15.5448563284706,46.6329889916992 15.5455842636985,46.6331528607452 15.5457029528389,46.633552646321 15.545458663832,46.6338719333158 15.5450201627668,46.6342956067402</coordinates></LinearRing></outerBoundaryIs></Polygon></MultiGeometry>
  </Placemark>
</Folder>
</Document></kml>
