<?xml version="1.0" encoding="utf-8" ?>
<kml xmlns="http://www.opengis.net/kml/2.2">
<Document id="root_doc">
<Schema name="pregledovalniklovisca" id="pregledovalniklovisca">
	<SimpleField name="lov" type="string"></SimpleField>
	<SimpleField name="lov_naziv" type="string"></SimpleField>
	<SimpleField name="luo" type="string"></SimpleField>
	<SimpleField name="luo_naziv" type="string"></SimpleField>
	<SimpleField name="povrsina" type="float"></SimpleField>
</Schema>
<Folder><name>pregledovalniklovisca</name>
  <Placemark id="pregledovalniklovisca.1">
	<Style><LineStyle><color>ff0000ff</color></LineStyle><PolyStyle><fill>0</fill></PolyStyle></Style>
	<ExtendedData><SchemaData schemaUrl="#pregledovalniklovisca">
		<SimpleData name="lov">1023</SimpleData>
		<SimpleData name="lov_naziv">LAPORJE</SimpleData>
		<SimpleData name="luo">10</SimpleData>
		<SimpleData name="luo_naziv">Slovensko Goriško</SimpleData>
		<SimpleData name="povrsina">3725.15</SimpleData>
	</SchemaData></ExtendedData>
      <MultiGeometry><Polygon><outerBoundaryIs><LinearRing><coordinates>15.596173734627,46.3621491543226 15.5975292385863,46.3605684872769 15.5996055850786,46.3582119849988 15.6079478574969,46.3562098973808 15.6084407620864,46.3556624110774 15.6087533124105,46.3550809741101 15.6091456349566,46.3544992012704 15.6095347023079,46.3536137020038 15.6098855831442,46.3528941317085 15.6099635159009,46.3527280792318 15.610315920799,46.352146425079 15.6109845153216,46.3513147604577 15.6120479442465,46.3501221742217 15.6125175000467,46.3493190966824 15.6128287378303,46.3486272603108 15.6131804696347,46.3479904481662 15.6137739684807,46.3475733066245 15.6142488255004,46.3468301139573 15.6149457146286,46.3464125007706 15.6154992871696,46.3459596663462 15.6158451680888,46.3455349393374 15.6163579306823,46.3449202822924 15.616883572336,46.3442966462445 15.6175237870568,46.3434654551471 15.618321966473,46.3428312530563 15.6190838265755,46.3424222600985 15.6197294756026,46.3420768718193 15.6205164805384,46.341595755946 15.6208635454031,46.3412699753927 15.6212617214548,46.3408808462046 15.6219298497811,46.3402294208365 15.622420498277,46.3399658343372 15.6238686533408,46.3382394001477 15.6242028927492,46.3379316734921 15.6243686798273,46.3376608543215 15.6249753749793,46.337324645924 15.6253341415878,46.3368563629174 15.6260073643195,46.3364663421504 15.6271184471939,46.3360188543155 15.6283897001452,46.3356532491912 15.6291834608783,46.3353454107775 15.6296588478828,46.3350943829549 15.630214427623,46.3348706223724 15.6310074014615,46.3345075331427 15.6312436207123,46.3345818952683 15.6323176429577,46.3340588953616 15.6331504646358,46.333695570841 15.6340630218817,46.3333317981011 15.6356650017744,46.3326980519673 15.6356898259582,46.3326881970461 15.6370642951676,46.3324981753649 15.6378435658755,46.3324938310054 15.6381007068774,46.3322674677102 15.6384990104951,46.3319053584888 15.6384693708465,46.3315906239279 15.6380789049548,46.3315208263822 15.6376756615684,46.3314690930519 15.6366092166707,46.3313490754533 15.6362197192507,46.3313512433273 15.6354798440685,46.3313913462684 15.6343238455123,46.3313888578848 15.6344766785112,46.3311270027535 15.6353313293805,46.3309153228565 15.6359922306459,46.3307856887011 15.6362364883313,46.3305683983358 15.6365288317994,46.3300179453235 15.6364739607128,46.329766330639 15.636649910406,46.3292705079594 15.637102786959,46.3291240311116 15.6371087752418,46.3285211887484 15.6368083014711,46.3283699110244 15.636207150272,46.3280493600303 15.6356455915357,46.3277825686725 15.634822223211,46.3273372853721 15.6351188331698,46.3271556951974 15.6356305594448,46.3264960595405 15.6355886825357,46.3262443720453 15.6359955912312,46.3254952557264 15.6363169078886,46.3252055590957 15.6364816326085,46.3248627503861 15.6369469372864,46.3246712190668 15.6373962225549,46.3242188576165 15.637823920306,46.324144495372 15.6379220556516,46.3236491042761 15.6380862427583,46.3232613103648 15.6381993474733,46.3229367814289 15.6391086523154,46.3229586939887 15.639617919916,46.3231986796235 15.6407249550453,46.3234713934966 15.6417902031916,46.3235014079398 15.6418258987295,46.3232222956767 15.6421199370135,46.3228247698122 15.6428082516907,46.3228388966147 15.6425899494988,46.3219404076956 15.6428873476032,46.3218307700268 15.6423107297575,46.3213841525802 15.6423313305208,46.3209251816126 15.6423802981194,46.3206819831401 15.6428207356958,46.320589536242 15.6434993315944,46.3208736283842 15.6447621592183,46.3211453364027 15.6451143441367,46.3212783073381 15.6455376699522,46.3208350572062 15.6458085567682,46.3206805757715 15.6459600360449,46.3203108364231 15.6462929834361,46.319913079783 15.6465636277613,46.319749600738 15.6469175533471,46.3189288568496 15.6477991264851,46.3188069025256 15.6478847080879,46.3183564693553 15.6481919561121,46.3179948413228 15.6489133385929,46.317504902514 15.6494565490173,46.3173218749928 15.6498801289518,46.3169055985096 15.6499693640087,46.3167105724925 15.653022823566,46.3156885502317 15.6528483866434,46.3151600628152 15.6529167979362,46.3144926218307 15.6527414856271,46.3138900924031 15.6523402926684,46.3135640751505 15.6516663830894,46.3134303512206 15.6510855181579,46.3134124269945 15.6505135855909,46.3133483834659 15.6501049107799,46.3128824948419 15.6495327996527,46.3128137688884 15.649139369161,46.3124831076992 15.6490066434636,46.3122499345749 15.6489767427371,46.3119172087698 15.6490357018247,46.3114130322014 15.6489936694145,46.3111523526386 15.648821704055,46.3108834132546 15.6482971908146,46.3104455266809 15.647575401952,46.3097928228323 15.6465833088414,46.3093485783979 15.6462939909889,46.3090353127981 15.6458460330048,46.3084800187459 15.6455092376099,46.3085449009225 15.6451472169734,46.3086729047096 15.6448470428568,46.3085397302765 15.6441554000283,46.3082377247353 15.6437533771189,46.3082759776537 15.642633652421,46.3080033638456 15.6422177010817,46.3079607150101 15.641700522585,46.3081435623722 15.6414451095929,46.3084958856173 15.6407879889142,46.3083246649996 15.6398235205804,46.3081606491717 15.6389965315067,46.3080064736419 15.6387977837159,46.3079970574948 15.6385957382492,46.3079720043237 15.6383332736807,46.3077305460052 15.637774316871,46.3076706849262 15.6367988962796,46.3075232594803 15.6362260231239,46.3073824936934 15.6358059145587,46.3069799573457 15.6353006646308,46.3070727376212 15.6348352946184,46.3072462688907 15.6344623543035,46.3075542431409 15.633245163006,46.3078309062861 15.6331238644706,46.3074446991878 15.6320869668492,46.3075943909828 15.6320771178589,46.3078553637007 15.6320441788761,46.3083774722648 15.6307467900503,46.3084566140788 15.630326506596,46.3080360642894 15.6299616666742,46.3079211116405 15.6292649659831,46.3083028296652 15.6284362709935,46.3084963281829 15.6278392200121,46.3084996081719 15.6273319894224,46.3084214176472 15.6269528084916,46.3081985679222 15.6263140163957,46.3079681421191 15.625269508918,46.3074520223365 15.6247405072222,46.3066001816786 15.6234570599335,46.3056174969715 15.6231957959667,46.3054749663247 15.6222466190776,46.3053452680306 15.6212215923849,46.3053958277094 15.6205602487256,46.3054623992907 15.6201736082174,46.3053679573005 15.620210693044,46.3046053346767 15.6201282657223,46.3040657706488 15.6194321744073,46.3033177389206 15.6196566296913,46.3029035517711 15.6191863101988,46.3031920303474 15.6187997576656,46.3027811520955 15.6182891851737,46.3029652975036 15.6177255116595,46.3023528465405 15.6171207844018,46.3026953060778 15.6167818832069,46.3026650147783 15.6159383087929,46.3023731048587 15.6146254728464,46.3024649230892 15.614818492416,46.3033215872792 15.6145945798554,46.3037992821032 15.6137258183715,46.3039839822998 15.6123357830592,46.3040019617604 15.6113275366445,46.3040074469274 15.6104501685232,46.3034191299928 15.6089454223829,46.3027494857694 15.6081734203733,46.3020124063441 15.6071065278764,46.3022404867651 15.6053989176052,46.302556615034 15.6047820360994,46.3034175814924 15.6045709062086,46.3036728685618 15.6042974809072,46.303811970933 15.6040818981656,46.3039224259276 15.6037321978043,46.3039962504435 15.6029557958585,46.304225277015 15.6019336301795,46.3045365670479 15.6016095899704,46.3045832584169 15.6010765676352,46.3045140842782 15.6004549409085,46.3046523982119 15.5996495077333,46.3046026420457 15.5989628703609,46.3047322016372 15.5976135906204,46.3048112393517 15.5971832479814,46.3046335441367 15.5963930472551,46.3047907106722 15.5962918336098,46.3050341625149 15.5963793290769,46.3059064328961 15.5956788075388,46.3059550705063 15.5953422594634,46.3060467951655 15.5948908240271,46.3063190602611 15.5937112357493,46.3064872306526 15.5934269000287,46.3066056700771 15.5929494866673,46.3068780622989 15.5924662446296,46.3066106519056 15.5917616385709,46.3062814050768 15.5913112489485,46.3066526195917 15.5907836391758,46.3070872115821 15.5904150955192,46.3078269738897 15.5902913085826,46.307954203323 15.5912106563947,46.3083187875369 15.5907992453626,46.3085256898282 15.5899254677195,46.3087895899738 15.5892386689176,46.3090320964092 15.5888982313547,46.3094297260707 15.5885965972944,46.3097657042359 15.5880469404248,46.3099527945798 15.5872900855512,46.3100932616785 15.5862789562136,46.3103987764133 15.5855921929973,46.3106480085583 15.5849158881017,46.3109654716099 15.5844354212633,46.3111658662761 15.5834918180985,46.3113413618631 15.5830006789148,46.3114667685286 15.5824310196358,46.311619834508 15.5814377043575,46.3117613770847 15.5810141635047,46.3118463040508 15.5809666294595,46.3117714191999 15.5809808901354,46.3117939296408 15.58084968308,46.3118731415576 15.5803122057845,46.3120991804772 15.5796314112173,46.3124878925458 15.5792809153873,46.3128637711298 15.5788990990451,46.3133235708359 15.5786447789015,46.3136599127275 15.5786277377583,46.3135706570821 15.5783564632786,46.3123101765163 15.5772207848868,46.3123494748127 15.5771882923479,46.3123216576388 15.5774272807506,46.3120580934793 15.577787008842,46.3110288892092 15.5774359207672,46.3098302599073 15.5769792005235,46.3093020920818 15.576272591968,46.3087641155722 15.5754685770636,46.3081595959689 15.5741530817699,46.3071723810211 15.5726782052559,46.3063590549117 15.5720816974237,46.3061632933189 15.5718704362508,46.3062470342241 15.5712739207429,46.3061125392483 15.5707056342999,46.3059582864085 15.5699679024669,46.3058638070634 15.5695286014873,46.3058659960853 15.5691325928115,46.305936706392 15.5687682669716,46.3063214392391 15.5678511956462,46.3066992004172 15.5661814099647,46.3069038893964 15.5634211362724,46.3071532503494 15.5617344284552,46.3071027078133 15.5613095976385,46.3071244080068 15.5608856697721,46.3072345444467 15.5604456853684,46.3071581565575 15.560005001222,46.3070130319648 15.5597624540673,46.3068571289157 15.559742178877,46.3068422028864 15.5565829471845,46.3077601318911 15.555073172385,46.3082351444032 15.5533112251395,46.3089920693535 15.5515895803102,46.3092810095809 15.5509665743008,46.3099595210832 15.5508513055763,46.3104277494706 15.550977419469,46.3110402990492 15.551315482112,46.3118389677978 15.5515729517665,46.3120975643186 15.5516073527145,46.3125234143087 15.5517071443406,46.3134999352897 15.5519508412447,46.3138728613571 15.5522697964872,46.3142662068607 15.5525004525371,46.3148263357305 15.5525046356559,46.3152419845226 15.5520880791961,46.3155766217458 15.5514323012605,46.3159851084473 15.5512837953413,46.3161313086723 15.550742532443,46.3160092163493 15.5499628089748,46.3160234060542 15.5493028244083,46.3160265785628 15.5484613480786,46.3158643503961 15.5478451757661,46.3157426036484 15.5472749936256,46.3157142039618 15.546509273478,46.3156347325944 15.5464030942306,46.3155208860961 15.5464024226415,46.3155055941276 15.54615850058,46.3157856715564 15.5462946982051,46.3164238194584 15.5463880952899,46.3166752937241 15.5467007044222,46.316772768253 15.5462643802878,46.3172786946338 15.5463447046643,46.3175212341916 15.54620456058,46.3177918185408 15.5457889645554,46.3177848059048 15.5457003978835,46.3180191547779 15.545770509167,46.3185406553746 15.5451875353638,46.318678393883 15.5453843631739,46.3188843898704 15.5455561168696,46.3191804767275 15.5453376079666,46.3194064480184 15.5449083896452,46.3193365170461 15.5445866637395,46.3196170516513 15.5442897034164,46.3197894116003 15.5443828295113,46.3200138971765 15.5442174127528,46.3203565765325 15.5441309758523,46.3208068456682 15.5439251725246,46.321005762263 15.5441350786269,46.3212206952596 15.5437207045663,46.3213396294438 15.543554032375,46.3215563535757 15.5435701363653,46.3218711773949 15.5438187337983,46.3220589355415 15.5439256906951,46.3223553328425 15.5437466544782,46.3226350960958 15.5438528582241,46.322868516955 15.5436732852525,46.3230942997124 15.5436764045439,46.3234091851712 15.5435228901296,46.3236438409149 15.543120682064,46.3236818306535 15.5432400493603,46.3239331838127 15.5429949168529,46.3240962968644 15.5430514903817,46.3245638799628 15.5431087289857,46.3250854427262 15.5427735763225,46.3253389542902 15.5426596347427,46.32563640097 15.5426360637737,46.3258794358056 15.5425608132186,46.3261497072974 15.5425637485583,46.3264465991972 15.5423446651314,46.3266185843173 15.5422820432769,46.3268528071083 15.5424285434455,46.3272209951789 15.5426779621454,46.3274897260438 15.5424197363132,46.3276439027505 15.5425000112902,46.3278684505175 15.5425153998325,46.3281113003847 15.542505792763,46.3284532374073 15.5422477397443,46.328625407163 15.5424962745396,46.3288041711295 15.5423173881083,46.3291019253923 15.5428967115855,46.3294891123965 15.5422203364017,46.3297952555082 15.5422235369904,46.3301191373907 15.5420573657895,46.3303898394601 15.5420471744395,46.3306598019619 15.5422964292222,46.3309105400027 15.5426872167702,46.3310256487712 15.5430007027335,46.3312041032902 15.543325930376,46.331256451243 15.5434967320131,46.3314535765705 15.54319970541,46.3316260235923 15.5429288299034,46.3318162499734 15.5424482773787,46.3318185307129 15.5421239352738,46.3318560574744 15.5419442372177,46.3320728406039 15.5415575286562,46.3323715783001 15.5412107564469,46.3327690941511 15.5410699276445,46.3329766947533 15.5413441886021,46.3331283479518 15.5412164364157,46.333344883947 15.5408918183294,46.3333554171003 15.5404492421131,46.3332585412974 15.5400605422262,46.3335149967405 15.5400126005199,46.3337644437922 15.5401717797929,46.3340875887633 15.539860942317,46.3341790280901 15.5400191950154,46.3344212034249 15.539736810834,46.3347644277533 15.5394658202646,46.3349457391971 15.5391685843635,46.3351000923808 15.5390553106343,46.335469508852 15.5386776642901,46.3353723201063 15.5387332416728,46.3357409406628 15.5386447931968,46.3359932770188 15.5385063310056,46.3364437857101 15.5382479631713,46.3365889562717 15.5384447415879,46.3367859666815 15.5383431244074,46.3370203705082 15.5376436502815,46.3372215983519 15.5375680955504,46.3374648760525 15.5375054413143,46.337699095924 15.5374047879961,46.3380324627505 15.5369917697142,46.3383043169339 15.5370201685494,46.3385381088643 15.5376056663509,46.338634326 15.5371933494324,46.3389781545933 15.5371958164864,46.3392300625279 15.5376189578562,46.3393277619886 15.5374479974993,46.339777702151 15.5378639358043,46.3398027377849 15.5378924739686,46.3400635201574 15.5380514412379,46.3403776716016 15.5378776444468,46.3408960038071 15.5375810835968,46.3414145530355 15.5374147675536,46.341676251361 15.5373009399996,46.3419916855358 15.5375376756286,46.3422874778979 15.537710167127,46.3426555488416 15.5377839825229,46.3428966844102 15.5377823533305,46.3433929731891 15.5375636285377,46.343609932515 15.5378779178073,46.343851376764 15.5380877120029,46.3440483263234 15.5378955852404,46.344328140917 15.5381837683276,46.3445697070993 15.5382899917584,46.3448031321491 15.5386956287521,46.3450981267484 15.5386588647703,46.3453232278497 15.5389980484766,46.3454655834047 15.5391302595379,46.3456988851391 15.5393951275169,46.3462104715937 15.5392558031952,46.346562016193 15.5389056541331,46.3466266467362 15.5387788336516,46.3469421433428 15.538794831493,46.3472480597929 15.5387192684604,46.347491337865 15.5380257533125,46.3483133402789 15.5379759926656,46.3485385021832 15.5375092551891,46.3486396653229 15.5380577982266,46.3485337086969 15.5383068737506,46.3486538174735 15.5390207506914,46.3486872527703 15.5401062616506,46.348883755927 15.5405576390814,46.3490830683289 15.5407202926119,46.3495032740859 15.5406465836811,46.3500526262259 15.5405167976201,46.3502911233453 15.5411057891123,46.3510571405871 15.5416876953838,46.3510911836517 15.542664061822,46.3509403512769 15.5431144292094,46.3510481577351 15.5436460489108,46.3513569314109 15.5441269219349,46.3518672093625 15.5446578277764,46.35210274525 15.5457143179141,46.3520247416369 15.5467148757065,46.351654229843 15.547317921108,46.3511756679548 15.5477592103217,46.3503866678224 15.5484129153029,46.3496883278782 15.5487796883543,46.3493755381448 15.5492543586824,46.3492635843409 15.5502319567884,46.3492408002178 15.5520282792829,46.3491593557449 15.5540005788169,46.3486211469453 15.555094196181,46.3483554668481 15.5567282672809,46.3482927302596 15.55832497983,46.3484786529889 15.5597191767511,46.348361712394 15.5607173204998,46.3484951078624 15.561477289565,46.3487400589351 15.5623176023106,46.3490398521469 15.5629889916548,46.349286308374 15.5635545082381,46.3495086304001 15.5649109216614,46.3503258927928 15.5658538603741,46.3512617883605 15.5664538029601,46.3513169392854 15.5668712711199,46.3511031685121 15.5682100315817,46.3524150500938 15.569226152619,46.3535449813299 15.5697954193131,46.3548965702168 15.5697498940566,46.3555922731089 15.5700763905543,46.3564874769491 15.5710692379679,46.3578920085723 15.5727235353681,46.3593665466171 15.5746654827082,46.3605285856039 15.5772396126711,46.3614679627919 15.5800731783702,46.3619484639848 15.5834590222229,46.3621517569784 15.5903111036088,46.3626673017725 15.5958662141735,46.3630059309116 15.5960614390591,46.3630202984783 15.596173734627,46.3621491543226</coordinates></LinearRing></outerBoundaryIs></Polygon></MultiGeometry>
  </Placemark>
</Folder>
</Document></kml>
