<?xml version="1.0" encoding="utf-8" ?>
<kml xmlns="http://www.opengis.net/kml/2.2">
<Document id="root_doc">
<Schema name="pregledovalniklovisca" id="pregledovalniklovisca">
	<SimpleField name="lov" type="string"></SimpleField>
	<SimpleField name="lov_naziv" type="string"></SimpleField>
	<SimpleField name="luo" type="string"></SimpleField>
	<SimpleField name="luo_naziv" type="string"></SimpleField>
	<SimpleField name="povrsina" type="float"></SimpleField>
</Schema>
<Folder><name>pregledovalniklovisca</name>
  <Placemark id="pregledovalniklovisca.1">
	<Style><LineStyle><color>ff0000ff</color></LineStyle><PolyStyle><fill>0</fill></PolyStyle></Style>
	<ExtendedData><SchemaData schemaUrl="#pregledovalniklovisca">
		<SimpleData name="lov">1003</SimpleData>
		<SimpleData name="lov_naziv">PALOMA-SLADKI VRH</SimpleData>
		<SimpleData name="luo">10</SimpleData>
		<SimpleData name="luo_naziv">Slovensko Goriško</SimpleData>
		<SimpleData name="povrsina">2255.73</SimpleData>
	</SchemaData></ExtendedData>
      <MultiGeometry><Polygon><outerBoundaryIs><LinearRing><coordinates>15.7045556511652,46.6982342255076 15.704916792272,46.6982024025079 15.7057370705311,46.6981331106337 15.7063080460088,46.6980784870254 15.7072387398379,46.697973506068 15.7080401406229,46.6978710270032 15.7089273350028,46.6977399414782 15.709762308903,46.6976055743652 15.7108936529704,46.6974170001471 15.7109814835819,46.6974022762701 15.7114498557326,46.6973237573396 15.7119180580199,46.6972505819587 15.7127674127755,46.6971469616965 15.7131693505378,46.6971359105006 15.7132405694847,46.6971357135928 15.7137659810023,46.6971342595534 15.7144339425818,46.6970881668555 15.7150241832516,46.6970185350764 15.7156702028424,46.6969151740692 15.7166091469705,46.6967349437672 15.7173611339418,46.6965571375192 15.7184085551952,46.6963443643926 15.7190590280619,46.6962032605794 15.7194249420232,46.6961288079197 15.7199513874561,46.6960221259915 15.7208094182623,46.6958950902374 15.7214934708085,46.6958336686778 15.7215604963943,46.695827650176 15.7223690078765,46.6958117529129 15.7230714827591,46.695806146403 15.7240933571738,46.6958858716573 15.7249956684951,46.6960298613017 15.7257087333467,46.6961703660178 15.7265986351647,46.6964803187547 15.7272575429182,46.696715711809 15.727619343199,46.6968515092752 15.7280054437181,46.6969856215719 15.7288090432848,46.6972449155799 15.7292326995192,46.6973515248679 15.7304739230875,46.6977144469132 15.7314094216987,46.6979982508967 15.7320342023214,46.6981824640572 15.7329625464754,46.6984678305197 15.7338071477173,46.6987010469444 15.7339095374865,46.6987293188668 15.7344995995377,46.6988881009707 15.7351106682499,46.6990624890944 15.7355273354423,46.699172448695 15.7360129513431,46.6993041848557 15.7365024213591,46.6994403024717 15.7369952417629,46.6995629915063 15.7374043858604,46.6996480721918 15.7378691288421,46.6997443984863 15.7383772660879,46.6998295570158 15.7389003791256,46.6998908656084 15.7393369193362,46.6999324889121 15.7395702456128,46.6999466882443 15.7395934170695,46.699948098343 15.7402216302926,46.6999863264301 15.7407984814271,46.6999895206448 15.7410023838674,46.6999845230554 15.74126173256,46.6999781659685 15.7415417657227,46.6999713012077 15.7420737324191,46.6999626344781 15.7424705992942,46.6999335200844 15.7426784388276,46.6999183165428 15.7431830165376,46.6998863413433 15.7436449809899,46.6998270213635 15.7442600407821,46.6997274787308 15.7447599773866,46.6996244537613 15.7452396320154,46.6995128155676 15.7452844951586,46.6995023736778 15.7458463446197,46.6993471203609 15.7462988877662,46.6992214562816 15.7468650744585,46.6990492560851 15.7473309824671,46.698906946964 15.7478210089611,46.6987500837817 15.748313661764,46.6986226201495 15.7488054639641,46.6985094645272 15.7489737173375,46.6984760326927 15.7493003459241,46.6984111309845 15.749879478751,46.6983158418233 15.7508589586867,46.6981703313808 15.7515030884154,46.6980760469133 15.7519389055935,46.6980188443827 15.7524293803239,46.6979710870643 15.7527607694498,46.6979444728426 15.7529259786485,46.6979312043439 15.7533051989155,46.6979134141912 15.7537823734619,46.6978966868869 15.7542826784551,46.6978883518753 15.7548477933547,46.6979047775875 15.7551921630707,46.6979290452077 15.7556727372468,46.6979873191106 15.7561656527898,46.6980678209716 15.7567332412225,46.6981862423117 15.7569850863231,46.6982534264764 15.7571517662277,46.6982861247066 15.7578717358082,46.6980522152924 15.7586638763162,46.6970992654113 15.7590793124294,46.6966431720992 15.7590233181272,46.6964077429564 15.7589155194372,46.6962451698927 15.7595954129375,46.695859922785 15.75974750729,46.6954235680053 15.7603500675487,46.6951657717011 15.760741735144,46.6949092845587 15.7617924577728,46.6946666732509 15.7619465733375,46.6943755069909 15.7617806024255,46.6938143250218 15.7616438491452,46.6934524927351 15.7595883862694,46.6934658863939 15.7576922596158,46.693550700672 15.7577413612726,46.6929294306148 15.7577630996956,46.6926234024416 15.7576018136961,46.692309589623 15.7571384576932,46.6918988132228 15.7567175955358,46.6917216654022 15.7563355806,46.6915173594318 15.7560690925552,46.69115925676 15.7566400420275,46.6908495083908 15.7569113107249,46.6906138027088 15.7570495790268,46.6902260342509 15.7571987860469,46.689676254427 15.7572721939991,46.6893159046368 15.7574894006936,46.6889546028944 15.7578388404863,46.6887003841921 15.7582140432396,46.6884189139234 15.7583549456239,46.6882110583112 15.7581917815007,46.6877623095069 15.7580552632641,46.6873583669224 15.7579728025617,46.6870710219059 15.7576025033652,46.6867675898044 15.7572226561185,46.6867161245924 15.7566945071079,46.6862116703253 15.7567670085177,46.6857396787676 15.7572351761413,46.6853013256113 15.7575450464489,46.6848459354721 15.7576156396143,46.6842287506457 15.7587651782155,46.683532083143 15.759066519039,46.6824600276623 15.7590293238464,46.6816803581816 15.7585804972963,46.6816107320403 15.7572652342382,46.6817643798423 15.7558937466357,46.6816644995944 15.7551289902242,46.6816150298052 15.754129146371,46.6817121299601 15.7540461612891,46.6814225361577 15.7543552779546,46.6809126398517 15.7543464432862,46.6802778970852 15.7534686744078,46.6796669628144 15.7530400950018,46.6791618354119 15.7529556076819,46.6787633915363 15.753241343457,46.6784713699777 15.7537145214086,46.6783957412516 15.7543492503873,46.6785730200734 15.7546373802742,46.6784441778515 15.7541581464343,46.6780845040367 15.7536222132118,46.6774350607459 15.753191262251,46.6767486674805 15.7524230523987,46.6764452277912 15.7519491345844,46.6764664265291 15.751054601737,46.676544724616 15.7500500773566,46.676297339455 15.7493067884442,46.6758849463351 15.7486622393657,46.6755988446429 15.7492072978255,46.6753253783043 15.7494533784141,46.6751618275374 15.7497246009043,46.6749261385265 15.7500351521053,46.6746990977152 15.7503723384901,46.6745079578295 15.7506970761752,46.6743618817301 15.7509168849618,46.6741895035259 15.7512393753331,46.6738815014132 15.751483946812,46.6736099966565 15.7517018777574,46.6733025899267 15.7519580158749,46.6729230486404 15.7521230435406,46.6725710955796 15.7524069356819,46.6723083269254 15.7525972216782,46.6718932306549 15.7528141356735,46.6715229419735 15.7529345762981,46.6707844260113 15.753113534222,46.6704953561121 15.7533582049478,46.670232753182 15.7535121477679,46.6700248169981 15.7539235735331,46.6695362887357 15.7540371823427,46.6692476479081 15.7541252797842,46.6690041582569 15.754340419841,46.6685079253304 15.7545055440947,46.6681649645398 15.7546314621963,46.6678221721133 15.7547975843674,46.6675511773428 15.7551711558532,46.6671618570547 15.7554022342934,46.6668634427244 15.7555802888782,46.666511398272 15.7556421152547,46.6662590841804 15.7555600768397,46.6659987235294 15.7554623070533,46.6657066185881 15.7552463605812,46.6653271266432 15.7551894071917,46.6650191878219 15.7558429262748,46.664652217999 15.7566799183076,46.664229601508 15.7567328741266,46.6638946662732 15.7566877746099,46.6634721224916 15.756576967056,46.6630230232581 15.7564953057071,46.6627896505619 15.7563861270685,46.6624664933031 15.7562901466547,46.6621432486825 15.7561939165449,46.6618020123297 15.7560431660865,46.6612991965818 15.755920807184,46.660958132606 15.755679096904,46.6605009004537 15.7555435510704,46.6601509264812 15.7552355226734,46.6596131614402 15.7549958332628,46.6592908641005 15.7549574580079,46.6590778968075 15.7549510864425,46.6590425820292 15.7548490882885,46.659055760348 15.7545181687785,46.6589755338352 15.7540361762097,46.6586116481922 15.7534970677099,46.6581709454267 15.7528410417093,46.6573831990346 15.7524856600163,46.6571492848883 15.7522861960064,46.6570686370923 15.7517369272361,46.6566563321876 15.7515180658187,46.6564862938261 15.7513922181152,46.6563432639433 15.75136522314,46.6563187004369 15.7510545257505,46.6560365362077 15.7509065588785,46.655918931567 15.7491681573269,46.6554947997875 15.7484720425165,46.6558665090936 15.7472130500709,46.6561065819482 15.7461119209335,46.6563303172787 15.745279491284,46.656749318644 15.7450807770211,46.6568650502498 15.744898889516,46.6570073020367 15.7445881794348,46.657293168767 15.7445181741638,46.6573048701395 15.7445000756294,46.6573190226804 15.7441498693585,46.6574120771418 15.7437588089338,46.6575369743455 15.743479443393,46.657727089877 15.7434114567919,46.6578670696408 15.7433338241495,46.6581613145539 15.7431680460621,46.6590698831361 15.7427883011385,46.6599552797846 15.742043976602,46.6602298289471 15.7414821597598,46.6606358911026 15.7409057138165,46.6603351790102 15.7389820098698,46.6602983184096 15.7384052646854,46.6602622768799 15.7381660286403,46.6602829834516 15.7374861165934,46.6602514713972 15.7370645944333,46.6601855432554 15.7360254986273,46.6601751388187 15.7359996624931,46.6604859590782 15.7361093176752,46.660863112599 15.7362701396156,46.6611589669709 15.7364581950005,46.6615356155769 15.7366583417336,46.6618402128819 15.7369241973506,46.6621623799032 15.7370607288321,46.6625933391357 15.7371034738368,46.6628539662886 15.7370684314142,46.6631600777406 15.7369989567256,46.6638172798181 15.737002624442,46.6640871552972 15.7376825855841,46.664118759887 15.7380882758408,46.6641521300695 15.7391225115487,46.6642893098226 15.7388927022263,46.6646866461476 15.7388062588723,46.6650560664222 15.7385515363009,46.6655436191847 15.7384537372187,46.6660390653098 15.738484159617,46.6663537511287 15.738583358325,46.6669109020562 15.7387451925435,46.6672787191823 15.7384633425765,46.6676943836869 15.7380101385143,46.6680031932944 15.7376724587318,46.6681583136173 15.7373058279439,46.6681066970078 15.7369685135137,46.6682888927505 15.7365656120722,46.6684534265054 15.7363334454944,46.6686798365976 15.73618017312,46.668941725131 15.7357527154102,46.6692233701681 15.7354282115949,46.6693873957245 15.7350252985103,46.6695520140558 15.734529929879,46.6696451615542 15.7341914989496,46.6697462966022 15.7338805424834,46.6699462173257 15.7335165805517,46.6700924972594 15.7327092696373,46.6703136790022 15.7322554033204,46.6705774867469 15.7318921613557,46.6707777366371 15.73151512,46.6709240938391 15.7310861666598,46.6710977713793 15.7306845612048,46.671361328873 15.7304914421802,46.6715784809774 15.730429987117,46.6718577686605 15.7300974708054,46.6723996883248 15.7295875459161,46.6723849477623 15.7290113096191,46.6722986544656 15.7284101376888,46.6723115698336 15.7276911136819,46.6722981518014 15.7265126348401,46.6721347949272 15.7259779008581,46.6722191586548 15.7257585018251,46.6724274728433 15.7253585443499,46.6728168638417 15.7248699849831,46.6734227336647 15.7245714420348,46.6735776571416 15.7241028773749,46.6737245693672 15.723633109344,46.6737815210794 15.7229277356194,46.6738129698694 15.7221848325223,46.6739706938351 15.7216516302851,46.6741719836807 15.7213144634019,46.6743720353572 15.7209283664775,46.6748242996526 15.7205814827802,46.6752673190391 15.7203668337437,46.675835547477 15.7199306369874,46.6754694316026 15.7197174519158,46.6751738844124 15.7194494956071,46.6746807556232 15.7192197971669,46.6741154127384 15.7190035306147,46.6735769747948 15.718775500017,46.6731465697442 15.718719169083,46.6728410384981 15.718728898643,46.6725890719898 15.7188933065964,46.6721741945294 15.7189532820409,46.6717689696813 15.7186843958632,46.6712038716817 15.7181856465989,46.6710450641322 15.7176472069482,46.6708595134863 15.7171748398626,46.6707186192626 15.7161920938856,46.6705268492094 15.7158083601956,46.6701693855521 15.7154784476531,46.6699285401731 15.7149411090959,46.6698150328522 15.7145337420733,46.6696466416931 15.7141894546066,46.6693159160931 15.7138189291434,46.6689673598831 15.7131989346022,46.6685303914789 15.7126719617608,46.668209796478 15.7120410449736,46.6679349190541 15.7114752231575,46.6676505467881 15.7109937236437,46.6678064825443 15.7108332549142,46.6675285841228 15.7105915528697,46.6670352709031 15.7103903539604,46.6666406685918 15.7102155283796,46.6662638954587 15.7098562207466,46.6657803971331 15.7098387964175,46.6654476298811 15.7095002269874,46.6655396961761 15.7089272697416,46.6656961903966 15.708472149673,46.6658699454103 15.7079121357965,46.6660173577567 15.7071048961236,46.6662473551362 15.7063360303948,46.6664140435435 15.7057506896769,46.6666245780417 15.7054920334877,46.6668331856364 15.7048846427982,46.6673587336264 15.7044815326922,46.6675141590144 15.7042879711933,46.6677042798125 15.703770997158,46.6681392989418 15.7034368365156,46.6685732818736 15.7033654307001,46.6691135183804 15.7031207537391,46.6693939176048 15.7027331401356,46.6697381706406 15.702320899889,46.6701995296088 15.7019720148428,46.6705075557893 15.7014670166305,46.6708615211942 15.7009345820905,46.6711257761753 15.7005567561293,46.6712180563618 15.7001795097658,46.6713553148575 15.6995144028414,46.6714673424886 15.6989300246635,46.6717588055525 15.6988947614167,46.6720649060408 15.698822494395,46.6725421682795 15.6987880417648,46.6729112400724 15.6988070405377,46.6733610449191 15.6987898310604,46.6740538895619 15.6986619208325,46.6742705894765 15.6984975833661,46.6747034304072 15.6985290545315,46.6751170825914 15.6984945984675,46.6754861541501 15.6977988976134,46.6752564871009 15.6972950795797,46.674701768445 15.6970176140411,46.674469547036 15.6967015209768,46.6742825432392 15.6963471466513,46.6741677444803 15.6958493592692,46.674080896709 15.6953001028856,46.6740572458994 15.6946853852623,46.6740249932986 15.6942010154756,46.6739649567745 15.6936667870186,46.6740941494237 15.6932920352358,46.6744293855064 15.6930195332819,46.6745839788011 15.6922388142728,46.6748586032953 15.6916400280902,46.6750511533117 15.6910945481505,46.6753243477532 15.6903338773014,46.675122107537 15.689535489966,46.6750369555818 15.6891165785637,46.6749854996572 15.6886450470369,46.6749073690682 15.6879384954521,46.6748487330173 15.6875326564421,46.6747971926956 15.686981913933,46.6746565548935 15.6866662931328,46.6745145036375 15.6864278540785,46.674264029121 15.6862676052746,46.6739950919202 15.6861464519073,46.6737169234269 15.6859184700684,46.6732594629278 15.6857836821355,46.6729363926673 15.6855061609645,46.6726951470235 15.6852043247384,46.6725980821633 15.6846124554571,46.6723137333169 15.6842457315933,46.6722529506607 15.6838790085393,46.672192166824 15.6832363665177,46.6720160737244 15.6829374832982,46.6721528073527 15.6826526869374,46.6723704257107 15.6825115348106,46.6725782799456 15.6823583479772,46.6728580887399 15.6821141111267,46.6731834232329 15.6817531536874,46.6735814256378 15.681392190968,46.6739794269046 15.6811212394057,46.6742599352242 15.6808624505956,46.6744683975981 15.6805768432057,46.6746230392169 15.6800954185127,46.6747969273955 15.6798099200067,46.6749605630547 15.6793160955114,46.6751884113237 15.6790048093569,46.6753701912855 15.6787454439033,46.6755336691824 15.6784341357394,46.6757244443208 15.6780956730218,46.6758344100303 15.677681939204,46.6761967256945 15.6771771609513,46.676595655115 15.6767470880824,46.6766971623481 15.6761721214213,46.6767095582121 15.6757700922997,46.676963838408 15.6753157789927,46.6772184257752 15.6750826458634,46.6773907370843 15.674852088409,46.6777700446857 15.6748308945958,46.6781570238369 15.6747702465429,46.678535239031 15.6747654634867,46.6792010161382 15.6746518593381,46.6795255638489 15.6744612847036,46.6799675210287 15.6740198991273,46.6802130302889 15.6735234311902,46.6802339469739 15.6729234013418,46.6803364400519 15.672417576908,46.6805199755987 15.6720221124886,46.6805904932021 15.6714616917224,46.6806619775782 15.6708684816359,46.680756412868 15.670274295432,46.6807826565446 15.669844483083,46.68073974072 15.6691807700683,46.6804708472982 15.6685193072393,46.6803838482012 15.6675486159101,46.680152185074 15.6675793005678,46.6805208668031 15.667529786834,46.6807460707576 15.667167122796,46.6810181740102 15.666792620399,46.6813802211421 15.6664844446758,46.6818318467128 15.6662777379371,46.6820309757828 15.6658635462155,46.6823662611057 15.6654888951315,46.6827283047394 15.6652298953058,46.6829277360119 15.6649446400859,46.6831183226734 15.6646458710436,46.6832730906861 15.6644605224421,46.6833173508532 15.6638983924176,46.6832524196141 15.6637740342706,46.6838896504273 15.6635143074848,46.6842548892742 15.6634560868899,46.6848917360868 15.6638926106309,46.6854801905228 15.6650203963426,46.6858828065449 15.6654496110632,46.6858953354624 15.6658844212668,46.686171700328 15.6663468187244,46.6865648585993 15.6666502503529,46.6867880059843 15.6668494367135,46.687038749922 15.6669963347105,46.6872897983165 15.6673276909618,46.6876567265768 15.6676964052579,46.687861497212 15.6680397323149,46.6881382976433 15.6684362431109,46.6884868490515 15.6686885127828,46.6888002557429 15.6689394526091,46.6890057105542 15.6695060363209,46.6893622603939 15.669993743723,46.6896832829331 15.670334869206,46.6897802474786 15.670625170132,46.6899854679655 15.6708495296482,46.6901549980147 15.6714006120747,46.6903137043528 15.6716638618552,46.6904561047959 15.6719657751689,46.6905532946395 15.6707970853284,46.6910089917214 15.6701751840678,46.69146732338 15.6694215083754,46.6919490940176 15.6686980911526,46.6922034290725 15.6685060641122,46.6927046712836 15.6678858053561,46.693299368951 15.6673016900662,46.6941438674332 15.6671267189397,46.6960316506003 15.6676700461041,46.6972333033374 15.6687655861619,46.6976815026579 15.6691407353509,46.6986340261136 15.6700989111198,46.6986510902146 15.6709917711774,46.6987367233646 15.6714964936465,46.6994838969645 15.6710075409099,46.7000096461694 15.6715431020196,46.7005747278658 15.6714207692295,46.7013711025731 15.6709363047003,46.7022605562876 15.6697185737659,46.702631421259 15.6682403303605,46.703299332169 15.6680530283472,46.704187037549 15.6678985229428,46.7050516997806 15.6681056706026,46.7066731107756 15.6679840988111,46.706658599812 15.6683386089957,46.706706207319 15.6687854909389,46.7067591950897 15.6694268335137,46.7068322755279 15.6701618506815,46.7069185685306 15.6707133043013,46.7069668878309 15.6707666314674,46.7069697160852 15.6713418524343,46.7070002218488 15.6714816332509,46.7070076344196 15.6718086280849,46.7070212791377 15.6722504888306,46.7070275007302 15.6727025533092,46.7070339305274 15.6731708771966,46.7070227195891 15.6739238385189,46.7069948964112 15.6748543685546,46.7069119518302 15.6754715642102,46.7068412857538 15.6763197555516,46.706731645649 15.6770741675419,46.7066215645679 15.6778207366234,46.7064493587093 15.678249237054,46.7063498366786 15.6788070986357,46.706199794712 15.6792669288726,46.7060687057818 15.6794133215454,46.7060269714709 15.6799942050656,46.7058569945644 15.6800614704894,46.7058331170534 15.680705871584,46.705604368023 15.6812395383532,46.7054242296341 15.6818127671462,46.7052289187241 15.6823569295545,46.7050312592284 15.6832208366136,46.704709065232 15.6834162926158,46.7046313768717 15.6838463419951,46.7044604421692 15.6843984875729,46.7042333964052 15.68503424399,46.703958615458 15.6855761716063,46.7037206493412 15.6860521523116,46.7035007992961 15.6865513020328,46.7032623652808 15.686935583479,46.7030838234585 15.6872663402789,46.7029301478636 15.6878969090957,46.7026199355958 15.6885778522204,46.7022510226043 15.6886868220911,46.7021919854068 15.6892090996443,46.7019025698928 15.6897962560946,46.7015944078746 15.69004098389,46.7014655408372 15.6907700389048,46.7010772581727 15.691188626287,46.7008414492907 15.6919473200561,46.7004099764059 15.6925115658722,46.7001022087917 15.6929954581541,46.6998614997121 15.6935259592898,46.6996051219426 15.6941085678844,46.6993336712377 15.6941492807697,46.6993192060814 15.6946224818643,46.6991510776375 15.6948329679018,46.6990762909436 15.6954069794323,46.6989217854685 15.6957808633831,46.6988211458932 15.6962340908171,46.698719696605 15.6969995081811,46.6985620949248 15.6977934473044,46.6984263558051 15.6984225380327,46.6983448772337 15.6987581848822,46.6983130493534 15.699250293563,46.6982664996896 15.7000422710583,46.6982326881837 15.7008642705911,46.6982453795578 15.7015240363312,46.6982612189565 15.7022711815852,46.6982693210367 15.7027211905304,46.698273845492 15.7033632040079,46.6982819562827 15.7039444565821,46.698273253823 15.7045556511652,46.6982342255076</coordinates></LinearRing></outerBoundaryIs></Polygon></MultiGeometry>
  </Placemark>
</Folder>
</Document></kml>
