<?xml version="1.0" encoding="utf-8" ?>
<kml xmlns="http://www.opengis.net/kml/2.2">
<Document id="root_doc">
<Schema name="pregledovalniklovisca" id="pregledovalniklovisca">
	<SimpleField name="lov" type="string"></SimpleField>
	<SimpleField name="lov_naziv" type="string"></SimpleField>
	<SimpleField name="luo" type="string"></SimpleField>
	<SimpleField name="luo_naziv" type="string"></SimpleField>
	<SimpleField name="povrsina" type="float"></SimpleField>
</Schema>
<Folder><name>pregledovalniklovisca</name>
  <Placemark id="pregledovalniklovisca.1">
	<Style><LineStyle><color>ff0000ff</color></LineStyle><PolyStyle><fill>0</fill></PolyStyle></Style>
	<ExtendedData><SchemaData schemaUrl="#pregledovalniklovisca">
		<SimpleData name="lov">1015</SimpleData>
		<SimpleData name="lov_naziv">VOLIČINA</SimpleData>
		<SimpleData name="luo">10</SimpleData>
		<SimpleData name="luo_naziv">Slovensko Goriško</SimpleData>
		<SimpleData name="povrsina">3943.68</SimpleData>
	</SchemaData></ExtendedData>
      <MultiGeometry><Polygon><outerBoundaryIs><LinearRing><coordinates>15.8110993142454,46.4976386492849 15.8108434625026,46.4979553549898 15.8108476081264,46.4982342295778 15.810447788708,46.4985069703988 15.8105329010187,46.4989742061508 15.810966534813,46.4992230455726 15.8107290507609,46.4998994966934 15.8102867924435,46.4999386182912 15.8103292152662,46.5001632402277 15.8105944390037,46.5004762523323 15.8106368635398,46.5007008741229 15.8103437839648,46.5011437989458 15.8098780017743,46.5013630235586 15.8095525812339,46.5013833211365 15.8091084447552,46.501305491788 15.8085503963986,46.5014533884697 15.8080330270718,46.501708957805 15.8074999626411,46.5017847876376 15.8068561529548,46.5014204583774 15.8063591118126,46.501289010171 15.8059791873022,46.5011477376756 15.8055446305107,46.5008359076478 15.8050113040934,46.5008936439763 15.8048455321444,46.5011377268324 15.8043693512259,46.5015279432031 15.8041251435075,46.5017545827774 15.8039866139093,46.5020794448774 15.803668913131,46.5017398855795 15.8031159245711,46.5013479063951 15.8026435709189,46.5020079955542 15.8027641304261,46.5022320718414 15.8028462697276,46.5025014021579 15.8027999851813,46.5028975903913 15.8029209446827,46.5031486543545 15.8029400631583,46.5035533803482 15.8029174493794,46.5037873683461 15.8030780258461,46.504074141561 15.8031482012684,46.504415530715 15.8031529709355,46.5047393853201 15.8033013182134,46.5050802253949 15.8036278239343,46.5051319131368 15.8042557090383,46.50529844074 15.8046361891808,46.5054757025294 15.8051111907489,46.5058771300246 15.8048530087965,46.5060408911108 15.8041636862591,46.5061268016469 15.8038994982297,46.5067584410086 15.8041810622135,46.5072961850029 15.8037659590595,46.5083067541177 15.804131837484,46.5083761574871 15.8049690261876,46.5085951907245 15.8059237511492,46.5088313834831 15.8063158274218,46.5089095921518 15.8066420913599,46.5089431892368 15.8069937499572,46.5089317117645 15.8053094134983,46.509055864324 15.8043784238826,46.5093422185301 15.8038488353314,46.509367534225 15.803318611386,46.5093497568544 15.8028038489259,46.5093554403413 15.8015088305957,46.5095136908945 15.8007537206732,46.5096308111222 15.7992370567626,46.5094172167844 15.7984695013997,46.5086758362481 15.7984581523305,46.5078919268875 15.7984436540553,46.5068840169098 15.7981128085806,46.5064382809737 15.7975659535594,46.5059940505111 15.7971773621964,46.5052873548193 15.7966245273066,46.504432453394 15.795858167947,46.503765720641 15.7953112266462,46.5033213898543 15.7943733946603,46.5030544016131 15.7935378312222,46.5033680754051 15.7928631678673,46.5035112163448 15.7920903944851,46.5037264680981 15.7915793516497,46.5041553790788 15.7908422001338,46.5047614706467 15.7900688269229,46.505530651285 15.7895454588087,46.5063074578359 15.788878223651,46.5069042368854 15.788294240348,46.5076814555601 15.7883320493035,46.5081966265006 15.7883416155917,46.5088582813715 15.788327198317,46.5099520417723 15.7884164511074,46.5112400497955 15.7883738190527,46.5124732759039 15.7880005378626,46.5131724763832 15.7873660195594,46.5137495871823 15.7866360214644,46.5143939279609 15.7863564434641,46.5152944581501 15.7863413828985,46.5163463860299 15.7864457756724,46.5172860212333 15.7861952068942,46.5181026802263 15.7859174023905,46.518431985425 15.7847853157159,46.5189900968737 15.7839220373865,46.5193095575285 15.7831473089876,46.5194611536474 15.782815843649,46.5195678762753 15.7823063708576,46.5199489603996 15.7818976704161,46.5202777113944 15.7818203993494,46.5205151270336 15.78195709802,46.5209042066495 15.7822035367694,46.5212021171875 15.7820680228671,46.5223036300329 15.7820698812108,46.5231324981422 15.7819808998167,46.5239619872028 15.7820393646465,46.5245119253388 15.7819226846512,46.5248192459859 15.7814925042941,46.5250798559195 15.7808384376103,46.5252167565674 15.780296308122,46.52541550803 15.779667049424,46.5258655932296 15.778642644169,46.5262209295726 15.7776698885214,46.5266524687952 15.7776315030183,46.5267850734949 15.777728212957,46.5271953922614 15.7777101971786,46.5273487311721 15.7773303189521,46.5276020557079 15.7762789725708,46.5281466676597 15.7751245265202,46.5286201737185 15.7747943776312,46.5288244797936 15.7745562615856,46.5291116525065 15.7741286846104,46.5295603410031 15.7734682480999,46.5299514934145 15.7728957224975,46.5301538339246 15.7726367951523,46.5303993978108 15.7724108707865,46.5308397898967 15.7725474631626,46.5312150256127 15.7728949841783,46.5315261280646 15.7729291100847,46.531790584686 15.772529271757,46.5320649905712 15.7720177781935,46.5322983133688 15.7713744570131,46.5324837600539 15.7713169006987,46.5327000724547 15.7714112074634,46.5329432509639 15.7717435206133,46.534306280281 15.771903778892,46.5349437047602 15.7722501322898,46.5351526127543 15.7727979216467,46.5353439646289 15.7731322705796,46.5354323034157 15.7733043154453,46.5354659581967 15.773332328495,46.5354883816487 15.7739169828564,46.5359563708761 15.7741384478624,46.5366235173371 15.7746118702408,46.5379647097651 15.7739147998439,46.5386381630003 15.7727613147714,46.539224008148 15.7724539622807,46.5395331460888 15.7723683334748,46.5397375925687 15.7724624762454,46.5401242705237 15.7725683164338,46.5402968347232 15.772733792954,46.5405097516132 15.7734063639348,46.5410556322667 15.7737051139024,46.5412879793762 15.7739142009011,46.5414496774736 15.7741203331159,46.5414492722863 15.7747059283304,46.542066089025 15.7751019027366,46.54289921199 15.7754344888981,46.5434371274353 15.7757924676437,46.5436793238635 15.7769200899347,46.5440182283399 15.7777511223532,46.5442775374621 15.7786715661267,46.5445975003095 15.7796507740366,46.5448863760439 15.7796799533396,46.5458952611262 15.7801196334729,46.5466771463039 15.7807165263507,46.5470909763866 15.7808980884019,46.5473852826768 15.7807261550949,46.5477534366889 15.7799808089843,46.54831911342 15.7793249892145,46.5489454436635 15.7789370621529,46.5497125457153 15.7787830493546,46.5503047753198 15.7786159179757,46.5510194506608 15.7784048685948,46.551754757338 15.7785426830562,46.5520902103649 15.7787305195908,46.5528228019382 15.7788937194949,46.5539022080645 15.7788994683485,46.5543495803832 15.7790457119912,46.5547174537524 15.7793001611347,46.55511877767 15.7794855872194,46.5553172434548 15.7797072472746,46.5555413727709 15.7796991008051,46.5558285164978 15.7796137452017,46.5562977420548 15.7797289704095,46.5565480576132 15.7796477822954,46.5571352928446 15.7796729488792,46.5575264824253 15.7796527316224,46.5582183846624 15.7796500393203,46.5584856981066 15.7798176117062,46.5586842849314 15.7800225407851,46.5590959310141 15.780151281724,46.5596607720984 15.7802540220096,46.5602313683555 15.7803532719018,46.5607857940333 15.7804120736218,46.561311795737 15.7804006014932,46.5620308083337 15.7803326119912,46.5625197084042 15.7802884243205,46.5628492926698 15.780199125369,46.5630165224751 15.7807409418724,46.5633245648057 15.7817986282678,46.5638311481058 15.7826957784857,46.564220872136 15.7834093373692,46.5645781985694 15.784249841405,46.5652715802846 15.7848985050952,46.5662105351949 15.7854087217642,46.5668557020128 15.7858402843579,46.5671391060214 15.7866139712105,46.5674286132707 15.7875181130548,46.5674476733545 15.788308995751,46.567248434952 15.7892456322549,46.5669807995514 15.7900608431537,46.5670475063069 15.790678559913,46.5672488150172 15.7913033385235,46.5673792667776 15.7920157944203,46.5675196343521 15.7939222497818,46.5677233313675 15.7948878808513,46.567798766153 15.7960787744469,46.5678280012603 15.7976474882389,46.5677800066548 15.8003004784094,46.5678738466427 15.8013114457174,46.5677052768503 15.8022938435825,46.567262766172 15.8027202746931,46.5668119141196 15.8030394100358,46.5664363071864 15.8031962873476,46.5660619287125 15.8032986137532,46.5656505963816 15.80339915338,46.5651271763781 15.8033915688591,46.5646046056369 15.8035484373,46.5642301366509 15.8039222310899,46.5638915697927 15.8045114215972,46.5634769035252 15.8052149763478,46.5632636773005 15.8059907342383,46.5628707217322 15.8069853708278,46.5624087409409 15.8079472193757,46.5622081602344 15.808983018351,46.5621393014699 15.8110397649724,46.5623884336632 15.8122117361974,46.5623632042451 15.8132817460705,46.5620438625285 15.8142617737539,46.561438783041 15.8150454108525,46.5607593414569 15.8158806309857,46.5602246450037 15.8164623719021,46.5599741616878 15.8167650194343,46.559795123883 15.82141266072,46.5602671049984 15.8216114594352,46.559923078842 15.8215617136058,46.559625821718 15.8213135087343,46.5593665167089 15.8207069165324,46.5588233246212 15.8205667508891,46.5584368375788 15.8208047842416,46.5580308131372 15.8212237507869,46.5574718031057 15.821621456055,46.5569736726808 15.8224909461821,46.5556768311419 15.8229267158267,46.555429343484 15.8233804628584,46.5552066459293 15.8245229353974,46.5548029165283 15.825299837082,46.5545024882057 15.8260767287768,46.5542019646881 15.8266083296423,46.5539891283076 15.8270889758396,46.5537532661609 15.8275547075037,46.5534373482292 15.8277597407758,46.5532673542826 15.8279157462199,46.5530893477853 15.8282676626462,46.5529477992772 15.8284399598361,46.5530349902986 15.8290008141746,46.5529803648676 15.829352855854,46.5528472691183 15.8292567619925,46.5525489114939 15.8291908295447,46.5518333324791 15.8293869004456,46.5516921003896 15.829656201354,46.5516154738327 15.8311194725499,46.5517917152816 15.8326909824636,46.5519672400981 15.8347504141144,46.5522138573333 15.8364301747197,46.5523884507892 15.8384879133671,46.5525230026847 15.8385141267728,46.5521674360698 15.8381224390633,46.5495964052828 15.8395979062182,46.549423641988 15.8410366833387,46.5493666486755 15.8424468742017,46.5496198784485 15.843749529785,46.5499090616865 15.8446184058449,46.5501268502014 15.8458753777426,46.5504454062799 15.8470526990907,46.5506055644862 15.8477666500795,46.5508133201541 15.8487989272375,46.5511044494287 15.8495066661903,46.5513979800616 15.8508655708585,46.5518099209586 15.851824547186,46.5520897822863 15.8525519473282,46.5524211142255 15.8539488465704,46.5533066878766 15.8545726018792,46.5536383307817 15.855359359103,46.5542755430999 15.8567001440133,46.554780037363 15.8576244415543,46.5550719855012 15.8585481587059,46.5553265037491 15.8595282291944,46.5557299382966 15.8598016342393,46.5559145675511 15.8603455010528,46.5560972522071 15.8608917317797,46.5564291736993 15.8613850337147,46.5568362547111 15.8618765682499,46.5571312465471 15.8625286920126,46.5573131050644 15.8632901121258,46.557568808629 15.8644278748803,46.5576724065341 15.8649713117055,46.5578177356237 15.8658368324974,46.5578112774769 15.8663236476852,46.5578076815569 15.8677795906162,46.5574981312223 15.8686928027674,46.5570806748789 15.8690237401651,46.5569289939181 15.8690661052606,46.5570583162079 15.8692222822517,46.5575848828769 15.8695202123512,46.5585917914812 15.8697009132665,46.5589792601155 15.8697719216901,46.5592194749869 15.8703066223377,46.5590857639322 15.8708386533286,46.5587853597017 15.8735499283331,46.5571259162609 15.8757255947613,46.5563777491335 15.8766593806995,46.5560279975258 15.8771873821589,46.5558943055346 15.8773869340169,46.5557816643394 15.8776250827022,46.5555715609959 15.8777624084181,46.5553528741736 15.8778678857436,46.5549708693705 15.8779779397811,46.5545735347159 15.8779249489491,46.5541989538303 15.8779754686589,46.5540079233776 15.8780742835071,46.5538922754364 15.878275096131,46.5538583451817 15.8790204732274,46.5538942749554 15.879354417373,46.553794452555 15.8794859054807,46.5536268204621 15.879522552277,46.553408905491 15.8797673874391,46.5531940678247 15.8799549153171,46.5531695035188 15.8801366339153,46.5532050823997 15.8806249208432,46.5535208015514 15.8807458187439,46.5535291374643 15.8808458101766,46.5534866222445 15.881351897885,46.5528392709586 15.8816027732147,46.5525873158686 15.8820420708798,46.5523663859773 15.8823900313535,46.5523035135224 15.8825980104599,46.5523019089568 15.8827296298234,46.5524005781601 15.8826735339833,46.5521580967035 15.8824182186625,46.5517012283631 15.8822548955009,46.5512796372413 15.8821047597604,46.5508669409912 15.8819783727187,46.5503101121197 15.8823263428771,46.550055517291 15.8825178590902,46.5498111254141 15.8829802548478,46.549375709051 15.882872152346,46.5491426258448 15.8827227472722,46.5487749087802 15.882600587821,46.5484789559406 15.8825086462076,46.5481324775226 15.8823516081711,46.5475991870812 15.8819517315416,46.5470714577141 15.8814232141946,46.5466436834498 15.8806705874613,46.546064776143 15.880142380777,46.5456549871838 15.879469168519,46.5451473455408 15.8794122234717,46.5448508876988 15.8788592695636,46.5445222545541 15.8782796684044,46.5441579259426 15.8777790230687,46.5438378827329 15.8770809397775,46.5434023924873 15.8766465083571,46.5431448144374 15.8759878438875,46.5427270090496 15.875290224318,46.5423185847553 15.8749078135402,46.5420516051395 15.8746830057518,46.5418553939107 15.8744312731969,46.5416144038556 15.8742452907282,46.5413999012536 15.8738353745997,46.5410431598055 15.8736354939228,46.5407747813049 15.8733959282462,46.5404707180945 15.8728686971413,46.5401149588209 15.8724338795713,46.5398303770698 15.8719585171055,46.5394561342829 15.871549350384,46.5391443630633 15.8711658292201,46.5388054045082 15.8708474936944,46.5384659483844 15.8706230029843,46.5382877203574 15.8700607264731,46.5381841265136 15.8698740547025,46.5379246377025 15.8696494257808,46.537737411955 15.8694245112305,46.5375321942355 15.8691844092721,46.5371921387431 15.868878714034,46.5368345873099 15.86853261173,46.5363873733661 15.8682774773906,46.5359214741437 15.8680252143951,46.5356354895556 15.867916345279,46.5353485064094 15.8677521818532,46.5348639219265 15.8675265701177,46.5346137214132 15.866901307026,46.5346454525265 15.866338072155,46.5344787796749 15.8657012041635,46.5346005606498 15.8654317510451,46.5348725052492 15.8653318982782,46.5351521631104 15.8651024041829,46.5354777857055 15.8646216497554,46.5355713892567 15.86449500663,46.5358062646026 15.8641842939799,46.535943565273 15.8640052201611,46.536160842471 15.8636817538378,46.5363162318002 15.8633582870881,46.5364717101808 15.8629422841427,46.53654682419 15.8625440685253,46.5366091169971 15.8625220067382,46.5363520634393 15.8623105874996,46.5361737204902 15.8623196357428,46.53592174048 15.8621332933264,46.535680230185 15.8619856319563,46.5354114375325 15.8618775052667,46.5351693373436 15.8616520613556,46.534928120861 15.861326319685,46.53493957108 15.8610093476782,46.5346810488094 15.8606814767987,46.534557650411 15.8605080394733,46.5343070434617 15.8601048001031,46.5343640574607 15.8597121816492,46.5342680437219 15.8593974918262,46.5341534494507 15.8590438397198,46.5340481437888 15.8587193788804,46.5341405486406 15.8582782960225,46.5342780022548 15.8582183733022,46.5337844347025 15.8581683677405,46.5331010490272 15.858053888223,46.5324542243174 15.8575961133241,46.532358692057 15.8579375685038,46.5316903641294 15.8582288615736,46.5311483674849 15.8585996307995,46.5306867452087 15.8590557027055,46.5306833208262 15.8594344068937,46.5307253702917 15.8597970974549,46.5305786948304 15.859841426379,46.5300835343926 15.8598994985225,46.5296332548744 15.8597688494938,46.5287886221107 15.8593912922272,46.5288184500486 15.8589477140915,46.5287947913787 15.8579679051544,46.5286581952907 15.8570774983317,46.5284039617471 15.8573845060479,46.5280327895613 15.8576107592383,46.5275002785138 15.8574512417895,46.5273035434596 15.8571343455431,46.5270540964207 15.8568201272849,46.5269664820066 15.8564151000536,46.5269065372766 15.8561571054887,46.5270704122272 15.8558430299623,46.5269917909246 15.8555793941803,46.5268048291177 15.8551165997565,46.5263944341957 15.8554117062661,46.5260953310683 15.8556927875218,46.5257333540319 15.8560259974218,46.5253709861602 15.8563339850946,46.525062787323 15.8563552446226,46.5247567347008 15.8563103500968,46.5243881992705 15.8560551058867,46.5239132758961 15.8559963337057,46.5234908629439 15.8558719773679,46.5230420400577 15.8555807422906,46.5227563190903 15.8551860980702,46.5225253517957 15.8544269742764,46.5223240970123 15.8543687806899,46.5219376662797 15.8541306751343,46.5217145228059 15.8541522279745,46.521426461978 15.854476621345,46.5213340703356 15.8548365824646,46.5210164901541 15.8549343584652,46.520610900103 15.8552385145157,46.5200598170028 15.855154395511,46.5196825772384 15.854823240856,46.5193431713953 15.8546630524103,46.5191014528407 15.8543691672117,46.5186448977478 15.8540795143353,46.5184581265836 15.8537530237302,46.518415579672 15.8527085831599,46.5184585486377 15.8525499103905,46.5181546473805 15.8520478275932,46.5177175417082 15.8518174821827,46.517989163698 15.8513096814613,46.5180199349528 15.8512135464843,46.5177058497198 15.8512615973386,46.5174445826779 15.8509555597549,46.5170420004521 15.8510795503137,46.5166362184016 15.8510481613102,46.5163035674449 15.85105754054,46.516069578798 15.8511425763371,46.5156730833336 15.8510460239141,46.5153319203329 15.8506684141996,46.5153527231171 15.8498207166076,46.5153140401615 15.8494795351067,46.5151636276276 15.8490591908655,46.5149508235789 15.8486513216848,46.5147020278638 15.8484261618951,46.5144697793402 15.8480478730257,46.5136088840659 15.8476980344184,46.5129007235975 15.8475231884904,46.5125511408307 15.8472550475039,46.512076292509 15.8471190171391,46.511708427774 15.8473471229644,46.5112928813645 15.8474974683441,46.5109049913015 15.8476834022877,46.5102918250999 15.8479091197293,46.5097233480541 15.8479169824178,46.5093994017592 15.8478084117408,46.5091213030034 15.847576147093,46.5084302638551 15.8474032739882,46.5082066225048 15.8472690698415,46.5079557037701 15.8471949401271,46.5077385280986 15.8470354197599,46.5071747047308 15.8469641277882,46.5067793693828 15.847025079012,46.5065090112161 15.8473054276786,46.5061110713914 15.8473114670858,46.5056611819172 15.8465907161685,46.5053967021519 15.8459347831507,46.5059503659384 15.8454203292712,46.5063770237282 15.8446051018536,46.5067429223472 15.8438149465022,46.5070456519107 15.8430979479125,46.507023948643 15.8427208093843,46.507071712458 15.8423561430702,46.5070833956055 15.8417540438714,46.5069079804495 15.8412941522924,46.506659451096 15.8409256038784,46.5064192452379 15.8402788334769,46.5059823411278 15.839323790988,46.5056303773853 15.8389968346337,46.5055518041575 15.8386689107335,46.5054102588287 15.8384550623127,46.5050609477869 15.838175660798,46.5046851260463 15.8379638998676,46.5044797490829 15.8377266291816,46.5043015492533 15.8377097317546,46.5040497599206 15.8375363604091,46.5037901195878 15.837545381757,46.5035291435153 15.8374632093411,46.5032689251575 15.8373553951077,46.5030357951829 15.8371016529065,46.5026327921481 15.8369791571242,46.5022918064594 15.8363703071278,46.5025211827465 15.8360588836524,46.5026044316827 15.8355785121459,46.5027159048451 15.8352411685728,46.5028083378054 15.8349961202512,46.5029720711915 15.8345348281973,46.5034792641458 15.8340796761918,46.5035365655933 15.8331243200032,46.5037812264676 15.8327343649021,46.5033215358082 15.8322081697198,46.5029924804532 15.8318395487168,46.5027432488388 15.8314572176294,46.5024491312037 15.8308350500382,46.5018059656357 15.830675157089,46.5015732076187 15.8303422109816,46.5010987895298 15.830009688047,46.5006603549691 15.8297099247899,46.5002253704993 15.8293207810933,46.4999097024708 15.8287316913988,46.499725037421 15.828670562545,46.4991316847631 15.8282148938798,46.499152979065 15.827706298051,46.4991206731672 15.8274171131391,46.4989518244056 15.8268303584242,46.4989200800053 15.8262692506009,46.4988612465794 15.8255013469389,46.4989117759989 15.8252247884084,46.4987158398523 15.824610215693,46.4985673250252 15.8239584685376,46.4985450313519 15.8233422729624,46.4982886485278 15.823027459701,46.4981469638515 15.8225575490949,46.4980873659675 15.8220770532974,46.4981897865025 15.8217617017303,46.4980121145958 15.8214470295985,46.4978794214562 15.8206993679302,46.4975429063862 15.8201895750667,46.4974296934815 15.819677214474,46.4971454655441 15.8194143878224,46.4969944014221 15.8192141276206,46.4966719473714 15.8188443979452,46.4963507063623 15.8186458985999,46.4961451984627 15.8183954309985,46.4959490589836 15.8182740134214,46.4956711135637 15.8181011661142,46.4954384304496 15.8177322559213,46.4951621644647 15.8173115153002,46.4949042614833 15.816636590554,46.4950710267911 15.8158990627273,46.4945364758806 15.8156405632011,46.4946732732398 15.8151753965519,46.4949285929364 15.8145939304245,46.4952476274707 15.8142592820746,46.4955199176089 15.8140300438819,46.4958634318262 15.8138013436046,46.4962519262629 15.8134801139803,46.4965511093051 15.8128207302283,46.4968886826787 15.8123384845074,46.4968741149899 15.8119846284638,46.4967326771967 15.8114248950594,46.4967636402625 15.8110993142454,46.4976386492849</coordinates></LinearRing></outerBoundaryIs></Polygon></MultiGeometry>
  </Placemark>
</Folder>
</Document></kml>
