<?xml version="1.0" encoding="utf-8" ?>
<kml xmlns="http://www.opengis.net/kml/2.2">
<Document id="root_doc">
<Schema name="pregledovalniklovisca" id="pregledovalniklovisca">
	<SimpleField name="lov" type="string"></SimpleField>
	<SimpleField name="lov_naziv" type="string"></SimpleField>
	<SimpleField name="luo" type="string"></SimpleField>
	<SimpleField name="luo_naziv" type="string"></SimpleField>
	<SimpleField name="povrsina" type="float"></SimpleField>
</Schema>
<Folder><name>pregledovalniklovisca</name>
  <Placemark id="pregledovalniklovisca.1">
	<Style><LineStyle><color>ff0000ff</color></LineStyle><PolyStyle><fill>0</fill></PolyStyle></Style>
	<ExtendedData><SchemaData schemaUrl="#pregledovalniklovisca">
		<SimpleData name="lov">1518</SimpleData>
		<SimpleData name="lov_naziv">BORIS KIDRIČ</SimpleData>
		<SimpleData name="luo">15</SimpleData>
		<SimpleData name="luo_naziv">Ptujsko Ormoško</SimpleData>
		<SimpleData name="povrsina">5534.78</SimpleData>
	</SchemaData></ExtendedData>
      <MultiGeometry><Polygon><outerBoundaryIs><LinearRing><coordinates>15.7490965064322,46.4320564248276 15.7495085676222,46.4319776103903 15.7501127990723,46.4318593868891 15.7506347965581,46.431741610007 15.7515136856364,46.4316025923354 15.7523920410055,46.4313683831571 15.7529404361763,46.4312122747795 15.7533524853045,46.4311334465513 15.7539019202033,46.4309964903152 15.7548627460077,46.4307807020984 15.7555225118472,46.430681157038 15.7560163875845,46.4305827049452 15.7566480381503,46.4304451919574 15.7571153704057,46.4303658944012 15.7577748651519,46.4302474444231 15.7583789277484,46.430129088334 15.7587080802315,46.4300506105345 15.759175143714,46.4299524126285 15.7600254602093,46.4296991672251 15.7602716015988,46.4296213265326 15.7607658402401,46.4294847941603 15.7616981023842,46.4292119174847 15.7618597896844,46.4291618067879 15.7621340216329,46.429064611318 15.7621792329888,46.4290689884509 15.7623076300906,46.4290483392464 15.7623843573088,46.429036041698 15.7627687927481,46.4289572736028 15.7631528320277,46.4288595231771 15.7631514259996,46.4288613319607 15.7632367591963,46.428841059046 15.7632355719392,46.428839897359 15.7634827517417,46.4287811164578 15.7641686089116,46.4286241263095 15.7645803551966,46.4285261859376 15.7651838523676,46.4283698302609 15.7655137674084,46.4282915076728 15.7659530903456,46.4281933777525 15.7662545096427,46.4281151539051 15.7666383993509,46.4279983191 15.7673526007318,46.4278412097777 15.7674607980806,46.4278464217558 15.7684652174294,46.427823932062 15.7723283004393,46.4270698703736 15.7787365171194,46.4323752227685 15.7813513239229,46.4343391566817 15.7843079934771,46.4367163474142 15.7885257940558,46.4344346754939 15.790164077913,46.4336305521946 15.7912326675258,46.4330720976643 15.7960921114988,46.4364604719804 15.7971039294359,46.4368014279098 15.7978046344833,46.4369125131364 15.7991048661051,46.4378508187853 15.8038614019386,46.4417810185716 15.8008132298183,46.4437166925461 15.7995680902665,46.4446341001137 15.7983711156746,46.4450292427435 15.7977302172958,46.4451884631437 15.7973935061197,46.4453043532516 15.7964502372512,46.4456591094359 15.7956742280411,46.4459973993772 15.7951189308343,46.4462981618146 15.7946298773379,46.4466794341031 15.7940527228501,46.4472683365046 15.7934756848083,46.4478571451475 15.7931371611497,46.4484058798338 15.793769851362,46.4483949224918 15.7940379923622,46.4489327897623 15.7940934518703,46.4491663260857 15.7942273951203,46.449426308285 15.7944002545429,46.449677023029 15.7946525149711,46.450008158599 15.7949175328183,46.4503302079488 15.7954587597941,46.4508482692839 15.7958789250434,46.4510972613566 15.7962454570468,46.4512385716493 15.7966150091388,46.4515868800808 15.797096720225,46.4515925206725 15.7974998120877,46.4515627196016 15.7983070460238,46.4515750816509 15.798762988805,46.4515988890379 15.7993110932633,46.4516939363333 15.8002615019624,46.4517052838356 15.8008341922205,46.4517012750565 15.8017059790435,46.4516771731758 15.8022669728187,46.4517631189773 15.8026185287595,46.451769649266 15.8032539170862,46.4516032428116 15.8039396003062,46.45220122202 15.8044855999938,46.4521523077431 15.8051224452285,46.4520848473735 15.8062546836968,46.4520678739401 15.8068924556807,46.4520633759903 15.8076101824378,46.452184177555 15.8084341700013,46.4524482650588 15.8090748770466,46.4526416675956 15.8101501822204,46.4531737837064 15.810753991702,46.4535113897384 15.811252343412,46.4537597709683 15.8117127168683,46.4540713983721 15.8122647482323,46.4544273578122 15.812856371368,46.4548190210576 15.8135926567471,46.4553085288856 15.8139603358984,46.4555218399028 15.8148007753219,46.4560106885487 15.8152873598194,46.4563401086587 15.8154973403886,46.4564795040805 15.8158248706157,46.4566969640437 15.8170548907306,46.4562222301982 15.8183654565573,46.4555988166284 15.8200161874983,46.454830617362 15.821367482489,46.4543491192712 15.8224680360255,46.453271019999 15.8240167959059,46.4516106360512 15.8256192734441,46.4501604620716 15.8271669232592,46.4484474101196 15.8277183500692,46.4479872734958 15.82894155021,46.4466450610564 15.8301375778434,46.4451802235583 15.8306974177941,46.4441728144043 15.8311082565776,46.4438099499266 15.83166506138,46.4421689897325 15.8321803273854,46.4410073285552 15.8326739384084,46.4400914404432 15.8335926172074,46.438768937194 15.8343658323637,46.4378860013217 15.8349145511259,46.4372679514671 15.836448385985,46.4363444473673 15.8373016712254,46.4357241578376 15.8385273228059,46.4345747175001 15.8388955257915,46.4337649858278 15.8389077074712,46.4329052325557 15.8402601194412,46.4317549330525 15.8422747158343,46.4303044602545 15.8426498007179,46.4301577449199 15.8430103474456,46.4299121683924 15.845344797958,46.4291208330869 15.8479198732198,46.4282946470629 15.8527735601418,46.4271531829392 15.8576090291888,46.4248712767338 15.8598037112246,46.4228551187956 15.8635318614393,46.4199767696683 15.8664528498799,46.4181845996117 15.8695492830804,46.4165409109412 15.8712813787545,46.4158870483118 15.871143656823,46.4154396253284 15.8709216811003,46.4156166382473 15.870749863718,46.4154873996477 15.8688582489491,46.413927395734 15.8665538748527,46.4120878916162 15.8641291693606,46.4100069595218 15.8612931133342,46.4077272705384 15.8587502510307,46.4055260126528 15.8575103051577,46.4045664248587 15.8553333161279,46.4033716354261 15.8531575498329,46.4022574988293 15.8511068047727,46.4016672785252 15.8489393308216,46.4010777980699 15.8465127752609,46.4006602390491 15.8453655865834,46.4005489746175 15.8436063702608,46.400469836308 15.840703973138,46.4004120368226 15.8366205590089,46.4004015874767 15.8330054197931,46.4005087724805 15.8304954847174,46.4004059280448 15.8289796410039,46.4004573235836 15.8289568692903,46.4004478618093 15.8289535088433,46.4004492357276 15.8288771676731,46.4004147005827 15.8282165253084,46.4001398587391 15.826398180392,46.3994667183029 15.8264911617223,46.3994149430359 15.8259384903444,46.3992096645765 15.8252732090473,46.398909827374 15.8250236488243,46.3987973655049 15.824303322059,46.3984598622093 15.8240533500655,46.3983284173913 15.8231388228075,46.397935084725 15.8228065203198,46.3977850660374 15.8220582395959,46.3974287658943 15.8216696166644,46.3972601649565 15.8210325171825,46.3969980681039 15.820590121499,46.3968679970883 15.8198985538322,46.396606464693 15.8190686212396,46.3963268454756 15.8182395509454,46.3961043453952 15.8178513626767,46.3959547121445 15.8174096329683,46.395824624047 15.8168836012469,46.3956569889426 15.8165246181773,46.395564363863 15.8161098093798,46.3954340785107 15.8157500462385,46.3953412766235 15.8154187645075,46.3952486303971 15.8150592186245,46.3951178571822 15.8146170045205,46.3950067455403 15.814146378096,46.394838703126 15.8132339614721,46.3945787025044 15.812128514846,46.3942439504888 15.8115473859737,46.3940766820923 15.8110499929064,46.3939088168733 15.810496434791,46.3937413475808 15.8102737779599,46.3935716213796 15.8100796824533,46.393477807581 15.8099437914925,46.3935739590967 15.8095263490297,46.3932722744088 15.809164860811,46.3930082498491 15.8089147993444,46.3928577886761 15.8084425215535,46.3925754716935 15.8081363615064,46.392368094087 15.8077193482582,46.3920853835282 15.807441820749,46.3918970555237 15.8070801312182,46.3916709933668 15.8068579241879,46.3915393148849 15.8064967412172,46.3912943534557 15.8062466948966,46.3911438863058 15.8061585475106,46.391091605 15.8060244920054,46.3910122061657 15.8056353417699,46.390748275369 15.8051203689953,46.3904073145709 15.8050326152237,46.3903551195912 15.8055880337872,46.3902990251368 15.8060404223658,46.3901158958794 15.8066484207005,46.3899045860696 15.8071144664213,46.3897663415564 15.8079429420356,46.3895175701613 15.8087072032195,46.3893232293201 15.809471324592,46.3891197973082 15.8097684828176,46.3890007314827 15.8105573998295,46.3887162329306 15.8113614420594,46.3885755747556 15.8121656121884,46.3884438171138 15.8129959144274,46.3883209550683 15.8134701195321,46.3878587319448 15.8138282494164,46.3874603124859 15.8139368282506,46.3868927239892 15.8142118684536,46.3861620028355 15.814513165013,46.3854400909824 15.8147353847392,46.3846467650507 15.8147406255171,46.3841338942064 15.8145339909286,46.3833526203129 15.8143809644747,46.3826789291521 15.8143458698844,46.3820673774997 15.8144189184689,46.3817429622795 15.8144107583186,46.3811941983024 15.8144399893728,46.3805372029482 15.8144836899453,46.3799790723953 15.814501664138,46.3794481162805 15.8145199018136,46.3789261553247 15.8145408147998,46.3785841170248 15.8145846468404,46.3780349823964 15.8145474132436,46.3772794921163 15.8144485358568,46.3767493680734 15.8144281816418,46.3762546730271 15.8144347630539,46.375831762832 15.8144132057206,46.3752561024365 15.8144419008976,46.374563211819 15.8144692566666,46.3737802697268 15.8145049042329,46.3735550884252 15.8145471282319,46.3728979996269 15.8145762208148,46.3722320071843 15.8146144219448,46.371907659574 15.8148008033307,46.3714874267323 15.8149534214816,46.3706675130938 15.8150027764785,46.3703242818299 15.8149722157628,46.3700283138162 15.813768766279,46.3699910006556 15.8123850117723,46.3703571250927 15.8111470685898,46.3701522322039 15.8103145338627,46.3695170014679 15.808709267192,46.3688160651784 15.8057054938167,46.3674838352383 15.8001621780374,46.3648516089022 15.7975287599797,46.3641933338179 15.7926379080268,46.3639427625346 15.7907398224332,46.3643122794716 15.7893637505341,46.3652125006419 15.7887037342838,46.3658226501382 15.7870025771194,46.365585151262 15.7844823974603,46.3656382772066 15.7812441751719,46.3658388597516 15.7763183012721,46.3667633012189 15.7713643672681,46.3671372768719 15.7713119308739,46.3671977312193 15.7709865322131,46.3671639372585 15.7706605013266,46.3670851611258 15.7702032503797,46.3669172969677 15.7696146564496,46.3666513469294 15.7690925621621,46.3664930018006 15.7683366767873,46.3663451325621 15.7677906136262,46.366330806202 15.767440617082,46.3663961354331 15.7667664866671,46.3665176201553 15.7660287586991,46.3667384950788 15.7653556273117,46.3669320315588 15.7645654030795,46.3671172599705 15.7637366877689,46.3673387284025 15.7629458257826,46.3674789643604 15.7622451808191,46.367564700865 15.7612974865836,46.3676429910479 15.7603745328731,46.3676311378659 15.7593471141595,46.3675839825974 15.7581240143377,46.3674842229922 15.7570572398087,46.3674103167698 15.7565102988917,46.3673329626476 15.7555471232153,46.3672313655985 15.7549354565892,46.3671725157639 15.7538201697939,46.3670576029236 15.7532171746276,46.3669769137502 15.7524353327631,46.3668291103932 15.7515750289537,46.36664591899 15.7508059451794,46.3664800264317 15.7501530802127,46.3662683808309 15.7495918108654,46.3660921194983 15.7489519575908,46.3658713846323 15.7479597614775,46.3655450761721 15.747346034409,46.3653331585114 15.7466418354168,46.3651578167356 15.745834168681,46.3650191339419 15.7450924606103,46.3649519924932 15.7441308139384,46.364958344502 15.7432215127446,46.3649912495433 15.7423253274972,46.3650330593091 15.741273197437,46.3650758730813 15.7402085575976,46.3651548365275 15.7398251355258,46.3656341642372 15.7394927176916,46.3660411839847 15.7388919966843,46.3667918265204 15.7382653975168,46.3675426328721 15.7385744882962,46.3682963930369 15.7388841942706,46.3690951337741 15.7392070358007,46.3698937886538 15.7394618598301,46.3704769521535 15.7397307792182,46.3711409976769 15.7400531594068,46.3719036645198 15.7403891452659,46.3727202248043 15.7403453105224,46.3733143165074 15.740654706642,46.3740860625307 15.7409498972173,46.3747679288013 15.7412855575348,46.3755484998332 15.7415808858356,46.3762393605031 15.7415862445631,46.37663519745 15.7416808930741,46.3768954990208 15.7420302997717,46.3777390479789 15.7423386480382,46.3784298219544 15.7426608646392,46.3791744874323 15.7434894779455,46.3789260918156 15.7443697121201,46.3786504528921 15.7445449290596,46.3791081632897 15.7448840858946,46.3801496157372 15.7451012537775,46.3808139846821 15.7453030942869,46.3813165056598 15.7447069695024,46.3814553455844 15.7435681745399,46.3818407234023 15.7429081414028,46.3820609431535 15.7431351188545,46.3824913279335 15.7434591191391,46.3824262423798 15.7436598591587,46.3828388025253 15.7440065230785,46.3834753398005 15.7443394617011,46.384057982866 15.7439901788047,46.3841862148917 15.744348884719,46.3847416989984 15.744602121873,46.3851989009583 15.7448708108207,46.3858359430729 15.744875460893,46.3861778014247 15.7451700439694,46.3867966799234 15.7454803212995,46.3876223878354 15.7456588923661,46.3883139976936 15.7459948201818,46.389112545547 15.7462260130054,46.3898577934354 15.7465488421709,46.3906384308096 15.7466586189539,46.3910605760086 15.747175373587,46.3917679685972 15.7468396709977,46.3919321086408 15.7471712189009,46.3924067870237 15.7473733680413,46.3929272954783 15.7476031221317,46.3935645848193 15.7478590160249,46.3942017026845 15.7485665458135,46.3945929438614 15.749065432533,46.3949405622428 15.7491883632954,46.395371615607 15.7493790250104,46.3959911631253 15.749529567432,46.3965389967996 15.7496529984003,46.3970060344826 15.7498428086318,46.3975626072772 15.7500324927591,46.3981191805326 15.7502501601991,46.3988195226391 15.7504272196022,46.3994031690979 15.7505911626128,46.3999689072217 15.7507967049856,46.4007323069877 15.7508143982827,46.4010740786056 15.7508960069927,46.4013254600673 15.7508998332168,46.4016043433715 15.7511315179893,46.402376567708 15.7513099572649,46.4030591708713 15.7514316959992,46.4033912615985 15.7516336803213,46.4038937685802 15.7518364099671,46.4044502525131 15.7519856414475,46.4048991233523 15.7521492467665,46.4054378698252 15.7523263486818,46.4060215124215 15.7524207232646,46.4062638115656 15.7525051864324,46.4067311017988 15.7525884201245,46.4070994326124 15.7526630980942,46.4078007100109 15.752725640074,46.4085651363768 15.7527734504721,46.4091946140997 15.7527945013909,46.4097792827243 15.7515994450499,46.4098951077197 15.7514766761035,46.4104267394615 15.7514051946135,46.4108950548205 15.7513080635537,46.4113995267346 15.7512883512927,46.4118585047853 15.7513315708264,46.4121641198521 15.7513932415679,46.4128565758597 15.7514658122855,46.4134049177175 15.7515259955894,46.4139983260184 15.7515718137401,46.4144928613531 15.7510646648635,46.4145051902731 15.7511218872016,46.4148736924911 15.7512336032867,46.4154307742112 15.7514061569503,46.4156815572371 15.751565334086,46.4159054368328 15.7518584257608,46.4163983465441 15.7520604635096,46.4169008513233 15.7515701317332,46.4171919795506 15.7518115640337,46.4177212168552 15.7520002274821,46.4181968184917 15.7522668247366,46.4186539131111 15.75243889845,46.4188687095283 15.7519992230422,46.4190605389711 15.7521844288423,46.4192842464208 15.7523572467137,46.4195530201529 15.7530251227881,46.4198725169725 15.7539811729204,46.4203339725935 15.7537239822009,46.4205516863563 15.7535592170464,46.4208586707344 15.7532387127839,46.4212026688128 15.7531002018147,46.4215364706097 15.752655669766,46.422322137404 15.7522966258869,46.4226933774262 15.7521040899639,46.4228835810998 15.7517729053546,46.4233985884091 15.7515304302054,46.4237420685647 15.7514840799663,46.4241562356661 15.7513739182081,46.4246607920937 15.7513778800806,46.4249396733694 15.7514856645638,46.4252088754317 15.7515796986751,46.4254241856955 15.7516363121154,46.4257567029385 15.7517201824305,46.4261790110508 15.7516226579305,46.4266564934515 15.7516930249602,46.4270429022409 15.7516724527026,46.4274299087234 15.7513010939993,46.4278642052462 15.750930964902,46.4283884624962 15.7506276098398,46.4290382382816 15.7501445756391,46.4298602249231 15.7499446726647,46.4304643350866 15.749577103285,46.4311775079135 15.749003325158,46.4320269851721 15.7490179299001,46.4320767328899 15.7490965064322,46.4320564248276</coordinates></LinearRing></outerBoundaryIs></Polygon></MultiGeometry>
  </Placemark>
</Folder>
</Document></kml>
