{"type":"FeatureCollection","features":[{"type":"Feature","geometry":{"type":"Polygon","coordinates":[[[16.1219491039007,46.4894163533135],[16.1222687032023,46.4896097111125],[16.1229112113429,46.4898277885483],[16.123552607794,46.4898018758146],[16.1238095519609,46.4896787020721],[16.1240576477719,46.4894928159499],[16.124225512087,46.4893074480795],[16.1246268617172,46.4890175787563],[16.1247707690237,46.4887507532592],[16.1248387019672,46.4885013192069],[16.1249736792421,46.4882247745727],[16.1251756428882,46.4879057348822],[16.125511670456,46.487550377351],[16.1256611075626,46.4874383339435],[16.1257630297759,46.4873845185535],[16.1260344574442,46.4873075315277],[16.1260861178319,46.4873429207498],[16.126480711936,46.4873642262528],[16.1273497844656,46.4871942572726],[16.1280783104501,46.4870559878446],[16.1286211436988,46.4868321859252],[16.1289043381601,46.4866506212127],[16.1292008313035,46.4865201172071],[16.1294080956184,46.4864146054968],[16.1297241077914,46.4863084690772],[16.129979797439,46.4862582591357],[16.1303384092429,46.4862342922315],[16.1306877008258,46.4862257111865],[16.1310900797919,46.4861327523412],[16.1319071345018,46.4858302879688],[16.1319179369344,46.4858487148007],[16.1327690194366,46.4856611585786],[16.1331953196085,46.4855162228201],[16.1335107336093,46.4853756234556],[16.1338461986877,46.4851783234807],[16.1341402333238,46.4849430163325],[16.1346251850728,46.4848567835734],[16.1349366783096,46.4848348891418],[16.1352330420669,46.4847744570864],[16.1356637444291,46.4847102611557],[16.1358139319142,46.484679439559],[16.1360607763087,46.4846366813515],[16.1365016490608,46.4845105720661],[16.1370561454049,46.4843930481728],[16.1375124644821,46.4843395668767],[16.138092643832,46.4844232246063],[16.1384953942391,46.484430462173],[16.1385447285608,46.4843728402967],[16.1386858734506,46.4843582095181],[16.1391962767207,46.4847118356034],[16.1393899720934,46.4848622246873],[16.1394818295274,46.4849822287374],[16.1396971476215,46.4851512954853],[16.1399709405994,46.4853074531276],[16.1401839193361,46.48547663224],[16.1415761922573,46.4861186220872],[16.1416926701219,46.4860952368586],[16.1419703421322,46.4863304343014],[16.1425230762142,46.4868748982367],[16.1426209068065,46.4870246200141],[16.1428740692834,46.487245934871],[16.1428910902043,46.4875983557944],[16.1432208089412,46.4880105401072],[16.1434635162614,46.488397682193],[16.1438196649139,46.4888833755627],[16.1439225654272,46.4891130284649],[16.1440675982998,46.4893392008332],[16.1440582494013,46.4895083472545],[16.1441328944727,46.4897881257563],[16.1440852004997,46.4899239171686],[16.144259091656,46.4901719330939],[16.144248799006,46.4905879655202],[16.1443769358944,46.4909212803324],[16.1443996806195,46.4917074768654],[16.1443261827607,46.4919048857848],[16.1442937550381,46.4921288746013],[16.1442806346354,46.4923666155073],[16.1443636017736,46.4926205791679],[16.1443859658466,46.4928607540564],[16.1443018775612,46.4930129242339],[16.1441493796747,46.4934996557572],[16.1441050231697,46.4936829176216],[16.1441233239927,46.4939716267491],[16.1440614930426,46.4941913211183],[16.1440468418859,46.4946232314797],[16.1441514043234,46.4948632138361],[16.1441263310306,46.4950342268345],[16.1442832720445,46.495150336832],[16.1443155669677,46.4952552780485],[16.1443326841868,46.4955371612268],[16.1443827116587,46.4957235273402],[16.144450550171,46.4957777299186],[16.144781765241,46.4958795894002],[16.1452349114845,46.4959562051503],[16.145840685861,46.495999080947],[16.1461686013523,46.4959623264482],[16.1462411880632,46.4959696062611],[16.1462928788293,46.495931031076],[16.146475182228,46.495933252349],[16.1465279586917,46.4959091512658],[16.1474283874255,46.4954736654237],[16.1479124346742,46.4953905345395],[16.1481267624415,46.4953979198831],[16.1485472859852,46.4954905047033],[16.1491261101703,46.4956827132457],[16.1493922552364,46.4957317712689],[16.1498476681369,46.4957920614811],[16.1501052295902,46.4957305416295],[16.1501470342664,46.4957175254899],[16.1502855128117,46.4956617012168],[16.1508195158951,46.4951431428503],[16.150929181926,46.4949937694859],[16.1510716737624,46.494671414084],[16.1510809646391,46.4945746033143],[16.1510829106142,46.4945248305703],[16.1511350629669,46.4939589370061],[16.1512285374432,46.4938696460172],[16.1512662246953,46.4938344484288],[16.1513960389789,46.4938251342963],[16.1514266025845,46.4938227572909],[16.1516380788126,46.4938064127948],[16.1519053477422,46.4937856372841],[16.1519606739286,46.4938207979376],[16.1520346191126,46.4938678269341],[16.152192093659,46.4948041731129],[16.152295530809,46.4950138396513],[16.1526405213013,46.4952924177066],[16.1533009135369,46.4957250813109],[16.1539631970475,46.4963390105864],[16.1541832657457,46.496475882765],[16.1542469808197,46.496519414775],[16.1542819479308,46.4965280588174],[16.1546355011496,46.4966993906849],[16.1551700081146,46.4969135187509],[16.1554059220288,46.4970416814183],[16.1563411031916,46.4976764115381],[16.1564885265173,46.4978397450143],[16.1566046116939,46.4980427118974],[16.1574050440628,46.4988400212069],[16.1578471294174,46.4991484603112],[16.1583497887235,46.4996341538637],[16.1585422804236,46.4998455217229],[16.158763499067,46.500102752537],[16.1590866290771,46.500385671049],[16.1592923757538,46.5006625809978],[16.1593019762548,46.5006729201398],[16.1593439554078,46.5005944910798],[16.1597922636554,46.4997239895343],[16.1601704003109,46.4991689112287],[16.1603367686636,46.4988502609111],[16.1604969921758,46.4986347777301],[16.161046431321,46.4979204214508],[16.1614345092027,46.4973010895811],[16.161566474661,46.497019314355],[16.161583539276,46.4969274620917],[16.1618454457567,46.4965137309287],[16.1621044053752,46.496023015151],[16.1623951565156,46.4954410164115],[16.1624909505102,46.4951801207111],[16.1625571720581,46.4949192556225],[16.1626160113191,46.4946665627903],[16.1627885071998,46.4942271971553],[16.1630239837058,46.4942551225175],[16.163196560561,46.4942351935533],[16.1634398481077,46.4940979444535],[16.1636523787489,46.4939357263301],[16.1637158257535,46.4939176266561],[16.1640269994376,46.4936041548651],[16.1641487049472,46.4933920273755],[16.1641933457803,46.4932008374425],[16.1643266493994,46.4928852166243],[16.1645192651255,46.4925471290972],[16.1647657603424,46.4921945472102],[16.1648385611364,46.49214486228],[16.1650373999522,46.491872748141],[16.1654186324161,46.4915102450477],[16.1655660457198,46.491294615086],[16.1657671416791,46.490671235215],[16.1657741811103,46.4904581153789],[16.1657979086678,46.4903066345615],[16.1658544387748,46.4901906272617],[16.1662751070831,46.4898700049036],[16.1664620333101,46.4895532047662],[16.1664632809656,46.4893252089558],[16.1665389135007,46.4886223143407],[16.1664802577384,46.4880355906575],[16.1667734127285,46.48767973916],[16.1670707081545,46.487535903165],[16.1675487608023,46.4874877483195],[16.1678448536358,46.4874400101995],[16.1684737003154,46.4875724101725],[16.1688700179267,46.487679382864],[16.1693521719468,46.4877375227202],[16.1697926477416,46.4878322546711],[16.1703231662825,46.488019631994],[16.1711376131637,46.4885329388242],[16.1715031930593,46.4888093601157],[16.1724615679152,46.4892665714651],[16.1728892945029,46.489397589985],[16.1733009388156,46.4895438867994],[16.173898352196,46.4898300676344],[16.1745033230913,46.4900010965437],[16.1755396288949,46.4903791181261],[16.1758280269492,46.4904635138995],[16.176123553438,46.490479728615],[16.1768316640088,46.4906245829425],[16.1769150330041,46.4905400532646],[16.1770084355487,46.4901839818271],[16.1770276484851,46.4897280877838],[16.1773223032521,46.489070255641],[16.1779083065697,46.4881695630904],[16.1780444241417,46.4879945195617],[16.1781120347176,46.4879586449527],[16.1784305489268,46.487893914081],[16.1794746753577,46.4875316388831],[16.1797146368981,46.4874606968985],[16.179917168382,46.487399677375],[16.1797687245728,46.4873657607358],[16.1795157448256,46.4872442119742],[16.1794040269227,46.4871256144661],[16.1793550742086,46.4869398820015],[16.1793378695845,46.4867405066082],[16.1793379611392,46.4864434256788],[16.1793011005797,46.4862265289222],[16.1793030742934,46.4860225472192],[16.1793502977471,46.4858270058946],[16.1794825862148,46.4857103004427],[16.1796478695669,46.4856376995472],[16.1799033873618,46.4855818015579],[16.1800806027376,46.4854647218539],[16.1801546244948,46.4853219857923],[16.1801509826355,46.485153600034],[16.1800967632326,46.4850255028039],[16.1798022785082,46.4847669991215],[16.1795464350885,46.4845124146808],[16.1793340831977,46.4841908935344],[16.1791000688929,46.4837588425567],[16.180203440443,46.4843149905647],[16.1804124924439,46.4841886747616],[16.1809570073059,46.4838371195243],[16.1812414803474,46.4836391271749],[16.1814033313341,46.4834023643458],[16.1815435739469,46.4830639787487],[16.1818080779186,46.4825335730121],[16.1818152090346,46.4822674586858],[16.1816800001878,46.4819539615971],[16.1817051221484,46.4816344892114],[16.1817846007358,46.4811547587272],[16.1816880348847,46.4808453607535],[16.1827782893465,46.4802088899958],[16.1834928166939,46.4797180900531],[16.1838942303464,46.4795809598843],[16.1842072388971,46.4795111414882],[16.1845886092286,46.4793387683045],[16.1849087313833,46.479002833503],[16.185220604287,46.4786530379501],[16.1856248236234,46.4782859096673],[16.1858307581104,46.4780177336601],[16.1860244114572,46.4777718172179],[16.1862524282049,46.4773393963553],[16.1862480921435,46.4771398881746],[16.1860912696022,46.4770129478081],[16.1859979609711,46.4768542189929],[16.1862609068444,46.4768426747479],[16.1866347350369,46.4767678102418],[16.1871883136583,46.4765447876522],[16.1871640450867,46.4764468824459],[16.1876783410913,46.4762023125923],[16.1877391885618,46.476197721984],[16.1879704914808,46.4760847464975],[16.1881266055901,46.4757662507639],[16.18820898086,46.4755182476304],[16.1885207034702,46.4747985781263],[16.1886067204994,46.4739345128216],[16.1887299313958,46.4736543254193],[16.188752667084,46.4730180017079],[16.1886213068201,46.4726666849452],[16.1884960053944,46.4724440520315],[16.1880431942876,46.471981723],[16.1878143860218,46.4716818907003],[16.1877285825854,46.4714369839607],[16.1877838656509,46.4711828744526],[16.1878828600107,46.4709029393491],[16.188045738073,46.4705368690328],[16.1882399270621,46.4701855880897],[16.1884007229276,46.4699095088325],[16.1885590891822,46.4697073199411],[16.1886757918762,46.4692003856905],[16.188834021232,46.4688425497249],[16.189008200934,46.46839808651],[16.1890859105664,46.4679664121766],[16.1892151419937,46.4674432423142],[16.1892874474677,46.4669907509234],[16.1894386491291,46.4666454928964],[16.189452454374,46.4666277151834],[16.1894262121109,46.4666125132805],[16.1895379488227,46.4665177822488],[16.1896958852368,46.4663144265143],[16.1897496468936,46.4659791786747],[16.1897834967526,46.4656324418464],[16.1896351468073,46.4653254778755],[16.1894340960331,46.4650198715738],[16.1893020287457,46.4646353635374],[16.1891888171806,46.4642197995192],[16.1894695281225,46.4641180930074],[16.1887739650751,46.4635185674076],[16.1885594144491,46.4626220863354],[16.1877935533978,46.4617761373924],[16.1871018153165,46.4613563219756],[16.1864193601307,46.4613633142083],[16.1851880260507,46.4615331699108],[16.1842033423375,46.4610937901165],[16.1830688222385,46.4597348379667],[16.1829218919163,46.4589499290087],[16.1831814000564,46.4574194612934],[16.1823996494287,46.4558321958096],[16.1835155031373,46.4548322404795],[16.1833724743315,46.4542270515587],[16.183071273378,46.4538256619383],[16.1829849259782,46.4528379624263],[16.1832855693532,46.4517114835976],[16.1835774412822,46.4501806781924],[16.1836298569732,46.4495959586982],[16.1842529820145,46.4483538554806],[16.1844595166482,46.4473856153141],[16.1844405264409,46.4465095910696],[16.1853981416638,46.4457134177849],[16.1861700642439,46.4453459819658],[16.1872377868132,46.445132828426],[16.1877327408368,46.4439819161867],[16.1886611537765,46.4433432866718],[16.1903958859226,46.4424267974975],[16.1914187618649,46.4416523863201],[16.1917237455817,46.4414159151094],[16.1917264309605,46.4414137278342],[16.1903111340704,46.4400235802482],[16.1888629029906,46.4391621537275],[16.1886135880147,46.4390201629193],[16.1889945189066,46.4387453917702],[16.1894041572168,46.4384683414002],[16.1890704106226,46.438082330136],[16.1887651230748,46.4378856797729],[16.1891583355346,46.4374939087042],[16.1892611494586,46.4372967938415],[16.1891467381136,46.4372718922113],[16.1899402867378,46.4364099975191],[16.1917978921985,46.43524316874],[16.191831269644,46.4352222176254],[16.1918215087385,46.4351982972313],[16.1911450848277,46.4335441294535],[16.1905294606994,46.4331382954131],[16.1902435003559,46.4329497249274],[16.1892994263623,46.4323273244696],[16.1884562443422,46.4308980013253],[16.1873843769471,46.4294035685289],[16.1869064504756,46.4285403138935],[16.1873636417042,46.4283928106798],[16.1873379458947,46.4283919713987],[16.1869352594688,46.4283809468426],[16.1866023830855,46.4282891226474],[16.1862413447102,46.4281406382347],[16.1855699297724,46.4276715667887],[16.184803668207,46.427316297281],[16.1845122853791,46.4271573688393],[16.1838931191117,46.4264380777724],[16.1834685340592,46.4259796638418],[16.1824069373909,46.4252862657028],[16.1816861970951,46.4250842643375],[16.1801902450102,46.425073352101],[16.1801750603787,46.4255814830478],[16.1800193881739,46.4260669516339],[16.1797344586104,46.4265137166289],[16.1794387580564,46.4268594649992],[16.1790351910614,46.427301783618],[16.1787669336463,46.4276474271788],[16.1785536366863,46.4279352823561],[16.1780139494087,46.428474009045],[16.1775632647698,46.4289710599654],[16.1770453608996,46.429531330526],[16.1765860523944,46.4299549603053],[16.175701770019,46.4310686238877],[16.1755681140882,46.4312794494043],[16.1753847318102,46.4317194010192],[16.1753089121664,46.4320058367564],[16.1750500186814,46.4327892615651],[16.1748924191573,46.4331335785892],[16.1747037059721,46.4333259848964],[16.1744314291651,46.4334811016379],[16.1736952571914,46.4338125537369],[16.1729289475187,46.4340680152171],[16.1724289765848,46.4342493045914],[16.1718921795648,46.4344975473316],[16.1716260121488,46.4349383409921],[16.1714636324908,46.4357348937049],[16.1712338709874,46.4359134993475],[16.1706885673842,46.4361665919062],[16.1704715618848,46.4363212232389],[16.1703654557439,46.4365317604651],[16.170212985962,46.4371236169528],[16.1700184759146,46.4376849534898],[16.1697093650277,46.4380238854131],[16.1694085230973,46.4381412247267],[16.1690531635849,46.4382591205967],[16.1686416938131,46.4383396212715],[16.1682602462071,46.4385339862211],[16.1680699911021,46.4386501022009],[16.1678817706851,46.4388614757518],[16.166629289524,46.4406046609823],[16.1651041410522,46.4433768121089],[16.1644021625758,46.4463295902752],[16.1613800085984,46.4465433222523],[16.1613026885897,46.4467022752394],[16.1610102185019,46.4471003044515],[16.1605270401225,46.4475587490934],[16.160051288807,46.4477911110007],[16.1595062429392,46.4479845866256],[16.159201087228,46.448067843819],[16.1583909297872,46.4486559115995],[16.1583221799829,46.4488082978319],[16.1580595002187,46.4490043942538],[16.1576301810919,46.4493651131775],[16.1572721927116,46.449627760835],[16.1568836140323,46.4499519865522],[16.1565241757287,46.4502633203943],[16.1558621930805,46.4504994373559],[16.1555126239832,46.450434682687],[16.155207710942,46.4502964200335],[16.1547840560761,46.4501505386063],[16.1544218737504,46.4501047117471],[16.1539015120365,46.4500082972038],[16.1534994362799,46.4498792876149],[16.1531701761047,46.4496971796933],[16.1530620260919,46.4494698358081],[16.152900494055,46.44914307307],[16.1524796900433,46.4489465011044],[16.1521072849653,46.4488783673471],[16.1518235043781,46.4487661540537],[16.1516068174463,46.4485578959651],[16.1514489068464,46.4482850768158],[16.1512860612792,46.4478953457932],[16.1506080306894,46.4473567701683],[16.1503964662191,46.4474840472751],[16.1500482094995,46.4476350113618],[16.1497212308762,46.4477147739289],[16.1489737752264,46.4478043391375],[16.1485102374907,46.4478089954905],[16.1480837066074,46.4476855206853],[16.1476671194885,46.4478804391778],[16.146791462085,46.4477101829973],[16.146175252172,46.4478082204296],[16.1454378227543,46.4478237964511],[16.1449785512751,46.4474171417538],[16.1445984884738,46.4471005623734],[16.1445009559449,46.4468686055447],[16.1442607363573,46.4466226015661],[16.1439132392875,46.4465865811758],[16.1436435300522,46.4463679519243],[16.1432758528121,46.4462133706612],[16.1429926702112,46.4463646523555],[16.1427202034151,46.446561621127],[16.1422651215581,46.4462729545929],[16.1417462350008,46.4460450234256],[16.14140190163,46.445917194145],[16.1410967230672,46.4456386328088],[16.1407594617019,46.4455376321321],[16.1403176479608,46.4454160801975],[16.1398531640476,46.4456115378507],[16.139559562376,46.4458501860611],[16.1394907932367,46.4462224485069],[16.1396495156882,46.4466122374467],[16.1398460009884,46.4468280071675],[16.1401244138854,46.4470339627396],[16.1402857768897,46.4473191790002],[16.1398113246158,46.4476552693165],[16.1394941470819,46.4479373379598],[16.1390419017462,46.4478968582835],[16.1380914829555,46.447885447794],[16.1381324793824,46.4474415764946],[16.1380584877489,46.4470887298195],[16.1377509493873,46.4467400962779],[16.1378860388812,46.4464643429077],[16.1376440879403,46.4462524409942],[16.1377658915739,46.4460074997712],[16.1378683117458,46.4457005818251],[16.1381368120185,46.4452750496205],[16.1384168675918,46.4449295652366],[16.1389257544777,46.4443666823858],[16.1393206755192,46.4441124511602],[16.1386399917023,46.4439257946002],[16.1379497058246,46.4437528150504],[16.13758602677,46.443632364379],[16.1372666612844,46.4433772361765],[16.1372456747801,46.4431130221686],[16.137029569367,46.4425348626022],[16.1368075089137,46.4421456994439],[16.1364381959687,46.4417974962556],[16.1358891364274,46.442036964151],[16.1354794152288,46.4421238958128],[16.1349697904791,46.4423323777985],[16.1344874183158,46.4418664395853],[16.1339150738113,46.4414106584236],[16.1332063550455,46.4409678320238],[16.1331842812914,46.4416293326487],[16.1330216070192,46.442100589568],[16.1329170644833,46.4423940288197],[16.1328435303412,46.4427644452765],[16.1327641545068,46.4430163386758],[16.1327035614132,46.4434335013347],[16.1325744133894,46.4439089238959],[16.1324117044699,46.4443037053622],[16.132303512136,46.4446160738362],[16.1321274129276,46.4449426999975],[16.1319516476605,46.4453358105858],[16.1319010645248,46.4457967790491],[16.1318445407101,46.446329152657],[16.1318022588983,46.4469207655915],[16.1314797504309,46.4473683200172],[16.1313443699428,46.4477448352744],[16.1311651138113,46.4480831871264],[16.1309224592863,46.4485029589148],[16.130573499455,46.4489373666729],[16.1302790037924,46.4493306584735],[16.1300631866513,46.4497458445128],[16.1299239252118,46.4500927960819],[16.1298201114268,46.4505048055741],[16.1297542859427,46.4508592186269],[16.1296520888496,46.4512677031026],[16.1295701218173,46.4516347813028],[16.1293907829636,46.4520017414555],[16.1289682732941,46.4524250842833],[16.1288011644395,46.4526471607556],[16.1283941756427,46.4530661196069],[16.1279529434283,46.4536048050959],[16.1275069300867,46.4540699404048],[16.127365707641,46.454316861143],[16.1274398800622,46.454756983479],[16.1276571609882,46.4553125658423],[16.1291636029962,46.4566226909699],[16.1307018249619,46.4572822680936],[16.1315814639001,46.4585382767495],[16.1307556590528,46.4598951860671],[16.1300647314358,46.4618830655888],[16.1294827815544,46.4632375549279],[16.1285131073096,46.4635420494094],[16.1271072733637,46.4633870399108],[16.1274698927973,46.4639175272391],[16.1281640465815,46.4655273517842],[16.1277739333901,46.4663394895185],[16.1270796467412,46.4671896222589],[16.1259821385521,46.4682194326159],[16.1249376641452,46.4693541552655],[16.1241387252099,46.4700647660729],[16.1229780421373,46.4704976781077],[16.1214636956064,46.4710394916313],[16.1201728701937,46.4718589020779],[16.120030069121,46.4721976876046],[16.1199302263701,46.472561243811],[16.1198708423109,46.4728848170094],[16.1195852369333,46.4735183018058],[16.1193249077227,46.4740002991852],[16.1189876199282,46.4745399098679],[16.1186519079393,46.4752838254744],[16.1182651846769,46.4762716070347],[16.1173156142988,46.4770889965396],[16.1165127399472,46.4776238804667],[16.1158611474966,46.4780870163568],[16.1152594765769,46.4785144835072],[16.1148070712727,46.4787327524324],[16.1144818196472,46.4789214400503],[16.1138355352002,46.4793973782074],[16.1132304906484,46.4798269367182],[16.1127073699558,46.4802379709101],[16.1125994093797,46.4807302558075],[16.1127523931874,46.4813666524989],[16.1126940399337,46.4821648914206],[16.1125918331461,46.4825051614006],[16.1133682564238,46.4831198355941],[16.1148843126236,46.4838782656691],[16.1159573475655,46.4843204375225],[16.1170881799996,46.4849128238697],[16.1179779348752,46.4857337395395],[16.1190068997838,46.4866851816439],[16.1191691202124,46.4873863469037],[16.1191297629539,46.4874298274805],[16.1192159926898,46.4875885897196],[16.1192462973511,46.4877197387307],[16.1194044354972,46.4879359174243],[16.119592066123,46.4882816332987],[16.1196317255103,46.4882465167833],[16.1198076934958,46.4884871720166],[16.1210466294191,46.4890219594855],[16.1214363396661,46.4891980779512],[16.1216027190791,46.4893012609326],[16.1219491039007,46.4894163533135]]]},"properties":{"fill-opacity":0,"stroke-opacity":1,"stroke":"#ff0000","lov":"1506","lov_naziv":"IVANJKOVCI","luo":"15","luo_naziv":"Ptujsko Ormoško","povrsina":2596.94},"id":"pregledovalniklovisca.1"}]}