{"type":"FeatureCollection","features":[{"type":"Feature","geometry":{"type":"Polygon","coordinates":[[[15.9766377011152,46.4174364800889],[15.9766416096133,46.4174368065904],[15.9766203408601,46.4174259218659],[15.9764817138287,46.4169476530453],[15.9763713796564,46.4164291055894],[15.9760780470007,46.4161819416251],[15.9755212829081,46.4157371999931],[15.9745551760353,46.4150162265904],[15.9734428191953,46.4141966227373],[15.9728124926915,46.4136726001531],[15.972488718556,46.4133357153244],[15.972476603831,46.4133347387036],[15.9722541974073,46.4130216430328],[15.971777996037,46.4125758381129],[15.9715777971351,46.4122896335024],[15.9725919222127,46.4122630186226],[15.9734891550465,46.4122463869625],[15.9744254026645,46.4122293258453],[15.9749196185187,46.4122251134796],[15.9754138342621,46.4122208989784],[15.9754559428783,46.4116717194233],[15.9753949393659,46.4111684046415],[15.9753578628573,46.410547923961],[15.9753339527966,46.4099363279638],[15.9753659136711,46.4095402747523],[15.9757641252908,46.4092668757915],[15.9757424589941,46.4087813094108],[15.9758632019449,46.4082584495672],[15.9759107283602,46.4080061262642],[15.9761244256791,46.4075904374857],[15.9763885324913,46.4070843472421],[15.9765005958952,46.4068044813885],[15.9765078514455,46.406489522208],[15.9769097001944,46.4064141134138],[15.9768140131943,46.4061540159684],[15.9764823257657,46.4057879691682],[15.9760332853771,46.4054049289633],[15.9753063581366,46.4047543454251],[15.9751565824766,46.404377745969],[15.9750306043086,46.4038840714788],[15.9749167989567,46.4033362206494],[15.9749134143598,46.403146231418],[15.9749099080047,46.4029494054461],[15.9746253002304,46.4023040425324],[15.974487418211,46.4018643611863],[15.9744029923711,46.401505197788],[15.9742383075304,46.4010207591132],[15.9741144256626,46.4006439374549],[15.9737598254057,46.4004490220188],[15.9735938694127,46.3998926165724],[15.9734572820072,46.3995248993844],[15.9730293134399,46.3995915213548],[15.9728086409292,46.3988827199725],[15.9725879726771,46.3981738280759],[15.972356705146,46.3975999819558],[15.9721403618117,46.3971339733709],[15.9719347880084,46.3965419137094],[15.971903672949,46.3962542716553],[15.9724251869874,46.3963308116387],[15.9731441302585,46.3965406254298],[15.9740427059236,46.3966139485403],[15.9747194491609,46.396644170308],[15.9756154614909,46.3965734596784],[15.9764077784257,46.3965217116295],[15.977329791807,46.3964508555111],[15.9782126362191,46.3963713299542],[15.9791221562319,46.3963365545687],[15.9799537921248,46.3963023494517],[15.9807727489852,46.3962863311629],[15.9817080766954,46.3962333196886],[15.9826555968667,46.3961352103846],[15.9826512367257,46.395892326677],[15.9826036731288,46.3954158900987],[15.9826061789228,46.3948310582396],[15.9825979439371,46.3943722777822],[15.9826119979899,46.3937063728282],[15.9825743703823,46.393058906066],[15.982563875836,46.392474185681],[15.9825774788986,46.3917903801877],[15.9826506398009,46.3915198388893],[15.9828593786308,46.3908342662235],[15.9829554693374,46.3903925829003],[15.9830546274056,46.3901218177982],[15.9832719183712,46.3899130164757],[15.9834034503687,46.3892730919417],[15.983612010041,46.3885785220739],[15.9837727673635,46.3881182874263],[15.9840365505039,46.3876031833981],[15.9842120798252,46.3872417889656],[15.9843855362321,46.3867724469458],[15.9845185038872,46.3862134822745],[15.9852217695929,46.3862794018604],[15.9854072105932,46.3857469752679],[15.9854881686185,46.38518845755],[15.9855819622639,46.38462083199],[15.9856881053344,46.3840171114464],[15.9857921410677,46.3832964466024],[15.9858331244466,46.3826842904092],[15.9859326231617,46.3817118354795],[15.9868548906794,46.3816767984137],[15.9873099959939,46.3816818668858],[15.9873365037102,46.3809888610207],[15.9874041133618,46.3804124625193],[15.9874982041382,46.3798628265496],[15.9875645149216,46.3792145521729],[15.9875575404532,46.3788277367954],[15.988102786042,46.378649652184],[15.988340293895,46.3785417935635],[15.9883567781559,46.378540391487],[15.9884743700424,46.3784869218743],[15.9891749397684,46.378408796758],[15.9895549432728,46.3780144045077],[15.9897601072873,46.3776780263288],[15.9899099409713,46.3773587714308],[15.9899415365323,46.3772800430979],[15.9901067021777,46.3765721599266],[15.990149039848,46.3751964047459],[15.9903254595411,46.3733930247448],[15.9908530878698,46.3732361326349],[15.991583681299,46.3731114872798],[15.9925329413767,46.372917191104],[15.9936283553331,46.3727047025055],[15.9945948219525,46.3724208083076],[15.9954968785413,46.3720120468587],[15.995836037902,46.3718568623404],[15.9960545563325,46.3717507723945],[15.9960977592273,46.3717320419225],[15.9959667999033,46.3716352940213],[15.9953469814487,46.3713093271758],[15.9947082524681,46.3710080836048],[15.9937012160746,46.3704798914407],[15.9927080684106,46.3698419848507],[15.9917460566748,46.3691708700633],[15.9899725167864,46.3682766296545],[15.9883435674562,46.3674907869028],[15.9867307159724,46.3667157584496],[15.9846251315033,46.3658352762331],[15.9820079209786,46.3646633246793],[15.9787977411847,46.3639676601649],[15.9755515790029,46.3630201129004],[15.9737359396,46.3623999418436],[15.9713094656843,46.3623619184273],[15.9686717083097,46.3624649991689],[15.9659613483418,46.362268848029],[15.9635474450165,46.3618290117487],[15.9610812851938,46.3611045346159],[15.9592766069108,46.3601991925421],[15.9584789867925,46.3598442865934],[15.9578078030511,46.3598229000731],[15.9575321491105,46.3598141616564],[15.9567664265462,46.3598711352986],[15.9554216796475,46.3602363267603],[15.9538626286745,46.3608782426437],[15.9514039547591,46.3622670101614],[15.9487596481307,46.3635025142333],[15.9467702989997,46.364606036056],[15.945625954746,46.3660059209147],[15.9450306059746,46.3674771036737],[15.9450041166559,46.3680588064195],[15.9450212145385,46.3690200071855],[15.9452989390639,46.3697339720309],[15.9451763307954,46.3698521280277],[15.9452992556846,46.3697523235307],[15.9454156773992,46.3718818777626],[15.9451592652757,46.3739410070872],[15.943884647689,46.3754208534751],[15.9427554608611,46.3761098103274],[15.9416695616072,46.3770650736382],[15.9382535207685,46.37949610047],[15.9368885317031,46.3803547292601],[15.9322485622401,46.383983482744],[15.9292417582922,46.3866528314266],[15.9265086265737,46.388254537716],[15.9219799317296,46.3888422128677],[15.9012609652383,46.3975298677001],[15.8994282625654,46.399087204389],[15.8980466532596,46.3997271547976],[15.8980582026109,46.3997350544392],[15.898694379375,46.4003679483534],[15.8987676463701,46.4003234668558],[15.8988237916843,46.4003688206156],[15.8992184591146,46.4006995088604],[15.899495326401,46.4009285558849],[15.8999780555855,46.4013547273534],[15.9003797849627,46.4017185551226],[15.9007388270739,46.4020486188476],[15.9011095207391,46.4023435910484],[15.901378583882,46.4025952775784],[15.9012774074877,46.4028640974745],[15.901418915073,46.4030699144695],[15.901777472324,46.4034169831314],[15.9020635755059,46.40376300275],[15.9021733629632,46.4040166634389],[15.90222781539,46.4043060290764],[15.9028396327112,46.4044416443845],[15.9031824254112,46.4044234625241],[15.9035151595018,46.4043947425817],[15.9039772615777,46.4043164149602],[15.9046299111802,46.404262579737],[15.9052859622441,46.4042178908587],[15.9056887463761,46.4041940982163],[15.9061901462468,46.404235111276],[15.9064971715444,46.4044682208377],[15.9067410264606,46.4046642227791],[15.906228353631,46.404971577575],[15.9066573133451,46.4051536067014],[15.9070066196517,46.4052928102365],[15.9075719838033,46.4053630001675],[15.9081130868386,46.405350517075],[15.9088601808232,46.405501040573],[15.9082886317774,46.405834154216],[15.9078218824523,46.4060717840226],[15.9072366471049,46.4063175496377],[15.9067283637108,46.4064981032499],[15.9063628470769,46.4066134640903],[15.9063488271547,46.407329650767],[15.9066301383966,46.4080192941977],[15.9073067795592,46.4076998404766],[15.9077454375202,46.4074849284788],[15.9081777688161,46.407280861498],[15.9085452271074,46.407094402713],[15.9088600920225,46.4068660745952],[15.9093023589749,46.4066186485313],[15.9099002824079,46.4063071828574],[15.9102308197867,46.4061381067919],[15.9103244386188,46.4057612846095],[15.9107984832066,46.4057205320366],[15.9116690553718,46.4058108530062],[15.912047637661,46.4058483209348],[15.9122997979043,46.4056671781022],[15.9126705458805,46.4054221089008],[15.9129295072317,46.4052122997385],[15.9134273266855,46.4053729705162],[15.9139841534014,46.4055232707529],[15.9141355465787,46.4052431518336],[15.9144563135021,46.4049886695578],[15.9150427051782,46.4050559552844],[15.9153442078272,46.4051974052565],[15.9159324096263,46.4053726366274],[15.9166010519496,46.4056911731483],[15.9169031665331,46.4058686922945],[15.9176888606566,46.4061862838366],[15.9182927814143,46.4065143268642],[15.9185428877014,46.4066922592901],[15.9191463853654,46.4070022171047],[15.9194734666389,46.4071165493624],[15.9200517225396,46.4074717805863],[15.9202115617702,46.4076954208379],[15.9206352834858,46.4081418630677],[15.9210638580013,46.4088761703202],[15.9219841871874,46.4086888127557],[15.922346963417,46.4086049137946],[15.9225514411664,46.4091609916874],[15.9227013245251,46.4095646497725],[15.923456387661,46.4096035400789],[15.9243416563285,46.4096503700542],[15.9247972964528,46.4096736772928],[15.9257231050981,46.409810139237],[15.9264533799512,46.409921096866],[15.9273149323407,46.4101030517433],[15.9277985711625,46.41024308165],[15.9285294680168,46.410390099149],[15.9293503372468,46.4104734014474],[15.9300532422963,46.410503675018],[15.9308739607975,46.4105778805826],[15.9314472727507,46.4106361915895],[15.9325291794042,46.4107713268549],[15.9331441198613,46.4109822397525],[15.9337079638139,46.4112475488625],[15.9339486679654,46.4116324564312],[15.9339947479672,46.4120458544179],[15.9340168150476,46.4125765001005],[15.933934527141,46.4130900039501],[15.9338471702645,46.413306646515],[15.9337648797715,46.4138201501975],[15.9337834138588,46.414143892543],[15.9338189236571,46.4146924223946],[15.9339578958322,46.4152131161002],[15.9341239593882,46.4157965676057],[15.9342545399085,46.4165872406984],[15.9343173232414,46.4172165207278],[15.9343116917699,46.4176484247365],[15.9342957953112,46.418233362268],[15.9342024923689,46.418863917316],[15.9345119606623,46.419464190381],[15.9347917304331,46.4198487764161],[15.9357081135333,46.4201831692961],[15.9365693941233,46.420337975404],[15.9373899616913,46.4203942313197],[15.9382365464043,46.4204502678918],[15.9389017959193,46.420552772351],[15.9394377422825,46.4207013204278],[15.940079146044,46.4209299724461],[15.9404295838433,46.4208820159334],[15.9409629063803,46.4208776288063],[15.9422362820027,46.4207861705832],[15.9431453042972,46.420697703741],[15.9438856628424,46.4206286160071],[15.9442500363853,46.420634604951],[15.9444894806732,46.4206083355786],[15.9453148079692,46.4205177536225],[15.9460943399646,46.4204573247879],[15.9470421917856,46.4203505116196],[15.9479127732029,46.4202893163162],[15.9485879237369,46.4202116516117],[15.9494190095786,46.4201237813285],[15.9503414586825,46.4200531398513],[15.9511850773715,46.4199381614513],[15.9521462303833,46.4198491893895],[15.9531329500754,46.4197419121021],[15.9541072606651,46.4196618109209],[15.9551462915982,46.419563166798],[15.9556521694041,46.4194779669984],[15.9556212820872,46.4191993168333],[15.9555756589733,46.4188218223204],[15.9554720361802,46.4181029247521],[15.9553750153776,46.4177618476971],[15.9559742838541,46.4178108218237],[15.9569390092883,46.4179286215784],[15.9578385471561,46.4180380521506],[15.9589201885929,46.4181459487685],[15.9601207919613,46.4183607109688],[15.9610734782349,46.4185326491514],[15.9619578116051,46.4185162164933],[15.9627753648767,46.4184012817975],[15.9635289896601,46.4183499491934],[15.9644244228315,46.4182254393997],[15.9653590319234,46.4181095889241],[15.9660604611238,46.4180495932233],[15.9672560002453,46.4179765078443],[15.968426477488,46.4179576044737],[15.9697254278663,46.4178475393193],[15.9708419569755,46.4177211041354],[15.971881076698,46.4176312141706],[15.9731419527787,46.4175755060128],[15.9744564548233,46.4176092074882],[15.9754962092787,46.4175553574078],[15.9760290123577,46.4175238199748],[15.9766702251784,46.4175094382763],[15.9766377011152,46.4174364800889]]]},"properties":{"fill-opacity":0,"stroke-opacity":1,"stroke":"#ff0000","lov":"1516","lov_naziv":"MARKOVCI","luo":"15","luo_naziv":"Ptujsko Ormoško","povrsina":2640.21},"id":"pregledovalniklovisca.1"}]}