{"type":"FeatureCollection","features":[{"type":"Feature","geometry":{"type":"Polygon","coordinates":[[[15.9444940881367,46.3692263477586],[15.9437816977037,46.3694526592602],[15.9432267874917,46.369585806818],[15.9424025255678,46.3694823884525],[15.9416040170411,46.3693420438399],[15.940935804714,46.3690536986134],[15.940157646019,46.3685459141106],[15.9394628104292,46.3682577791443],[15.9389259152233,46.3678948366969],[15.938259307254,46.3676983231865],[15.937753963772,46.367628962211],[15.9368257695782,46.3676550147398],[15.9362437225808,46.3677516425304],[15.9352908945235,46.3678880090166],[15.9345475868801,46.3678573782748],[15.933987974372,46.3677150277041],[15.9331630020334,46.3675748402846],[15.9326037082581,46.3674508344562],[15.9319396263067,46.3674011864444],[15.9312495291391,46.3673884546943],[15.9307458869977,46.3674109094677],[15.9302446084169,46.3675802657299],[15.9299031434202,46.3677851184387],[15.9297768239946,46.3681534979462],[15.9295445112624,46.368541093104],[15.9293104561677,46.3688184872544],[15.9289686673211,46.369004895666],[15.9285448532996,46.3690450462717],[15.9283392838114,46.3690556225616],[15.9282056272328,46.3689840109112],[15.927774270583,46.3689778847434],[15.9271893964418,46.3689092123245],[15.9265773905762,46.3688039585714],[15.9260162361947,46.3685697209535],[15.9252931017191,46.3681715144215],[15.9242785439748,46.3677941033948],[15.9239791327758,46.3678813660193],[15.9239529423713,46.367854316387],[15.9231691866294,46.3678139517007],[15.9226591869452,46.3678683619343],[15.9223424572168,46.3678303402088],[15.9205750908146,46.3678445826243],[15.9193788964374,46.3677551484661],[15.9187104166047,46.3677605213312],[15.9176131911616,46.3678684799576],[15.9168995220266,46.3680394818799],[15.9159992687951,46.3685095087704],[15.9153864635041,46.3689772277424],[15.9150584499094,46.3693765358982],[15.9140624784984,46.3698142939492],[15.9132535418574,46.370018963972],[15.9124909075668,46.3701243805144],[15.9112966118592,46.3701669242502],[15.9104843660584,46.3701733946649],[15.9091956163714,46.370249777874],[15.9081935526961,46.3703237799405],[15.9067116991414,46.3702695911176],[15.9058978116692,46.3701768938008],[15.9053184219782,46.3698178192597],[15.9047863206595,46.3694254381667],[15.9041570448238,46.3689014754684],[15.9035286375238,46.3684767405662],[15.9033565491422,46.3682399466344],[15.9030653808996,46.3679778213769],[15.902533855943,46.3676183545882],[15.9022902324201,46.3673227426691],[15.9019011227595,46.3669291296188],[15.9017047860168,46.3666002139928],[15.9015073623848,46.3662050878038],[15.901164587372,46.3657119586337],[15.9007268266281,46.3652195766642],[15.90043418667,46.3648582179658],[15.8999531388848,46.3646968179599],[15.8995217762317,46.3646009739609],[15.8991844523227,46.3644383500199],[15.898891828201,46.3640770771819],[15.8985046328617,46.3637497461123],[15.8982140529432,46.3635206231396],[15.8973508352885,46.3633290142038],[15.8962091861803,46.3636023932402],[15.8956406025702,46.3639042930249],[15.8954548343014,46.3642032826895],[15.8954139044976,46.3646333055983],[15.8952782828218,46.3651301987129],[15.8950015757995,46.3656944147871],[15.8946734306046,46.3660935756504],[15.894010657765,46.3664954422838],[15.8936293994723,46.3665314419238],[15.8929596120896,46.3665036550386],[15.8922911426431,46.3665088733579],[15.8917684417647,46.3666784079743],[15.8913419165214,46.3668800299996],[15.8911529230966,46.3670466900914],[15.8910158878837,46.3674114213328],[15.890956418741,46.3675108529659],[15.8908767008388,46.3676439115885],[15.8904564972239,46.368275183111],[15.8900354563345,46.3688074913075],[15.8896087958733,46.3690422171984],[15.8888461229501,46.3691472063998],[15.8879893923096,46.3693192296831],[15.8873227826616,46.3694895914247],[15.8867027662388,46.3695275104024],[15.8863691923,46.3695962253792],[15.8856491190613,46.3693703991715],[15.8849743667323,46.3690451594914],[15.8845850819144,46.3685854502619],[15.8847701150459,46.3682202654818],[15.8851917406585,46.3677212614439],[15.8854268580794,46.3674880353429],[15.8855151557732,46.3670245400824],[15.885604115562,46.3665940589973],[15.8855993090098,46.3662966516198],[15.8855071660426,46.3660153956416],[15.8854481057193,46.3658350109799],[15.8855870240055,46.3655364905252],[15.886009154186,46.3650704087632],[15.8866100736608,46.3645540848993],[15.8866982270256,46.364090589601],[15.8865006749252,46.3637284578313],[15.8859714370073,46.3635011538039],[15.8856291944608,46.3629749543802],[15.8853274602918,46.3620517571958],[15.885267363256,46.3612919656965],[15.8847754302787,46.3604032586222],[15.8838566399129,46.3597492556608],[15.8837046513981,46.3591884699671],[15.8833093439384,46.3583983377659],[15.882582512755,46.3577428413282],[15.8819533362746,46.3572518642718],[15.8811407446224,46.3572251095649],[15.8801857626389,46.3572325546795],[15.8792270675513,46.3570085242613],[15.8785075884204,46.3568156676125],[15.8770743432529,46.3568266702744],[15.8764009581772,46.3567772209089],[15.8761997148899,46.3567472732299],[15.8753494483196,46.3564763140741],[15.8742858088729,46.3556911748282],[15.8739449237757,46.3552970073272],[15.8739216573632,46.3552802705478],[15.8732203518445,46.354773691685],[15.8724954111817,46.3542834836715],[15.8711980461599,46.353797543861],[15.8701388444801,46.3532767576824],[15.8700930895296,46.3532592915387],[15.869011347712,46.352848071542],[15.8681231925323,46.3529189676392],[15.8677713291619,46.3529601462587],[15.8666970511724,46.3530195777368],[15.8657332725221,46.3529755952288],[15.8642187058354,46.3527177682909],[15.8627648740205,46.3521900888512],[15.8614841157171,46.3520329386204],[15.8605615219096,46.3523349918693],[15.8601888381318,46.3527552630954],[15.8599022636551,46.3532811416642],[15.8598322793306,46.3538394901014],[15.8599594820361,46.3544437704812],[15.8601010570583,46.3547216166635],[15.8599103715039,46.3550903136735],[15.8588775325303,46.3550028867153],[15.8581741808353,46.3546884996591],[15.8576979389678,46.3540897150999],[15.8573655789052,46.3536092416795],[15.8572051480512,46.3533792182236],[15.8567149431986,46.3528250699305],[15.8561503521988,46.3525574053645],[15.8559605545381,46.3523683570191],[15.8550323273726,46.3521032285259],[15.8542429284801,46.3518913980969],[15.8533832572804,46.3516054104899],[15.8528999262543,46.3512808012756],[15.8520391334326,46.350913207897],[15.8514399368564,46.3509244191381],[15.8509926611123,46.3512474170139],[15.8502785233107,46.3521165444738],[15.8501625049838,46.3522262724508],[15.8492180084248,46.3528046089007],[15.8485224910965,46.3529322232651],[15.847941497574,46.352861677089],[15.8475031355976,46.3526121076205],[15.8472308776463,46.3521720061748],[15.8471834959112,46.3516283006244],[15.8471820738739,46.3509140287163],[15.8469366184626,46.3503241954787],[15.8462215631407,46.3496640614788],[15.8458630384105,46.349374217354],[15.8455832453054,46.3490838798605],[15.8450377323899,46.3487750822434],[15.8446029503242,46.3485946630405],[15.84400136896,46.3484493927081],[15.843477135881,46.3482560437697],[15.8431394249284,46.3480001366638],[15.842523327483,46.3473406891246],[15.8423345621598,46.3472061330898],[15.8419371006972,46.3469164734136],[15.8416766183535,46.3466123983843],[15.8413971735297,46.346342381506],[15.841128959283,46.3461606332449],[15.840818895135,46.3460878775658],[15.8404728609525,46.3460077378778],[15.8399939143327,46.3459102194638],[15.8397276555543,46.3458387584942],[15.8395155221082,46.3458403161964],[15.8389718732393,46.3458443064291],[15.8385614177083,46.3458840256827],[15.8380727339308,46.3460161776702],[15.8377423402064,46.3460921054469],[15.8371623025445,46.3463167836146],[15.83664921212,46.3465868544062],[15.83625704154,46.3469570764598],[15.836025401728,46.3474178943377],[15.8358870740557,46.3479148278952],[15.8358276782391,46.3483652089218],[15.8357004883257,46.3487151375184],[15.8354677279626,46.3491117227598],[15.835010254141,46.3495466570334],[15.8346817918568,46.3497511308553],[15.8340706178832,46.3499736811921],[15.8337592843384,46.3501343912993],[15.8333365190389,46.3502385110082],[15.8327140146674,46.3502889315064],[15.8322236046012,46.3503108560444],[15.8320376776054,46.3502938549663],[15.831480453908,46.3502795541704],[15.830870799626,46.3502349514287],[15.8302614184755,46.350259801324],[15.8299835562925,46.3500918627183],[15.8294030674956,46.3497161258564],[15.8289464465704,46.3493429969837],[15.8286249680259,46.3491340743988],[15.8285432417993,46.3489877434062],[15.8283258325879,46.3486494967576],[15.8280516711789,46.3480546124908],[15.8278201868662,46.3476614042792],[15.827719181957,46.3474426053352],[15.827302515429,46.3471667095133],[15.8269334408543,46.3468157017654],[15.8268504289287,46.3468506711493],[15.8266658653617,46.3467422405472],[15.8261326900328,46.3465624624],[15.8257605873936,46.3465099977883],[15.8250172152447,46.3464603013529],[15.8241953153504,46.3464845827988],[15.8233475961362,46.3465458425517],[15.8227386586409,46.3466237323112],[15.8219704370639,46.3466843198369],[15.8212815731201,46.346726068042],[15.8206196271231,46.3468042372648],[15.8200908647652,46.3469182458058],[15.8194571939332,46.3471065103988],[15.8189825250749,46.3472935427609],[15.8188329990404,46.3473467070634],[15.8183493938148,46.3475185056489],[15.8179803058984,46.3476680698311],[15.8168965228542,46.347914601755],[15.8155437586996,46.3479059040545],[15.8145345550685,46.3478213268601],[15.8139221748263,46.3476603202009],[15.8126975697725,46.3473568300314],[15.8118704844462,46.3470321507684],[15.8110421802504,46.346615613386],[15.8105850298572,46.346196439456],[15.8099766583202,46.3456979005648],[15.8099683899789,46.3456746565465],[15.8099557470145,46.3456806842157],[15.8099406246077,46.3456683752839],[15.8099342004122,46.3456908236638],[15.8097938271901,46.3457570471452],[15.8095222160946,46.3460067515925],[15.8093603041693,46.3461981872384],[15.8092260841506,46.3464085905737],[15.8090936801128,46.3467333345028],[15.8089885969978,46.3470959428515],[15.8089647075735,46.34734362308],[15.8089939338194,46.3474576799284],[15.8096018833847,46.347662920286],[15.8106765151065,46.3477885539565],[15.811006939562,46.3478432526643],[15.811394929956,46.3479073488147],[15.8115590359079,46.3479345251589],[15.8122216458093,46.3481011257876],[15.8125820029618,46.3483080187801],[15.8126939064427,46.3484596349444],[15.8132261174281,46.349084210876],[15.813452557977,46.3495206705985],[15.8137384304865,46.3502232019561],[15.8137968200669,46.3504892814463],[15.813966138389,46.35073567732],[15.8141067245345,46.3509632935585],[15.8142752648938,46.3512096045237],[15.8143913514121,46.3515896262987],[15.8144225717897,46.351837004941],[15.8143434892569,46.3520850792069],[15.8142386455087,46.3524096325039],[15.8141335847777,46.3527721551107],[15.8140825421047,46.3530011355394],[15.814085606919,46.3531987806086],[15.8140869134035,46.353286763211],[15.814036784349,46.3536298206603],[15.8139596797651,46.3540113978514],[15.8139903333601,46.3542206327301],[15.8142984078991,46.3545611397231],[15.8144668318065,46.3548075410614],[15.8146114509647,46.3552444908834],[15.8146407613922,46.3554155873091],[15.8147284672045,46.3557387689037],[15.8148164548886,46.3560808423632],[15.814850923121,46.356537650564],[15.8148815843328,46.3567470650039],[15.8149666843214,46.3569559115007],[15.8149717788734,46.3572985755397],[15.8150586403749,46.3575646310815],[15.8151164102274,46.3577356144265],[15.8153680264648,46.3580003151933],[15.815481657524,46.3582661794938],[15.8155692431396,46.3585893611481],[15.815797133861,46.3591018308557],[15.8160487624058,46.3593667099226],[15.8164630854135,46.3595351473794],[15.8171557966105,46.3598537354661],[15.8171850482356,46.3599678797796],[15.8170766461151,46.3600448600162],[15.8166655080698,46.3601428966519],[15.8162266955428,46.3602413992699],[15.8160353903093,46.3603189702647],[15.8157897092113,46.3604539706068],[15.8156854250422,46.3608165785653],[15.815854853718,46.3611200121525],[15.8161067745875,46.3614038728322],[15.8165264324053,46.3618770041964],[15.8168624703895,46.3622935097347],[15.8171723122764,46.3627482592582],[15.8174535001575,46.3631461710671],[15.8176759734934,46.3633540331777],[15.8179273462216,46.3635998358872],[15.8182046929171,46.3637310988974],[15.818894624337,46.3638594072493],[15.8194735342764,46.3639504493538],[15.8196410010844,46.3641206440345],[15.8198104633919,46.3644241613376],[15.8198402910531,46.3645762685624],[15.8199269014572,46.3648231580508],[15.820041993452,46.3651841964712],[15.8201029214005,46.3655646071339],[15.8202999407056,46.3658679259971],[15.8204691266308,46.3661523703524],[15.82069483878,46.3665315081824],[15.8209204558661,46.366860712284],[15.8209773434725,46.3670056071364],[15.8207033945306,46.3671027630612],[15.8197729000749,46.3673950958165],[15.8180751200723,46.367883651563],[15.817526635578,46.3680399852171],[15.8170889530152,46.3681573768123],[15.8166521902695,46.3683889334102],[15.816298494445,46.368639149167],[15.8157269100122,46.369043149367],[15.8154005425724,46.3693311351281],[15.8151832240843,46.3695232432181],[15.815021548705,46.3697338482155],[15.8149713432689,46.3700198640199],[15.8149722157628,46.3700283138162],[15.8150027764785,46.3703242818299],[15.8149534214816,46.3706675130938],[15.8148008033307,46.3714874267323],[15.8146144219448,46.371907659574],[15.8145762208148,46.3722320071843],[15.8145471282319,46.3728979996269],[15.8145049042329,46.3735550884252],[15.8144692566666,46.3737802697268],[15.8144419008976,46.374563211819],[15.8144132057206,46.3752561024365],[15.8144347630539,46.375831762832],[15.8144281816418,46.3762546730271],[15.8144485358568,46.3767493680734],[15.8145474132436,46.3772794921163],[15.8145846468404,46.3780349823964],[15.8145408147998,46.3785841170248],[15.8145199018136,46.3789261553247],[15.814501664138,46.3794481162805],[15.8144836899453,46.3799790723953],[15.8144399893728,46.3805372029482],[15.8144107583186,46.3811941983024],[15.8144189184689,46.3817429622795],[15.8143458698844,46.3820673774997],[15.8143809644747,46.3826789291521],[15.8145339909286,46.3833526203129],[15.8147406255171,46.3841338942064],[15.8147353847392,46.3846467650507],[15.814513165013,46.3854400909824],[15.8142118684536,46.3861620028355],[15.8139368282506,46.3868927239892],[15.8138282494164,46.3874603124859],[15.8134701195321,46.3878587319448],[15.8129959144274,46.3883209550683],[15.8121656121884,46.3884438171138],[15.8113614420594,46.3885755747556],[15.8105573998295,46.3887162329306],[15.8097684828176,46.3890007314827],[15.809471324592,46.3891197973082],[15.8087072032195,46.3893232293201],[15.8079429420356,46.3895175701613],[15.8071144664213,46.3897663415564],[15.8066484207005,46.3899045860696],[15.8060404223658,46.3901158958794],[15.8055880337872,46.3902990251368],[15.8050326152237,46.3903551195912],[15.8051203689953,46.3904073145709],[15.8056353417699,46.390748275369],[15.8060244920054,46.3910122061657],[15.8061585475106,46.391091605],[15.8062466948966,46.3911438863058],[15.8064967412172,46.3912943534557],[15.8068579241879,46.3915393148849],[15.8070801312182,46.3916709933668],[15.807441820749,46.3918970555237],[15.8077193482582,46.3920853835282],[15.8081363615064,46.392368094087],[15.8084425215535,46.3925754716935],[15.8089147993444,46.3928577886761],[15.809164860811,46.3930082498491],[15.8095263490297,46.3932722744088],[15.8099437914925,46.3935739590967],[15.8100796824533,46.393477807581],[15.8102737779599,46.3935716213796],[15.810496434791,46.3937413475808],[15.8110499929064,46.3939088168733],[15.8115473859737,46.3940766820923],[15.812128514846,46.3942439504888],[15.8132339614721,46.3945787025044],[15.814146378096,46.394838703126],[15.8146170045205,46.3950067455403],[15.8150592186245,46.3951178571822],[15.8154187645075,46.3952486303971],[15.8157500462385,46.3953412766235],[15.8161098093798,46.3954340785107],[15.8165246181773,46.395564363863],[15.8168836012469,46.3956569889426],[15.8174096329683,46.395824624047],[15.8178513626767,46.3959547121445],[15.8182395509454,46.3961043453952],[15.8190686212396,46.3963268454756],[15.8198985538322,46.396606464693],[15.820590121499,46.3968679970883],[15.8210325171825,46.3969980681039],[15.8216696166644,46.3972601649565],[15.8220582395959,46.3974287658943],[15.8228065203198,46.3977850660374],[15.8231388228075,46.397935084725],[15.8240533500655,46.3983284173913],[15.824303322059,46.3984598622093],[15.8250236488243,46.3987973655049],[15.8252732090473,46.398909827374],[15.8259384903444,46.3992096645765],[15.8264911617223,46.3994149430359],[15.826398180392,46.3994667183029],[15.8282165253084,46.4001398587391],[15.8288771676731,46.4004147005827],[15.8289535088433,46.4004492357276],[15.8289568692903,46.4004478618093],[15.8289796410039,46.4004573235836],[15.8304954847174,46.4004059280448],[15.8330054197931,46.4005087724805],[15.8366205590089,46.4004015874767],[15.840703973138,46.4004120368226],[15.8436063702608,46.400469836308],[15.8453655865834,46.4005489746175],[15.8465127752609,46.4006602390491],[15.8489393308216,46.4010777980699],[15.8511068047727,46.4016672785252],[15.8531575498329,46.4022574988293],[15.8553333161279,46.4033716354261],[15.8575103051577,46.4045664248587],[15.8587502510307,46.4055260126528],[15.8612931133342,46.4077272705384],[15.8641291693606,46.4100069595218],[15.8665538748527,46.4120878916162],[15.8688582489491,46.413927395734],[15.870749863718,46.4154873996477],[15.8709216811003,46.4156166382473],[15.871143656823,46.4154396253284],[15.8717015139425,46.4149947593101],[15.8720927722117,46.4146827279398],[15.8751862168522,46.4134524121693],[15.8790336141317,46.4122163992559],[15.8812435329296,46.4117754498897],[15.8838216406807,46.4108423533821],[15.8854541154905,46.4096885393267],[15.8865987208861,46.4075926253074],[15.8887754283402,46.405130149388],[15.8926420072958,46.4022302408275],[15.8980466532596,46.3997271547976],[15.8994282625654,46.399087204389],[15.9012609652383,46.3975298677001],[15.9219799317296,46.3888422128677],[15.9265086265737,46.388254537716],[15.9292417582922,46.3866528314266],[15.9322485622401,46.383983482744],[15.9368885317031,46.3803547292601],[15.9382535207685,46.37949610047],[15.9416695616072,46.3770650736382],[15.9427554608611,46.3761098103274],[15.943884647689,46.3754208534751],[15.9451592652757,46.3739410070872],[15.9454156773992,46.3718818777626],[15.9452992556846,46.3697523235307],[15.9451763307954,46.3698521280277],[15.9452989390639,46.3697339720309],[15.9450212145385,46.3690200071855],[15.9444940881367,46.3692263477586]]]},"properties":{"fill-opacity":0,"stroke-opacity":1,"stroke":"#ff0000","lov":"1519","lov_naziv":"PTUJ","luo":"15","luo_naziv":"Ptujsko Ormoško","povrsina":4433.85},"id":"pregledovalniklovisca.1"}]}