{"type":"FeatureCollection","features":[{"type":"Feature","geometry":{"type":"Polygon","coordinates":[[[15.8189825250749,46.3472935427609],[15.8194571939332,46.3471065103988],[15.8200908647652,46.3469182458058],[15.8206196271231,46.3468042372648],[15.8212815731201,46.346726068042],[15.8219704370639,46.3466843198369],[15.8227386586409,46.3466237323112],[15.8233475961362,46.3465458425517],[15.8241953153504,46.3464845827988],[15.8250172152447,46.3464603013529],[15.8257605873936,46.3465099977883],[15.8261326900328,46.3465624624],[15.8266658653617,46.3467422405472],[15.8268504289287,46.3468506711493],[15.8269334408543,46.3468157017654],[15.827302515429,46.3471667095133],[15.827719181957,46.3474426053352],[15.8278201868662,46.3476614042792],[15.8280516711789,46.3480546124908],[15.8283258325879,46.3486494967576],[15.8285432417993,46.3489877434062],[15.8286249680259,46.3491340743988],[15.8289464465704,46.3493429969837],[15.8294030674956,46.3497161258564],[15.8299835562925,46.3500918627183],[15.8302614184755,46.350259801324],[15.830870799626,46.3502349514287],[15.831480453908,46.3502795541704],[15.8320376776054,46.3502938549663],[15.8322236046012,46.3503108560444],[15.8327140146674,46.3502889315064],[15.8333365190389,46.3502385110082],[15.8337592843384,46.3501343912993],[15.8340706178832,46.3499736811921],[15.8346817918568,46.3497511308553],[15.835010254141,46.3495466570334],[15.8354677279626,46.3491117227598],[15.8357004883257,46.3487151375184],[15.8358276782391,46.3483652089218],[15.8358870740557,46.3479148278952],[15.836025401728,46.3474178943377],[15.83625704154,46.3469570764598],[15.83664921212,46.3465868544062],[15.8371623025445,46.3463167836146],[15.8377423402064,46.3460921054469],[15.8380727339308,46.3460161776702],[15.8385614177083,46.3458840256827],[15.8389718732393,46.3458443064291],[15.8395155221082,46.3458403161964],[15.8397276555543,46.3458387584942],[15.8399939143327,46.3459102194638],[15.8404728609525,46.3460077378778],[15.840818895135,46.3460878775658],[15.841128959283,46.3461606332449],[15.8413971735297,46.346342381506],[15.8416766183535,46.3466123983843],[15.8419371006972,46.3469164734136],[15.8423345621598,46.3472061330898],[15.842523327483,46.3473406891246],[15.8431394249284,46.3480001366638],[15.843477135881,46.3482560437697],[15.84400136896,46.3484493927081],[15.8446029503242,46.3485946630405],[15.8450377323899,46.3487750822434],[15.8455832453054,46.3490838798605],[15.8458630384105,46.349374217354],[15.8462215631407,46.3496640614788],[15.8469366184626,46.3503241954787],[15.8471820738739,46.3509140287163],[15.8471834959112,46.3516283006244],[15.8472308776463,46.3521720061748],[15.8475031355976,46.3526121076205],[15.847941497574,46.352861677089],[15.8485224910965,46.3529322232651],[15.8492180084248,46.3528046089007],[15.8501625049838,46.3522262724508],[15.8502785233107,46.3521165444738],[15.8509926611123,46.3512474170139],[15.8514399368564,46.3509244191381],[15.8520391334326,46.350913207897],[15.8528999262543,46.3512808012756],[15.8533832572804,46.3516054104899],[15.8542429284801,46.3518913980969],[15.8550323273726,46.3521032285259],[15.8559605545381,46.3523683570191],[15.8561503521988,46.3525574053645],[15.8567149431986,46.3528250699305],[15.8572051480512,46.3533792182236],[15.8573655789052,46.3536092416795],[15.8576979389678,46.3540897150999],[15.8581741808353,46.3546884996591],[15.8588775325303,46.3550028867153],[15.8599103715039,46.3550903136735],[15.8601010570583,46.3547216166635],[15.8599594820361,46.3544437704812],[15.8598322793306,46.3538394901014],[15.8599022636551,46.3532811416642],[15.8601888381318,46.3527552630954],[15.8605615219096,46.3523349918693],[15.8614841157171,46.3520329386204],[15.8627648740205,46.3521900888512],[15.8642187058354,46.3527177682909],[15.8657332725221,46.3529755952288],[15.8666970511724,46.3530195777368],[15.8677713291619,46.3529601462587],[15.8681231925323,46.3529189676392],[15.869011347712,46.352848071542],[15.8700930895296,46.3532592915387],[15.8701388444801,46.3532767576824],[15.8711980461599,46.353797543861],[15.8724954111817,46.3542834836715],[15.8732203518445,46.354773691685],[15.8739216573632,46.3552802705478],[15.8739512891985,46.3550849862799],[15.8741358481755,46.3544357820646],[15.874348969855,46.3539483074569],[15.874433458212,46.3535427903935],[15.8743890294939,46.3532012390814],[15.8739145775113,46.3527820909275],[15.8741457070948,46.3526093786407],[15.8744269373619,46.3523193199984],[15.8748256632605,46.3520642603344],[15.8755444386078,46.3515099335205],[15.8756833233909,46.3512569501469],[15.8764107708286,46.350441634382],[15.8767951892383,46.3501057931379],[15.8769607666743,46.3498975891547],[15.8770218376938,46.3496541979901],[15.877172550832,46.3493291448746],[15.8773366850761,46.3490309799846],[15.8774625644648,46.3487780941204],[15.8777833065013,46.3485237123516],[15.877974425076,46.3482883193364],[15.878191523632,46.3480527264581],[15.8788505941486,46.3478317312382],[15.8797520075612,46.3481396992766],[15.8808117633042,46.3477896491709],[15.8816124156207,46.3474865729872],[15.8824332882067,46.3476331923007],[15.8831948611211,46.3481310623684],[15.8837592655275,46.3484865871296],[15.8842006655924,46.3484651803832],[15.8846398881948,46.3483088316453],[15.8856451821532,46.3478062066398],[15.8858750909841,46.3475615027606],[15.8861854129863,46.3474691266557],[15.8866244764203,46.347303774347],[15.887101490106,46.3470751459104],[15.8877196475167,46.3467374540171],[15.8885361499639,46.3466140591352],[15.8888889331093,46.3467372771916],[15.8891796829348,46.3470409194755],[15.8896234041467,46.3471634280435],[15.890235858839,46.3472756241542],[15.8909766141198,46.3472878487201],[15.8915606050756,46.3472473080677],[15.8920397925843,46.3471535992354],[15.8923525904214,46.3472141385251],[15.8927815702622,46.3472286941727],[15.8932042506346,46.3468565101472],[15.8934221571728,46.3466748648042],[15.8937329010256,46.3466094563282],[15.8940674247655,46.3464089038747],[15.8941539565978,46.346138312831],[15.8945011726892,46.3459196655396],[15.8946508913238,46.3455406139916],[15.8950630521621,46.3453214567966],[15.8954906970917,46.3452551283613],[15.8961288281442,46.3453490975433],[15.8965671087458,46.3451387273506],[15.8968102589484,46.3449208889464],[15.8972373097989,46.3448185700327],[15.8974022046513,46.3445743529504],[15.8980366479358,46.344443411694],[15.8983312889689,46.3441891770009],[15.8986276962127,46.3440428934612],[15.8989577623828,46.3435724470889],[15.8991878889378,46.3433457087988],[15.8993794874997,46.34314626455],[15.8999204731619,46.3428630962816],[15.9001756857158,46.3425821756113],[15.9002990822117,46.3421853293341],[15.9003719968505,46.3418788519654],[15.9005756889348,46.3416253274983],[15.9009714084381,46.3411993437501],[15.9009271212697,46.3408757951191],[15.9009350859947,46.3405698290632],[15.9019097011097,46.3405891369811],[15.9024140485847,46.3404501102898],[15.90273521796,46.3402316432973],[15.9031080437805,46.339994773085],[15.9038711219107,46.3397908059552],[15.9040104580969,46.3395827697736],[15.9044773098282,46.3395340919467],[15.9050725630713,46.3393944243239],[15.9054859724816,46.339256193806],[15.9058856483151,46.3390730848021],[15.9059564475972,46.3386406602101],[15.9060808339637,46.3383067796678],[15.9063631597666,46.3380976073526],[15.9062673364114,46.3378014605936],[15.9061706224235,46.3374513378298],[15.9063720417185,46.3370628633958],[15.9062465285525,46.3365420228481],[15.9061115963373,46.3362371886862],[15.9061716318064,46.3359398065059],[15.9058542785809,46.3356004289466],[15.9051949462248,46.3350029305523],[15.9050874830775,46.3347878492939],[15.9048588484663,46.3343218062735],[15.9046958778367,46.3338912318875],[15.9041958341748,46.333499311991],[15.9041391407532,46.3332118509485],[15.9042524668763,46.3329950227299],[15.9046489864265,46.3326230022456],[15.9050323652456,46.3322420872037],[15.9050665771399,46.3319539069714],[15.9053585954253,46.3315467224193],[15.9058949801876,46.3309936465118],[15.9064319486671,46.3304765520896],[15.9070086098875,46.3300041260947],[15.9072762671701,46.3296960986469],[15.9075182464863,46.3294062687151],[15.9074869175239,46.3290826190997],[15.9077020278555,46.3287390189485],[15.9082668843317,46.3283476547429],[15.9087821537604,46.3280916394991],[15.9091811399227,46.3278724453643],[15.9095208613762,46.3279957039606],[15.9100599799407,46.3283872899202],[15.9103107442946,46.3286282174557],[15.9107924243018,46.3286963589058],[15.9113497809242,46.3286289375241],[15.9118741580925,46.3289216634697],[15.9122919586884,46.3290532882646],[15.9128152957764,46.3292829479819],[15.9131563814781,46.3294871594364],[15.914255623629,46.3299822168449],[15.914609405538,46.3301683280785],[15.9148713844184,46.3303011897677],[15.9153778567889,46.330297136126],[15.9157317946451,46.330492239805],[15.9159703578405,46.3307782384456],[15.9162708520288,46.3308837968447],[15.9168256666264,46.3306633272596],[15.9176447219656,46.3307107397262],[15.9182034450544,46.3307242485541],[15.9186400174778,46.3304238350552],[15.9189094190381,46.3302237324248],[15.9194376419341,46.329967565109],[15.9197583804447,46.329731058926],[15.9202746645525,46.3295379639799],[15.9206118547802,46.3295082580007],[15.9209087269538,46.3293979011873],[15.9210337570147,46.3291089844657],[15.9216114786049,46.3289941138281],[15.9222308845424,46.3284694425376],[15.9225624706307,46.3281068804298],[15.9227389786999,46.3277905548606],[15.9230853591679,46.3275358379375],[15.9229500539883,46.3272130317835],[15.922231931501,46.3269939868287],[15.9216995192577,46.3269982799704],[15.9211545742752,46.3270296631405],[15.9208038100544,46.3270234913448],[15.920318210115,46.3267214969465],[15.9199392144672,46.3265805920397],[15.9200643942917,46.3263006722132],[15.9196958245355,46.3260067305259],[15.9194177041488,46.3256850688007],[15.9190473340547,46.3252831732948],[15.918705049733,46.3250071014193],[15.9184557712246,46.3248561520216],[15.918411245154,46.3245236139328],[15.9180276043732,46.3241038272832],[15.9181370944982,46.3236620861143],[15.9180533160244,46.323311868646],[15.9178264057794,46.3229448057933],[15.918316061873,46.322715944438],[15.9188975098673,46.3225403264137],[15.9193296439458,46.3219790270714],[15.9199055227599,46.3214795499239],[15.9198496651747,46.3212460724363],[15.9195347258107,46.3210506675944],[15.9191308576241,46.3209729402497],[15.9186841227915,46.3206616290142],[15.9183030661284,46.3203947744824],[15.9182977981522,46.3200799151648],[15.9180988240969,46.3198295917535],[15.9184430691705,46.3194489450093],[15.9187097078387,46.3190869151918],[15.9188620497108,46.3188787555924],[15.9189861637611,46.3185358647903],[15.9189161248146,46.3182305231774],[15.9191540759837,46.3177067733218],[15.9192393861323,46.3173731913089],[15.9193219833217,46.3168776815248],[15.9192748981078,46.3163922115763],[15.9192418513598,46.3159696090743],[15.9190918286426,46.3155479469139],[15.9186972222889,46.3152453035886],[15.9187681937454,46.3148308622194],[15.9185789080464,46.3143825232146],[15.9181971436233,46.3140706877652],[15.9178834549274,46.313947245715],[15.9173474104646,46.3137266178655],[15.9173273629078,46.3133039103306],[15.9171124302812,46.3128737689605],[15.9170028615932,46.3125327541608],[15.9169305881255,46.3120924709272],[15.916821623105,46.3117874398777],[15.916687746716,46.31154558886],[15.9168209175621,46.3113097840501],[15.9169762665995,46.3109404626498],[15.9174477271549,46.31040584546],[15.9176495190641,46.3102055677707],[15.9171544849838,46.3099583379035],[15.9167387716709,46.3099436774716],[15.9161559498161,46.310029413914],[15.9158291571545,46.3098970739562],[15.9154996660667,46.3096028049737],[15.9151439156306,46.3092907508037],[15.9149033532316,46.3088788045614],[15.9150920771837,46.308517405958],[15.9146618953478,46.3084128817072],[15.9146936459494,46.3079807617396],[15.91550336152,46.3074884317232],[15.9157310198326,46.3071267202069],[15.9161954834565,46.3069520522538],[15.9165808574026,46.3067060387956],[15.9163662574669,46.3062938873123],[15.9163733834079,46.3059429389736],[15.9166020808208,46.3056441977721],[15.9169762658876,46.3055062391624],[15.9170359108825,46.3051908583554],[15.9173060975596,46.3050447355372],[15.9174917868601,46.304503412795],[15.9176424607345,46.3042052955228],[15.9180258540558,46.3038423291683],[15.9175422798162,46.3036482722443],[15.9171218067601,46.3033457405385],[15.9165673342457,46.3027923595384],[15.916223701911,46.3024262279439],[15.9161158112335,46.3021841676419],[15.9160447601345,46.301815851028],[15.91646768705,46.301488561864],[15.9169116119519,46.3008641944966],[15.9171255036478,46.3004576040732],[15.9174171178116,46.3000413923686],[15.9172004352791,46.2995032976103],[15.9171017702007,46.2990362335652],[15.9170140050753,46.2984522080519],[15.9169945681903,46.2980654833543],[15.9167274843826,46.2976177639982],[15.9166454084993,46.2973664997874],[15.9169577114352,46.2966352202664],[15.9169248468848,46.2962216114504],[15.9170726279058,46.2957435731573],[15.9174654893584,46.2951735959352],[15.9172794389308,46.2949141691576],[15.9167641352791,46.2943694713392],[15.9165458313837,46.2937324183086],[15.9165270003001,46.2933816772882],[15.9164918901987,46.292833127653],[15.9164217702818,46.2925277838489],[15.9165069102153,46.292185206554],[15.9158444600799,46.2921545261],[15.9154525882585,46.2920047115659],[15.914528647342,46.2918592429131],[15.9138366561083,46.2916128535334],[15.9140894673722,46.2912059570491],[15.9143219621408,46.2903583579557],[15.9133321185377,46.2901503360116],[15.9130944962028,46.2899093086682],[15.9128694767154,46.2896611623516],[15.9128540160399,46.2896523785329],[15.9118294061024,46.2893034545098],[15.9115154604124,46.2893271914029],[15.9113001970207,46.2891971878839],[15.9110854000626,46.2891030792143],[15.9108556388932,46.2889909149412],[15.9107186572507,46.2889325344434],[15.9106295196992,46.2888635158666],[15.9102582840823,46.2886017734138],[15.9098848013668,46.2885489634823],[15.9097553740027,46.2885391067882],[15.909644415178,46.2885316222342],[15.9094073857743,46.2884426357709],[15.9091708911468,46.2884408277933],[15.9090589323194,46.2884591726943],[15.9089482695881,46.2884774172089],[15.9086423824822,46.2885173671486],[15.9084662406194,46.288421596746],[15.9082719715315,46.2883440545276],[15.9081459658923,46.2882899024201],[15.9081308996957,46.2882892123416],[15.9080671312405,46.2882864798358],[15.9076528508287,46.2882384852597],[15.907500236669,46.2882076665795],[15.9070382594914,46.2880690862896],[15.906956948701,46.2880728803744],[15.906689838136,46.2880953327555],[15.9064958730357,46.2880831950238],[15.9063317098777,46.2880288036172],[15.9061430328125,46.2880146439745],[15.90582545688,46.288022558883],[15.9057217806176,46.2879607594793],[15.9054932929586,46.2877989095747],[15.9054278368759,46.287780353824],[15.9053733872351,46.2877445261522],[15.9051542629985,46.2876467517246],[15.9050134831588,46.2875305422114],[15.9047550104506,46.2872656398747],[15.9045807911443,46.2871598613223],[15.9045196210977,46.2871177883455],[15.9043699501904,46.2870368275769],[15.9036684507384,46.2869870413973],[15.9035357342983,46.2872425322306],[15.9033944892699,46.287381935942],[15.9033113659096,46.2874569998841],[15.9032755666286,46.2875055978949],[15.9031553668107,46.2876700272979],[15.9031172883023,46.2877694776554],[15.9031021624666,46.2878835921376],[15.9030689373598,46.2880335686116],[15.903030427421,46.2881225855463],[15.9029392280705,46.2882117486846],[15.9028326267443,46.2882797998956],[15.9025422303087,46.2884650065296],[15.9022196011054,46.2887028306984],[15.9020991788797,46.2888145369057],[15.9019812182256,46.2889022909164],[15.9019290065309,46.2889236663759],[15.9012832846181,46.2892452812739],[15.9012351290757,46.2892686938036],[15.9011552954223,46.2893072914156],[15.9008337822816,46.2891943006416],[15.9001493511288,46.2889361623542],[15.8997144796531,46.2887718769016],[15.8995354797788,46.2886750355742],[15.8988686731512,46.2883510711101],[15.8988235167214,46.2876771731907],[15.8990950456575,46.2875360308803],[15.8994456991165,46.2873527882],[15.8994754793223,46.2872454867792],[15.8994772967393,46.2868808144075],[15.8993214902524,46.2867020053426],[15.8990498139839,46.2863579282685],[15.8989920810064,46.2861527953209],[15.8990213529794,46.2859906148289],[15.8990619284851,46.2859323535337],[15.8990464842934,46.285924377466],[15.8989727362465,46.285597007958],[15.898788123815,46.2855530233496],[15.8985370632937,46.2855406011704],[15.8984594486421,46.2855242063468],[15.8984082008692,46.2854932986683],[15.8982932125442,46.2854134969452],[15.8981719145187,46.2852175902929],[15.8981003796622,46.2848982103446],[15.8982643947601,46.2845794091618],[15.8979215753976,46.2844232108164],[15.897743716719,46.2841330069161],[15.89759622055,46.2840092832686],[15.8974829651953,46.2838207804104],[15.8972328285786,46.2837611125887],[15.8971286942981,46.283757611089],[15.8966609039416,46.2837440061216],[15.8965486700754,46.2837053883954],[15.8964841264689,46.2836388650531],[15.8963315511227,46.2835615153972],[15.8961870581285,46.2835341268565],[15.895925208358,46.2835199840669],[15.8956257137053,46.2834892207661],[15.8951631449564,46.2832064612066],[15.8950554208747,46.2830382463874],[15.8948986725716,46.2829833306205],[15.8945411683754,46.2829522087741],[15.8947939502115,46.2829515802507],[15.8946573589999,46.2829311457824],[15.8944650822585,46.2829178047861],[15.893393936558,46.2829242905549],[15.893127242308,46.2828673523304],[15.8929237886631,46.2826852177777],[15.892775840476,46.2825567228799],[15.8926118948203,46.2824898938423],[15.892504084011,46.2824596050453],[15.892234061166,46.2822853666451],[15.8919393699284,46.2821822183484],[15.8918752085133,46.2821227972333],[15.8914083276699,46.2819643080325],[15.8911749789934,46.2819226704871],[15.89090564155,46.2818943589182],[15.8907556622517,46.2818562995385],[15.8905039545463,46.2816265812795],[15.8903954542492,46.2815615664924],[15.8900978679576,46.2814314442487],[15.8899952328117,46.2814240557652],[15.8897140310016,46.2812478290453],[15.8894832566,46.2811484956614],[15.8892609766307,46.2811009198805],[15.888889555144,46.2811069572636],[15.8885926867997,46.2811171825595],[15.8881960439305,46.2811604823681],[15.8878575641359,46.2811573532026],[15.8876070566506,46.2809849316872],[15.8874422720128,46.2807931299809],[15.8873114621485,46.2807203678522],[15.8871477288292,46.2806900581394],[15.8870090161155,46.2806904146321],[15.8868903786692,46.2806803583656],[15.8867234457766,46.2805884417233],[15.8864873596592,46.280529361177],[15.8863955326224,46.2805161274187],[15.8859595505346,46.2804613845539],[15.8855904966261,46.2804449897287],[15.8853233922208,46.2803129994209],[15.8850923229926,46.2801462700633],[15.8848260180203,46.2800476521885],[15.8846259716655,46.2799942270502],[15.8844426671679,46.2799812496361],[15.8843286521997,46.2799276982448],[15.8842480156237,46.2798759579544],[15.8840480037232,46.2798246009044],[15.8837706994161,46.2798809982296],[15.8829056130784,46.2800290289012],[15.882676623657,46.2800639968876],[15.8821256914205,46.279953444157],[15.8820072630035,46.279964344797],[15.881930223814,46.2799749260461],[15.8818491412558,46.280008481412],[15.8815395886862,46.2800689908722],[15.8813647130695,46.2801203638217],[15.8812274517568,46.2800978491027],[15.8810749798461,46.2800735620184],[15.8808441177648,46.280097024288],[15.8806704985415,46.2801296722209],[15.8803990652172,46.280188355421],[15.8801906450555,46.2801465934562],[15.8799862795322,46.2800743892076],[15.8795501420182,46.2798552433876],[15.8792610195205,46.2798788807353],[15.8790454598509,46.2799179668699],[15.8787664541232,46.2799819228204],[15.8787029395925,46.2799943773331],[15.878678011395,46.2800178717922],[15.8786347110122,46.2800772265108],[15.8779587620884,46.2804745192856],[15.8777720918966,46.2805270569746],[15.8776296415049,46.2804964802553],[15.8774769416689,46.2804335019644],[15.8766898259614,46.2798742433687],[15.876633868148,46.279847950623],[15.8763256464398,46.279772487354],[15.875801828302,46.2797664242765],[15.8753467286463,46.2796264934799],[15.8752714882299,46.2796034067643],[15.875115280132,46.2795561073811],[15.8750094410267,46.2795508893073],[15.8749225348579,46.2795448964421],[15.8746946880454,46.2795295450832],[15.8744512317447,46.279511793432],[15.8744111674278,46.2795382818491],[15.8743957596061,46.2795485665797],[15.8743640581356,46.2795623948739],[15.8742845413836,46.2794988525999],[15.8742574664151,46.2795098563386],[15.8742350308174,46.2795188452007],[15.8738404904998,46.279678053649],[15.8737521618278,46.2796233956595],[15.8734421775217,46.2794530171272],[15.8736086989133,46.279047138596],[15.8736188236322,46.2790228586333],[15.8731889515899,46.2789182655922],[15.8729149351051,46.2789696629902],[15.8727279029613,46.2789258346924],[15.872693755625,46.2788183083166],[15.8725590229666,46.27873395279],[15.872602089089,46.2786104517682],[15.8725414206215,46.2785160837961],[15.872525937459,46.2785379753024],[15.8723625779082,46.2787673921241],[15.872019784776,46.2786958698954],[15.8718041889377,46.2786345333659],[15.8718086111677,46.2784797469679],[15.8718913328645,46.2783284122289],[15.8719679153536,46.2783054250216],[15.8719998592054,46.278298703367],[15.8719224784405,46.278230464578],[15.8714728732816,46.2781001034894],[15.8714722974072,46.2781210714698],[15.8714708621224,46.2781942300464],[15.8712936619021,46.278320192517],[15.8710930316338,46.2781959397924],[15.8711513233523,46.2781405224492],[15.8711705609365,46.2781016876911],[15.8711818998792,46.2780802778083],[15.870756863132,46.2779607033331],[15.8707363762336,46.277822391694],[15.8705618401766,46.2776823740476],[15.8705559316948,46.277571482946],[15.8704252651672,46.2775386481719],[15.8704249519596,46.2773959541686],[15.8703002226859,46.2773610946533],[15.8701511585924,46.2772070267021],[15.8700000276419,46.2770042991542],[15.8698519147615,46.2769758251898],[15.869779328141,46.2768822661864],[15.8696577030341,46.2768384750737],[15.8695916072502,46.2767778864874],[15.8692935233368,46.2766607598245],[15.8691222200749,46.2767001205685],[15.8691213771358,46.2767863206426],[15.8689634039978,46.2769630578055],[15.8688555034718,46.2769830420053],[15.8687457921876,46.2770033997526],[15.8687702452295,46.2768593478983],[15.8687569822717,46.2767508518614],[15.8686426648444,46.2765864409718],[15.86853573903,46.2765695287353],[15.8683884207531,46.2764844541256],[15.8681607627957,46.2764061975216],[15.8680680595365,46.2764024927791],[15.8679178123776,46.2763455112247],[15.8677071469121,46.2763161597393],[15.8676729988115,46.2761996345767],[15.8675606442063,46.2761510923015],[15.867501272609,46.2760641795],[15.8674255261746,46.276033173869],[15.867346864255,46.2760640914002],[15.8672177500063,46.2760717288126],[15.8669252790133,46.2760137553085],[15.8666936217878,46.2759696256899],[15.866664163938,46.2759200042214],[15.8668070520015,46.2757984477639],[15.8667673924756,46.2756531728995],[15.8666659356126,46.2756126446485],[15.8664991600936,46.2755193476424],[15.866533738159,46.2755069392773],[15.8661294065621,46.2754478321134],[15.865781372163,46.2755854270158],[15.8654473130732,46.2757948930827],[15.8651260836704,46.2759952638306],[15.8647677701309,46.2763128784427],[15.8644629045469,46.2767290575516],[15.8640793413633,46.2770918471262],[15.863580701679,46.2775634716676],[15.8632481762959,46.2778718893771],[15.8629156471922,46.2781803061286],[15.8625444734753,46.278507007947],[15.8621992457546,46.2788336028459],[15.8620338223658,46.2790417869294],[15.8617411905639,46.2794128800885],[15.8616289316754,46.2797016380436],[15.8613800003765,46.2803693099651],[15.8611536414668,46.2808298746375],[15.8610171178184,46.2812267816042],[15.8608136029253,46.2814892341484],[15.8603744202539,46.2816185014108],[15.8601697744686,46.2818089833598],[15.8597449702256,46.282028112437],[15.8595944732326,46.2823621420015],[15.8594954540194,46.2826687926426],[15.8594349381171,46.2829481620307],[15.8593759690415,46.2833264893869],[15.8590626892811,46.2840396256785],[15.858631538368,46.283853922463],[15.8580836095176,46.2836690941325],[15.8573956193294,46.2836562611691],[15.8563149957399,46.2834304317593],[15.8557827159701,46.2834164227366],[15.8554775554475,46.282986839005],[15.8551131231108,46.2829176773512],[15.8550020415112,46.2824506516064],[15.8546777971011,46.2824620732092],[15.8543675068809,46.2825363703011],[15.8539423940485,46.2827374855954],[15.8533975650798,46.2827505509211],[15.8526322926767,46.282774255091],[15.851464371608,46.2827829590621],[15.8508673610039,46.2827784064549],[15.8503462545169,46.2826473248469],[15.8498669981139,46.2827048718218],[15.849912741519,46.2831453965243],[15.8491655804759,46.2835018406829],[15.8488461917689,46.283828113017],[15.8485371267421,46.2839743630632],[15.847854826041,46.284330407165],[15.8473363472446,46.2843702398886],[15.845967692517,46.2848212397942],[15.8452048779197,46.2850068262769],[15.8452345439067,46.2844127893591],[15.8445755397257,46.2845976041497],[15.8436532829407,46.2845414326139],[15.8425225861051,46.2844328064419],[15.8420191456281,46.2846074627698],[15.841696676523,46.2847357985337],[15.841144080586,46.2850907575762],[15.8409947011506,46.2855057292945],[15.8407935535685,46.2859301687097],[15.8402391515953,46.2861681725392],[15.8397179000529,46.286028046386],[15.8392767069188,46.2860312859343],[15.8384645551543,46.2863881369711],[15.8385590962823,46.2866303688897],[15.8388895494788,46.287023822939],[15.8391026685509,46.2873821482851],[15.8394828378963,46.2876312799854],[15.8399399005557,46.28780786769],[15.8400932347782,46.2884995278646],[15.8403575873188,46.288812488172],[15.8407902308467,46.2890972186825],[15.8410462951472,46.2897161440893],[15.8408811720478,46.2899512865787],[15.8405053839795,46.2899900387017],[15.8398434091576,46.2899859060441],[15.839834557219,46.2902558878925],[15.8392860765155,46.2900349848093],[15.8388480101521,46.2902451359578],[15.8386831506867,46.2904982677635],[15.8382166531168,46.2905466749481],[15.8377441192771,46.2901992464754],[15.8373444291516,46.2903731217434],[15.8370831447834,46.2911128075967],[15.8371531039509,46.2914451927098],[15.8370935617898,46.2917965204412],[15.836693448383,46.2919434947753],[15.8363261341042,46.2925399990029],[15.8361772464197,46.2929909491537],[15.8359340879703,46.2932176578139],[15.835938878996,46.2935325255576],[15.8355864399609,46.2942548795641],[15.8356436897382,46.2946053527429],[15.8354684237966,46.2950295029376],[15.8351339939677,46.2952298850664],[15.834962550822,46.2959059286245],[15.8349834605361,46.2964276145458],[15.8344107593139,46.2971785645763],[15.8338536216915,46.2972456097568],[15.8335173979016,46.2973290363486],[15.8333791334344,46.2976269523581],[15.8330433158783,46.2977373662324],[15.8327614604748,46.297982434283],[15.8325076047677,46.2983621659929],[15.8324211130494,46.2986507065826],[15.8323769667253,46.2991638691383],[15.8325246423042,46.2994776963669],[15.8323364939453,46.2999109323948],[15.8321607771304,46.3003080887548],[15.8313043977422,46.3003413102037],[15.8302131528259,46.3002862588009],[15.8300266149443,46.3008274457804],[15.8298738478396,46.3010264933324],[15.8296041247311,46.3012173921523],[15.8297773484918,46.3015130430154],[15.8297554659726,46.3017831180852],[15.8291051643001,46.30256159553],[15.8286945486612,46.302879474649],[15.8283477459138,46.3031250022919],[15.8278202979,46.3034437246199],[15.8266100041198,46.3032455454165],[15.826137973978,46.3029340548906],[15.8257058366745,46.302685254756],[15.8253790320138,46.3025346619086],[15.8248984938042,46.3025201354871],[15.8245345075867,46.3024867721645],[15.8236739062866,46.3022410534485],[15.8230764148393,46.3022183646427],[15.8227121634744,46.3021670929846],[15.8226640160649,46.3024193612221],[15.8222809407576,46.3028449856016],[15.8218571681852,46.3031539375381],[15.8216148479116,46.3034435896921],[15.8215289640962,46.3037771034035],[15.820752149501,46.3039176404752],[15.8199757338318,46.3040851610134],[15.8190055429059,46.3043170449145],[15.8183472829818,46.3045736799692],[15.8183407370539,46.3050055925492],[15.8182674110999,46.3053121121915],[15.8180123494746,46.3056198421733],[15.8176542403875,46.3059822917507],[15.817384852028,46.3062001507448],[15.8172978672284,46.3064616913728],[15.8170295459399,46.3067515194781],[15.8165394694056,46.3069709532506],[15.8163613424321,46.3072151495965],[15.8160509932767,46.3072983398726],[15.8158341861139,46.3075608058446],[15.8159290664493,46.3078300447302],[15.8164279811849,46.3082043655478],[15.8167468989397,46.308696933657],[15.8173464633714,46.3088456014899],[15.8177398007049,46.3091037076694],[15.817861460852,46.3094267365252],[15.8164435987728,46.3099357643685],[15.8154272980987,46.3105415103308],[15.8136359757101,46.3098064249736],[15.8128888590762,46.3103727141914],[15.8119365993849,46.3116510536501],[15.8110204987578,46.3117325020837],[15.8101698579197,46.3125986641585],[15.8121232517177,46.3133326524368],[15.8124122722188,46.3146395100721],[15.8144213120889,46.3154851684215],[15.8153580207723,46.3167873128972],[15.8154185685637,46.3172356606155],[15.8149435259584,46.3179496449563],[15.8138213808299,46.3187056632101],[15.8134713835876,46.3205780375967],[15.8127351944795,46.3218921821824],[15.8110216058428,46.3228020878894],[15.8087033817167,46.3229682208785],[15.807530039815,46.3239114999454],[15.8061482694048,46.3253798718003],[15.8041777659866,46.3271889527674],[15.8042520662513,46.3285721042542],[15.80459884724,46.330140299304],[15.8059148906053,46.3315519525321],[15.806538766626,46.3336043939086],[15.8079552937093,46.3344917695899],[15.8098504433655,46.3348896223723],[15.811549119942,46.3365976543423],[15.811714828186,46.3368582952304],[15.8119836258642,46.3369399702523],[15.8119436017151,46.3370354443425],[15.811754061581,46.3372272598243],[15.8116603726716,46.337418214676],[15.8115798260594,46.3375141562174],[15.8115398008001,46.3376096301639],[15.8113583661098,46.3378051662434],[15.8112345546373,46.3378830603426],[15.8106705195751,46.3383394374016],[15.8106167240663,46.3384350086388],[15.8104663723624,46.3389850804992],[15.8105929103349,46.3397067445011],[15.8107677773545,46.3398660138157],[15.8109001566575,46.3399279651352],[15.8110380142122,46.3399650453165],[15.8111494075454,46.340030924002],[15.8112871356329,46.3400680048009],[15.8112749361814,46.3400863555676],[15.8114936098434,46.3401507529238],[15.8108637066702,46.3404851470316],[15.8108569265581,46.340501030091],[15.8114359647835,46.3413471526753],[15.8115997905275,46.3413830581991],[15.8116928580566,46.3414744383654],[15.8117251353854,46.3415311611594],[15.8123792464415,46.3417518941852],[15.81249480683,46.3417830129578],[15.8126410222229,46.3418401854126],[15.8127065643872,46.3418623024133],[15.8140704592772,46.3424646759104],[15.8141549360255,46.3424757707273],[15.8142993661351,46.3425262059105],[15.8144212622105,46.3425901171879],[15.8145444943698,46.3426739924758],[15.8149247706371,46.3428418687014],[15.8150965480373,46.3428878793093],[15.8153725106424,46.3429335966227],[15.8157930603815,46.3430400921579],[15.8161615927729,46.3433088160509],[15.8162492281508,46.3436891295021],[15.8163624766541,46.3438787005341],[15.8165715939986,46.3440676768186],[15.8167253749054,46.3442570479847],[15.8168815541479,46.3445986334299],[15.8169205714703,46.3453602325172],[15.8169648480314,46.3455503856202],[15.8170846678651,46.345744587441],[15.8173000905109,46.3459288387689],[15.8173706173644,46.3460234343932],[15.8174909894729,46.3461237916715],[15.8176710588833,46.3462981282745],[15.8178637942742,46.3464592381725],[15.8181274049994,46.3467032441171],[15.8184170049277,46.3469822422364],[15.8188329990404,46.3473467070634],[15.8189825250749,46.3472935427609]]]},"properties":{"fill-opacity":0,"stroke-opacity":1,"stroke":"#ff0000","lov":"1521","lov_naziv":"PODLEHNIK","luo":"15","luo_naziv":"Ptujsko Ormoško","povrsina":5323.09},"id":"pregledovalniklovisca.1"}]}