<?xml version="1.0" encoding="utf-8" ?>
<kml xmlns="http://www.opengis.net/kml/2.2">
<Document id="root_doc">
<Schema name="pregledovalniklovisca" id="pregledovalniklovisca">
	<SimpleField name="lov" type="string"></SimpleField>
	<SimpleField name="lov_naziv" type="string"></SimpleField>
	<SimpleField name="luo" type="string"></SimpleField>
	<SimpleField name="luo_naziv" type="string"></SimpleField>
	<SimpleField name="povrsina" type="float"></SimpleField>
</Schema>
<Folder><name>pregledovalniklovisca</name>
  <Placemark id="pregledovalniklovisca.1">
	<Style><LineStyle><color>ff0000ff</color></LineStyle><PolyStyle><fill>0</fill></PolyStyle></Style>
	<ExtendedData><SchemaData schemaUrl="#pregledovalniklovisca">
		<SimpleData name="lov">1502</SimpleData>
		<SimpleData name="lov_naziv">VITOMARCI</SimpleData>
		<SimpleData name="luo">15</SimpleData>
		<SimpleData name="luo_naziv">Ptujsko Ormoško</SimpleData>
		<SimpleData name="povrsina">2222.23</SimpleData>
	</SchemaData></ExtendedData>
      <MultiGeometry><Polygon><outerBoundaryIs><LinearRing><coordinates>15.9813990337082,46.5460561354502 15.982105424588,46.5457038736514 15.9823573550553,46.5455669374345 15.9825847861444,46.5450117675465 15.9826792023513,46.5447811768342 15.9827342762155,46.544646560601 15.9828401916861,46.5440056144322 15.9828966177202,46.5439820976269 15.9830767670864,46.5439070451502 15.9831167560324,46.5438903271776 15.9836017708085,46.5436643849863 15.9838416590586,46.5435111747191 15.9842511060887,46.5431950114795 15.9846307657508,46.5429263366661 15.9848327946952,46.5427492486503 15.9849167374174,46.5426756513365 15.9853245107013,46.5423181130703 15.9853567265597,46.5422898553232 15.985551570753,46.5421194855823 15.9861450260695,46.5418135157259 15.9863095329848,46.5417321152424 15.9862920152036,46.5417223697531 15.9862743654345,46.5417125354306 15.9869693077298,46.5412154025809 15.9875478566636,46.5408505346095 15.9881444418739,46.5404381843847 15.9883427506606,46.5401434432824 15.9885873349185,46.539568139622 15.988641512226,46.5393852150101 15.988670661318,46.5391020117576 15.988683964426,46.5389729717361 15.9886911550728,46.5388806917438 15.9887126291832,46.5386056519735 15.9887513177654,46.5384817006462 15.9887581795577,46.5382348573753 15.9887940962082,46.5380731431605 15.9887829164997,46.5378666718154 15.9887862657692,46.5377208036971 15.988743686209,46.5372856335709 15.9888806364872,46.5368435132863 15.9887360534981,46.5360391838085 15.9888587526927,46.5354944424173 15.9888869824854,46.5351535769431 15.9890275148066,46.5348731890448 15.9893078717396,46.5345249248583 15.9895388426742,46.534292966906 15.9899275704603,46.534061802489 15.9901856611364,46.5338948357994 15.990404650697,46.5337427820313 15.990416498606,46.5337347621946 15.9905988438356,46.5336108256782 15.9907792041447,46.5334924841213 15.9908294029267,46.533442746426 15.9909532360881,46.5333201259091 15.9912459882021,46.5331884841079 15.9915698604234,46.5330405573418 15.9917019931011,46.5329801224066 15.9917536771179,46.5329547529453 15.9918131145782,46.5329256275112 15.9920550148949,46.5328223148673 15.9926538404472,46.5325681760076 15.9928298652074,46.5324913443984 15.9931245740579,46.5323531130597 15.9933803002436,46.5322361822413 15.9938479413741,46.5320019798161 15.9940953586074,46.5318870988978 15.9942564880297,46.5318014876327 15.9944585930908,46.5316825013595 15.9944680094535,46.5316770213649 15.9945963388397,46.531601411416 15.9946656682761,46.5315644611608 15.9952789696226,46.5313620045912 15.9957075254672,46.5312154942679 15.996113296548,46.530742684151 15.9962549686721,46.5304274592809 15.9962975838181,46.5304339257152 15.9963025531055,46.5304347821177 15.9963113790073,46.5304184208928 15.9963190664094,46.5304039589282 15.9964043462492,46.5303839627341 15.996420183287,46.5303803159878 15.9964391767613,46.5303710636778 15.9965167064183,46.5303335910079 15.9965369950085,46.5303238775542 15.9968189359469,46.530187187367 15.9968951699374,46.5301501755746 15.9969064105089,46.530144679478 15.997120675701,46.5300354790345 15.9972019117297,46.5299940149601 15.9976951074954,46.529875903509 15.9979412425049,46.529855672549 15.9980335257622,46.5298480297234 15.9984415796102,46.5298144188693 15.998770939443,46.5297973282581 15.9989430333388,46.5294004125924 15.9989938630253,46.5292790506065 15.9990874095902,46.5290560106199 15.9991938122957,46.5288090165089 15.9993054488174,46.5285418235505 15.9993862467011,46.5283274417078 15.9994981705982,46.5277846715733 15.9995236721142,46.5276612814245 15.9995541938158,46.5275557511894 15.9997002742053,46.5272478607746 15.9999274623146,46.5267925219652 16.0002191703135,46.5264224487304 16.0006532778107,46.5259990370502 16.000984028591,46.5254203423507 16.0012378780051,46.525083346397 16.0015393961545,46.5247373854174 16.0017266689713,46.5244094283622 16.0018009087968,46.5242291103164 16.0018682844036,46.5239874036049 16.001897392506,46.5237415336136 16.0019086775101,46.5235967648104 16.0020129936206,46.5232517200246 16.0020709331956,46.5230144143231 16.0020602216329,46.5226020008157 16.0021032846005,46.5224700890106 16.002149069936,46.5222877707516 16.0021629350519,46.5220990744575 16.002144896097,46.5218906846004 16.0020912730584,46.5216254762472 16.0020019633845,46.5210071826072 16.001961265276,46.5207572456094 16.0019708690266,46.5204785277279 16.0019930720378,46.5201691100218 16.0019676248366,46.5198554313491 16.0019776700197,46.5196007312633 16.0020229801988,46.5193855784634 16.0020629038044,46.5192602618351 16.0022592151258,46.5188863402317 16.0024763116119,46.5186789485607 16.0030497911307,46.5182129197891 16.0030686683392,46.5181976394535 16.003042482054,46.5181840138826 16.0029177415132,46.5181194304107 16.0026333954885,46.5179723949627 16.0025731320975,46.5179412541484 16.0025606304248,46.5179347060292 16.0026586423283,46.5176940795713 16.0027029784486,46.5175891469554 16.0029124393418,46.517562119162 16.0018360837237,46.5173860361876 16.00003533408,46.5172359822647 15.9985469235649,46.5177867308786 15.9970592396936,46.5183788394245 15.9956225259017,46.5184738562981 15.9941236002314,46.5184452387183 15.9917147664608,46.5178035289356 15.9889434687384,46.5169992701316 15.987259645795,46.5166823711464 15.9837708162365,46.515966859704 15.9811780534353,46.5150781054204 15.9797749508206,46.5136827485557 15.979572478252,46.5124014348188 15.9777003988405,46.5115893781713 15.9755632427937,46.5093309604746 15.9751203263392,46.5077207823565 15.9750454356096,46.5059592861271 15.9733542615412,46.5048491670446 15.9713146615753,46.5039243497714 15.9698282531591,46.5019314611321 15.9688379146328,46.500633232153 15.9674830196019,46.5011305348341 15.966994433725,46.5010053810489 15.9668529813956,46.5008239394806 15.9667871177152,46.5005554883979 15.966351400156,46.5003768931045 15.9661620862424,46.5000455165341 15.9659274789832,46.499907865956 15.965967545242,46.4989407185826 15.9657313957642,46.4986273707437 15.9657218683921,46.4980966328345 15.9654972387637,46.4979185908772 15.9652714962429,46.4976775794114 15.9649788750452,46.4973381656297 15.9649588468803,46.496942469995 15.9652933812442,46.4967057270193 15.9656269572289,46.4964150095993 15.9658191582582,46.4962334482207 15.9658259721781,46.4958825106115 15.965536223433,46.4957050185586 15.9657396960094,46.4954243959509 15.9654493147512,46.495211011272 15.9650566404163,46.495106362181 15.9646833563209,46.4953614252338 15.9640422546968,46.4959426341093 15.9637607759848,46.496232907937 15.9633218725468,46.4964615286395 15.96311758951,46.4966971690896 15.962743650385,46.4969162435487 15.96252554351,46.497107014669 15.9621905185173,46.4973167628798 15.9617064945866,46.4972038738625 15.9614626480035,46.4974128532179 15.9611678048674,46.4976852390756 15.9607323364653,46.4981027562407 15.9600350968899,46.49845949086 15.9597339095368,46.4983720494069 15.9594760744039,46.4985271603345 15.9590430430295,46.4983508538297 15.9586103306347,46.4981925368499 15.9580745172983,46.4980980603776 15.9576389668121,46.4977778189157 15.9570488725843,46.4975668321401 15.9568474848253,46.4972266341229 15.9565583887427,46.4970851016082 15.9560451744763,46.49679258429 15.9559354495557,46.4964786091441 15.9556949956035,46.4961387355562 15.9555066473284,46.4957984261467 15.9552790687237,46.4954495371279 15.9551421974437,46.4950728094146 15.955213892039,46.4947033367223 15.9551556748207,46.4943619397497 15.9549698558141,46.49416555906 15.9546126637535,46.4938536485258 15.9542038488821,46.493569248315 15.9538604766263,46.4933022047438 15.9531538219232,46.4931191605991 15.9528765252194,46.4929055449443 15.9522365753358,46.4928119986099 15.9515832872615,46.492700475845 15.9515081211892,46.4921252977856 15.9509577865814,46.4919409394442 15.950432566376,46.4917024781444 15.9496127927143,46.4917542722303 15.949750740168,46.4914472311785 15.9492934950443,46.4913790518414 15.9488351296913,46.4912389045303 15.9488298104833,46.4909330530318 15.948746971922,46.4906639222863 15.9483388353493,46.4904153931252 15.9479846755124,46.4902743782933 15.9475393471064,46.4901341177118 15.9470417675833,46.4899852911374 15.946413344645,46.489990493033 15.9463946648064,46.4897997327151 15.9463852478137,46.4895947705576 15.9442224139186,46.4894076068483 15.9427035627323,46.4890825711957 15.9403042933088,46.4888321441793 15.9378066675844,46.4884812578716 15.9332525924819,46.4879107664782 15.9318692492382,46.4878869580038 15.9314075698896,46.4888684153517 15.9310338064671,46.4903311205247 15.9307185288661,46.4917107563829 15.9305586705602,46.4928550266224 15.9303571750633,46.493903278064 15.9300993004715,46.495144701519 15.9299258273902,46.4966608336125 15.9296061335254,46.4977926356978 15.9292236511519,46.4986885978241 15.9294141685185,46.4983165567974 15.9303557048928,46.4986138973128 15.9306440098182,46.4987049397547 15.93133764553,46.4989421203634 15.9313081108696,46.499226753362 15.931416330672,46.4992545722686 15.9312780243754,46.5005549429047 15.9312779250813,46.5023040333758 15.9310175484844,46.5060404096984 15.9309354447067,46.5071691098215 15.93093080472,46.5073399987756 15.9308818209604,46.5079054029298 15.9307549594896,46.5096490450478 15.9305245658806,46.5124277220179 15.9297659533421,46.5140295803625 15.9300039248416,46.5144425823127 15.9312898892685,46.5166984354809 15.9315295199618,46.5172071474634 15.9313087116595,46.5178153357936 15.929711721544,46.519040928249 15.9275605776942,46.520302932331 15.9271988833116,46.5207845890508 15.927210696387,46.5214866098931 15.9276200876609,46.5238452410244 15.9280850251136,46.5267461104556 15.928145670689,46.5303522835468 15.9277860899226,46.5309615896271 15.9269658008959,46.531670265791 15.9255972477742,46.5327663704394 15.9244092724302,46.5336056682786 15.9238212236351,46.5343763220485 15.9225471214133,46.5355992921177 15.9218655101419,46.5362829707643 15.9215860134168,46.5367080753077 15.9213882495744,46.5373485352778 15.9213094763017,46.538086911895 15.9211383835634,46.5387630538903 15.921313287569,46.539175500463 15.9212470567687,46.5396843560607 15.9215504476899,46.5399923035029 15.9215936665948,46.540234870274 15.9215109366641,46.5407394504106 15.9213872675223,46.5411363080644 15.9212114497203,46.5415335855598 15.9211769042157,46.5418037692377 15.9210404759553,46.5422097260421 15.9209686438799,46.5425881720276 15.9211554219868,46.5428385797317 15.9215377582701,46.5430874117601 15.9223115173371,46.5433510806926 15.9226785390509,46.5434650796868 15.9232012462752,46.5435328368227 15.9236069250016,46.5436195302869 15.9240604799386,46.5434539238547 15.9248026806419,46.5433938544377 15.9252838551323,46.5433269851473 15.9258439932528,46.5432954620963 15.9263637951527,46.5431922882057 15.927095097951,46.543258337992 15.9279714954992,46.5434220814153 15.9286121565959,46.5435248442141 15.9291741364146,46.5436012520652 15.9296945489732,46.543534045466 15.930140578444,46.5436923625638 15.9305832286247,46.5436527747831 15.9317395357186,46.5434093536216 15.9322982844432,46.5432968386454 15.9327668498272,46.5432480343296 15.9330116263179,46.5430750978623 15.9336202275622,46.542836213884 15.9339774627533,46.5427585336789 15.9344363083491,46.5425235671032 15.9350591454885,46.542347537083 15.9353829041037,46.5422189340618 15.9356658507019,46.5419916986236 15.9363949823157,46.5419317508081 15.9368092171452,46.5417573287937 15.9373561400478,46.5417168607139 15.9382018459476,46.5416199585916 15.9387965264264,46.5414153491932 15.9390157119536,46.5411814312415 15.9392336089155,46.5409636278053 15.9392803250387,46.5406483543564 15.9395373295665,46.540430319139 15.9391426700599,46.5402266325695 15.9391063601897,46.539633138336 15.9393095095642,46.5393165803393 15.9393692848205,46.5390101963763 15.9393096940778,46.5385788366849 15.9391223825673,46.5383014722027 15.9395626543137,46.538126916269 15.9400842416357,46.5381315375115 15.9406700776244,46.5380817368432 15.9411915106412,46.538077447416 15.94165940058,46.5379926247089 15.9416776961097,46.5375426312131 15.9416044312785,46.5370753977365 15.9415842677891,46.5366707050749 15.9415865722864,46.5360498128205 15.9415786420636,46.5355910382178 15.9415309847518,46.5350966031539 15.9415770611071,46.5347453462536 15.9416476518105,46.5343039188726 15.9416945294915,46.5340066364592 15.9415844977747,46.5336746583444 15.9415141933778,46.5333783405582 15.9412963121937,46.5328403219433 15.941161304231,46.532571526957 15.9409881265544,46.5323570270165 15.941478615067,46.5320739979874 15.9420013903545,46.532150665564 15.9426420994474,46.5322623463498 15.9433613293612,46.5323913696985 15.9441466704327,46.5325738240276 15.9445289954214,46.5320757498979 15.9448380761342,46.5318572723523 15.9453619465077,46.5319968935943 15.945681559315,46.5316343768363 15.9458967382876,46.531263725982 15.9459832916363,46.5309931041251 15.9469503173144,46.5311290521224 15.9476860171163,46.5314557530695 15.948237557817,46.531776868616 15.9489459192216,46.5319401350571 15.9497163556913,46.5320147124077 15.950486951135,46.5320982801151 15.9512814169791,46.5320555979937 15.9516331871359,46.5320436749701 15.9517426386534,46.5315929208907 15.9519166571708,46.5311146387286 15.9519758547467,46.5307722650107 15.9526036903785,46.5308929940299 15.9526087236136,46.531180851929 15.952550945157,46.5316041859516 15.9524246647234,46.5318301592446 15.9525209376653,46.5321172573266 15.9527070367931,46.532322635355 15.9528198079231,46.5328075268129 15.9527863681908,46.5331316925595 15.9528101015374,46.5337432817233 15.9533465724761,46.5338557708148 15.9539054922441,46.5337611422756 15.9545934961618,46.5335934588427 15.9551370105104,46.5333639998558 15.9552098555208,46.5330574980829 15.9554878414182,46.5332980916304 15.9556890419815,46.5336202978812 15.9561495195101,46.5338593648744 15.9564640894583,46.5339556103846 15.9570692207257,46.5342654388828 15.9573582007233,46.5343889766121 15.9577885098944,46.5343943710073 15.9584372466748,46.5342179964042 15.9587888705458,46.5341970557451 15.9593275757012,46.534435454168 15.9593499457657,46.5344990543172 15.9594099042085,46.5346686821223 15.9593914389444,46.535100686493 15.9590855666728,46.5354991136503 15.958881596574,46.5357617327925 15.9586766746129,46.5359703783603 15.9586167225265,46.5362677772861 15.9586470676855,46.5365104382338 15.9588484309534,46.5368327273797 15.9589593661664,46.5372096655258 15.9591092514725,46.5375772800837 15.9592963448354,46.537836620056 15.9597727485892,46.5382366725105 15.9602350718852,46.5378376501541 15.9605436453502,46.537592144029 15.9607867208152,46.5373291935304 15.9610884436102,46.5374346210298 15.9616643920045,46.5375647330806 15.9618559453259,46.5380759434576 15.9617057107614,46.5384280842316 15.9622149026617,46.5384687861676 15.9626808539303,46.5382759314316 15.9629470004808,46.5378508387052 15.9633469685762,46.5376134624333 15.9639582102614,46.5375273410221 15.964106537858,46.5378049935628 15.9644112958343,46.5380813270558 15.9645971416042,46.5382686939971 15.9647061786856,46.5385286833471 15.9648273256249,46.5387435861388 15.965163708365,46.5385967984476 15.9659331428768,46.5386082969978 15.966532792224,46.5386032314784 15.9672896703802,46.5386418175827 15.9682406778567,46.5386067806556 15.9689167815846,46.5385020899616 15.9695779236794,46.5382894697993 15.9703042407326,46.5380763829056 15.9707065843211,46.5379740036136 15.9710776778695,46.5383127344053 15.9713317742747,46.5386704513034 15.9713883797165,46.5389128858127 15.9716828728699,46.5393422336941 15.9719216946823,46.5395741229616 15.9719189322606,46.5401499453734 15.9719493390705,46.5403926021583 15.9718670760571,46.540897215125 15.9718720523308,46.5411760753979 15.9720450583681,46.5413725361185 15.9715795959949,46.5415924153259 15.9719001787795,46.5420215408523 15.972151859359,46.5422353265731 15.9725323332824,46.5423670450512 15.9724190182841,46.5425929298165 15.9727120938114,46.5429413151698 15.973477570473,46.542727875311 15.9743053264189,46.5423518664832 15.9749101686105,46.5426346121957 15.9751617334038,46.5428483922695 15.975686591277,46.543032850342 15.9761472355359,46.5432718351482 15.9765686115419,46.543502156509 15.9769656922224,46.5438316492101 15.9772959776205,46.5440717427175 15.9775886077938,46.5443931287677 15.9779459431539,46.5446869703015 15.9783815063843,46.5449801416048 15.9787906761145,46.545255543393 15.9792006587882,46.545575921002 15.9798296947398,46.5457504712686 15.9803172334004,46.5460251962163 15.9808938034913,46.5461821965705 15.9810958017886,46.5463277425807 15.9813990337082,46.5460561354502</coordinates></LinearRing></outerBoundaryIs></Polygon></MultiGeometry>
  </Placemark>
</Folder>
</Document></kml>
