<?xml version="1.0" encoding="utf-8" ?>
<kml xmlns="http://www.opengis.net/kml/2.2">
<Document id="root_doc">
<Schema name="pregledovalniklovisca" id="pregledovalniklovisca">
	<SimpleField name="lov" type="string"></SimpleField>
	<SimpleField name="lov_naziv" type="string"></SimpleField>
	<SimpleField name="luo" type="string"></SimpleField>
	<SimpleField name="luo_naziv" type="string"></SimpleField>
	<SimpleField name="povrsina" type="float"></SimpleField>
</Schema>
<Folder><name>pregledovalniklovisca</name>
  <Placemark id="pregledovalniklovisca.1">
	<Style><LineStyle><color>ff0000ff</color></LineStyle><PolyStyle><fill>0</fill></PolyStyle></Style>
	<ExtendedData><SchemaData schemaUrl="#pregledovalniklovisca">
		<SimpleData name="lov">0206</SimpleData>
		<SimpleData name="lov_naziv">BEGUNJŠČICA</SimpleData>
		<SimpleData name="luo">02</SimpleData>
		<SimpleData name="luo_naziv">Gorenjsko</SimpleData>
		<SimpleData name="povrsina">5101.58</SimpleData>
	</SchemaData></ExtendedData>
      <MultiGeometry><Polygon><outerBoundaryIs><LinearRing><coordinates>14.2375611257709,46.3145717786067 14.2372571135727,46.3144535973363 14.237012366301,46.3143221350329 14.2367287552628,46.3141563134473 14.2365529857319,46.3140321484571 14.236131522941,46.3138448912658 14.2356111768925,46.3136910708117 14.2352079314179,46.3136132477738 14.2346865072492,46.3135277944898 14.2339277728464,46.3134953619798 14.232646056637,46.3134800192936 14.2315909979431,46.3134866093292 14.2306930747321,46.3135283463329 14.2298635471397,46.313618491986 14.2291127629573,46.3137227482998 14.2281144664921,46.3138937076109 14.2271350332132,46.3141262364761 14.2267875369762,46.3142946535944 14.2264003757301,46.3144765669798 14.2261030775428,46.314583870874 14.2257174549358,46.3146563866088 14.2251933701434,46.3147689899953 14.2245712517207,46.3148263132644 14.2241665991645,46.3148577575238 14.2237914195051,46.3148893104668 14.2233355929396,46.3150502337149 14.2230179704245,46.3151984186742 14.2228479379763,46.3153680296147 14.2227356568558,46.3156406007782 14.2226813859696,46.3159886926773 14.2226554596577,46.3164257794125 14.2226850622659,46.3171229022381 14.2226577172636,46.3176692949663 14.2226307259519,46.3181815007654 14.2225779029579,46.3184271244572 14.2224255622501,46.3187403599482 14.2222133420288,46.3191737500715 14.2220932945761,46.3193979527654 14.2219344217214,46.3196128039803 14.2217372320597,46.3197824082872 14.2212262436795,46.3201028273396 14.2207811940484,46.3203517160881 14.2202052715611,46.3206716880077 14.219681792868,46.3209560262374 14.2193030595368,46.3211064828286 14.218976520587,46.3212392103839 14.2182987496105,46.3214145221409 14.2180260684621,46.3214126575752 14.2175587433801,46.3214004633684 14.2171955536146,46.3213709858989 14.2169251995418,46.3213607672679 14.2164922558395,46.3212962606703 14.2160512655127,46.3210951201612 14.2154734548132,46.3208179128346 14.2150635424335,46.3205145039066 14.2148398621656,46.320301084643 14.2146651000863,46.3201086044707 14.214287051755,46.3196482308991 14.2142008788403,46.3194631965818 14.2141232373087,46.3193806986775 14.2139854757538,46.3193524003068 14.2138278142481,46.3193444785062 14.2135120015376,46.3193628201569 14.2130675432665,46.3194144648788 14.21278064907,46.3194807785462 14.2125324101506,46.3195952227055 14.212083340036,46.3199679410645 14.2116043657181,46.3203608750341 14.2111546934125,46.3207746126696 14.2105859063986,46.3212353011804 14.2102470340645,46.3214926194925 14.2099189798735,46.3216747951725 14.2095620059396,46.3218089949933 14.2094229930621,46.3218763224431 14.2092735202751,46.3219846044971 14.2091225703176,46.322195353938 14.2090113566752,46.3223791166392 14.2088317829927,46.3225213791235 14.208682800184,46.3225954745302 14.2084649647896,46.3226622552656 14.2081880816103,46.3227082031062 14.2077542497287,46.3227051979418 14.2069067851714,46.3226583856498 14.2062685614718,46.3226365024196 14.2055684096333,46.3225596624966 14.2051797706509,46.3224849841723 14.2048046386451,46.322383406944 14.2042610946265,46.3222536650257 14.2035497934136,46.3220507747048 14.2032655617295,46.3219498255642 14.2027744887239,46.3217754563087 14.2021803240884,46.3215553797684 14.2019472517552,46.3215087673503 14.2017270337529,46.3214712413765 14.2014803436406,46.3214591720533 14.2010067500265,46.3214763771406 14.2003746950872,46.3215402471776 14.2000287621214,46.3215925302 14.1998991030267,46.3216321102518 14.1996127836737,46.3217194482773 14.1992463151997,46.3218261980279 14.1990266454846,46.3220091914397 14.1990147141894,46.3221593606657 14.1990802744116,46.3223921269498 14.199028070421,46.3225967168723 14.1988660132572,46.3228894291814 14.1986753464521,46.3231135622335 14.1984744098987,46.3233649743721 14.1981746148874,46.3236361165055 14.1978052338621,46.3239410488753 14.197605489866,46.3241104136216 14.1973078839409,46.3242313160608 14.1969807699413,46.3243451726382 14.1963659136819,46.3245799975621 14.1959889498373,46.3247276901635 14.1954430681693,46.3249698329584 14.1949368291095,46.3251917387233 14.1942433028873,46.3254054847192 14.1939858621378,46.3254787965911 14.1937683688124,46.3255114524475 14.1935906532274,46.3255238748945 14.1934716499889,46.32557090047 14.1934214011277,46.3256319966787 14.1934101263627,46.325727557051 14.1934085197593,46.3258368613206 14.1933477272032,46.3259525859008 14.1932178203838,46.3260609849468 14.1930582340607,46.3261828500824 14.1929493998656,46.3262094333331 14.1928509376659,46.3262019004593 14.1927124955386,46.3262282744711 14.1926226675246,46.3262959287171 14.1925917519043,46.3263846024322 14.1926386867716,46.3265488622543 14.1927053592953,46.3267133513836 14.1928707986344,46.3268647720464 14.1932224215048,46.3270995604876 14.1934182450947,46.3271897440842 14.1935447404378,46.3273136276147 14.1936596308043,46.3275467447334 14.1937730460053,46.3278891668892 14.1939247077298,46.3283069848774 14.1940054415485,46.3295305385192 14.1942142299432,46.3307549943495 14.1943773055614,46.3310773421147 14.1944892987551,46.3315085552952 14.1945539778405,46.3318096060387 14.1945504673747,46.3320487258054 14.1945077765691,46.3322670560341 14.1944469495325,46.3323759429901 14.1943275317789,46.3324502278797 14.1941686307747,46.3325243243586 14.1939312990412,46.3325704263958 14.1936647269055,46.332582222509 14.193517001635,46.3325675049677 14.1933404681308,46.332497971248 14.1930465254456,46.3323660681392 14.1925195450507,46.3319797885768 14.1920619670503,46.3315733934821 14.1916438459559,46.3311605276095 14.1910972476317,46.3307672648598 14.1905112074407,46.330380468109 14.1897574862478,46.3299857323443 14.1891210030786,46.3296737872277 14.1881501235549,46.3292979241127 14.1872287787241,46.3289019812786 14.1867683282502,46.3286937518743 14.1863758265348,46.328554292625 14.1859874590374,46.3284864788943 14.1857558745849,46.3284610774356 14.1853899516799,46.3284912206958 14.1847967597729,46.3286250994679 14.1842523872318,46.328751046077 14.1836981706515,46.3288837576596 14.1830934562586,46.3290843942628 14.1825479842235,46.3292922890665 14.1820125538262,46.3294797395662 14.1813981874641,46.329673550266 14.18095308026,46.3297523268754 14.1804609484459,46.3297967554289 14.1803704603601,46.3298028546863 14.1798269860444,46.3298672460486 14.1795584087304,46.3300224996506 14.1791202285528,46.3303063641848 14.1787616928002,46.3305360963451 14.1782541081557,46.3308398825857 14.177856289801,46.3310556538777 14.1775293003085,46.3311557799237 14.1769087624924,46.3312911304891 14.1762961354443,46.3314184372285 14.1756312072877,46.3315773035402 14.1750528899478,46.3317287834258 14.1745845222234,46.3318411067605 14.1742778134191,46.3319306632811 14.1741386089234,46.3319974965097 14.1739812197278,46.3321161118193 14.1737637127571,46.3324058683647 14.1736328091582,46.3326803254477 14.1735418749473,46.332982962472 14.1735043237762,46.3331821580741 14.1734318026666,46.3334091720012 14.1733252762591,46.3335999513871 14.1731202113461,46.3338219580194 14.172945722858,46.3339283920199 14.1727202631736,46.333986682065 14.1725184456108,46.3339931391903 14.1723171772788,46.3339717987156 14.1721106077149,46.3339144308687 14.1717132371,46.333899586771 14.1714883794895,46.3339179313652 14.1711994699409,46.3339717099154 14.170875410366,46.334065090267 14.1705909464146,46.3342027530309 14.1703521744909,46.3343766452927 14.1702115622983,46.3345272270438 14.1701460787054,46.3346743951573 14.170107969602,46.3349095741739 14.1700439038719,46.3353321554792 14.1699653898092,46.3359540987777 14.1699375697171,46.3362732058634 14.1699166729692,46.3365124684533 14.1698845173119,46.3367317655794 14.1698114943794,46.3369906233657 14.1696626220345,46.3373087613776 14.1694556640378,46.3376624658872 14.1691038649905,46.338059023666 14.1689745057054,46.3382376667237 14.1686653332483,46.3384867996866 14.1682810999256,46.3387514007663 14.1675889438395,46.3391733687258 14.1668860737833,46.3395473895678 14.1663171467472,46.339834570566 14.1655110844243,46.3401678831416 14.1651744453407,46.3402994833113 14.1657250004685,46.3407682044144 14.1658725488313,46.3408809354932 14.1660017963986,46.3410182750538 14.1660483398976,46.3411012983192 14.166059534997,46.341151044227 14.1660529320498,46.3411922929779 14.1660284024337,46.3412335009498 14.1659677088939,46.3412950486034 14.1658714189565,46.3413481491483 14.1656307871089,46.3414704641415 14.1654563175007,46.3415560133515 14.1653595241731,46.34164212932 14.1653227929959,46.341699712851 14.1653035463351,46.3417863948217 14.1653022237386,46.3418732976066 14.1653129158353,46.3419560594382 14.1652758694783,46.3420343340878 14.1652210903232,46.3421083405762 14.1651302039412,46.3421903607806 14.1650275583986,46.3422682463263 14.1649193167826,46.3423211688139 14.1648112626457,46.3423617664777 14.1646913184641,46.3423897711457 14.1645357774256,46.3424093281945 14.1643982250032,46.3424248778051 14.1642129375323,46.3424442170265 14.1640933106185,46.342459897296 14.1639853163262,46.3424879885832 14.163889085471,46.3425369491949 14.1637209636229,46.3425977100391 14.1635703884696,46.3426834311162 14.1634017644579,46.342785574687 14.1630160103975,46.3430184768327 14.1626973736258,46.3431691854107 14.1624806258773,46.3432833012953 14.1621316036642,46.343466895217 14.1619022072218,46.3436264428655 14.1617628813601,46.343757769555 14.1616775230211,46.3438770756991 14.1616031008593,46.3440543136013 14.1615212522819,46.3443348741718 14.1614280214446,46.3445781030228 14.1613456615358,46.3448834918071 14.1612034221952,46.3452049960092 14.1609472070045,46.3455628219081 14.1607826462691,46.3457890619708 14.1605695806382,46.3460521038996 14.1603624903938,46.3463235566399 14.1602018721633,46.3466738053813 14.1600294892079,46.3470116413723 14.1598496093983,46.3474485704724 14.159715358162,46.3476377834775 14.1595329220233,46.34785975162 14.1593203484338,46.3480897752566 14.1591137532766,46.3483280298511 14.1590093767158,46.3485174616977 14.1589346841601,46.3487113404458 14.1588842799687,46.3488887531053 14.1588873385431,46.3490789750718 14.1588961826491,46.3492816556382 14.1589331291444,46.3495919687114 14.1589532822502,46.349768910661 14.1590124291359,46.3497839210566 14.1590848363818,46.3498323183434 14.1592724251135,46.349944272563 14.1594132792134,46.3500282617118 14.1597164191928,46.3501628376711 14.1597513929896,46.3501782998375 14.1597862355133,46.3501938509999 14.1600167128466,46.3502797575295 14.160121217094,46.3503194827762 14.1602225066923,46.3503570250054 14.1602713361801,46.3503755578264 14.1603332140893,46.3503989549277 14.1604595421955,46.3504474773713 14.1606207479224,46.3505093015559 14.160651186182,46.3505240103803 14.1608985586482,46.3506437783964 14.1610564415167,46.3507275305855 14.1610913866227,46.3507364242219 14.1611829705956,46.3507630078569 14.1613301237565,46.35082625746 14.1615240745819,46.3508880506204 14.1616069560123,46.3509144801279 14.1618409903732,46.3509890726585 14.1619768113069,46.3510287558409 14.1619919469089,46.351033095421 14.1620462835963,46.3510484288744 14.1622512225531,46.3510969855656 14.1622816278819,46.3511053957196 14.1624358536325,46.351148092276 14.1625861986078,46.3511896805465 14.16261712096,46.3511982743402 14.1628186185897,46.3512510334626 14.1628534357781,46.3512598356514 14.16289304068,46.3512699324789 14.1630460217662,46.3513091102165 14.1630996042424,46.3513228181638 14.1633050803118,46.3513873917893 14.1633485293731,46.3514010254693 14.1634194015289,46.3514226872785 14.1635191575046,46.3514503185111 14.1635628431732,46.3514654833528 14.1637076332167,46.351539149272 14.1639263557334,46.3516298203706 14.1642719373317,46.3517687432323 14.1644286616927,46.3517926513503 14.1645623488832,46.3518361846272 14.1647014395465,46.3519600116332 14.1648127347217,46.3520064400614 14.1649757562899,46.3520776283623 14.1650235860967,46.3521108171695 14.165437771515,46.3522928838383 14.1654705014949,46.3523022997931 14.1655262325767,46.3523200709899 14.1655646530391,46.3523312379011 14.165817839689,46.3523946256448 14.1661108551155,46.35243644027 14.1664344062746,46.3524953013863 14.1666755353738,46.3525570698158 14.1667016657947,46.3525732751395 14.166938811754,46.3526321349031 14.1671415372947,46.3526731090932 14.1671666940494,46.3526764413224 14.1673150690236,46.3526942565867 14.1673312858711,46.3526959041931 14.1672955488977,46.3529614191595 14.1672953056767,46.3529774322789 14.1673464676922,46.3530052460965 14.1673790604373,46.3530237476047 14.1675025471616,46.353097613451 14.1675319384194,46.3531130325824 14.167790391403,46.3532664255773 14.1678032784498,46.3532734471592 14.1679537220677,46.35336055454 14.1680456180263,46.3534098976668 14.1681447652367,46.3534609129555 14.1683054768018,46.3535564618983 14.1684535479072,46.3536458906128 14.1687241011307,46.353798559734 14.168857382351,46.3538437045001 14.1691301206542,46.3539723662055 14.1691991417553,46.3540050774353 14.169270225362,46.354038883263 14.1698624750114,46.3543740988552 14.170015798027,46.3544345029392 14.1703529066347,46.3543799076012 14.1705454875791,46.3543963299458 14.1707571197063,46.3544847771732 14.1719306232855,46.3553435099714 14.1717698664069,46.3552673996241 14.1715779127604,46.3554500003054 14.1716030141705,46.3554742944566 14.1720510214213,46.3558635159256 14.17208577461,46.3558854506315 14.1721611413124,46.3559542844739 14.1658431250691,46.3622180489264 14.1664902754524,46.362391463979 14.1672877673215,46.3627289980191 14.1680335574917,46.3630571531947 14.1687801660852,46.3633405038063 14.169461585811,46.3635609360892 14.1696006880549,46.3634979768801 14.1712958517333,46.3622201786738 14.1715686423196,46.3621593554892 14.1719311838044,46.3621619815061 14.1724617360242,46.362174819527 14.1730357360832,46.3618920542042 14.1739146951802,46.3623966677657 14.1742013811235,46.3627072495842 14.1744828483207,46.3629244929237 14.1749970366128,46.3631702262633 14.1753055788845,46.3633158659395 14.1755495488709,46.3634431349699 14.1759374830569,46.3635466990163 14.1765273129237,46.3638535211037 14.1772959387215,46.3643879939852 14.1777048394893,46.3647405629351 14.1779165717646,46.3649470395231 14.1781497781914,46.3652816089512 14.1782619085472,46.3655782397627 14.1785681922535,46.3658673582098 14.1786868470054,46.3660324077508 14.1787043231901,46.3660370318285 14.1787965587737,46.3660657652487 14.1788625736574,46.3660923309402 14.1790079495738,46.3662088976715 14.1790492399534,46.3662375350112 14.1792387001885,46.3663871674102 14.1792609861591,46.366391735955 14.1793393921082,46.366554246628 14.1794086173337,46.3666355374534 14.1794719590865,46.3667278524589 14.1795318933623,46.366796030732 14.1796483855893,46.3669061813785 14.1796861956304,46.3669763601479 14.1797333901382,46.3670534440244 14.1797047966588,46.3670621460419 14.1797269112484,46.3671389600298 14.1797196350907,46.3673124620121 14.1797474577789,46.3674507671732 14.1797250231977,46.3675429165453 14.1797342393232,46.3676131600811 14.1796675642871,46.3676218588193 14.1796674955811,46.367643811264 14.1796701740395,46.3677600730817 14.1796700723465,46.3677755473733 14.1796732559367,46.3677886160151 14.1796916026889,46.3678566757776 14.1796940516456,46.3678927717377 14.17969468055,46.3679028530071 14.1797259833533,46.3680170708836 14.179804687851,46.3681598796721 14.1798392519612,46.368203853518 14.179870860063,46.3682369196554 14.1798991176744,46.3683028011857 14.179902297361,46.3683335041166 14.1799268548256,46.3685597774697 14.179962432582,46.36874447325 14.1799451285356,46.368754335939 14.1799223125123,46.3688198511668 14.1798621361829,46.3689066015132 14.1800390986151,46.3690496649567 14.1800925175836,46.3690670525244 14.1805231795618,46.369210854381 14.1806333361336,46.3693887967239 14.1805565422481,46.3694829859178 14.1806674973864,46.3695380335228 14.1807973724538,46.3695186305863 14.1808415445959,46.3696329403204 14.1809648820976,46.3696770099026 14.1809737701913,46.3697780210511 14.1812048427979,46.3698926794948 14.1811571342407,46.3699540579837 14.1812457962025,46.3700398054378 14.1814100408102,46.3700863267359 14.1815965367629,46.3702703927935 14.1816596853035,46.3703326548237 14.1819691860477,46.3705485505179 14.1819501382457,46.3706055458408 14.181982815567,46.370636819608 14.1820205988009,46.37067433789 14.1819919070744,46.3706895176846 14.1811366606652,46.3711326215597 14.1807868174404,46.3712590441904 14.1806597931779,46.371304829041 14.1802821408207,46.3713872349855 14.1799262859366,46.3714982268443 14.1789792600135,46.3718448371803 14.1785438430873,46.3720170635178 14.1782830917935,46.3721217156841 14.1778634306786,46.3723004405864 14.1777107257643,46.3723681703772 14.1773198816693,46.3725578970191 14.1764387729908,46.3729530049955 14.1758982585239,46.373232519393 14.1755515160297,46.3734621450249 14.1751188085852,46.3738672226802 14.1750065422985,46.3739767171662 14.1750596663178,46.3740225357645 14.1752853504823,46.3741069369683 14.1756124892147,46.3742043052485 14.1758149504231,46.3742512900008 14.1759640337801,46.3742606417715 14.1761672422845,46.3742579673167 14.1764421897789,46.3742475318707 14.1768606206416,46.3742298513906 14.1771352570943,46.374240105359 14.1773738349547,46.3742625152592 14.1776238805604,46.3743263038041 14.1808254983025,46.3750005841156 14.1810566654865,46.3751277493798 14.1818029898443,46.3762984853933 14.181001835055,46.376517227569 14.1828518565657,46.379376512157 14.1846795591077,46.3797394550647 14.1894937245205,46.3820472420293 14.1898321161217,46.3822149164136 14.1903304440881,46.3826709091825 14.1917596392107,46.3840072793381 14.1917278842962,46.3840183012366 14.1918024225293,46.3843061047967 14.1916774323915,46.3845649669875 14.1908816815655,46.3850371740374 14.1907853869537,46.3852629490772 14.1917229954225,46.3859967239993 14.1917694515017,46.3862229689284 14.1925109990846,46.38689678038 14.1925949717444,46.3872154198888 14.1925749592835,46.3873822642736 14.1925136345848,46.3875380204465 14.1924375795756,46.3881547725378 14.1923444326338,46.3883170516685 14.1922611976561,46.3884419729145 14.1921835300514,46.3887535326939 14.1920904464359,46.3889025863546 14.1919694706982,46.3890209427781 14.1916475275399,46.3892154333654 14.1915324685909,46.3893820554454 14.1915421577869,46.3894038968583 14.1915545413054,46.3894281865277 14.1921555183583,46.3908724146823 14.1921881139053,46.3923116358685 14.1922160474116,46.3924806181494 14.1922076123909,46.3928231668187 14.1922298489604,46.39285832248 14.1924463320177,46.3932826235523 14.19248842086,46.3936997547564 14.1923016005226,46.3942525644972 14.1919151742779,46.3946643291218 14.1916378692614,46.3949949905804 14.1909381520918,46.3952851457741 14.1909314261552,46.3953882944824 14.1909303910523,46.3955639097946 14.1912796422907,46.3960938779395 14.1915227800064,46.3963426564456 14.1917348660298,46.3963783445193 14.1918930551566,46.3964446012221 14.1921204297508,46.3966779720439 14.1922233686732,46.3970428102116 14.1921745842536,46.3972467887954 14.1925084140998,46.397721762026 14.1925935612062,46.3978207910562 14.192668442696,46.3985629471372 14.1926939326039,46.398589308525 14.1927822976055,46.3986642480057 14.1931534617572,46.3986718158062 14.1937829171354,46.3990839119053 14.1939399601908,46.4004826213887 14.1943010439574,46.4006987560573 14.1948679197133,46.4008318563497 14.1953878186832,46.4009494182842 14.1963945023702,46.4007653996017 14.1967916196348,46.4011854728564 14.1969614632866,46.4014603559925 14.1972364098337,46.4016718277528 14.1972769314641,46.401755334926 14.1974621702688,46.4021069802242 14.1973651120761,46.4024821058122 14.1977570782333,46.4033259004166 14.1979669876038,46.4037962089851 14.1980107629586,46.403879738686 14.1986731150375,46.4040591045913 14.2000889075898,46.4044510313698 14.2006972655446,46.4046148927868 14.2027345890467,46.408393567507 14.2027529427991,46.4084461482065 14.2027624772268,46.4084791438424 14.203127409291,46.4096962876414 14.2039425577,46.41103739512 14.2040052940436,46.4109898776201 14.2043567302035,46.4108929960168 14.204797646672,46.4108414508551 14.2051397743909,46.4107494504856 14.205571703527,46.4106717484656 14.2056868351891,46.4106436677322 14.2059680053547,46.4105751735774 14.2062302750714,46.4104466272786 14.2065013875458,46.4103181417346 14.206879287244,46.4102524757713 14.20712194601,46.4102293266507 14.2073290681807,46.4101810988753 14.2075456536832,46.4101081044809 14.2078249265633,46.4100355439426 14.2080948666557,46.4099876599455 14.2083823937201,46.4099648188481 14.2085694779925,46.4099708821876 14.2087014086616,46.4099771933882 14.2088652010714,46.4099299225836 14.2089897691092,46.4099146795972 14.2091321433522,46.4099273604649 14.2091527380983,46.4099603420769 14.2091733055929,46.4100042099112 14.2092094255141,46.4100609610814 14.2093082519861,46.4101528743872 14.2093842517991,46.4101862390271 14.2095996979915,46.4102369421195 14.2096839474431,46.4102485007799 14.2097735058176,46.4102527184941 14.2098394974808,46.4102495756749 14.2099293455586,46.4102337318776 14.2100272843186,46.410207057486 14.2101331825211,46.4101786385797 14.2102206136291,46.4101500020675 14.2103079901126,46.4101251438665 14.2104138101189,46.410102122382 14.210524884287,46.4100755382577 14.2106463596478,46.410067289805 14.2107385981336,46.4100660370708 14.2108863701517,46.4100652574525 14.2110154660158,46.4100697470139 14.2111394114575,46.4100706020861 14.2112158856678,46.4100711295978 14.2112634878865,46.4100623709206 14.211316345583,46.4100499596841 14.2113719085428,46.4100393664865 14.2114828498884,46.410021957493 14.2115781345146,46.4099988622866 14.2116996894753,46.4099760380644 14.2117656288678,46.409976492588 14.2118738392227,46.4099680614276 14.2119584308283,46.4099558685941 14.2120431001306,46.4099382780114 14.2121118517987,46.409924086543 14.2121831242779,46.4099154905623 14.2122596241946,46.4099142181458 14.2123281128748,46.4099182887203 14.2123937893262,46.4099370050549 14.212498846767,46.409966878964 14.2125854878675,46.4099930271558 14.212682663758,46.4100192478116 14.2127878263589,46.4100418345791 14.2128904927113,46.4100571164688 14.2129878526146,46.4100705623397 14.2130852656148,46.4100803197082 14.2131879586034,46.4100847150999 14.2132512969848,46.4100851508708 14.2133067548455,46.4100818436097 14.2133649173366,46.4100713572972 14.213433720571,46.4100535665747 14.2134786700949,46.4100393005375 14.2135238815527,46.4100158593071 14.2135664393359,46.4099870015875 14.213606448927,46.4099544375439 14.2136518425611,46.4099183116939 14.2136944273506,46.4098875647343 14.2137422125982,46.4098660304917 14.2138032396369,46.4098372096965 14.2138616900173,46.4098066617186 14.2139652738412,46.4097580699906 14.2140155811887,46.4097420411616 14.2140764244528,46.4097259947492 14.214153212211,46.4097046596522 14.2142142112908,46.4096868148299 14.2142671196476,46.4096708037625 14.2143149044825,46.4096492692773 14.2143443012431,46.4096220302806 14.2143684418427,46.4095894469148 14.2144008306594,46.409544054444 14.2144305928473,46.4094913563201 14.2144839994811,46.4094406200116 14.2145372213403,46.4094027481718 14.2146089637422,46.4093704017282 14.2146724863172,46.4093488852065 14.2147361117859,46.4093292587338 14.2148258769418,46.409318988682 14.2149314315093,46.4093142251788 14.2150132628617,46.4093129875212 14.2151010721241,46.4095025280228 14.2153835921761,46.409837537077 14.215683802795,46.4100275445526 14.215906369181,46.4102171088579 14.2162523509595,46.4104719373928 14.2169851807834,46.4108261324353 14.2176107492477,46.4110774726231 14.2180976581694,46.4112473379381 14.2188858730363,46.4115320824328 14.2194274401445,46.4116915189552 14.2197367266755,46.4117849495297 14.2203329940092,46.4119125455839 14.2209536695888,46.4119704878326 14.2215119694691,46.4120334003248 14.2218537383873,46.4120383355448 14.2222662286137,46.4119820310915 14.2226464122688,46.4120114272079 14.2231422171063,46.4121061162816 14.2235592317513,46.4122808816825 14.2239297091443,46.4124445333094 14.224215399602,46.4125700009888 14.2244005641046,46.4126571786151 14.2245078508897,46.4127600225109 14.2246088578229,46.4127553092048 14.2248747927007,46.412622786368 14.2252498933721,46.4124695896045 14.2254995109832,46.4123960652595 14.2257949308213,46.4123765627392 14.226066234155,46.4124159167718 14.2262485186088,46.4124401826666 14.2263573941689,46.4124492865135 14.2264470405976,46.412456820661 14.2265466418926,46.4124594737008 14.2265975733526,46.4124544199437 14.2266995968274,46.4124421541596 14.2267852826383,46.4124170020362 14.2268620084159,46.412372355685 14.2269284835648,46.412335107523 14.2269806032853,46.4123011811572 14.2270318438608,46.4122282017082 14.2270654020062,46.4121822737581 14.2270813587135,46.4121208419106 14.2271018425409,46.4119875543726 14.2271089480997,46.4119449564647 14.2271878211671,46.4118403142002 14.227250875489,46.4117505000621 14.2273039941635,46.4116918384572 14.2273757858098,46.4116372616815 14.2274269565262,46.4116152047799 14.227466719051,46.4115996386224 14.2275338431582,46.4115623944884 14.2276160168019,46.4115371280452 14.2277224903989,46.4115135551432 14.2278223274848,46.4114993842147 14.227956099986,46.4114769850963 14.2280206818441,46.4114723827414 14.2280872939141,46.4114713928671 14.2281728005122,46.4114680113103 14.2283104619721,46.411464981645 14.2284854448765,46.4114626534615 14.2286678152429,46.4114529972717 14.2287968798721,46.4114508087388 14.2289215814456,46.4114536289798 14.2290148701418,46.411451828761 14.2291554050768,46.4114571846914 14.2292191387966,46.4114666113135 14.2292612353427,46.4114792209753 14.2293010887058,46.4115033317054 14.2294010154827,46.4115843486059 14.229507215102,46.4116817822803 14.2295792689565,46.41175622333 14.2296472179939,46.4118265880174 14.2297289451136,46.4119253861186 14.2297627355329,46.4119736578631 14.2297864494566,46.4120170033339 14.2298641905076,46.4121495133559 14.2299153221767,46.4122410875859 14.2299709912716,46.4123614828437 14.2300385157078,46.412508319194 14.2300971657692,46.4126202772464 14.2301229736024,46.4126720039777 14.2301316951806,46.4127177676077 14.2301448376887,46.4128006287636 14.2301549558437,46.4128488309907 14.230156367224,46.4128964347819 14.2301606371948,46.4129535046981 14.2301960678902,46.4130331869821 14.2302241225706,46.413082409643 14.2302671197075,46.4131328125176 14.2302916706105,46.413172204815 14.2303561085638,46.4132241914897 14.2304174787564,46.4132538448494 14.23046373501,46.413276018908 14.2305352067383,46.4132903552584 14.230621003283,46.413312795296 14.2307117297773,46.413336168136 14.2307423038208,46.4133542778929 14.2307857947403,46.4133788624169 14.2308160766523,46.4134177533267 14.2308406078405,46.413458584896 14.2308820916298,46.4135149153962 14.2309495793125,46.4136091183101 14.2310005470433,46.413657055337 14.2310555196535,46.4136791977969 14.2311141558534,46.4136905684277 14.2311564694811,46.4136878838961 14.2312110448376,46.4136827626127 14.2312534355676,46.4136745903759 14.2312765611482,46.4136673682666 14.2313492387087,46.4136514821953 14.2314720199339,46.4136339534577 14.2315260080571,46.4136243295631 14.2316057974895,46.4136114601392 14.2316625762923,46.4136068932674 14.2317228037323,46.4136068480506 14.2317807720255,46.4136102064968 14.2318617205444,46.4136166882929 14.2319275812803,46.4136230686972 14.2319770118771,46.4136323077402 14.2320456432025,46.4136451845444 14.2321128791762,46.4136555327698 14.2321738668745,46.4136569319449 14.2322370050928,46.4136533971595 14.232275813136,46.4136502388268 14.2323476342474,46.4136397445888 14.2324533271019,46.4136256089283 14.2325618977058,46.4136010559288 14.2326209316402,46.4135840878152 14.2326944938397,46.4135607392912 14.2327298479074,46.4135441520561 14.2327791945877,46.4135037265895 14.2328103535241,46.4134801834722 14.2328885292411,46.4134246564094 14.2329283847544,46.4133931642398 14.232968418218,46.4133582543787 14.2330052873084,46.4133356492102 14.2330383883856,46.4133220157882 14.2330615211525,46.4133142535441 14.2331391755755,46.4132958805437 14.2332161783536,46.4132775930914 14.2332846950366,46.4132522310095 14.2333351578599,46.4132342153877 14.2334433278113,46.4131917547758 14.2335269329786,46.4131571367771 14.2336272495155,46.4131181321953 14.2337045656448,46.4130774439102 14.2338156380295,46.4130320333743 14.2338792680111,46.412993322591 14.2339493810348,46.4129560947252 14.2340194545859,46.4129123886903 14.2341040131579,46.4128653607532 14.2341387512863,46.4128462497876 14.2341770011574,46.4128271623286 14.2342132052141,46.4128055419887 14.234242864422,46.4127868468322 14.2342717910651,46.4127647278913 14.2343023678629,46.4127362321006 14.2343248104651,46.4127219871176 14.2343521539847,46.4127107439629 14.2343947843565,46.4126946547789 14.2344662581289,46.4126623840712 14.2345267904129,46.4126404766355 14.2345699484909,46.4126238510964 14.2346067929455,46.4126122216213 14.2346254752968,46.4126064086203 14.2346441098206,46.4126040141676 14.2346671237616,46.4126047080112 14.2346785354969,46.4126072135811 14.2346899245812,46.4126113384638 14.2347035058952,46.4126168275705 14.2347162992716,46.4126228512246 14.2347269763764,46.4126313798838 14.2347382698337,46.4126423418646 14.2347517039341,46.4126583565057 14.2347700327,46.4126778227696 14.2348253366166,46.4127228180936 14.2348595120031,46.4127439198676 14.2349170090749,46.412780922464 14.2349511568567,46.4128040033721 14.2350479637768,46.4128577334411 14.2350884785871,46.4128813067489 14.2351367614181,46.4129168080768 14.2351915815564,46.4129499239068 14.2352782576642,46.4130025963521 14.235365056461,46.4130558093731 14.2354375852965,46.4130969608749 14.2354945157714,46.4131280213508 14.2355209311084,46.413136655147 14.235593044893,46.4131609793303 14.2356514954922,46.4131856619977 14.235710671244,46.4132143081745 14.2357755624429,46.4132435323371 14.2358188488411,46.413273601767 14.2358997139233,46.4133326227966 14.2359581001714,46.4133712502712 14.2360500236583,46.4134115412854 14.2360878298371,46.4134242097369 14.2361221041278,46.4134382941086 14.2361733739452,46.4134649078884 14.2362145992054,46.4135028807854 14.236234262805,46.4135292834385 14.2362529922505,46.4135760131338 14.2362576434367,46.4135969173031 14.2362653213413,46.413615322518 14.2362922901315,46.4136402444529 14.2363369588945,46.4136738317569 14.2363925074546,46.4137014636829 14.2364543879516,46.4137321068783 14.2365248788519,46.4137702750584 14.2365967315524,46.413813400651 14.2366399970305,46.4138543560307 14.2366569375432,46.4138708437014 14.2367034253206,46.4138766421861 14.2367651127022,46.4138745347413 14.236796049264,46.4138668238255 14.2368330258673,46.4138457476378 14.2368742750463,46.4138167825648 14.2369241437921,46.413785355825 14.2369450311827,46.413780007011 14.2369952649541,46.4137783628389 14.2370438735104,46.4137906531955 14.2371018147595,46.4137959881095 14.2371434025962,46.4137986947376 14.2372466764645,46.4137993836073 14.2373092407213,46.413790354006 14.237348823088,46.4137782920581 14.2374180578256,46.4137479839257 14.2375107357574,46.4136876020476 14.2377129151755,46.4135916920364 14.2378826382405,46.4135005137375 14.2379926219229,46.4134303500651 14.2380520474497,46.4133851310875 14.2381028270803,46.4133442630209 14.2381920759217,46.413268472822 14.2382515424436,46.4132202849933 14.2383178656688,46.4131934657612 14.2384020490716,46.4131731533273 14.2385036276558,46.4131460289528 14.2386157952017,46.4131244631764 14.2387574540167,46.4130961658949 14.2388988573725,46.413086220677 14.238996593481,46.4130734655375 14.2390657500941,46.4130486440727 14.2390983105361,46.4130269979435 14.2391799834997,46.4129813865809 14.2392827283034,46.4129171115419 14.2393743609759,46.412875524985 14.239460255615,46.4128349798372 14.239539778167,46.4127943022813 14.2396299997253,46.4127512666105 14.2397325160415,46.41270336424 14.2398109128024,46.4126875108121 14.2399013305938,46.4126771354485 14.2399934865955,46.4126539957834 14.2400460489791,46.4126344616581 14.2400707623953,46.412615822094 14.2400875293295,46.4125980294231 14.240115228983,46.4125610557523 14.2401520852555,46.4124922934304 14.2401887763868,46.4124260491669 14.2402262604429,46.4123682673673 14.2403338733495,46.4122623674717 14.2404016292816,46.4121884121067 14.2404549693386,46.4121221883702 14.2405440771131,46.4120093276201 14.2405775037548,46.411962675074 14.2406066806998,46.4119129353073 14.2406185712479,46.4118434672183 14.2406326276822,46.4117678955283 14.240640058771,46.4117104538448 14.2406561416246,46.4116575681244 14.2406762643083,46.4116228832285 14.2407118180135,46.4115822727745 14.2408603034393,46.4115397129295 14.2411791249318,46.4115203260106 14.2414900872291,46.4114954878561 14.2416925954912,46.4114592232799 14.2419678851246,46.4113803450271 14.2423635710544,46.4112488214506 14.2428241585074,46.4110799387091 14.2430428100602,46.4109954645651 14.2431216464406,46.4109099747474 14.2431461158509,46.4108242150399 14.2436791154397,46.4098296105306 14.2443702001818,46.4087544449462 14.2447823140852,46.408109380731 14.2455103907988,46.4071874918636 14.245920867649,46.4066593740841 14.246499289518,46.4052685557209 14.246765075034,46.4048474457726 14.2468438460224,46.4047939823424 14.2471827100812,46.4047422313673 14.2482847406828,46.4040477115693 14.2492382666908,46.4037479861431 14.2498919409269,46.4035003585282 14.2508212861507,46.4030655955901 14.2509295068616,46.402760405039 14.250970120093,46.4026437094905 14.2509386184529,46.4020946834368 14.25033938128,46.4012180432744 14.2501243557079,46.4007757781797 14.2507103574808,46.3988092657026 14.2502280635427,46.3979423876762 14.2490930508114,46.3972601613915 14.2489769626764,46.396233734954 14.250120393432,46.3953505302851 14.2500479247951,46.3949451875379 14.2496100378694,46.3946364150576 14.2467454492027,46.3939698836511 14.2463349489992,46.3935533142523 14.2468837557571,46.3933589946257 14.2473448858373,46.3929210847511 14.2472582020951,46.3926056170906 14.2472242337943,46.3925038166783 14.2471297024856,46.3922201468318 14.2470958584852,46.3921187970458 14.2468839877319,46.3914516193554 14.246627423781,46.3911980116368 14.2463701192181,46.390998380825 14.2476404039756,46.3903408727628 14.248423812852,46.3901031036056 14.2498350904192,46.3895905406658 14.2504370819553,46.3893064921471 14.2506350519706,46.3890918600709 14.2510308573178,46.3886625939868 14.2510516103597,46.3880959147377 14.2517480246051,46.3875606497229 14.2519508990097,46.3869861646809 14.2519463783996,46.3863653373631 14.2522273700432,46.3857823656342 14.2522420900208,46.3856565029067 14.2523602097816,46.384613525016 14.2524535594579,46.3834895012009 14.2525748681249,46.382221706634 14.2526666056775,46.3812056365761 14.2526850057878,46.3808098854161 14.2525994164746,46.3801846588894 14.2526012464167,46.3800791351146 14.2526051002304,46.3798538734413 14.2527291732703,46.3795640786411 14.2527145802751,46.3792711283233 14.2527519355632,46.3789342518291 14.2527697400655,46.3782485206699 14.2527687112913,46.377904645471 14.2527305844878,46.3776978233092 14.2527162003862,46.3776087481618 14.2527165492668,46.3772401399479 14.2528701407859,46.3771015988026 14.2526185406069,46.376239293573 14.2524896672141,46.375785897809 14.252357746278,46.37533689051 14.2522371427304,46.3748874172051 14.2520771249283,46.3743068682916 14.25178337506,46.3732109905676 14.251593176732,46.373222881651 14.2512877618927,46.3732004589449 14.2512555608408,46.3731979088588 14.2502926133247,46.3732095937609 14.2501456289808,46.3725428453101 14.2498681935475,46.3719202263683 14.2494473073662,46.3713326535803 14.2493212843417,46.3710439193579 14.2489066935859,46.3699885368908 14.2484296056796,46.3687528000304 14.2481408172083,46.368013139573 14.2483408160934,46.367645573384 14.2492060098494,46.3661576488392 14.2489907510024,46.3657333715208 14.2489923537816,46.3656164197254 14.2490862800331,46.3654011061216 14.2493080077966,46.3643948864499 14.2483495335843,46.3632009722586 14.2481834396117,46.3629929469081 14.2477132536944,46.3622161033849 14.2474208023336,46.361746329395 14.2471932041046,46.361285978704 14.2470975293255,46.3606825424751 14.2466630155261,46.3601398540531 14.2458832498185,46.3591990145985 14.2454992546504,46.3587736172268 14.2447797857241,46.3581750581781 14.2438761845096,46.3577282280421 14.2431086244055,46.3568504297468 14.2430774705849,46.3562834051934 14.2430022448151,46.356084970633 14.2426023699248,46.3549216944383 14.242439306205,46.3544977496221 14.2420510170804,46.3543872110458 14.2419886658095,46.3541978582087 14.2416052333786,46.3537364626006 14.2413872233836,46.3535280826625 14.2412318115389,46.3534910630106 14.2411031320471,46.3534002378405 14.2406913403928,46.352660729763 14.2405625253744,46.3525423718739 14.2403481823454,46.3524731997558 14.2402182985516,46.3524226726825 14.2399599773522,46.352226708054 14.239909946621,46.3520772031863 14.2399382481588,46.3519102247519 14.2400054765098,46.3517751749158 14.2400916873468,46.3516673325356 14.2401662915898,46.3516187939834 14.2402079246346,46.3515679669641 14.2402415284665,46.3515058401745 14.2402538545643,46.3514602166808 14.2402115053752,46.351450218397 14.240053310931,46.3513238371877 14.2401070244037,46.3511982344097 14.239902520871,46.3509539527964 14.2397090149779,46.350853697942 14.2396198187143,46.3507271450736 14.239636927648,46.3504303536856 14.2402801302286,46.3499577812879 14.2402552688521,46.3498766419607 14.2401901860726,46.3498852066383 14.2400498966888,46.3496953346732 14.2400137899304,46.3494881607646 14.2401208390777,46.3492639440138 14.2403980221501,46.3489508862108 14.2404033811275,46.3485640452732 14.2403135637106,46.3484824744147 14.2402500977956,46.3483650900594 14.2403431554433,46.3482127571305 14.240632326333,46.3479717553881 14.240595844651,46.3477915705033 14.2407018926879,46.3476392335704 14.2409241111959,46.3475417405474 14.2408479084481,46.34741527482 14.2408662549146,46.3470285199855 14.2409469402755,46.3468311187335 14.2410674691785,46.3465710019525 14.2409907693374,46.3464805215283 14.24097889922,46.3463994685438 14.2410846932025,46.3462652137715 14.2412810484177,46.3461585512421 14.2414908913379,46.3460159893145 14.2414670254008,46.3458628797339 14.2416232867533,46.3458369248294 14.2418306399567,46.3458742884241 14.242002130183,46.3456864855784 14.2422871783459,46.3457423576334 14.2424476644339,46.3454105270569 14.2428032556376,46.3450619041678 14.2427933706126,46.3448369103461 14.2428967973022,46.344873583748 14.2429628672411,46.3447930469844 14.2432651229878,46.344543127953 14.243357545054,46.3444357739487 14.2434776848384,46.3442026433607 14.243857256151,46.3439982199306 14.2435891762699,46.3436545556615 14.2435516948526,46.3435463420691 14.2435914097397,46.3434926219788 14.2441273525365,46.3432532434068 14.2443355654631,46.3432276282044 14.2445160630946,46.3433277894244 14.244749265166,46.343374315667 14.2451018552665,46.3432416869607 14.2448447792015,46.3430420524376 14.2448596272841,46.3429071934371 14.2451836352746,46.3429632256219 14.2453532480156,46.3429103623358 14.2453675996621,46.3428114885409 14.245007472205,46.3425481942488 14.2449848363053,46.3423051220544 14.2451159729998,46.342216016496 14.2457391133836,46.3422471201213 14.2458181657694,46.3421666673127 14.245875022816,46.3421792784221 14.2458821622264,46.3421513444074 14.2458563569931,46.3421007002665 14.2457172512878,46.3419853391167 14.2456795046375,46.3418111754138 14.2456825669703,46.3415885164195 14.245784732651,46.3414709679425 14.2459977277332,46.3413331869207 14.2459988754541,46.3412497010312 14.2458495358209,46.3411512771342 14.2456402110443,46.3410316739204 14.2453821846965,46.3408072921186 14.2453430040092,46.3407374856379 14.2453838456931,46.3406960084494 14.2454749219019,46.340647934945 14.2455655202964,46.3406345871791 14.2456960642663,46.3406354484314 14.2457667540981,46.3406150413722 14.2458481149555,46.3405460301179 14.2458991150341,46.3404837463764 14.2459903215725,46.3404355833482 14.2461515742258,46.3403948998427 14.2463844713855,46.340264267058 14.246425885443,46.3401810465304 14.2464270324661,46.3400975606157 14.2463684209589,46.3399858796808 14.2463993212481,46.3399303910311 14.2464712185331,46.3398125524444 14.246493965913,46.3396318597899 14.2465571992652,46.339416524994 14.2465605779769,46.3391800123707 14.246602277607,46.3390759202737 14.2466433690048,46.3390066430972 14.2467715615848,46.3389608824289 14.2471208517792,46.3386971372929 14.2470822345879,46.3386335431227 14.2468625954038,46.338423632817 14.2467327250354,46.3383741027803 14.2466227626749,46.3383316315676 14.2465635457374,46.3382546756867 14.2464738116708,46.3382054098164 14.246313426047,46.3381834793765 14.2460928674273,46.3381542241813 14.2459432490633,46.3380766718877 14.2458942252174,46.3379859272728 14.2459150282183,46.3379372999435 14.2460062910301,46.3378752816514 14.2461175898083,46.3378204131618 14.246128964882,46.3377299768775 14.2461203013336,46.3376325706439 14.2460112015985,46.3375274843902 14.2457919853887,46.3374007983722 14.2457529030429,46.3373239748646 14.2457560932476,46.3371014065111 14.2457375257193,46.3369969171326 14.2456375680941,46.3369545109563 14.2454277820057,46.3368696332007 14.2452372672775,46.3368475024107 14.2450263332053,46.3368461098619 14.2448258796311,46.3368099671844 14.2447462805427,46.3367607668797 14.2447479093307,46.3366424651538 14.2448609307286,46.3364623689636 14.2450038938261,46.3362963259712 14.2451057649734,46.3361995594651 14.2451371422063,46.3361093452785 14.245098444225,46.3360047228787 14.2450101859518,46.335858026465 14.2449513565321,46.3357532710831 14.2449729247076,46.3356490465805 14.2450343392292,46.3355659585572 14.2450152944041,46.3354962848477 14.2449357590834,46.3354331395028 14.2448272751077,46.3352932371742 14.2448284243679,46.3352097512186 14.2448798377369,46.3351265972192 14.2450016120349,46.3350369800038 14.2450724867713,46.335002628997 14.2451428477895,46.3349961657188 14.2452434723302,46.3349898121953 14.2453238341584,46.3349834148193 14.2453646715178,46.3349419375704 14.2453756289543,46.3348724619187 14.2452878506912,46.3346909498868 14.2450515181117,46.3343554155093 14.2449233826031,46.3341806544901 14.2449249142817,46.3340693698459 14.2450083115605,46.3338611866322 14.2450503591858,46.3337222783271 14.2451636951948,46.3335282382424 14.2451951672938,46.3334310068469 14.2451860282131,46.3333683263374 14.2450365194398,46.3332838457011 14.244936986224,46.3332205682894 14.2448876810156,46.3331506946994 14.2449083864392,46.3331090846479 14.2449090563058,46.3330604144755 14.2448694036627,46.3330253336288 14.2448300383618,46.3329693812712 14.2448509344553,46.3329139168725 14.2449421900312,46.3328518993324 14.2450331581884,46.3328107532163 14.2450439249383,46.3327551319277 14.24496433149,46.3327059317744 14.2448544771734,46.3326565317175 14.2446039070502,46.3326200576205 14.2444835746239,46.3326053169948 14.2443030754889,46.3325832508011 14.2442030647658,46.3325547885702 14.2441837012583,46.3324989681949 14.2442072912553,46.3324176998849 14.2445530057228,46.3319587004281 14.2446351218128,46.331834002543 14.2446958612372,46.3317996747679 14.2447862532302,46.3318002718337 14.2448968722047,46.3317939846269 14.2449973597816,46.3317877203868 14.2450231595934,46.3317250906013 14.2450303004621,46.3315931494886 14.2449316320107,46.3314672575619 14.2448245243398,46.3313694709064 14.2446535433925,46.3312035136337 14.2445854643208,46.3310823220483 14.2446065531409,46.3310128233865 14.2446784756048,46.3309020036983 14.244810815403,46.3307707096144 14.244903346262,46.3306252068952 14.2449347217617,46.330534902696 14.2449656168149,46.3304795042825 14.2449989256633,46.3303619514446 14.2449915253605,46.3300691350861 14.2449829614311,46.3299647115106 14.2449231799995,46.3299295877179 14.2447532984849,46.3298727733351 14.2445529658926,46.3298297031086 14.2442529154274,46.3297372988555 14.2440431589694,46.3296524186324 14.24393411333,46.32955425841 14.2438851002559,46.3294635128651 14.2438164128362,46.3293773157072 14.243434234741,46.3292695208109 14.2433119503271,46.3292085206269 14.2432230027898,46.329084670875 14.2430329307278,46.3289759866246 14.2426874057144,46.328838291385 14.2424638261154,46.3287767093073 14.2423407048172,46.328785880379 14.2422814768382,46.3288707809723 14.2422433059435,46.3290108836999 14.2422200253747,46.3291260729939 14.2421750661404,46.3292310417838 14.2421235169705,46.3292959295181 14.2420144710987,46.3293203087593 14.2419053474239,46.3293597126357 14.2418102237145,46.3294292597519 14.2417085115313,46.3294586357673 14.2416073525787,46.3294479780057 14.2415072345758,46.3293620208411 14.2415323186773,46.3291164748245 14.241505220526,46.3289909646398 14.2413701182798,46.3288145337592 14.241228220113,46.3286130455103 14.2411727177426,46.3284472194052 14.2411901751053,46.3282367117352 14.241120198054,46.3280657511228 14.241144372979,46.3278954153689 14.2411842801038,46.3276299040723 14.2412945103797,46.3275102535351 14.2414623026926,46.3274261636747 14.2412963729688,46.3273849354306 14.2412105346206,46.327309149546 14.241208583919,46.3269430420667 14.2411819124995,46.326777407243 14.2411106893969,46.3266966798567 14.2408803494216,46.3267302397688 14.2406688768299,46.3267705824167 14.2404874359483,46.32681805198 14.2403267971107,46.3268169848143 14.2402167669234,46.3267814347043 14.2400965444465,46.3267597623535 14.2399365799223,46.3267100244688 14.2398769024754,46.3266678809179 14.2398772875424,46.3266400822436 14.2399182819395,46.3265777345068 14.2400392751596,46.3265437197281 14.2402310377228,46.3264823738568 14.2403422230556,46.3264344379535 14.2403733146426,46.3263650064711 14.2403543746859,46.3262884047499 14.2402852760333,46.3262044519767 14.2402358870573,46.3261415035487 14.2401865321397,46.3260854831411 14.2400668892635,46.3260220677658 14.2399775659687,46.3259449981707 14.2399585940317,46.3258613783773 14.2399800716144,46.3257640818499 14.2400922199317,46.3256465145311 14.2402736912178,46.3256059736063 14.2404846777272,46.3256004474824 14.2406651523162,46.325622519582 14.2408758501373,46.3256378642411 14.2409968406969,46.3256038484273 14.2410984101408,46.3255279567402 14.2411503000805,46.3254100783874 14.2411829288453,46.3252293619422 14.2412049811813,46.3250903221422 14.2412876085611,46.3249378286663 14.2413892380213,46.3248480814759 14.2415408673849,46.3247864671153 14.2416920781508,46.3247457232021 14.2417531011164,46.3246904354354 14.2417638694901,46.3246348143875 14.2417545430051,46.3245860778704 14.2415956412759,46.324459783448 14.2414760002733,46.3243963695408 14.2412766857886,46.324290679994 14.2411578142961,46.3241716683668 14.2410891026951,46.3240598273988 14.2410301961065,46.3239620870527 14.2408530340124,46.3238511454996 14.2406521479271,46.3237090958605 14.2405829561584,46.323632070429 14.240514629852,46.323492520386 14.2405365872649,46.3233604078617 14.2406184105367,46.3232565841643 14.2407104238524,46.3231389724361 14.2408724336446,46.3230495366557 14.2410554346858,46.3228977096554 14.2410762348309,46.3228491730334 14.2410489953792,46.322640257906 14.2409659018038,46.3221318160973 14.2408906587725,46.3217694503849 14.2408639348596,46.3215327373381 14.2408853119934,46.3214424576964 14.2409560417604,46.3214081082069 14.2412988910849,46.3213129443411 14.2416412581734,46.3212525953011 14.2418836015462,46.3211568529991 14.2419750333138,46.3210808932628 14.241945965953,46.3210041346228 14.2419068034738,46.320934326836 14.2418682176857,46.3208227759807 14.2418896898026,46.3207254789767 14.2418707508156,46.3206487874671 14.2418106931534,46.3206345335918 14.2417401246563,46.3206479212718 14.2415686062565,46.3207024761857 14.2414779441652,46.3207227482121 14.2413374494518,46.3207218160888 14.2412176240691,46.3206723462593 14.2410273260431,46.3206293363572 14.24082696708,46.3206002049545 14.2407471692689,46.3205579282159 14.240715630588,46.3204816027031 14.2407150273796,46.3202529805355 14.2406840776273,46.3200496188346 14.2406258845852,46.3199100460913 14.2405171190421,46.3197840830237 14.2403580409578,46.3196717312151 14.2402297623821,46.3195108191623 14.2399925609197,46.3192449057518 14.2398326815821,46.3191812225901 14.2397130879617,46.3191247349123 14.2394722579498,46.3191022598329 14.2392917092676,46.3190871131447 14.2391414763721,46.3190583122598 14.2390216566105,46.3190088401487 14.2388824200695,46.3189174917687 14.2388133328167,46.3188335380683 14.2387544370345,46.3187357065561 14.2386855436089,46.3186378084438 14.2385165708675,46.3185184603382 14.2383772065668,46.318427110483 14.2383493377639,46.3182737929035 14.2383711034064,46.3181557149923 14.2384327975418,46.3180517586825 14.2385250013411,46.3179201142827 14.2385359001594,46.3178645843133 14.2384864244816,46.3178085622823 14.2383868306163,46.3177522064012 14.2381871590631,46.3176744002011 14.2379967776774,46.3176383124963 14.2377367653052,46.3175670311798 14.2373367813221,46.3174391231845 14.2370273933106,46.3173048905357 14.2366188025265,46.3170865009464 14.2362086559108,46.316896170691 14.2359206351379,46.3167478622219 14.2358015021493,46.3166496265907 14.2357437120724,46.3164822526806 14.2357064983708,46.3162732693673 14.2357092435285,46.3160854266028 14.2357414959855,46.315932600156 14.2358135125629,46.3158148585574 14.2359050400965,46.315731976417 14.2360165953846,46.3156561558543 14.2361088972501,46.3155175861737 14.2361920084086,46.3153302802701 14.2362632162688,46.315261207725 14.2364043109549,46.3152273310085 14.2365346002916,46.3152421466903 14.2366143871453,46.3152844263412 14.2367745093023,46.3153202244146 14.2369150223357,46.3153281800775 14.2370363788435,46.3152663695588 14.2371278409248,46.3151973416554 14.2371694097714,46.3150932516956 14.237230232657,46.3150519105508 14.237391546664,46.3150112396706 14.2375027110785,46.3149633063062 14.2376240661206,46.3149014951509 14.2377157830245,46.314804667181 14.2378178189203,46.3146940522634 14.2378565996334,46.3145942621072 14.2375611257709,46.3145717786067</coordinates></LinearRing></outerBoundaryIs></Polygon></MultiGeometry>
  </Placemark>
</Folder>
</Document></kml>
