<?xml version="1.0" encoding="utf-8" ?>
<kml xmlns="http://www.opengis.net/kml/2.2">
<Document id="root_doc">
<Schema name="pregledovalniklovisca" id="pregledovalniklovisca">
	<SimpleField name="lov" type="string"></SimpleField>
	<SimpleField name="lov_naziv" type="string"></SimpleField>
	<SimpleField name="luo" type="string"></SimpleField>
	<SimpleField name="luo_naziv" type="string"></SimpleField>
	<SimpleField name="povrsina" type="float"></SimpleField>
</Schema>
<Folder><name>pregledovalniklovisca</name>
  <Placemark id="pregledovalniklovisca.1">
	<Style><LineStyle><color>ff0000ff</color></LineStyle><PolyStyle><fill>0</fill></PolyStyle></Style>
	<ExtendedData><SchemaData schemaUrl="#pregledovalniklovisca">
		<SimpleData name="lov">0204</SimpleData>
		<SimpleData name="lov_naziv">BLED</SimpleData>
		<SimpleData name="luo">02</SimpleData>
		<SimpleData name="luo_naziv">Gorenjsko</SimpleData>
		<SimpleData name="povrsina">5855.59</SimpleData>
	</SchemaData></ExtendedData>
      <MultiGeometry><Polygon><outerBoundaryIs><LinearRing><coordinates>14.0209858197907,46.326435961595 14.0211274872916,46.3270051669327 14.0212213898874,46.3273835827135 14.0219558976113,46.3277370695109 14.0227480299179,46.3281079588089 14.0230046861997,46.3282600452929 14.023347317377,46.3284635197631 14.0236000248238,46.3286041447454 14.0244995646917,46.3288961340033 14.0249230329908,46.3289802709689 14.0258016066317,46.3291517788239 14.0258717766204,46.3291644329064 14.0260156133323,46.3291903105601 14.0263157159705,46.3292516182124 14.0260681522985,46.3299840395944 14.0256883253627,46.331128033981 14.0253238921073,46.3320845669674 14.025147765853,46.3325377827734 14.0249458283213,46.3330618558554 14.024619237168,46.3339194701656 14.0244403556606,46.3343735609616 14.0245926470571,46.3350788890987 14.0248052837026,46.3360433103701 14.0248991939836,46.3364527628221 14.0250130029313,46.336707453573 14.0248795769979,46.3366063571735 14.0247449133037,46.3365676004533 14.0245825666892,46.3365662155889 14.0243920741554,46.3366209126273 14.0242380411092,46.3366633244607 14.0241021533989,46.3366933848946 14.0239484528771,46.3367170850606 14.0237947328139,46.3367345768052 14.0236234241937,46.336733114062 14.0234439146038,46.3366815567484 14.0232827898826,46.33661153206 14.0231213339506,46.3365601284579 14.0229774842019,46.3365339771817 14.0228153412259,46.3365138774314 14.0226984164736,46.3365002820386 14.0225084978689,46.3365299687099 14.0223545566469,46.336559872724 14.022182915099,46.3365771190911 14.0220673644419,46.3365811692599 14.0220385092445,46.3365821820615 14.0220383793673,46.3365821809506 14.0217681804145,46.3365610654614 14.0215434935206,46.3365154166513 14.0213723896453,46.3364952381698 14.0211923435086,46.3364811909291 14.0210485898109,46.3364424420066 14.0209232406446,46.3363914344059 14.0207891550479,46.3363277558066 14.0206823990542,46.3362393889677 14.02057577328,46.3361510231431 14.0205228421312,46.3360818313245 14.0204560522302,46.3360322245591 14.020478413301,46.3360820805172 14.0205008962563,46.3361323873732 14.020543231261,46.3362275802303 14.0206492637427,46.3363200797013 14.0207554796563,46.3364023238676 14.0209196866588,46.3364886633976 14.0210622738882,46.3365636610954 14.0212011287756,46.3366367372573 14.0213520098025,46.3367055975427 14.021511996882,46.3367883012281 14.0216002390812,46.336858784433 14.0216701183877,46.3369829135292 14.0216734124872,46.3370676950618 14.0216476668316,46.337141971339 14.0216024281582,46.3372094229021 14.0215865940012,46.337223233021 14.0215590160919,46.3372472893876 14.021517977089,46.3372831967873 14.0213835824999,46.3374041381845 14.0212832442132,46.3375456145758 14.0211629307495,46.3377072534754 14.0210858899766,46.3378315645954 14.0210773271932,46.3378455268684 14.0209632101508,46.3379292131449 14.0209554428395,46.3379349947959 14.0208492210346,46.3380129903737 14.0207002686978,46.3381269684383 14.0206674607589,46.3381601569041 14.0206276389831,46.3382005729897 14.0205806782768,46.3382479457012 14.0205233251468,46.3383026070454 14.0204601185959,46.33842316746 14.0203242757333,46.3386321774627 14.0202343999298,46.3387330753521 14.0201690622273,46.3388274355771 14.0200690813867,46.3389485803365 14.0199934253919,46.3389878793304 14.0198920087523,46.3390003258403 14.0198330335619,46.339007557854 14.0196468672736,46.3390229664361 14.0194805483794,46.3390181213492 14.0193245754981,46.3389795354071 14.0191686732013,46.3389442788094 14.0190212915827,46.338970095902 14.0189416475872,46.3390507469567 14.018852184194,46.3391211468947 14.018748596908,46.3391677630009 14.0185508620543,46.3392779006625 14.0185056789593,46.3393419325331 14.0185039210788,46.3394401665104 14.018486695866,46.3395824438014 14.0184597308281,46.3397245475035 14.018403402529,46.3398596512409 14.0183226646635,46.3400012932514 14.0182169528968,46.3401664732815 14.0181608666996,46.3402879932482 14.0181884012049,46.3403898976618 14.0182252612788,46.3405223825335 14.0182179584303,46.3406545781601 14.0181568243348,46.3407895505184 14.018125648409,46.3408910407396 14.0181034279902,46.341036514022 14.0180653231948,46.3412565273495 14.0180192278306,46.3413713851521 14.0179634427488,46.3414759929156 14.0178990170432,46.3415262735333 14.0178097302828,46.3415865073516 14.0177402476862,46.3416434923124 14.0176557217022,46.3417207715479 14.0175565717951,46.3417876683 14.0174431067526,46.3418341983326 14.017291040546,46.3418599729316 14.0171638084503,46.3418555503873 14.0170411494068,46.341871410634 14.0169324986305,46.34192472942 14.0167943715942,46.3419845425109 14.0166752495661,46.3420784381872 14.0166004647928,46.3421557104416 14.0165693464741,46.3422537817909 14.016606743337,46.3423489335348 14.0166591285431,46.3424341373466 14.0166763726383,46.3425664539697 14.0166448283738,46.3426882741786 14.016617970593,46.342816792583 14.0165668825494,46.3429417736259 14.0165746806123,46.3430502564994 14.0165530003755,46.34316532367 14.0164868693415,46.3433105088673 14.0164461831791,46.343391493229 14.0164101278999,46.3434895220468 14.0163838233901,46.3435943826051 14.0163326654834,46.3437159440055 14.0163260360429,46.3438175548897 14.0164175203733,46.3439030951579 14.0165097955103,46.3439445560669 14.0165823357216,46.3439925950354 14.0166352603507,46.3440405552285 14.0166448183611,46.3441595798905 14.0165541325031,46.344413419556 14.0165361207837,46.3444687771097 14.0164415576478,46.3445331031437 14.0159678350654,46.3448471667134 14.015887828227,46.3448749091507 14.0155071735382,46.3449978623888 14.0153033386806,46.344954180373 14.0151589215506,46.3449224361844 14.0144257103497,46.3452166235692 14.0140669335297,46.345278579908 14.0125657952214,46.3451670170811 14.0125416103978,46.3450238433572 14.0124747881376,46.3446295505371 14.0125202838962,46.3445848676938 14.0125445945462,46.3445623148327 14.0128415006222,46.3442637436283 14.0127812132234,46.3441630847176 14.0125787416915,46.3438347394301 14.0125650869913,46.3438066403371 14.0125724939747,46.3435034999608 14.0125729218299,46.3432993580522 14.0125683354836,46.3430129387694 14.0125633235859,46.3426852188192 14.012561093749,46.3426719737325 14.0117793491852,46.3424810479243 14.0116705941366,46.342453296365 14.0114514867706,46.3423999384448 14.0100710789172,46.3419523527171 14.0098423923747,46.3416454586394 14.0097487629805,46.3415212066783 14.0065779030023,46.3409643975862 14.0065001337604,46.3409547247001 14.0064662141876,46.3409483118907 14.0062964257477,46.3409267727212 14.0059347870141,46.3408753143983 14.0058209112062,46.3408437339313 14.0053602379402,46.3407017108815 14.0053453385355,46.3406995119208 14.004988410107,46.3406534898764 14.0042225753631,46.3405552315888 14.0039321365258,46.340517702793 14.0037668940799,46.340474876179 14.0032861966811,46.3403414875075 14.0030640143506,46.340279539365 14.0024411550321,46.3403988075876 14.0022343520772,46.3404483769483 14.0019627539054,46.340539217197 14.0015614241081,46.3406846164811 14.001220390413,46.340800310593 14.0010133764603,46.3408827155607 14.0008620529281,46.34092448976 14.0005158536517,46.3408529955516 13.9994662833891,46.3406349916872 13.9994141313727,46.3406240086248 13.9984758084525,46.3407595681481 13.9981024569826,46.3408235060775 13.9974258325201,46.3414810262097 13.9966124964595,46.3419981564751 13.9995606528043,46.3439077265551 14.0000932658329,46.3439382074169 14.000387741749,46.3439760511416 14.0006411760209,46.3440346787289 14.000762378568,46.3440921502221 14.000893713127,46.3441497101212 14.0011057195686,46.3442432435427 14.0012975909382,46.3443295829131 14.0014503471806,46.3443309170722 14.0016134923555,46.3443182161979 14.0019395232544,46.3442999192438 14.0021429389671,46.3443088024288 14.002375856176,46.3443813726504 14.0025883821124,46.3444536745474 14.00276986726,46.3445469386248 14.0029410935963,46.3446471307394 14.0030910314377,46.3448035491848 14.0032822669911,46.3449251485385 14.0034029625922,46.3450107739132 14.0036856492889,46.3451401874369 14.0039080553335,46.3452266985008 14.0041308443683,46.3452921591115 14.0043337529378,46.3453291950872 14.0045473074345,46.3453451800619 14.0048934828143,46.3453410856307 14.0050243122375,46.3454268874519 14.005073568897,46.3455189971276 14.005171828113,46.3457172497683 14.0053007414982,46.3459087512144 14.0054213125273,46.3459943733561 14.0055186781546,46.346242012308 14.0056452922358,46.3465604432477 14.0057538174854,46.3467587846281 14.0059046617417,46.3468587950214 14.0059225670944,46.3469604386282 14.0060272303788,46.3470422329743 14.0061163133917,46.3471091364571 14.0062215772236,46.3471578263056 14.006358601972,46.3472103909343 14.0064641319014,46.3472444175053 14.0066014895714,46.347278630535 14.0067386469833,46.3473239081624 14.0068859275246,46.3473913165846 14.0069650248588,46.3474214242702 14.0070705572068,46.347455360329 14.0072553192481,46.3475121172267 14.0074027344704,46.3475721484814 14.0076266061463,46.3476287944284 14.0078004998333,46.3476831168532 14.0079183649448,46.3477392021774 14.0080301853532,46.3477847082658 14.0081576369072,46.3478639092284 14.0082208600394,46.3479313065065 14.0082864107973,46.3480280546637 14.0083952055036,46.3482121803097 14.0085826464986,46.3484084141847 14.008708186065,46.3485934944534 14.0089935236038,46.3489086189906 14.0091970355755,46.3491720199141 14.0094427603361,46.3493859419418 14.0097656150801,46.3495666121703 14.0099835147422,46.3496955388612 14.0102478121439,46.349787798503 14.0105525216905,46.3498870651393 14.0107199935842,46.3499666095206 14.0110032360718,46.3500747763381 14.0113163690309,46.3502114519693 14.0115783262406,46.3503689176356 14.0118604260541,46.3505334845784 14.0120599294062,46.3507608570721 14.0122178859743,46.3510442824267 14.0123488562703,46.351318387328 14.0124441123322,46.351483408072 14.0125312595439,46.3517379703081 14.0124956519112,46.3520196334347 14.0123675631453,46.352349982073 14.0122271821146,46.3527999763948 14.0121379787949,46.3532363771294 14.0121092012976,46.3537084786911 14.0119339626323,46.3543979453049 14.0117358101756,46.3546571500256 14.0116137986345,46.3547651407948 14.0118588673652,46.3550966444021 14.0124301235441,46.3554408620753 14.0127617108687,46.3556297864448 14.0134117114627,46.3560324406891 14.0137228583097,46.3562889343551 14.0138927446594,46.356466743598 14.0140526258262,46.3566373585681 14.0141290199425,46.3569270954209 14.0140415974587,46.3572577063112 14.0138112676696,46.3576152456915 14.0137050913233,46.3578541036558 14.0136087995219,46.3581141000894 14.0135334123137,46.3583461157392 14.0135119886807,46.3589804990779 14.0134990455492,46.359699618569 14.0134331447178,46.3605451406665 14.0133983830269,46.360765270547 14.013534630151,46.3607622174169 14.0136270955484,46.3607801096612 14.0137187649658,46.3608494585772 14.0138281148375,46.3609617862707 14.0138825457589,46.3610351325002 14.0139427001887,46.3611298512696 14.013940541117,46.3612498544238 14.0139189547383,46.3614167450494 14.0138729101988,46.3615706488041 14.013845447928,46.3617246228302 14.0138561732266,46.3618146866662 14.0139395262363,46.3619996668008 14.0140234441622,46.3621460540393 14.014052417998,46.3622620070053 14.0140505681924,46.3623648282817 14.0140238241065,46.3624716635486 14.0140221279855,46.3625659388704 14.0140697086917,46.3626734150221 14.014204266336,46.3627645464964 14.0143515537133,46.3628343743691 14.0146038609946,46.3629179730482 14.0148197237947,46.362954112199 14.014992524576,46.3629855613692 14.0151091950906,46.3630380299594 14.015207208467,46.3630945663963 14.0153168745404,46.3631897108198 14.015468785515,46.363349548373 14.0155594848255,46.36346603239 14.0157123020719,46.3635754934825 14.0158657767244,46.3636411440014 14.0160820235217,46.3636633385144 14.0163077272366,46.3636727480798 14.0165641205342,46.3637028446425 14.0166969495778,46.3637168528891 14.0168177659031,46.363705025898 14.0169114089569,46.3636576064329 14.01696191541,46.3636023484243 14.0170383941596,46.3634829841861 14.0170893601561,46.363402088248 14.017164248344,46.3633641342827 14.0172760687042,46.3633393635851 14.0174184060043,46.3633449054392 14.017523452034,46.3633500367311 14.0176341717693,46.3633939043334 14.0177924278947,46.3635409274048 14.017883056713,46.3636616376162 14.0179176098964,46.3638075979306 14.0179137714257,46.3640217866221 14.0179476333169,46.3642063386657 14.018013804937,46.3643139728076 14.0180934706593,46.3643575732586 14.0182474655095,46.3644017218964 14.0183710955035,46.3644070119674 14.0185448460423,46.3643785430303 14.0187313785866,46.3643329990056 14.0188874434591,46.3642615514376 14.0190314183086,46.3641684967957 14.0193070220484,46.3639822810774 14.0194571553995,46.3638935973379 14.0195879405503,46.3638475738424 14.0197120807638,46.363831543642 14.0198479768727,46.3638412558987 14.0200082089389,46.363885455634 14.0201618441044,46.3639424645089 14.0203029578645,46.3640165504105 14.0205177564695,46.364112680523 14.0207685489315,46.364281905258 14.0209942939733,46.364463780878 14.0212064715055,46.3647140980236 14.0213513247897,46.3649210122373 14.0214896894448,46.3651492838956 14.0215917567275,46.3653214626075 14.0217053791981,46.3655452936231 14.0218096079491,46.3659532153308 14.0218494390381,46.3661463644818 14.021866263182,46.3662450269294 14.0219205575171,46.3663269153545 14.0220305467768,46.3664049614978 14.0223745964452,46.3665492484333 14.0228232405428,46.366724478631 14.02311198086,46.366851196116 14.0233700462335,46.3669562377166 14.0235169751239,46.3670474638077 14.0236265096737,46.367151236295 14.0236725102537,46.3673486660946 14.0237001558122,46.367533163235 14.0237096546358,46.367700320919 14.0237133196319,46.3678374683678 14.0237856676481,46.3679494704441 14.0239196438978,46.3680748644531 14.024066804206,46.3681533158787 14.0242140434364,46.3682273591971 14.0242746800582,46.3682964347108 14.0243225132011,46.3683911327119 14.0243134529657,46.3685495846917 14.0243040644782,46.3687337656334 14.0243010897199,46.3689008167953 14.0243420769141,46.3690296454218 14.0244084942767,46.3691245019451 14.0245484067269,46.3692671303372 14.0246834781623,46.3693239747032 14.0249615905509,46.3693477597071 14.0251904191896,46.369358258009 14.0253946332721,46.3693642274378 14.0255303685726,46.3693911160489 14.025659942947,46.3694136333832 14.0258764262735,46.3694240251155 14.0260621542112,46.3694170599522 14.0262611955396,46.369363062952 14.0264166577743,46.3693257890894 14.0265226288671,46.3692795464167 14.0266903596923,46.369246695248 14.026869979071,46.369239676776 14.0271240092182,46.369228972536 14.0278547567567,46.3692052271956 14.0282075839387,46.3692082263491 14.028423915474,46.3692271592324 14.0285900717045,46.3692757158365 14.0287623695948,46.3693371002762 14.0290269983932,46.3694250902671 14.0293594449933,46.3695221126428 14.0296498085158,46.3695588561157 14.029853815955,46.369569224413 14.0300957290857,46.3695455448824 14.0303319571834,46.3694832189865 14.0308301190249,46.3693160472908 14.0323509411007,46.36872054219 14.0327308979884,46.3685780935863 14.0330984865125,46.368444086396 14.0332358868857,46.3683766901139 14.0333298826741,46.3683089267314 14.0333868625257,46.3682323030971 14.0334385675626,46.3681083999581 14.0335097599582,46.3679333779174 14.0335740351358,46.3677968050459 14.0336249825401,46.3677158116827 14.0336753253493,46.3676690922214 14.033787826249,46.3676058034594 14.0338752586924,46.3675637159301 14.0340057378979,46.3675348578905 14.0341294528656,46.3675358130102 14.034258874347,46.3675669565521 14.0344189786106,46.3676196822312 14.0345162642095,46.3677191121742 14.0346251427389,46.3678613762366 14.0348060900347,46.3681328174176 14.0349570355206,46.3683440842689 14.0350286531664,46.368498899333 14.035074996962,46.3686792328353 14.0350777637134,46.3688763830863 14.0350558612129,46.369064687917 14.034997620013,46.3692056311311 14.0349210024883,46.3693420106278 14.0348131508664,46.3694954008956 14.0345928912571,46.3696992156077 14.0343787934079,46.3699073105704 14.0342522046462,46.3700690893255 14.0341618981529,46.3702740006896 14.0340771501659,46.3705174665947 14.0339366268196,46.3707690984461 14.033651627894,46.3711351221717 14.0334682989352,46.3713521126454 14.0333971763848,46.3715229065074 14.0334122849525,46.3717200710656 14.0334768311469,46.3719220620925 14.0334920146781,46.3721149986159 14.0334517476008,46.3722902819371 14.0333173249712,46.3725419645252 14.0332784711667,46.3726444730655 14.0332519861642,46.3727384489355 14.0332559559577,46.3728670512609 14.0333399956719,46.3730177436417 14.033459110825,46.3732801167136 14.0335068133477,46.3733833569298 14.0335736311034,46.3734567083259 14.0336714553422,46.3735260930771 14.0337882424927,46.3735742248514 14.0339975238011,46.3736402324569 14.0341885756992,46.3736933098063 14.034397934064,46.3737549987135 14.03460729132,46.3738167771981 14.0347479429119,46.3739122543366 14.0348389827006,46.3740200884506 14.0349230285062,46.3741707796848 14.0349882089527,46.3743298588981 14.0350662232165,46.3744761805022 14.0351453897323,46.3745497251418 14.0352128147232,46.3745888016927 14.0352927356753,46.374619526345 14.0354160136635,46.3746462081105 14.0355581020943,46.374660272502 14.0357496879601,46.3746833013825 14.0358854621162,46.3747016307333 14.0359902091213,46.3747324742456 14.0360636674734,46.374775919771 14.0361184440837,46.3748320736406 14.0362209298137,46.3749914665895 14.0364843980819,46.3754950059341 14.0365983298941,46.3757058684672 14.0366706385821,46.3758221804925 14.0367559937509,46.3758914575217 14.036872488154,46.375956678161 14.0370018567341,46.3759920467325 14.0371565006453,46.3760019862289 14.037317556807,46.3759947050521 14.0374858284006,46.3759318822522 14.0375798321015,46.3758641155238 14.0377489310354,46.3757541544475 14.0378487966367,46.3757078499455 14.0379605574198,46.3756873771679 14.0380286619713,46.3756879501381 14.0381643651798,46.3757105048213 14.0383432528634,46.375746288401 14.0384912835361,46.3757774936232 14.0386272671204,46.3757915028603 14.0387509993146,46.3757925430795 14.0388938229577,46.3757723305151 14.0390553280044,46.375739408903 14.0394286828902,46.375626843078 14.0395838530504,46.3756067333684 14.0397260949339,46.37561224661 14.0398925620549,46.3756521520987 14.0400461754724,46.3757134525269 14.0401931557292,46.3758046574423 14.040308152142,46.3759556044498 14.0403933427109,46.3760419718826 14.0404606976768,46.3760853633488 14.0405839799832,46.3761121295379 14.0407632455358,46.3761264993794 14.041084606592,46.3761548365432 14.0413131665403,46.3761824847618 14.041572116349,46.3762488948708 14.0418246965846,46.376315340989 14.0420710948031,46.3763859633992 14.042219503754,46.3763957538407 14.0423682115692,46.3763884520881 14.0425361060476,46.3763469418494 14.0431462981545,46.3761378284463 14.0432772424926,46.3760832320193 14.0434084850508,46.3760115434317 14.0434652905793,46.3759520079267 14.0434914821131,46.3758664845811 14.0435179511847,46.375772506268 14.0435140325878,46.3756395861971 14.0434972406179,46.3755366987528 14.0434751647839,46.3753865322819 14.0434769602047,46.375283710344 14.0435043482895,46.3751296390221 14.0435258507074,46.3749627425622 14.0435342775733,46.3748300157104 14.0435175627533,46.3747227203162 14.0434652270433,46.3745337930682 14.0434305239663,46.3743921581578 14.0434199933374,46.374280595862 14.04342772719,46.374195008066 14.0434792646433,46.3740797363494 14.0435991274108,46.3739522602099 14.0437639893847,46.3737265519229 14.0439041019276,46.3734963178386 14.0440691103723,46.3732620630641 14.044220351989,46.3731090268683 14.0445531632056,46.372837666226 14.044684697459,46.3727487041211 14.0447980919396,46.3726340385312 14.0448305179686,46.3725485669137 14.044875737369,46.3724375603759 14.0449206380231,46.3723522829005 14.0449720215743,46.3722455564509 14.045028316713,46.3722075189741 14.0451031789778,46.3721780938115 14.0452023046081,46.3721660556912 14.0452887653824,46.3721796434876 14.0453749283742,46.3722103232485 14.0454607920958,46.3722581849329 14.0455827252814,46.3723620397539 14.0457660543789,46.3725006858196 14.0459378776284,46.3725835434578 14.0461472453438,46.3726452109321 14.0463511738915,46.3726684149876 14.0465861858448,46.3726831506572 14.0468828540315,46.3727028083746 14.047136449554,46.3727177877837 14.0473284998593,46.3727065221408 14.0474960806318,46.3726821864748 14.0476514083668,46.3726448826411 14.0477948163921,46.3725903848222 14.047981445462,46.3725320180376 14.0482302916715,46.3724612129938 14.0484912603154,46.3724033741551 14.0487892478911,46.3723544799053 14.0489815199335,46.372330347459 14.0492668636082,46.3722984413186 14.049477645027,46.3722787805479 14.0496635300584,46.3722631411185 14.0497627099714,46.3722554181104 14.0498622611716,46.3722262849723 14.0499680520362,46.3721971136182 14.050111697876,46.3721212017379 14.0503179476609,46.3720029833823 14.0504866382162,46.3719144131596 14.0506797248092,46.3718431397461 14.0508908568251,46.3718106134083 14.0511884879363,46.3717744858466 14.0514428218739,46.3717466355746 14.0515853526084,46.3717349519805 14.0517405822571,46.3717105076481 14.0518340411871,46.3716727750109 14.0519155257133,46.3716134399115 14.0519783508871,46.3715582686679 14.0520297931271,46.3714473108854 14.0520578212771,46.3712547350899 14.0520755045972,46.3709463706281 14.0521110294532,46.3706810702895 14.0521311699465,46.3705912660938 14.0521753364593,46.3705401687046 14.0522316817009,46.3705063567344 14.0523126443349,46.3704770673816 14.0524365696589,46.3704737757841 14.0525414837896,46.3704875110189 14.0526396972714,46.3705354696517 14.0527559771429,46.3706135382577 14.0528895818942,46.3707646268772 14.05302974018,46.3708900378623 14.053189445692,46.3709599183908 14.0533191102386,46.370978086491 14.0534742624021,46.3709579577771 14.0536174573143,46.370907679526 14.0538667317663,46.3708112239723 14.0540037432903,46.3707652126881 14.0540904438301,46.3707573826818 14.0542078350503,46.3707712196006 14.0543308919014,46.3708107450322 14.0544159478209,46.3709057381979 14.0544132851127,46.3710600166913 14.0544050328155,46.3711841985957 14.0544018545741,46.3713683432363 14.0544302716129,46.3715142415031 14.054494230784,46.3717547234043 14.0545909975889,46.3722482953831 14.0546779516361,46.3725874856456 14.0548030943512,46.3728755280223 14.054959113042,46.373159596791 14.0551220357638,46.3734052147488 14.0553399216026,46.3736897941807 14.0554423885479,46.3738533983765 14.0554965933374,46.3739438172211 14.0555378034394,46.3740641790535 14.055533519764,46.3743126438327 14.0555250822126,46.3748095744313 14.0555958587305,46.3753713986034 14.0556458547513,46.3757060540527 14.055727449951,46.3760023728233 14.0557983409875,46.3761957662088 14.0558761363728,46.3763506189661 14.0559786082295,46.3765143126136 14.0561126065435,46.3766438974641 14.056376134515,46.3768003728372 14.0566463646001,46.3769225339486 14.0565169064243,46.3768915054941 14.0563448318989,46.3768215276249 14.0562585825759,46.3767950840926 14.0560926918572,46.3767208382685 14.0559886674131,46.376647192939 14.0558852166612,46.3765478205281 14.0557886146688,46.37640558838 14.0557106721344,46.3762592816002 14.0556316400443,46.3761686578533 14.0554907241084,46.3760860701542 14.055392349295,46.3760467499147 14.0552939017067,46.3760116576292 14.0551953068445,46.375985111293 14.0550840683694,46.3759756448641 14.0549787182339,46.3759790028831 14.0548669629535,46.3759994923371 14.0547361031205,46.3760498740889 14.0546537284737,46.3761605772754 14.0546260016413,46.3763360615304 14.0546328779124,46.376653176394 14.0546505776252,46.3767046961992 14.0546740720963,46.3767819956294 14.0547217431726,46.3768895452506 14.05482415708,46.3770489208301 14.0550424074573,46.3773206377959 14.0551326228421,46.3774713650283 14.0551243709805,46.3775955468517 14.0550858679918,46.3776723338684 14.0548540425085,46.377833175538 14.0546027217994,46.3780539562053 14.0542668716067,46.3783517721959 14.0544175808382,46.3783718225166 14.0547587545893,46.3784057732883 14.0551264325204,46.3783954063945 14.0554425092325,46.3783846120811 14.0557193903647,46.3784003045895 14.0560345445609,46.378443033783 14.0562016779742,46.3784756333374 14.0563425616264,46.3785303288368 14.0563996871822,46.3785798344639 14.0564504423599,46.3786293774673 14.0564752560125,46.3786831149767 14.0564809103837,46.3787321958407 14.0564662978031,46.3788258250712 14.0563920003254,46.3790260272994 14.0563638298719,46.3791595817326 14.0563687914087,46.3792488739245 14.0564062423343,46.3793161214104 14.0564632137877,46.3793746228281 14.0565591503146,46.3794200400301 14.0566424498235,46.3794519472167 14.0567706992015,46.379493132264 14.0569691731703,46.3795706148266 14.0571417582276,46.3796567907073 14.0572438108457,46.379724570572 14.0573773559289,46.379828238475 14.0575301913363,46.3799365637654 14.0577279003641,46.3800586643148 14.0579503254938,46.3802479065676 14.058127878718,46.3804233731046 14.0582544670863,46.3805537940219 14.0583943605937,46.3806665101026 14.0584900721215,46.3807252395252 14.0586694685272,46.3807936549054 14.0589196306968,46.3808670610048 14.0590740051772,46.3808861456564 14.0592157400794,46.3808918104033 14.0593834962648,46.3808886919282 14.0595963797014,46.380877037218 14.0597514203405,46.3808649065011 14.059918969237,46.3808662840852 14.0601313696045,46.3808903428887 14.0602725690473,46.3809272218559 14.0604136174404,46.3809729165636 14.0605028309449,46.3810316808731 14.0605790234468,46.3810992452666 14.0607814069247,46.3813284443703 14.0610164109427,46.3815355981768 14.0611050908698,46.3816255775557 14.0611873489052,46.3817110055912 14.0612055695034,46.3817780935857 14.0611723399107,46.381835762071 14.0611325867119,46.3819023740804 14.0610989185358,46.3819780331358 14.0610963954593,46.3821252049197 14.0611991675443,46.3825231805536 14.0612664935528,46.3827289570354 14.0613615225704,46.382827895442 14.0614884067741,46.3829494080194 14.0616354244206,46.3830264600827 14.0617887364276,46.3831079721766 14.0619680148047,46.3831763813759 14.0621216857289,46.3832445802648 14.0622362621874,46.3833257740412 14.0623121534739,46.3834112389968 14.0624316252654,46.3835862224388 14.0626937679448,46.3840924786652 14.0629209936903,46.3843754101797 14.0630728600034,46.3845417512646 14.0631810693914,46.3846229818745 14.0633280939099,46.3847000317904 14.0634942824313,46.3847816470442 14.0636150576801,46.3848807943941 14.0637097885652,46.3849976325778 14.0637915750997,46.3851187732767 14.0639062332896,46.3851955574431 14.0641177390514,46.3852730442083 14.0643039083709,46.3853191933243 14.0644974168338,46.3853162780617 14.0646846529659,46.3852999954723 14.0648660538704,46.385252354979 14.0651899629613,46.3851657522754 14.0653965690313,46.3851495368985 14.0655130563765,46.3851192690152 14.0656357926185,46.3851113648609 14.0657132157427,46.3851074989276 14.0657836818238,46.3851303874359 14.0658927342682,46.385162498237 14.065943884647,46.3851897274015 14.0660449704166,46.385315432699 14.0661326000029,46.385467839341 14.0662072071495,46.3856291366592 14.066293925014,46.3858350684101 14.0663759688932,46.3859338965559 14.0665284370068,46.3860734265816 14.0667259598369,46.386208915555 14.0668920813973,46.3862950238399 14.067096562499,46.3864037576215 14.0671982599756,46.3864938383876 14.0672423821798,46.386552139559 14.0672665249746,46.3866460861579 14.0672718097192,46.3867174761787 14.0672575181638,46.386793205061 14.0672693996036,46.386851333198 14.0672941291945,46.3869184732493 14.0673823730396,46.3870351654575 14.0674765089882,46.3871876240847 14.0675258606939,46.3873129960899 14.0675434075942,46.3874202045201 14.0675587516803,46.3876567730986 14.0675819840093,46.387804244856 14.0676248913987,46.3879339728293 14.0676941472744,46.3880281971755 14.0678786582636,46.3881724851324 14.0680947277706,46.3883571569859 14.068318361152,46.3884794502768 14.0686000530801,46.3885977174976 14.0689265527193,46.3887342530697 14.069342724114,46.3889116445516 14.0695854517295,46.3890429978634 14.0697769267637,46.3891605280768 14.0699242768741,46.3892196678852 14.0701236374935,46.3892481005451 14.0703173109066,46.3892362696518 14.0705885640673,46.3892116633539 14.0709512500746,46.389116452427 14.07136577505,46.3890081657182 14.0715921412422,46.3889698768179 14.0717663666494,46.3889623841122 14.0719662370039,46.3889684149574 14.0722618676424,46.3890243464945 14.072563092435,46.3891338552899 14.0728124052294,46.3892607566066 14.0729911130117,46.3893648622208 14.073190002828,46.3894289141669 14.0733953394607,46.3894885194644 14.073748653685,46.389562818755 14.0737635464064,46.3895663582792 14.073734953794,46.3896117418881 14.0737074985055,46.3897051791275 14.073724604694,46.3898391942935 14.0737937752208,46.3899469098378 14.0739461434017,46.3900864290443 14.0741946316853,46.3902625346843 14.0744750431573,46.3904655295249 14.0746082684565,46.3905915772131 14.0746902379049,46.3907038043453 14.0747399657524,46.3908157705391 14.0747570747758,46.3909497855459 14.0747423188181,46.3910612299567 14.0746820187504,46.3911901200513 14.0745966327317,46.3912876772014 14.0744724512321,46.3913803317789 14.074309333281,46.3914994823276 14.0741589540473,46.3916188257527 14.0740800144999,46.3917118461939 14.0739680013782,46.3918537228045 14.0738431151041,46.3919955850104 14.0736527847201,46.3921858610485 14.0734044456545,46.3923846638067 14.0731431782155,46.3925789526624 14.0728829677081,46.3927107197879 14.0726360604507,46.3928246900207 14.0725124547952,46.3928906257966 14.0724012658868,46.3929834734562 14.0723742592607,46.3930501926414 14.0723792478264,46.3931394841256 14.0724101299672,46.3932200785476 14.0724546410562,46.3932560680335 14.0725958046005,46.3932974299217 14.0727502191154,46.393316496362 14.0729886433943,46.3933273365634 14.0732919322402,46.3933163892018 14.0736147437178,46.3932966920884 14.073769383864,46.3933024433048 14.073846440665,46.3933208816468 14.073878230561,46.3933479504081 14.0738841270866,46.3933837165621 14.0738833722614,46.3934283359538 14.07385664941,46.3934860607037 14.073613617833,46.3937474365481 14.0735215205016,46.3938493470542 14.0732953666639,46.3942580511229 14.0731293125668,46.3945422724888 14.072975653665,46.3948623124772 14.0728667521878,46.3951961207771 14.0728046074578,46.3954410571043 14.0727681313096,46.3956906100944 14.0727361885199,46.3960563520454 14.072723037307,46.3964488776842 14.0727238694654,46.3967835755405 14.0727075196667,46.3969887561506 14.0726922289021,46.397131415689 14.0726837633347,46.3972473192962 14.0726884494068,46.3973545124217 14.0727184275335,46.3974886319447 14.0727924665454,46.3976855484027 14.0729847359629,46.3981422690489 14.0731947413684,46.3986883840137 14.0733737878719,46.3991584023842 14.0734484359883,46.3993196049314 14.0735423064886,46.3994899602313 14.0736808453677,46.39968739859 14.0738704771494,46.3999165603784 14.0740481446056,46.4000920024423 14.0743340700252,46.400348664418 14.0746773121216,46.4006460063658 14.0750974753892,46.4009706907298 14.0758046379787,46.4014895108447 14.0762889129087,46.4018460186899 14.0767152203002,46.4021930593771 14.0770138166152,46.4024632224705 14.0773314367626,46.4027468539202 14.0776116958088,46.4029633349429 14.0779688233394,46.4032027478027 14.0782433383947,46.4033744655458 14.0784984236728,46.4035416174919 14.0786766416815,46.40368592684 14.0788737125136,46.4038615176002 14.0789683585041,46.4039872491204 14.0790436305488,46.4041127345596 14.0790923483208,46.404278222962 14.0791274202072,46.4044972239279 14.0791181205116,46.404671152174 14.079095740927,46.4048494736101 14.0789281817995,46.4052229415882 14.0787355472905,46.4055560804065 14.0785173316497,46.4058711985732 14.0783380182356,46.4061776328005 14.0781247966163,46.4065820412427 14.0777596362025,46.4072037624958 14.0774797215358,46.4077370094379 14.0773589241942,46.4080126943097 14.0773041133231,46.4082086577666 14.0772821024329,46.4083646690258 14.0772721395587,46.4085698114372 14.077274653714,46.4088063642651 14.0772447649843,46.4090515627022 14.0771945196418,46.4093546278408 14.077146627521,46.4095104301866 14.0770733408453,46.4096526219495 14.0770120260833,46.4098484427512 14.0769908422381,46.4099553366846 14.077001910083,46.4100625809036 14.0770510572095,46.4102102593116 14.0771130056189,46.4103624495622 14.0772135047457,46.4105194493936 14.0773713866263,46.4107215374904 14.0776929044842,46.4111703847825 14.077818687545,46.4113632162947 14.0781221320268,46.4117271643758 14.0785505210277,46.4123419665006 14.079011420113,46.4129347161059 14.079390671955,46.4134018375477 14.0796813177786,46.4137700868644 14.0803566531462,46.4146546211547 14.0811393144398,46.4156872053504 14.0816698432007,46.4163742524916 14.0819789474398,46.4167916778574 14.0823905825444,46.417254640413 14.0828655634353,46.4177805489466 14.0833030433004,46.4182392168806 14.0834745207561,46.418401188474 14.0836279057444,46.4184939175757 14.0837745459632,46.4185932502384 14.0839477258924,46.4186614856207 14.0841273727669,46.4187164569177 14.0843655353074,46.4187496737918 14.0847454620308,46.4187928419696 14.0850547228464,46.4188220379343 14.0852674310127,46.4188371451654 14.0854418252517,46.4188251344229 14.0856552245571,46.4187911226375 14.0858825241051,46.4187037791669 14.0860973198455,46.4185939326944 14.0863320358703,46.4184441181878 14.0865805217376,46.4182408808091 14.0867711233057,46.4180371806447 14.0868023390782,46.4180998693688 14.0868203989148,46.4181713600965 14.0867603000194,46.418295849022 14.0866737213153,46.4184557546993 14.086613920708,46.4185623418204 14.0865669221164,46.4186735296854 14.0864998721204,46.418824684141 14.0864406672658,46.4188955576882 14.0863687522703,46.4189485155261 14.0860823190624,46.4191024153108 14.085913086796,46.4191947218573 14.0857432005975,46.4193183326105 14.0856122267351,46.4194332572211 14.085441873525,46.4195924920507 14.085356557043,46.4196765617829 14.0852712402977,46.4197606314483 14.0851737715736,46.4198089755757 14.085050586709,46.4198392097706 14.0849796194192,46.4198431404671 14.0848438562649,46.4198553696928 14.0847017915308,46.4198632297433 14.0845990889961,46.4198355965092 14.0845092831865,46.419799159364 14.0844131022215,46.4197627610762 14.0843035226714,46.4197573851641 14.0842132492912,46.4197566622739 14.0841741866171,46.4197742535473 14.0841542634023,46.4198142207694 14.0841665445286,46.4198499473858 14.0842242591926,46.4198683136854 14.0843403443217,46.4198736517937 14.084404489142,46.419896478036 14.0844555319912,46.4199326049307 14.0844872686609,46.4199640787251 14.0844930446565,46.4199998431969 14.0844794953914,46.420039861502 14.0844465645301,46.420079724635 14.0843881011025,46.4201060677188 14.0841602691423,46.4202247136219 14.0839183635893,46.4204145928166 14.0831468989433,46.4210196687205 14.0826440642417,46.4213769570173 14.0825978035546,46.4214435238388 14.0824547624742,46.4215093141607 14.0821624001662,46.4216274382818 14.0820061070611,46.42171534435 14.0819724983978,46.4217954180574 14.0819713009421,46.4218667549151 14.0819769805601,46.4219159243085 14.0819367936239,46.4220003537401 14.0818844019519,46.4220445584062 14.0817935252539,46.4220795469839 14.0816706130687,46.422100872658 14.0815410471026,46.4221310518224 14.0814435918823,46.4221703958319 14.0812872945605,46.4222583908477 14.0801712340107,46.4230122775932 14.0800855075615,46.4231276497237 14.0800646253095,46.4232166423176 14.0800894061224,46.4232748725115 14.0801725605515,46.423320166665 14.0804054388912,46.4232818228506 14.0806844847791,46.4231904073484 14.0807556108749,46.4231695661751 14.0814370702095,46.4237825214619 14.0825258591289,46.4232039357383 14.083302050315,46.4228779900229 14.0841562844678,46.4225603115484 14.0850771123125,46.4222741992501 14.0859095977589,46.4219177363852 14.0866764986941,46.4214758116766 14.0874325871257,46.4210184105892 14.0875938459551,46.4208271608037 14.087853980904,46.4206512746917 14.0882940427269,46.4204828506023 14.0889582415363,46.4202450441206 14.0898270349077,46.4200799389169 14.0904454378983,46.4200136926206 14.0907905117758,46.4209177595611 14.0932487118521,46.420563720588 14.0957304493428,46.4203342438653 14.097090929309,46.4199833129417 14.0978853943466,46.4196456263098 14.0986116706723,46.4187559683983 14.0995712748381,46.4177495622437 14.1003668590839,46.4168188723179 14.1013254679421,46.4163995001435 14.1024293739809,46.416526750906 14.1038914746451,46.4167694413397 14.1054008757443,46.4167456309565 14.1070240349122,46.4165745077968 14.1088405300975,46.4155865877319 14.1098889192211,46.4143850108589 14.1111093663814,46.413671141812 14.1120891319059,46.4135186060214 14.1128006108328,46.4135300661128 14.1136848247616,46.4134538799476 14.1147053432352,46.4129044181667 14.1152491959474,46.4126713751424 14.1158407142523,46.4126759500976 14.116755608434,46.4128253533142 14.1184622264499,46.4127851694658 14.1192041817221,46.4130280486326 14.1197170519588,46.4131268265582 14.1205316592242,46.4131152801668 14.1211595789776,46.4129838023633 14.121918698461,46.4126930912845 14.1223256484513,46.4125915797295 14.1237177034579,46.4122443528666 14.1247320291847,46.4120742493926 14.1253984963476,46.4119141628262 14.1257944440177,46.4115724236865 14.1264923613662,46.4108187662444 14.126482105141,46.4103857500993 14.1264521237385,46.4101128206299 14.1263517119266,46.4099578441846 14.1259359316595,46.4096937526192 14.1259166207049,46.4092904473528 14.1260921032301,46.4090368122178 14.1262586228524,46.4088067705575 14.126375379285,46.4084755815477 14.1264209109408,46.4083039957879 14.1263890744984,46.4081554812176 14.1263331565204,46.4078941396008 14.1263182960801,46.4077577207706 14.1262021431073,46.4075136430417 14.1262338220229,46.4071343895299 14.1262650616838,46.4067907609502 14.126193245744,46.4064581310557 14.1259921513379,46.4061660794767 14.125595711422,46.4057598009284 14.1252410544434,46.4054250072919 14.1247824942722,46.4051546459882 14.1244253791195,46.404974040472 14.1242471067607,46.4048659702955 14.1241117141794,46.404752290226 14.1240557503049,46.4045028230934 14.1240585034668,46.4043308204955 14.1241327284143,46.4039756454673 14.1241371888563,46.4036969508471 14.1239276278507,46.4033988925788 14.1238280893354,46.4031905678698 14.1237886929222,46.4027837789747 14.1238442837186,46.4025527106254 14.1239465468907,46.4022901502177 14.1241565129251,46.4021400681583 14.1243148501023,46.4019816729518 14.1244676542398,46.4018032616891 14.1245338558617,46.4016321946215 14.1245540875092,46.401448719532 14.1245724898041,46.4010218599624 14.124508733524,46.4006742652774 14.1244060127341,46.400250436998 14.1242565548167,46.3998542315417 14.1240770201537,46.3995335507481 14.1240070395418,46.399225765002 14.1239308235107,46.3989338562281 14.123706604615,46.398529069795 14.1234992345682,46.3981523929082 14.1233603997172,46.3978081806191 14.1232679852772,46.397456226692 14.1231634234006,46.3971401677887 14.1230111724914,46.3969274792229 14.1228305026948,46.3966786741582 14.1226234656236,46.3962820246188 14.1224777042168,46.3960136032785 14.1223307963307,46.3958248869645 14.1221259033578,46.3956517401037 14.1218068365512,46.3954058295218 14.1214708640068,46.3951358559526 14.1211979584915,46.3948903882494 14.1209883758935,46.3946453166868 14.1208056740094,46.394532168516 14.1206658419026,46.3942597416813 14.1205605956841,46.3939875806551 14.1205296010666,46.3937638550277 14.1204982194207,46.3935561411944 14.1203776722078,46.3931600625644 14.120295506965,46.392892127466 14.1200917865703,46.3926470992655 14.1198760470456,46.3924299590833 14.119630678076,46.3922684622069 14.1190086801656,46.3918525955408 14.1182259876018,46.3913877119627 14.1180445866301,46.3911867578768 14.1178642808692,46.390925981387 14.1176959960318,46.3906293990149 14.1176202130855,46.3903214741164 14.1176174493593,46.3901299050126 14.1176499760243,46.3899027098736 14.117781234767,46.3896323707378 14.1179811423287,46.3893944106263 14.1182029652647,46.3892245471016 14.1184240799933,46.3890985834287 14.1189485835857,46.3887593872651 14.1193446561387,46.3885150185588 14.1196002839778,46.3884012845089 14.1197801945153,46.3883307828528 14.1199198644125,46.3882480950687 14.1200253390706,46.3881411217672 14.1201084432176,46.387994119168 14.1201570949319,46.387838844022 14.1201943684312,46.3876715151908 14.1201855547399,46.3874998730403 14.1201466650781,46.3874117623014 14.1201248575636,46.3869726268836 14.120088979594,46.3866890326893 14.1200412139215,46.3864332379482 14.1200328504461,46.3862336182846 14.1200477525505,46.3860182528124 14.1201300843485,46.3859191086886 14.1202809964696,46.385856480463 14.1205179751264,46.385826363697 14.1207999486078,46.3858603817235 14.1211728118332,46.3859910065266 14.1216076440064,46.3862057790213 14.1220310351722,46.3864126345476 14.1224792979874,46.3865118043445 14.1243903952493,46.3870970490209 14.1247147838629,46.3870077622551 14.1250855738915,46.3868948973658 14.1252892491407,46.3867847117841 14.1255344977852,46.3865950396501 14.12572196191,46.3864088839176 14.1258166158381,46.3862539580391 14.1258656317713,46.3860747509738 14.1257998490335,46.3858627266654 14.1256638862262,46.3857060376149 14.1254184651932,46.3855486012539 14.1252299989414,46.3854313671864 14.1250421055669,46.3852783287937 14.1248781820498,46.3850735603542 14.1248113814718,46.3849173995444 14.1247566000298,46.3847413571584 14.1247604239624,46.3844939665828 14.1247802005454,46.3843384683721 14.1248446130238,46.383919967065 14.1249765209737,46.3835977112036 14.1250887821138,46.3834309544612 14.1253117053533,46.3831892886644 14.1255925982594,46.3829320509048 14.1260062710026,46.382663771285 14.1264257246574,46.3823995830122 14.1267688337584,46.3822186630777 14.1272740862917,46.3819950739252 14.1277034431731,46.3818266855543 14.12794154107,46.3817167577511 14.128099045554,46.3816062149632 14.128222159178,46.3814755262039 14.128294170469,46.3812964932689 14.128350164416,46.3810374440272 14.1283497151348,46.3807062576966 14.1283190132377,46.3804625623764 14.1282073337681,46.3802262571078 14.1281564852072,46.3801620800488 14.1280339398948,46.3798897933539 14.1279963776328,46.379717842396 14.128015758202,46.3795783553106 14.1280587879434,46.3794150263145 14.1282444354008,46.3789815222901 14.1284681537618,46.3786878530349 14.1287314678998,46.3784463982663 14.129068124705,46.3783013205754 14.1295026613557,46.3781729119163 14.1297918439696,46.378119241042 14.1301207482104,46.3781018599945 14.130420862489,46.378080120404 14.1306634570123,46.378054073995 14.1309354776756,46.3779922623386 14.1312076875064,46.3779184853359 14.1314802715831,46.3778128608109 14.1317357615943,46.3777030571458 14.1319161275614,46.3776006000682 14.1320453257454,46.3774539384758 14.132150945351,46.3773349887833 14.1323084882453,46.3772124742817 14.132570956413,46.377022917451 14.1328390182182,46.3768494172638 14.1330774002511,46.3767195072935 14.1333444465559,46.376601780215 14.1335532180109,46.3765275167949 14.1337218182398,46.3764370238102 14.1338506930465,46.3763103312591 14.1338993576103,46.3761510913622 14.1339027015522,46.3759395949287 14.1337617149934,46.3757389713513 14.1335112243015,46.3755335591392 14.1332768220352,46.3754041138572 14.1329676205139,46.3752700522636 14.1326073192246,46.3750877376545 14.1322932826717,46.3748898481165 14.1320717819043,46.3746766452762 14.1319645550822,46.3745281889394 14.1319376615379,46.374404274656 14.1319368106126,46.3742282849134 14.1320076625673,46.3739897697942 14.1320293114591,46.3737145328614 14.1319997295311,46.3733911324257 14.1319219284787,46.3732069109701 14.1317623145011,46.3727308320709 14.1315856043913,46.3722346495024 14.1315558405774,46.3719311310861 14.1316138308156,46.3715445160651 14.1317750261486,46.3711905344127 14.1319239602566,46.3708883727313 14.1321414638332,46.3706226297356 14.132414579443,46.3704810184859 14.1328200680084,46.3703603841178 14.133350756112,46.3703444339169 14.1336900441266,46.3703989182178 14.1340345478037,46.3704852907652 14.134241843551,46.3705028753031 14.134535880896,46.3705010524764 14.1347384672556,46.370454721017 14.1349308694431,46.3703124929726 14.1350607976579,46.3701179687227 14.1353141755859,46.3697686379854 14.1353643417221,46.3695135894548 14.1353671752746,46.3693340286145 14.1353987920993,46.3691507266811 14.1353899365085,46.368987092297 14.1353182882987,46.3687750285036 14.1351328170046,46.3684703332964 14.1348565276573,46.3680731801624 14.1347189246581,46.3679391616967 14.1343930189844,46.3680504185151 14.1341575729403,46.3681040581362 14.1337332328081,46.3681523076773 14.1333494819195,46.3681652347285 14.1332936174543,46.3680815880443 14.1331919414025,46.3679936353362 14.1327486788375,46.367792157945 14.1322371749736,46.3675584911412 14.1315315120745,46.3672995052065 14.1314984589694,46.3672200795819 14.1315168062893,46.3671449131123 14.1315924585466,46.3670622643993 14.1319150572571,46.3669300271695 14.1321226689965,46.3668365036382 14.1322330067006,46.3667383728056 14.1323611853945,46.3665887338167 14.1328351933936,46.3659307718237 14.1329114103507,46.3658204153966 14.1329422570073,46.3656779550834 14.1329024015841,46.3652973448593 14.132834209994,46.3649005948133 14.1328080656528,46.3647459160764 14.132735800791,46.3646066324861 14.1325885158092,46.3645104157892 14.1323887681523,46.3644772305112 14.1321997666116,46.3644876724787 14.1320219450387,46.3645061164609 14.1319062981686,46.3644802265676 14.131862660468,46.364445526288 14.1318235160498,46.3643897168853 14.1318132108836,46.3643182915145 14.1318494621871,46.3641957561199 14.1319381171238,46.3640221550435 14.1323081227381,46.3634226963717 14.1324348256045,46.3631441173283 14.1325438979698,46.3629037321061 14.1325981942481,46.362806885154 14.132732020698,46.3626692546651 14.1329173678536,46.3625279660068 14.1331141522844,46.3623947711907 14.1332881237942,46.3622495269223 14.1334562517723,46.3621121555671 14.1335205843666,46.3620215022641 14.1336567230814,46.3617373251225 14.1337579271312,46.361484463049 14.1337534610013,46.3614052545587 14.1336742952605,46.3613491425634 14.1333160292173,46.3611998645442 14.1332254874075,46.3611317898106 14.1331468860496,46.3610400531272 14.133160388057,46.3609094273198 14.1331380350161,46.3607698024854 14.1330789479764,46.3606274699232 14.1330015325407,46.360452608719 14.1328908815318,46.3602100170125 14.1328765492576,46.3600316753359 14.1329251077135,46.3598537205969 14.1329501069094,46.359719223236 14.1329460191765,46.3596161751829 14.1329245294854,46.3595288301069 14.1328689247716,46.3594293501177 14.1327959762539,46.3593336972979 14.1326885372614,46.359249659026 14.1325527008807,46.3591535290225 14.1322521292588,46.3589809328636 14.131947615926,46.3588111850643 14.1314297774319,46.3585071086242 14.1310545118659,46.3583496868566 14.1307583467898,46.3582603436368 14.1305815553374,46.3582232809531 14.1304045115131,46.3582021409882 14.1301985643443,46.3581926570949 14.1298209823063,46.3581896942918 14.1294888165612,46.3581990421842 14.1293458867723,46.3581900364922 14.1292317978384,46.3581733327865 14.1291463528028,46.3581449709179 14.1290611608606,46.3581006860005 14.1289479486992,46.3580206489236 14.1288637677494,46.3579209492636 14.1286474737862,46.3574833904454 14.128536846483,46.3572408845364 14.128387650909,46.3569069436195 14.1281878842069,46.3565091871675 14.1278200145601,46.3558883689937 14.1277080713397,46.3557289856516 14.1276414873128,46.3556017081287 14.1275525381162,46.3554345825762 14.1274856358701,46.3553191787395 14.1273951134542,46.3552591069024 14.1272645718214,46.3551907221053 14.1270940580234,46.3551192429054 14.1270316303312,46.3550819680487 14.1269696306464,46.3550259823937 14.1269195649445,46.3549305004523 14.1266135345561,46.354385366395 14.1264080716814,46.3539876531086 14.1262811330176,46.3536934666682 14.1261540695088,46.3534071965943 14.1259706590803,46.3530611145852 14.125886364839,46.3529693292512 14.1257844128552,46.3529011612861 14.1255686333716,46.3527925354088 14.1254721481982,46.3527482513756 14.1253296136841,46.3527154012611 14.1248719047272,46.3527039816182 14.1243229260545,46.3526879024677 14.1241054414399,46.3526862366953 14.1239450614182,46.3526968842549 14.1237618155657,46.3527073563659 14.1235264222024,46.3527530571227 14.123136364413,46.3528094476433 14.1227917859745,46.3528900281526 14.1225504845231,46.3529475577919 14.122453241242,46.3529507702628 14.122321822708,46.3529378853767 14.1221903408595,46.3529289585926 14.1220529524289,46.3529318625231 14.1211321351912,46.3529863290273 14.1206901858967,46.3529886894198 14.1201554639066,46.3529504769714 14.1198619817402,46.3528911764849 14.1196284927942,46.3528180317254 14.1194695116931,46.3527415015401 14.1193335239324,46.3526572307494 14.1191750524741,46.3525490341608 14.1190676476962,46.3524649832315 14.1189711021186,46.3524167345004 14.1188745593967,46.3523764031886 14.1187299191891,46.3523536054062 14.1185772444314,46.3523294859071 14.1185371580215,46.3523578777539 14.118392716371,46.3524439464174 14.1182832770646,46.3524945661829 14.1181683081133,46.3525254394713 14.117968037429,46.3525199360386 14.1177562727887,46.35252621979 14.1175553038148,46.3525721738618 14.1173540119611,46.352630091278 14.1171306227618,46.3526481603558 14.1167814034737,46.3526533809008 14.116295436524,46.352629832425 14.1160209160267,46.3526197929759 14.1157350904862,46.3526017479619 14.1155064931775,46.3525801861929 14.1152953029675,46.352550841172 14.115107299526,46.3525017915335 14.1149248814571,46.3524528747903 14.1147828016061,46.3523923038605 14.1146346846157,46.3523515696786 14.11450873015,46.3523545530759 14.1143883641839,46.3523654970987 14.1142329948877,46.3524198059545 14.1140712692473,46.3525136527486 14.1139274614499,46.3525600433151 14.1137550058853,46.3526102603734 14.1135487649413,46.3526284553638 14.113233589886,46.3526576814354 14.1130040313327,46.3526955782757 14.1128664510107,46.3527103458974 14.1127571965204,46.3527411681097 14.112653660127,46.3527799520718 14.1124466445607,46.3528379064026 14.112222163374,46.3529232559887 14.1120895279836,46.3529856559154 14.1119626728697,46.3530441418403 14.1118877817908,46.3530791888361 14.1117959960712,46.353090352111 14.1116412650557,46.3531049850324 14.1114008495106,46.3531070756744 14.1112120866811,46.3531209936804 14.1111148947669,46.3530969355868 14.1109667786762,46.3530561966642 14.1107847492893,46.3529914413818 14.1106253949373,46.3529386484278 14.1104428510728,46.3528976410362 14.11009459651,46.3528512950737 14.1099289469811,46.3528341707828 14.1098090290218,46.3528174022933 14.1097009939576,46.3527730150222 14.1096330411279,46.3527328085367 14.109536760669,46.35266871894 14.1094462626043,46.3526006255861 14.1093730438901,46.3525326667511 14.1092205662962,46.3524086680743 14.1091418877311,46.3523169141128 14.1090921141625,46.352213509093 14.109043368723,46.3520388547338 14.1089018112293,46.3519466106324 14.1087542804977,46.3518701547579 14.1086230610701,46.3518453794489 14.1084227952524,46.3518477768114 14.1081473789349,46.3518931338341 14.1078144108413,46.3519618835617 14.1076937868157,46.3519886534857 14.1076079102882,46.3519880732634 14.1074479175588,46.3519748582905 14.1072938331397,46.3519499029713 14.1071064837554,46.3518612578648 14.1069193274542,46.3517528202541 14.1067484819079,46.351703980839 14.1066228511279,46.3516871643728 14.1064515544741,46.3516660321741 14.1063033827327,46.3516291555293 14.1061094139515,46.3515880519069 14.1060015142583,46.3515436621851 14.1058991380302,46.3515031843214 14.1057968896042,46.3514548798545 14.1055927183969,46.3513463069975 14.1054225218983,46.3512498758082 14.105309554574,46.3511657683993 14.1052123366328,46.3510799846974 14.1050172224096,46.3508385939288 14.1048873979224,46.3507445472678 14.1047795994624,46.3506782041558 14.1046773535655,46.3506298986989 14.1045938124474,46.3505819195699 14.1045361303384,46.3505178580713 14.1045030630445,46.3504422930393 14.1044941214437,46.350369256203 14.1045050736426,46.3502316857286 14.1045295791142,46.3500518448596 14.104557849542,46.3498801308914 14.1046057798497,46.349753646544 14.1046593592808,46.3496233376379 14.1046666927405,46.3495243365325 14.1046228400852,46.349409099645 14.1045723659378,46.3493413157944 14.1044418656736,46.3492729951346 14.1042712902081,46.3492082291638 14.1041295540481,46.3491278539264 14.1040219189757,46.3490597119305 14.1038749203848,46.3489515839395 14.1036653065705,46.3488270399869 14.1035578668089,46.3487470228521 14.1034960920359,46.3486712324339 14.1034043899819,46.3485743339427 14.1033289532111,46.3483964986671 14.1032626931433,46.3482454568224 14.1031682441257,46.348078268896 14.1031124455328,46.3479866901607 14.1030969178871,46.3478875098038 14.1031104877392,46.3477568877367 14.1031306165253,46.3475747634723 14.1031568494655,46.3473689346139 14.1031369023464,46.3471904547369 14.1030879211656,46.3470316307994 14.1030336148262,46.3468568401144 14.1029088915702,46.3464358748521 14.1027114862481,46.3459073629948 14.1027067435545,46.3458478546318 14.1028586819512,46.3455184016845 14.1026566268533,46.3454648126331 14.1024955572644,46.3454074962236 14.1022766820821,46.3453497257546 14.102057151855,46.3453319870321 14.1018602183765,46.3453544626957 14.1015580547269,46.3454401709145 14.1011858651947,46.3455654551774 14.100593092358,46.3457370481071 14.1000238326491,46.3458848006493 14.0996639881768,46.3459620423792 14.0992469952877,46.3459907880211 14.0988303950398,46.3460035203139 14.0983101394995,46.3459834038699 14.09794004631,46.3459805747091 14.0974313526746,46.345960545479 14.0970156767049,46.3459171362512 14.0966580701146,46.3458582593447 14.0963354140128,46.3457756351591 14.0959669093111,46.345676542675 14.0954268389348,46.3454559799069 14.0949667744562,46.3452921900783 14.0944135642268,46.3451676080559 14.0934104028939,46.344975396952 14.0926374081483,46.3448491534526 14.0919448112048,46.3447635805594 14.0913088275157,46.3447505205746 14.0907539040765,46.3447300942118 14.0900593219342,46.3447565986027 14.0892951040409,46.3448065665517 14.0889125275392,46.3448596609808 14.0884728151616,46.3448641639007 14.0878591544589,46.3448993074673 14.0874300667954,46.3449679508463 14.0872088093435,46.3450543568242 14.0870214313028,46.3451970851418 14.086866739307,46.3454521786758 14.0868124919312,46.3459323731711 14.0867789612447,46.346564964814 14.0867248437022,46.3470372427247 14.0867735808982,46.3475823192759 14.0868702942705,46.3480317793549 14.0870121913542,46.3485455698075 14.087188508709,46.3490757397138 14.0872187945324,46.349340317581 14.0874199743941,46.3497664986097 14.0875781079198,46.3500000668202 14.0877715986425,46.3501858721483 14.0880574518429,46.3503884287352 14.0884233078595,46.3506556820875 14.0889042569385,46.3509559711851 14.0893139781595,46.3513597878811 14.0894035488822,46.3515446727013 14.0895022893806,46.3518659371323 14.0895410876413,46.352322850897 14.0895442691593,46.3528276157087 14.0895004030076,46.3533799605931 14.089427300934,46.3536036770973 14.0892490662698,46.353890705789 14.089072696878,46.3540575473086 14.0889316791103,46.3541925504581 14.0887331133152,46.354303162429 14.088500787719,46.3543653702604 14.0882344414881,46.3543792616392 14.0879801909774,46.3543612190714 14.0877266068245,46.3543031439985 14.0873807856731,46.3542283173139 14.0870129111261,46.3540811564599 14.0866332038591,46.3539580122251 14.0863115813161,46.3538192260072 14.0858520103522,46.3536232839262 14.0854511881757,46.3533797651792 14.0850046566957,46.3530958419816 14.0847759462278,46.3529337725225 14.0846402733896,46.3527404176289 14.0841291936549,46.3521675259216 14.0837759778413,46.3518443079908 14.0826892160974,46.3511066462362 14.0820932135972,46.3507733775916 14.0816921649487,46.3505378511593 14.0813479872886,46.3503668398967 14.0810262650856,46.3502360453572 14.0807153039242,46.3501454636852 14.0802423355833,46.3500695930216 14.0796658533068,46.3499527600043 14.079147182307,46.3498364796457 14.0788018064109,46.3497375181645 14.0784339790914,46.3495984273651 14.0779501362232,46.349474324835 14.0776503377022,46.3494158546585 14.077315449778,46.349381122922 14.0770499339804,46.3493469501873 14.0765757691785,46.3493351143521 14.0761482520888,46.3493076385428 14.0755006588928,46.3492943968584 14.0750153382573,46.3492584419721 14.0745081122641,46.3491501506151 14.0742197460211,46.3490997714284 14.0738164377834,46.3490084232244 14.0735404480168,46.348910007841 14.0731153790876,46.3487303088048 14.0725982235675,46.34852592891 14.0723692925669,46.3483878550588 14.072141045716,46.3482017415299 14.0720168552699,46.3480164720977 14.0719621652324,46.3478317666375 14.0719658254449,46.3476155049035 14.0719450130939,46.3474711116917 14.0718556393243,46.3472861246454 14.0716630319672,46.3470442471751 14.071435742118,46.3468020877176 14.07100225064,46.3464460581729 14.0706476623553,46.3462028627738 14.0702222092849,46.3460552695822 14.0699822823958,46.3458770641432 14.0697533749392,46.3457309777052 14.0695696249264,46.3456494079665 14.0693736289866,46.3456157830516 14.069153973413,46.3456059875852 14.0689456071799,46.3456122985544 14.0686786193705,46.345666176468 14.0684811278781,46.3457206199565 14.0683402221858,46.3458396738746 14.0683029524941,46.3459916019925 14.068312473225,46.3461117915389 14.0682070600818,46.346191097164 14.0681141618676,46.3462143624678 14.0679755690333,46.3461972179137 14.0676528130658,46.3461305268674 14.0673533180469,46.346055927208 14.0670062152733,46.3460611029228 14.0665217471144,46.3459770741028 14.0661407792852,46.345933925921 14.0658294519584,46.3458753305273 14.0656107525978,46.3458093938389 14.0653235041375,46.3456949415775 14.0650712147682,46.3455646695439 14.064738408674,46.3454097159855 14.064567047829,46.3452801947379 14.0643411643337,46.344957867945 14.0641949719554,46.3447163575758 14.0641865550051,46.3445320269775 14.0642397692137,46.3441239017184 14.0643310880351,46.3435078040836 14.0643578990453,46.3432917318575 14.0644320448455,46.3430119871832 14.0644695962445,46.34284404761 14.0644720561733,46.342699843316 14.0644505741218,46.3426035779133 14.0643723840783,46.3424426987556 14.0642350314895,46.3423534925672 14.0641435059345,46.3422966012181 14.0640056075137,46.3422394201647 14.0638218710354,46.3421658487057 14.0636842481967,46.3420925646068 14.0635815718637,46.3420116490516 14.0635598182159,46.3419313961859 14.0636071547103,46.3418676341234 14.0636891705003,46.3418042460008 14.0638757702177,46.3417176017328 14.0640268739011,46.3416707939248 14.0641896674978,46.3416240815932 14.0643644390817,46.3415453471895 14.0645054771817,46.3414183816696 14.0646234024007,46.3412831294537 14.0647885234155,46.3410922108471 14.0648370848564,46.3409564810121 14.064827710516,46.3408281948179 14.0646808440284,46.3406267167415 14.0645110017915,46.3404090355457 14.0642601044637,46.3401986982458 14.0640547656622,46.3400287706888 14.0638497014391,46.3398428300582 14.0637955933374,46.3396260952772 14.0637194593995,46.3393451203102 14.0636675474369,46.3389921863932 14.0635925100113,46.338647070517 14.06344620745,46.338405558013 14.0633454539106,46.3382124633078 14.0632006577101,46.3378828805719 14.0630237865551,46.3374007127891 14.0627766036427,46.3369741106891 14.0626889191706,46.3366930402229 14.0626244992164,46.3363960554773 14.0626642402518,46.3361000145991 14.0626926969317,46.3357877762578 14.0626618519621,46.3355632240049 14.0626310072307,46.3353386717369 14.062565082522,46.3351298468046 14.0623612661043,46.334879853719 14.0621798917607,46.3346620742566 14.0619070071715,46.3343874913669 14.0616451361952,46.3341450281246 14.0614643149925,46.3338952221078 14.0612733083807,46.3335651673759 14.0610842152514,46.3331310307399 14.0609622898893,46.332817557666 14.0609340573432,46.3324408840893 14.0609995275432,46.3319927327503 14.0611125977919,46.3314649873389 14.0611970682501,46.3312573963476 14.0612585518431,46.3310496165612 14.0612406516871,46.3307369976968 14.061167695039,46.3302717845052 14.0610710831138,46.329830399439 14.0609044342106,46.3294364839665 14.0605447513066,46.3288246901477 14.0602284176093,46.3283895061808 14.0599241949541,46.3279223909191 14.0597890822353,46.3277049877339 14.0596992319646,46.3275520165515 14.0595518703052,46.3273825572818 14.059507844278,46.3272460678001 14.0594413844008,46.3270772738174 14.05936199529,46.3269884483402 14.0591557581178,46.3268746465774 14.0589723629976,46.3267769574512 14.0587783637204,46.3266312257551 14.0586775177929,46.3264381257596 14.0586219316807,46.3263094582598 14.0586248176105,46.3261412347027 14.0587081886934,46.325997786225 14.0588377886297,46.325854628254 14.0590592850354,46.3257523538768 14.0593268725007,46.325658375802 14.0598488387271,46.3255665790264 14.0601154640445,46.3255286436475 14.0603240289306,46.3255063354499 14.0605217293621,46.3254358926404 14.0606613637861,46.3253889949393 14.0608828636603,46.3252786195874 14.0611291128914,46.325080364603 14.0612940522839,46.3249054640377 14.0615438668259,46.3244909450946 14.0617229621809,46.324163927706 14.0619019239889,46.3238369988962 14.0620447020449,46.3236058629139 14.0621186961564,46.3233340350888 14.0621355902937,46.3230217913326 14.0621293731753,46.3227092680118 14.0620904100055,46.3222763635947 14.0620363251049,46.3220596275031 14.0620392001421,46.3218914036558 14.0620539033542,46.3217073518107 14.0621267986337,46.3214996648422 14.0622465958815,46.3212602425401 14.0622966515191,46.3210363531222 14.0623119022832,46.3208201857378 14.0622911159463,46.3206838877667 14.0623277000516,46.3205719928294 14.062482030323,46.3203329434185 14.0624842200231,46.3202047513945 14.0624770421353,46.3199483625435 14.0624331458658,46.319811785108 14.0623534940542,46.3197310569128 14.0622157837116,46.3196738749808 14.0620661160853,46.3196325198237 14.0618931920434,46.3196070786315 14.0617208226675,46.3195416042219 14.0615483097585,46.3194921433765 14.0614681120977,46.3194434400853 14.061377038039,46.3193625274702 14.0613673993186,46.3192503433157 14.0613927025967,46.3191223410351 14.0614409798502,46.3190025348402 14.0615133245736,46.3188269636304 14.0617034090363,46.3185320661806 14.0620090433445,46.3182382063879 14.0623284195336,46.3178162484332 14.0625179559933,46.3175453676017 14.0627478923528,46.316946419961 14.0629171839158,46.316507214859 14.0629794704656,46.3162433876791 14.0629596422561,46.3160509550603 14.0629278493051,46.31588244689 14.0628719886,46.3157698839586 14.0627584992031,46.3156407436239 14.0626910843082,46.3155280858846 14.0626925896206,46.3154399256764 14.0626825386505,46.3153517607008 14.0627185714285,46.3152718910487 14.0627662939649,46.3151841996738 14.0627683459142,46.3150640139104 14.0627042140819,46.3147591129196 14.0626741997692,46.3144865216141 14.0627129674786,46.3142464342305 14.0627269825092,46.3141024139641 14.0626720824263,46.3139337162386 14.0626390680071,46.3138292579861 14.0625711086603,46.3137486257133 14.0623651890887,46.3136187270656 14.0622394586207,46.3135376208069 14.0620001088231,46.3133353797093 14.0619098648285,46.3132064291768 14.06185511039,46.313021807177 14.061881914373,46.312805734351 14.061931545853,46.3126138713374 14.0621222968719,46.3122709332948 14.0624533274881,46.3118410626738 14.0628191512834,46.3114034687545 14.0629022166903,46.3112759394278 14.062986504672,46.3110843599545 14.0630120733962,46.3109403442911 14.0629911520357,46.3108120526224 14.0629590953083,46.3106515496596 14.0628706299048,46.3104185167221 14.0627827382354,46.3102812186907 14.0626205552056,46.3099705651463 14.0624574484977,46.3097217145972 14.0623047168683,46.3095116368893 14.0621756320071,46.3092322045137 14.0621122145138,46.3090228590977 14.0620595649428,46.3088368147743 14.0620510426456,46.3086820828336 14.0620378999716,46.3084178169417 14.0620236273031,46.308326108255 14.0619809544991,46.3082096941549 14.0619275107162,46.3080778064344 14.0618520064309,46.3079225248695 14.0616346757185,46.3075804668645 14.0614941745506,46.3073085875537 14.0614408674481,46.3071612255016 14.0614207868116,46.3070296113922 14.0614024253973,46.3067974225566 14.0613654385015,46.3063485178874 14.0613352528981,46.3061549199579 14.0612932428966,46.3059999129511 14.0612390092827,46.3059144439945 14.0611402588628,46.305813044283 14.0609969839195,46.3057113687895 14.0606644633266,46.3055771880466 14.0602431696465,46.305411236306 14.0598993570942,46.3052846981181 14.0596663829889,46.3052054961721 14.059456002445,46.3051109144333 14.0590797646836,46.3049222061818 14.0586930266888,46.304702459813 14.0584274961883,46.3045688240466 14.0581509366524,46.3044273591989 14.0578953788369,46.3043633528251 14.0576282603524,46.3043224634107 14.0572160219158,46.3042804667768 14.0564694218871,46.3042201446299 14.056045222675,46.3042321183385 14.0556541163427,46.304259839027 14.0552631427301,46.3042798218676 14.0549508389433,46.3042772408488 14.0547169491105,46.3042443568928 14.054519435724,46.3042325568534 14.0544159451668,46.3042263926241 14.0542380004801,46.3041939703678 14.0540482267349,46.3042001379987 14.0537796457248,46.3042443411618 14.0533428159228,46.3043413139842 14.0530850016192,46.3044009899026 14.0527046517325,46.3044597400132 14.0521003729991,46.3045553205725 14.051663806609,46.3046367239764 14.05132797604,46.304695838766 14.0510487622094,46.3047089968603 14.0506359889046,46.3047055701194 14.0477895034751,46.3047515371882 14.0467852140522,46.3047509062026 14.0461711030064,46.304768997381 14.0458700993434,46.3047510106137 14.0457030523714,46.3047341412295 14.0455586051644,46.3046942474447 14.0453369522087,46.3046073731716 14.0451382985544,46.304482002515 14.0449954669178,46.3043492702199 14.0447878035808,46.3041001119384 14.0445909027534,46.3038741660569 14.0443845892553,46.3035476422145 14.0442882962517,46.3033070614325 14.0441835327851,46.3029117475309 14.0440989381256,46.3026480515304 14.0440033196807,46.3023688780305 14.0439171153867,46.302190282126 14.043720090179,46.3019720712341 14.0433466222914,46.3016286719629 14.0430499489414,46.3013632003861 14.0428624745091,46.3012379192623 14.0427079499947,46.3011437741966 14.0424635917548,46.3010721793973 14.0421857437906,46.301007951158 14.041739782522,46.3009887390087 14.0410154336497,46.3009363299299 14.0405799653142,46.3009481517165 14.0397651060699,46.3009644337204 14.0388045883542,46.3010182634766 14.0383130311057,46.3010528179061 14.0379443995272,46.3010729294377 14.0376330702497,46.3010084083908 14.0374109024906,46.3009524647925 14.037222765941,46.3008657669181 14.0371244744473,46.3007412273331 14.0369930995405,46.3006008438063 14.0369630027955,46.3004072399369 14.0369662553021,46.3002217445514 14.0370483278003,46.2999903973913 14.0370842553571,46.2998514229311 14.0370992118955,46.2996350756394 14.0371141698794,46.2994186383779 14.0319694632002,46.303652564483 14.0304866385188,46.3050441060906 14.0305189418622,46.3050747906113 14.0306508322383,46.3052003404357 14.0307393930393,46.3051991118656 14.0308185100354,46.3055858531871 14.0309892960509,46.305714431482 14.0315910762464,46.3060504478818 14.0326454011464,46.307449623078 14.0349064547953,46.3102730723409 14.0327839993472,46.3123245848085 14.0322452033938,46.3128453724386 14.0323247276036,46.3136300620444 14.0322115746738,46.3145614846093 14.0317827689435,46.3166407964336 14.0320082569439,46.3168430733685 14.0320761249518,46.3171401056844 14.0317577748997,46.3176602374354 14.0317098630899,46.3178661374551 14.0311494826232,46.318164145991 14.0312125899111,46.3193192910886 14.0308448129732,46.3192912519922 14.0305082664513,46.3195242152891 14.0303556537948,46.3199376018879 14.0302725813849,46.3200751842389 14.0299750794708,46.3203028088561 14.0299142026101,46.3205363993721 14.0279510613323,46.3197627019946 14.0273886785446,46.3202667107867 14.0270429846761,46.3203991773435 14.0268648512414,46.3205364880634 14.0268098780598,46.3206853735977 14.0267972073384,46.3207115375563 14.0264232755988,46.3207958068231 14.0261068932478,46.3208056184475 14.0255386986864,46.3206480048356 14.0253553437801,46.321035210772 14.0264534282529,46.3218632207638 14.0266320226382,46.3233257053869 14.0253693493693,46.3239101130972 14.0243492818762,46.3243754751171 14.0235840693494,46.3247274808255 14.0235395476477,46.3247480640561 14.0231515663587,46.3249266730831 14.0230104128415,46.32499150639 14.0228511891213,46.3250646424473 14.0204907467654,46.3260210897735 14.0209858197907,46.326435961595</coordinates></LinearRing></outerBoundaryIs></Polygon></MultiGeometry>
  </Placemark>
</Folder>
</Document></kml>
