{"type":"FeatureCollection","features":[{"type":"Feature","geometry":{"type":"Polygon","coordinates":[[[14.2378178189203,46.3146940522634],[14.2377157830245,46.314804667181],[14.2376240661206,46.3149014951509],[14.2375027110785,46.3149633063062],[14.237391546664,46.3150112396706],[14.237230232657,46.3150519105508],[14.2371694097714,46.3150932516956],[14.2371278409248,46.3151973416554],[14.2370363788435,46.3152663695588],[14.2369150223357,46.3153281800775],[14.2367745093023,46.3153202244146],[14.2366143871453,46.3152844263412],[14.2365346002916,46.3152421466903],[14.2364043109549,46.3152273310085],[14.2362632162688,46.315261207725],[14.2361920084086,46.3153302802701],[14.2361088972501,46.3155175861737],[14.2360165953846,46.3156561558543],[14.2359050400965,46.315731976417],[14.2358135125629,46.3158148585574],[14.2357414959855,46.315932600156],[14.2357092435285,46.3160854266028],[14.2357064983708,46.3162732693673],[14.2357437120724,46.3164822526806],[14.2358015021493,46.3166496265907],[14.2359206351379,46.3167478622219],[14.2362086559108,46.316896170691],[14.2366188025265,46.3170865009464],[14.2370273933106,46.3173048905357],[14.2373367813221,46.3174391231845],[14.2377367653052,46.3175670311798],[14.2379967776774,46.3176383124963],[14.2381871590631,46.3176744002011],[14.2383868306163,46.3177522064012],[14.2384864244816,46.3178085622823],[14.2385359001594,46.3178645843133],[14.2385250013411,46.3179201142827],[14.2384327975418,46.3180517586825],[14.2383711034064,46.3181557149923],[14.2383493377639,46.3182737929035],[14.2383772065668,46.318427110483],[14.2385165708675,46.3185184603382],[14.2386855436089,46.3186378084438],[14.2387544370345,46.3187357065561],[14.2388133328167,46.3188335380683],[14.2388824200695,46.3189174917687],[14.2390216566105,46.3190088401487],[14.2391414763721,46.3190583122598],[14.2392917092676,46.3190871131447],[14.2394722579498,46.3191022598329],[14.2397130879617,46.3191247349123],[14.2398326815821,46.3191812225901],[14.2399925609197,46.3192449057518],[14.2402297623821,46.3195108191623],[14.2403580409578,46.3196717312151],[14.2405171190421,46.3197840830237],[14.2406258845852,46.3199100460913],[14.2406840776273,46.3200496188346],[14.2407150273796,46.3202529805355],[14.240715630588,46.3204816027031],[14.2407471692689,46.3205579282159],[14.24082696708,46.3206002049545],[14.2410273260431,46.3206293363572],[14.2412176240691,46.3206723462593],[14.2413374494518,46.3207218160888],[14.2414779441652,46.3207227482121],[14.2415686062565,46.3207024761857],[14.2417401246563,46.3206479212718],[14.2418106931534,46.3206345335918],[14.2418707508156,46.3206487874671],[14.2418896898026,46.3207254789767],[14.2418682176857,46.3208227759807],[14.2419068034738,46.320934326836],[14.241945965953,46.3210041346228],[14.2419750333138,46.3210808932628],[14.2418836015462,46.3211568529991],[14.2416412581734,46.3212525953011],[14.2412988910849,46.3213129443411],[14.2409560417604,46.3214081082069],[14.2408853119934,46.3214424576964],[14.2408639348596,46.3215327373381],[14.2408906587725,46.3217694503849],[14.2409659018038,46.3221318160973],[14.2410489953792,46.322640257906],[14.2410762348309,46.3228491730334],[14.2410554346858,46.3228977096554],[14.2408724336446,46.3230495366557],[14.2407104238524,46.3231389724361],[14.2406184105367,46.3232565841643],[14.2405365872649,46.3233604078617],[14.240514629852,46.323492520386],[14.2405829561584,46.323632070429],[14.2406521479271,46.3237090958605],[14.2408530340124,46.3238511454996],[14.2410301961065,46.3239620870527],[14.2410891026951,46.3240598273988],[14.2411578142961,46.3241716683668],[14.2412766857886,46.324290679994],[14.2414760002733,46.3243963695408],[14.2415956412759,46.324459783448],[14.2417545430051,46.3245860778704],[14.2417638694901,46.3246348143875],[14.2417531011164,46.3246904354354],[14.2416920781508,46.3247457232021],[14.2415408673849,46.3247864671153],[14.2413892380213,46.3248480814759],[14.2412876085611,46.3249378286663],[14.2412049811813,46.3250903221422],[14.2411829288453,46.3252293619422],[14.2411503000805,46.3254100783874],[14.2410984101408,46.3255279567402],[14.2409968406969,46.3256038484273],[14.2408758501373,46.3256378642411],[14.2406651523162,46.325622519582],[14.2404846777272,46.3256004474824],[14.2402736912178,46.3256059736063],[14.2400922199317,46.3256465145311],[14.2399800716144,46.3257640818499],[14.2399585940317,46.3258613783773],[14.2399775659687,46.3259449981707],[14.2400668892635,46.3260220677658],[14.2401865321397,46.3260854831411],[14.2402358870573,46.3261415035487],[14.2402852760333,46.3262044519767],[14.2403543746859,46.3262884047499],[14.2403733146426,46.3263650064711],[14.2403422230556,46.3264344379535],[14.2402310377228,46.3264823738568],[14.2400392751596,46.3265437197281],[14.2399182819395,46.3265777345068],[14.2398772875424,46.3266400822436],[14.2398769024754,46.3266678809179],[14.2399365799223,46.3267100244688],[14.2400965444465,46.3267597623535],[14.2402167669234,46.3267814347043],[14.2403267971107,46.3268169848143],[14.2404874359483,46.32681805198],[14.2406688768299,46.3267705824167],[14.2408803494216,46.3267302397688],[14.2411106893969,46.3266966798567],[14.2411819124995,46.326777407243],[14.241208583919,46.3269430420667],[14.2412105346206,46.327309149546],[14.2412963729688,46.3273849354306],[14.2414623026926,46.3274261636747],[14.2412945103797,46.3275102535351],[14.2411842801038,46.3276299040723],[14.241144372979,46.3278954153689],[14.241120198054,46.3280657511228],[14.2411901751053,46.3282367117352],[14.2411727177426,46.3284472194052],[14.241228220113,46.3286130455103],[14.2413701182798,46.3288145337592],[14.241505220526,46.3289909646398],[14.2415323186773,46.3291164748245],[14.2415072345758,46.3293620208411],[14.2416073525787,46.3294479780057],[14.2417085115313,46.3294586357673],[14.2418102237145,46.3294292597519],[14.2419053474239,46.3293597126357],[14.2420144710987,46.3293203087593],[14.2421235169705,46.3292959295181],[14.2421750661404,46.3292310417838],[14.2422200253747,46.3291260729939],[14.2422433059435,46.3290108836999],[14.2422814768382,46.3288707809723],[14.2423407048172,46.328785880379],[14.2424638261154,46.3287767093073],[14.2426874057144,46.328838291385],[14.2430329307278,46.3289759866246],[14.2432230027898,46.329084670875],[14.2433119503271,46.3292085206269],[14.243434234741,46.3292695208109],[14.2438164128362,46.3293773157072],[14.2438851002559,46.3294635128651],[14.24393411333,46.32955425841],[14.2440431589694,46.3296524186324],[14.2442529154274,46.3297372988555],[14.2445529658926,46.3298297031086],[14.2447532984849,46.3298727733351],[14.2449231799995,46.3299295877179],[14.2449829614311,46.3299647115106],[14.2449915253605,46.3300691350861],[14.2449989256633,46.3303619514446],[14.2449656168149,46.3304795042825],[14.2449347217617,46.330534902696],[14.244903346262,46.3306252068952],[14.244810815403,46.3307707096144],[14.2446784756048,46.3309020036983],[14.2446065531409,46.3310128233865],[14.2445854643208,46.3310823220483],[14.2446535433925,46.3312035136337],[14.2448245243398,46.3313694709064],[14.2449316320107,46.3314672575619],[14.2450303004621,46.3315931494886],[14.2450231595934,46.3317250906013],[14.2449973597816,46.3317877203868],[14.2448968722047,46.3317939846269],[14.2447862532302,46.3318002718337],[14.2446958612372,46.3317996747679],[14.2446351218128,46.331834002543],[14.2445530057228,46.3319587004281],[14.2442072912553,46.3324176998849],[14.2441837012583,46.3324989681949],[14.2442030647658,46.3325547885702],[14.2443030754889,46.3325832508011],[14.2444835746239,46.3326053169948],[14.2446039070502,46.3326200576205],[14.2448544771734,46.3326565317175],[14.24496433149,46.3327059317744],[14.2450439249383,46.3327551319277],[14.2450331581884,46.3328107532163],[14.2449421900312,46.3328518993324],[14.2448509344553,46.3329139168725],[14.2448300383618,46.3329693812712],[14.2448694036627,46.3330253336288],[14.2449090563058,46.3330604144755],[14.2449083864392,46.3331090846479],[14.2448876810156,46.3331506946994],[14.244936986224,46.3332205682894],[14.2450365194398,46.3332838457011],[14.2451860282131,46.3333683263374],[14.2451951672938,46.3334310068469],[14.2451636951948,46.3335282382424],[14.2450503591858,46.3337222783271],[14.2450083115605,46.3338611866322],[14.2449249142817,46.3340693698459],[14.2449233826031,46.3341806544901],[14.2450515181117,46.3343554155093],[14.2452878506912,46.3346909498868],[14.2453756289543,46.3348724619187],[14.2453646715178,46.3349419375704],[14.2453238341584,46.3349834148193],[14.2452434723302,46.3349898121953],[14.2451428477895,46.3349961657188],[14.2450724867713,46.335002628997],[14.2450016120349,46.3350369800038],[14.2448798377369,46.3351265972192],[14.2448284243679,46.3352097512186],[14.2448272751077,46.3352932371742],[14.2449357590834,46.3354331395028],[14.2450152944041,46.3354962848477],[14.2450343392292,46.3355659585572],[14.2449729247076,46.3356490465805],[14.2449513565321,46.3357532710831],[14.2450101859518,46.335858026465],[14.245098444225,46.3360047228787],[14.2451371422063,46.3361093452785],[14.2451057649734,46.3361995594651],[14.2450038938261,46.3362963259712],[14.2448609307286,46.3364623689636],[14.2447479093307,46.3366424651538],[14.2447462805427,46.3367607668797],[14.2448258796311,46.3368099671844],[14.2450263332053,46.3368461098619],[14.2452372672775,46.3368475024107],[14.2454277820057,46.3368696332007],[14.2456375680941,46.3369545109563],[14.2457375257193,46.3369969171326],[14.2457560932476,46.3371014065111],[14.2457529030429,46.3373239748646],[14.2457919853887,46.3374007983722],[14.2460112015985,46.3375274843902],[14.2461203013336,46.3376325706439],[14.246128964882,46.3377299768775],[14.2461175898083,46.3378204131618],[14.2460062910301,46.3378752816514],[14.2459150282183,46.3379372999435],[14.2458942252174,46.3379859272728],[14.2459432490633,46.3380766718877],[14.2460928674273,46.3381542241813],[14.246313426047,46.3381834793765],[14.2464738116708,46.3382054098164],[14.2465635457374,46.3382546756867],[14.2466227626749,46.3383316315676],[14.2467327250354,46.3383741027803],[14.2468625954038,46.338423632817],[14.2470822345879,46.3386335431227],[14.2471208517792,46.3386971372929],[14.2467715615848,46.3389608824289],[14.2466433690048,46.3390066430972],[14.246602277607,46.3390759202737],[14.2465605779769,46.3391800123707],[14.2465571992652,46.339416524994],[14.246493965913,46.3396318597899],[14.2464712185331,46.3398125524444],[14.2463993212481,46.3399303910311],[14.2463684209589,46.3399858796808],[14.2464270324661,46.3400975606157],[14.246425885443,46.3401810465304],[14.2463844713855,46.340264267058],[14.2461515742258,46.3403948998427],[14.2459903215725,46.3404355833482],[14.2458991150341,46.3404837463764],[14.2458481149555,46.3405460301179],[14.2457667540981,46.3406150413722],[14.2456960642663,46.3406354484314],[14.2455655202964,46.3406345871791],[14.2454749219019,46.340647934945],[14.2453838456931,46.3406960084494],[14.2453430040092,46.3407374856379],[14.2453821846965,46.3408072921186],[14.2456402110443,46.3410316739204],[14.2458495358209,46.3411512771342],[14.2459988754541,46.3412497010312],[14.2459977277332,46.3413331869207],[14.245784732651,46.3414709679425],[14.2456825669703,46.3415885164195],[14.2456795046375,46.3418111754138],[14.2457172512878,46.3419853391167],[14.2458563569931,46.3421007002665],[14.2458821622264,46.3421513444074],[14.245875022816,46.3421792784221],[14.2458181657694,46.3421666673127],[14.2457391133836,46.3422471201213],[14.2451159729998,46.342216016496],[14.2449848363053,46.3423051220544],[14.245007472205,46.3425481942488],[14.2453675996621,46.3428114885409],[14.2453532480156,46.3429103623358],[14.2451836352746,46.3429632256219],[14.2448596272841,46.3429071934371],[14.2448447792015,46.3430420524376],[14.2451018552665,46.3432416869607],[14.244749265166,46.343374315667],[14.2445160630946,46.3433277894244],[14.2443355654631,46.3432276282044],[14.2441273525365,46.3432532434068],[14.2435914097397,46.3434926219788],[14.2435516948526,46.3435463420691],[14.2435891762699,46.3436545556615],[14.243857256151,46.3439982199306],[14.2434776848384,46.3442026433607],[14.243357545054,46.3444357739487],[14.2432651229878,46.344543127953],[14.2429628672411,46.3447930469844],[14.2428967973022,46.344873583748],[14.2427933706126,46.3448369103461],[14.2428032556376,46.3450619041678],[14.2424476644339,46.3454105270569],[14.2422871783459,46.3457423576334],[14.242002130183,46.3456864855784],[14.2418306399567,46.3458742884241],[14.2416232867533,46.3458369248294],[14.2414670254008,46.3458628797339],[14.2414908913379,46.3460159893145],[14.2412810484177,46.3461585512421],[14.2410846932025,46.3462652137715],[14.24097889922,46.3463994685438],[14.2409907693374,46.3464805215283],[14.2410674691785,46.3465710019525],[14.2409469402755,46.3468311187335],[14.2408662549146,46.3470285199855],[14.2408479084481,46.34741527482],[14.2409241111959,46.3475417405474],[14.2407018926879,46.3476392335704],[14.240595844651,46.3477915705033],[14.240632326333,46.3479717553881],[14.2403431554433,46.3482127571305],[14.2402500977956,46.3483650900594],[14.2403135637106,46.3484824744147],[14.2404033811275,46.3485640452732],[14.2403980221501,46.3489508862108],[14.2401208390777,46.3492639440138],[14.2400137899304,46.3494881607646],[14.2400498966888,46.3496953346732],[14.2401901860726,46.3498852066383],[14.2402552688521,46.3498766419607],[14.2402801302286,46.3499577812879],[14.239636927648,46.3504303536856],[14.2396198187143,46.3507271450736],[14.2397090149779,46.350853697942],[14.239902520871,46.3509539527964],[14.2401070244037,46.3511982344097],[14.240053310931,46.3513238371877],[14.2402115053752,46.351450218397],[14.2402538545643,46.3514602166808],[14.2402415284665,46.3515058401745],[14.2402079246346,46.3515679669641],[14.2401662915898,46.3516187939834],[14.2400916873468,46.3516673325356],[14.2400054765098,46.3517751749158],[14.2399382481588,46.3519102247519],[14.239909946621,46.3520772031863],[14.2399599773522,46.352226708054],[14.2402182985516,46.3524226726825],[14.2403481823454,46.3524731997558],[14.2405625253744,46.3525423718739],[14.2406913403928,46.352660729763],[14.2411031320471,46.3534002378405],[14.2412318115389,46.3534910630106],[14.2413872233836,46.3535280826625],[14.2416052333786,46.3537364626006],[14.2419886658095,46.3541978582087],[14.2420510170804,46.3543872110458],[14.242439306205,46.3544977496221],[14.2426023699248,46.3549216944383],[14.2430022448151,46.356084970633],[14.2430774705849,46.3562834051934],[14.2431086244055,46.3568504297468],[14.2438761845096,46.3577282280421],[14.2447797857241,46.3581750581781],[14.2454992546504,46.3587736172268],[14.2458832498185,46.3591990145985],[14.2466630155261,46.3601398540531],[14.2470975293255,46.3606825424751],[14.2471932041046,46.361285978704],[14.2474208023336,46.361746329395],[14.2477132536944,46.3622161033849],[14.2481834396117,46.3629929469081],[14.2483495335843,46.3632009722586],[14.2493080077966,46.3643948864499],[14.2490862800331,46.3654011061216],[14.2489923537816,46.3656164197254],[14.2489907510024,46.3657333715208],[14.2492060098494,46.3661576488392],[14.2483408160934,46.367645573384],[14.2481408172083,46.368013139573],[14.2484296056796,46.3687528000304],[14.2489066935859,46.3699885368908],[14.2493212843417,46.3710439193579],[14.2494473073662,46.3713326535803],[14.2498681935475,46.3719202263683],[14.2501456289808,46.3725428453101],[14.2502926133247,46.3732095937609],[14.2512555608408,46.3731979088588],[14.2512877618927,46.3732004589449],[14.251593176732,46.373222881651],[14.25178337506,46.3732109905676],[14.2520771249283,46.3743068682916],[14.2522371427304,46.3748874172051],[14.252357746278,46.37533689051],[14.2524896672141,46.375785897809],[14.2526185406069,46.376239293573],[14.2528701407859,46.3771015988026],[14.2527165492668,46.3772401399479],[14.2527162003862,46.3776087481618],[14.2527305844878,46.3776978233092],[14.2527687112913,46.377904645471],[14.2527697400655,46.3782485206699],[14.2527519355632,46.3789342518291],[14.2527145802751,46.3792711283233],[14.2527291732703,46.3795640786411],[14.2526051002304,46.3798538734413],[14.2526012464167,46.3800791351146],[14.2525994164746,46.3801846588894],[14.2526850057878,46.3808098854161],[14.2539246883539,46.3821182378466],[14.2542561436416,46.3823515347773],[14.2544764614041,46.3823832015369],[14.2567198710479,46.3827060453485],[14.258536605042,46.3824733890524],[14.2603719406409,46.3829511432238],[14.2620473790013,46.3830251271239],[14.2634745621685,46.3833174662008],[14.2637837526604,46.3836535185385],[14.2640447792938,46.3841297943127],[14.2644937826584,46.3843367367302],[14.2646990064502,46.3852515290965],[14.265035983344,46.385688523766],[14.2653043059787,46.3860585880003],[14.2653942895511,46.3861641618807],[14.2656423439038,46.3862814574165],[14.2658920670533,46.3862355563107],[14.2660441352895,46.3863167862851],[14.2661121672317,46.3863530312477],[14.266148903565,46.3863767493536],[14.2663354132499,46.3864977870564],[14.2667086282638,46.3866866001563],[14.2668372873987,46.3867587718577],[14.2669894331051,46.3868441397135],[14.267053602398,46.3868582265671],[14.2672023338292,46.3868587299123],[14.267417773083,46.3867418888269],[14.2687679447008,46.3863165119614],[14.2689573284138,46.3859597294871],[14.2689219630061,46.3858429913599],[14.2689363966071,46.3857941395829],[14.2689729029261,46.3856695836221],[14.2689779561864,46.3856319182081],[14.2689887751413,46.3855519134571],[14.2690049442332,46.3854606965684],[14.2690233614081,46.3853568981496],[14.2690697737851,46.3852693834259],[14.2691239169664,46.3851676127527],[14.2693192892673,46.3850825793956],[14.2695713518835,46.384938617138],[14.2696016262622,46.384881499177],[14.2696517708868,46.3847869903347],[14.2696403727671,46.3847252876065],[14.2696044677541,46.3845319811505],[14.2697415320804,46.384305230643],[14.2700012085016,46.384048132889],[14.2700377604847,46.3840174162975],[14.2706642353464,46.3834931955772],[14.2708334494491,46.3833704749832],[14.2710507626112,46.3832479707878],[14.2714510617414,46.3831204241642],[14.2718260619819,46.3831843526852],[14.2718827482995,46.3831938906527],[14.2724362269028,46.3833182441649],[14.2726976648067,46.3832404631112],[14.2735261700347,46.3830369974827],[14.2737013759972,46.3830010424838],[14.2742494904926,46.3829711433326],[14.2746990705085,46.382881505857],[14.2752058533213,46.3828605169741],[14.2757267780175,46.3827335399309],[14.2760902383541,46.3826674636502],[14.2765211377541,46.3826530962189],[14.2769424990074,46.3823862989593],[14.2772731804566,46.3820848281513],[14.2776312470801,46.3818851063344],[14.2778930236127,46.3814551700464],[14.2779122923576,46.3814234420788],[14.2787220082977,46.3808761318506],[14.2790731856589,46.3807049727296],[14.2796489145201,46.3807184077504],[14.2798423576086,46.3806688826609],[14.2799757096047,46.3804832130205],[14.2800454242996,46.3802333533094],[14.2801565885987,46.3797574779988],[14.2801877893701,46.3793716098216],[14.2807646598953,46.3790297518242],[14.2808631984081,46.3785346325418],[14.2808195702152,46.3782535593297],[14.2807540909603,46.3779734283001],[14.2808659682118,46.3776107398735],[14.2810949643541,46.3773968796266],[14.281135366078,46.3773592559087],[14.2813010939084,46.3772810333502],[14.281358779083,46.3770654659487],[14.2814639212034,46.3769184845668],[14.2814016290057,46.3766132720126],[14.2813878239438,46.3765458870877],[14.2814664159659,46.3760048465774],[14.2815172498907,46.3758258541263],[14.2815990161487,46.3755381912745],[14.2816643143718,46.3754059844776],[14.2816756640388,46.3752541850024],[14.281780527197,46.3751380615313],[14.2817933012175,46.3747784383361],[14.2821025824831,46.3744975120896],[14.282254117883,46.3743211307879],[14.2822774934223,46.3741442148687],[14.2822981152511,46.3739889646327],[14.2824776861371,46.373805651279],[14.2825118662529,46.3737862520986],[14.2830031046213,46.3735061949991],[14.2832663478408,46.3733850350458],[14.2836651646343,46.3732438506082],[14.2839891104032,46.3729732677368],[14.2841647192304,46.3728835865762],[14.2845102933702,46.372578858702],[14.2847468757855,46.3723885208412],[14.2847942979268,46.3723503099171],[14.2849040137813,46.3722398820465],[14.2851874200677,46.3720868141042],[14.2854781623755,46.3720388772893],[14.286096335761,46.3717008489309],[14.2867407773638,46.3713812451573],[14.2869630574331,46.3712302207191],[14.2878650690861,46.3710633675018],[14.288151556416,46.370942161075],[14.2883448221524,46.3706928850368],[14.2887644588765,46.3704272026321],[14.2887938335307,46.3703571180551],[14.2889038419871,46.3700930178206],[14.2889462964409,46.3695358220277],[14.28919392863,46.3693130640874],[14.289698909799,46.3691000918106],[14.2898348091993,46.3690139340042],[14.2904650573874,46.3688026359433],[14.2905473964004,46.368787491882],[14.2908797457958,46.3687265737228],[14.29113412875,46.368694411854],[14.2914305307883,46.3685286330518],[14.2919169496914,46.3683729373928],[14.2924856649891,46.368215139726],[14.2926196087801,46.3681994137445],[14.2926837829985,46.3681918033026],[14.2931676869663,46.3678275341197],[14.2932199194233,46.3677884497009],[14.2936438295046,46.3675708201785],[14.2946591000996,46.3672924190929],[14.2947263297069,46.3671280969542],[14.2947482053707,46.3670744292452],[14.2949148608866,46.3670716781945],[14.2951572275352,46.3666694727065],[14.295283696038,46.366577762035],[14.2953828762139,46.3665058566292],[14.2955957737891,46.366474688783],[14.2957699134698,46.3665872353901],[14.2961042937137,46.366650024608],[14.2970059890792,46.3665301520677],[14.2972144109886,46.3664425419007],[14.297337152866,46.3664080275842],[14.2977676141939,46.3664174197297],[14.2982991698876,46.3664182536236],[14.2989293290054,46.3664934658083],[14.2990925625847,46.3664532597706],[14.3012475949733,46.3655937304481],[14.3013876605825,46.3655048852019],[14.3022522329944,46.3649195945272],[14.3031451314218,46.3642821967466],[14.3031598187626,46.3642718496171],[14.3031918976269,46.3641406874551],[14.3037952275599,46.3636254996496],[14.3045373939816,46.3630960379716],[14.3058074019508,46.362723177672],[14.3059187019686,46.3625751312197],[14.3056821320981,46.3624248829691],[14.3054229960987,46.362230051472],[14.3052800052703,46.3621715114031],[14.3051202513205,46.3621436393779],[14.3047809473133,46.3621015398683],[14.3045104285162,46.362148659135],[14.304023740697,46.362199680584],[14.3037897979004,46.3622012255081],[14.3032281669905,46.3621977146723],[14.3031348378711,46.3621890485503],[14.3030293213955,46.3621985721863],[14.3028502922404,46.3622557820596],[14.3027629875882,46.3622434635515],[14.3027677599704,46.3622054349088],[14.3028130562583,46.3618320614262],[14.3028549587179,46.3615926340777],[14.3025784390354,46.3614577907648],[14.3024505910888,46.361373877701],[14.3022889952339,46.3612357759585],[14.3021919036312,46.3611042756398],[14.3021204115212,46.3609729314746],[14.3020963493108,46.3608418767511],[14.3021201394855,46.3606574913347],[14.3021869017262,46.3604764271696],[14.3022761444593,46.360223973146],[14.3023556187596,46.3600548626138],[14.3024498882734,46.3597340611001],[14.3024480995559,46.3595376433603],[14.3024123854453,46.3593929319598],[14.3020530980821,46.3591663516947],[14.3016684814687,46.3590003460793],[14.3013392327088,46.3588643679278],[14.301000953012,46.3587641421077],[14.3006200610654,46.3586427813746],[14.3001198952822,46.3584284690415],[14.2998348655383,46.3582291476228],[14.2995456900026,46.357957823218],[14.2993466173836,46.3575608207521],[14.2991655380735,46.357271083776],[14.2990487048955,46.3571602430174],[14.29892560507,46.357092369904],[14.2987903030743,46.3570336888545],[14.2984563811731,46.3569394202819],[14.2981032743771,46.3568212805982],[14.2977979998405,46.3566616869707],[14.2975579900017,46.3564489606526],[14.2974484598104,46.3562756331756],[14.2973739540958,46.3561171861003],[14.2973402252969,46.3560012759799],[14.2973158944184,46.3558820946679],[14.2973083867586,46.3557987352694],[14.2973008791201,46.3557153758694],[14.2972934487682,46.355625988877],[14.2972949733084,46.3555070564123],[14.2972709483433,46.3553640346101],[14.2972830107218,46.3551022027658],[14.2972434517186,46.3547822921911],[14.2971100088877,46.3544575758756],[14.2970275162027,46.3543345280595],[14.2968682104675,46.3541218464629],[14.2966570883379,46.3538766362527],[14.2965750916013,46.3538062242749],[14.2963689713473,46.3536878136535],[14.2962410418515,46.3536427605584],[14.2961786175385,46.3536166445922],[14.2960459930735,46.3535830786885],[14.2959222430603,46.3535465082551],[14.2956908048961,46.3534570911664],[14.2954810110821,46.3533517920985],[14.2954045155841,46.3532882509767],[14.2952603275719,46.3531031014566],[14.2952438208093,46.3530630525214],[14.2952161053751,46.3529852365778],[14.2951862514235,46.3528312018608],[14.2951846104662,46.3525747738939],[14.2951498578811,46.3523267790482],[14.2950923046345,46.3521240790737],[14.2950258179436,46.3519391382816],[14.2949247791913,46.3517837648612],[14.2948237638232,46.3516165152938],[14.2946543261219,46.3514250911927],[14.2944846615431,46.3512513897601],[14.2943150733004,46.3510718404129],[14.2941541373369,46.3508864061182],[14.2940185977649,46.3507367569911],[14.2939424688746,46.3506350693303],[14.293850392587,46.350450059763],[14.2937836049875,46.3502889587054],[14.2937346334569,46.3500863109736],[14.2937118995026,46.3498540448057],[14.293699272283,46.349502899091],[14.2936672977234,46.3493122324919],[14.293626518289,46.3491394157608],[14.2936030955359,46.3489606781632],[14.2935864298841,46.3489129804221],[14.293569817679,46.34887122111],[14.2935270451894,46.3488531425476],[14.2934670485587,46.3488408056742],[14.2933726001232,46.3488402220457],[14.293269600424,46.3488277092837],[14.293132763573,46.348779268676],[14.2928929519464,46.3487063487814],[14.2927561923197,46.3486519700973],[14.2925677802176,46.3486032097995],[14.2924397499358,46.3485369185665],[14.2923458629503,46.3484828046735],[14.2922780601667,46.3484109478716],[14.2922190618166,46.3483213312199],[14.2921857099529,46.3482378113968],[14.2921873229844,46.3481128513163],[14.2922060079133,46.3479939350114],[14.2922420478251,46.3478691880207],[14.2922696144856,46.3477264842921],[14.2923065759586,46.3475303058],[14.2923264887836,46.347316207468],[14.2923545912992,46.3471319402974],[14.2923476309223,46.3470068371613],[14.2923491657305,46.3468879046431],[14.2923590459069,46.3467867481095],[14.2923945471544,46.3467036544109],[14.2924299183828,46.3466205598955],[14.2924480414772,46.3465551729527],[14.2924750683154,46.3464542124745],[14.2924593027222,46.3463469591313],[14.2924242085878,46.3462374268683],[14.2923567394225,46.3461298535497],[14.2922718670193,46.3460520429405],[14.2921609909438,46.3459858575357],[14.2920414633683,46.3459256465338],[14.2919132866061,46.3458712299796],[14.2917466275428,46.3457987606134],[14.2916228138714,46.3457385226232],[14.2915054147706,46.3456745454497],[14.2914118180981,46.345608466377],[14.2913523625974,46.345554565002],[14.2913275108392,46.345477035671],[14.2913374693439,46.3453699415801],[14.2913622935524,46.3452786845924],[14.2913415901759,46.3452219643391],[14.2913423586243,46.3451624980746],[14.2913667037729,46.3451083062885],[14.2914709493182,46.3450137626515],[14.2916100574505,46.3448955925096],[14.2917838446325,46.3447478564916],[14.2919230515009,46.3446118722574],[14.2920359999381,46.3445172920189],[14.2921403198414,46.3444168101173],[14.2922362733549,46.3443102482557],[14.292359559958,46.3440788853179],[14.2924479603012,46.3438830249839],[14.2924836892864,46.3437821183054],[14.2925119436791,46.3435858857387],[14.2925224368188,46.3434371380967],[14.292515475268,46.3433121248549],[14.2924482925632,46.3431926770913],[14.2923547222711,46.3431147227084],[14.292278620089,46.3430724150409],[14.2922183613658,46.3430305652782],[14.2921441624952,46.3430018549725],[14.2920389268965,46.3429520791108],[14.29186783526,46.3428915486228],[14.2916793670097,46.3428487245617],[14.2914907456449,46.3428177754566],[14.2912612719752,46.3427814444673],[14.2910298841801,46.3427324151907],[14.2908625041118,46.3427165319905],[14.290716957586,46.3426799106316],[14.2905756064767,46.3426403460625],[14.2904428425109,46.3426098317395],[14.2902802514767,46.3425551997574],[14.2901651354016,46.3424861069719],[14.2900375845882,46.3423840973236],[14.2899398477296,46.3422972079177],[14.2898552933349,46.3421955550266],[14.2897922891229,46.3420850387895],[14.2897336487219,46.3419686115129],[14.2897135115732,46.341858361495],[14.2897154770723,46.3417065920351],[14.2897370000678,46.341539289041],[14.2897816913021,46.3414086583147],[14.2898440680905,46.3412364806698],[14.2898970245138,46.3411296536636],[14.2899413545187,46.3410168349526],[14.2899865840376,46.3408445507356],[14.290005578517,46.3407018841206],[14.2900160009477,46.3405590743024],[14.2899995476456,46.3405054391741],[14.289964308303,46.3404077813603],[14.2898927700843,46.3402943330659],[14.2898082822943,46.3401777452683],[14.2896599451224,46.3400161349674],[14.2895499075811,46.3398964191912],[14.2894186409634,46.3397408527427],[14.289172628367,46.339498290309],[14.2889434162068,46.3392826432854],[14.2887099194071,46.3390669691401],[14.2886124612065,46.338959206915],[14.2885446749666,46.3388873478746],[14.2885240768356,46.3388129033349],[14.2885293041452,46.3387504057383],[14.2885605820686,46.3386524415547],[14.2886306840156,46.3385457217645],[14.2887693426442,46.3384513945777],[14.2889445645699,46.3383623329982],[14.2890315018848,46.3382795600713],[14.2891099191362,46.3382026722199],[14.2891712916548,46.3381078640157],[14.2892397471212,46.3379676642427],[14.289277069666,46.3378942996195],[14.2893044597189,46.3377754376851],[14.2893144975234,46.3376624060058],[14.2892905775888,46.337513444609],[14.2892573664604,46.3374299246443],[14.2892074200669,46.3373046438706],[14.2891649669475,46.3372627231931],[14.2891225138927,46.3372208024998],[14.2890973359503,46.3371789891958],[14.2890641493327,46.3370835930943],[14.2890138188948,46.336988000411],[14.2889291973246,46.3368922844328],[14.2888356427099,46.336814327174],[14.2887078753113,46.3367302189014],[14.2886057487902,46.3366522081285],[14.2884330551792,46.3365567535391],[14.2882835353516,46.3364873547054],[14.2881513665909,46.3364122155529],[14.2880278103388,46.3363340708449],[14.2878613394676,46.3362497206192],[14.2877418003762,46.3361923840213],[14.2875496902625,46.3361019355109],[14.2873790503368,46.3360086514292],[14.287263914188,46.3359424345962],[14.2871659604721,46.3358734456796],[14.287034492761,46.3357445966431],[14.2869497852596,46.3356459095828],[14.2868439957822,46.3355202794792],[14.2867750630715,46.3353672579423],[14.2867944264663,46.3352066897036],[14.2868385251706,46.3351117749566],[14.2869417675675,46.3349436323813],[14.2871198986509,46.334789992181],[14.2872543039318,46.3346925812264],[14.2873237452729,46.3346365119826],[14.2873889786832,46.3345743883833],[14.2874674546138,46.3344827466559],[14.287516044625,46.3343819215075],[14.2875343093613,46.3342957526773],[14.2875183626992,46.334203432556],[14.2874636358193,46.3341167189209],[14.2873659176387,46.3340298272967],[14.2872510170545,46.3339457975418],[14.2871234130448,46.3338498122355],[14.2864450203132,46.3334884839313],[14.2860140902551,46.3332656336731],[14.2856445680203,46.3331051557996],[14.2853838840826,46.3330052780085],[14.2847944444747,46.3327368065062],[14.2842949010806,46.332507492448],[14.2840133991556,46.3323510690785],[14.283889935429,46.3322669822958],[14.2837837319274,46.3321740963152],[14.2836988043515,46.3320931297876],[14.2836139270217,46.3320182815731],[14.2835251017561,46.3319075998955],[14.2834572509231,46.3318418554009],[14.2833935333592,46.331787833066],[14.2833577718457,46.3317314667114],[14.2833329509728,46.3316628428213],[14.2832784647375,46.3315584042595],[14.2831961004921,46.3314503719897],[14.2830604309031,46.3313066466319],[14.2829627634922,46.3312167824539],[14.2829079414721,46.3311480602957],[14.282849042046,46.3310435038704],[14.2828201691503,46.3309570400839],[14.2828148373628,46.3308681147735],[14.2828222764428,46.3307958243252],[14.2828576515922,46.3307127325649],[14.2829123392804,46.3306426278404],[14.2829989241049,46.3305865787259],[14.2831181688693,46.3305060821163],[14.283205024762,46.33042925112],[14.2832834640302,46.3303404910575],[14.2833428654433,46.3302375760588],[14.2834352106105,46.3300685584626],[14.2835113187336,46.3298399678546],[14.2835838669624,46.329545765625],[14.2836870729253,46.3292012813592],[14.2837503093895,46.3289636127659],[14.2837824585366,46.3288090630696],[14.2838205870243,46.3286839715123],[14.2838091538037,46.3285648675243],[14.283784838685,46.3284575590899],[14.2836878738759,46.3283141668043],[14.2835352369539,46.3281673665706],[14.2834503922399,46.328080552166],[14.2833575594327,46.3279490617319],[14.2832728452002,46.3278622480097],[14.283218325162,46.327760688227],[14.2831814516571,46.3276206412394],[14.2832018719925,46.3273797353947],[14.2832800767579,46.327139551645],[14.2834057360683,46.3268954365827],[14.2836595063685,46.3265375002435],[14.2838175061153,46.3262730737873],[14.283941329025,46.3260001556872],[14.2839701999133,46.3257682097499],[14.2839459037027,46.3256495649932],[14.2839215965835,46.3255417167536],[14.2838462124046,46.325387033283],[14.2838219748621,46.3252738771278],[14.2838360355031,46.3251816543204],[14.2839018425693,46.3250750002563],[14.2839593123081,46.3249503895896],[14.2840981778136,46.3248381648035],[14.2842583339981,46.3247464067091],[14.2844576333607,46.3246107172866],[14.2846313736022,46.3244630813242],[14.284839991616,46.3242798545402],[14.2849615578154,46.324179396747],[14.2850661360471,46.3240670463205],[14.2851793888587,46.323936755701],[14.2852840763106,46.3238159484201],[14.2853807492734,46.323652354424],[14.2854781749493,46.323420926429],[14.2855849980101,46.3231359339586],[14.285612414199,46.3230051065391],[14.2856744721385,46.3228567711201],[14.2857274957699,46.3227440080015],[14.285840486617,46.3226434956801],[14.2859620461669,46.3225431267277],[14.2861020623139,46.3223416547691],[14.2861724567164,46.3222111855018],[14.286216676805,46.3221161815724],[14.2862867606169,46.3220095527815],[14.286366267102,46.321837393413],[14.2864726180586,46.3215881158452],[14.2865342861053,46.3214694681433],[14.2865704751168,46.3213328470401],[14.2865717135166,46.3212375747656],[14.2865646378952,46.3211125599609],[14.2865313633702,46.321034976695],[14.2863589162632,46.320754808366],[14.2863007698436,46.3206026632079],[14.2862558729362,46.3204202802659],[14.2861976873671,46.3202711938393],[14.2861737829207,46.3201222314303],[14.2861499312233,46.3199792074735],[14.2861095823354,46.3197766991882],[14.2860956159889,46.3195326087405],[14.2860896263239,46.3193241968803],[14.2860913288338,46.3191932986799],[14.2861184058982,46.3190982776737],[14.2861543872459,46.3189675934828],[14.2862515449185,46.3187658536394],[14.2863227858235,46.3185698900772],[14.2863675430101,46.3184333224505],[14.286412094107,46.3183026016787],[14.2864218765584,46.3182193489174],[14.2864137957872,46.3181717034456],[14.2863972752732,46.3181240052999],[14.2863468881239,46.3180344388689],[14.2863137712905,46.3179448902421],[14.2863148544214,46.3178615831848],[14.2862818383376,46.3177543107443],[14.2862653180598,46.3177066125775],[14.2862146998733,46.3176348590418],[14.2861386307023,46.3175331659429],[14.2860205650602,46.3173658011062],[14.2859107594517,46.3172223302397],[14.2858695378349,46.317097102045],[14.2858196171454,46.3169718194972],[14.2858042844508,46.3168229104648],[14.2857724006064,46.3166387190873],[14.2857966881909,46.3164187099326],[14.2857860066255,46.3162516556421],[14.2857707502828,46.3160968988994],[14.2857299956859,46.3159358647876],[14.2856594868777,46.3157364067711],[14.2855599979911,46.3154590320235],[14.2854551586136,46.3152735748853],[14.2853551668106,46.3150349746268],[14.285272392495,46.3147904537888],[14.2852483133819,46.3146652424999],[14.2852231733268,46.3146115521346],[14.2851897487383,46.3145459336964],[14.2851559636203,46.3144980374342],[14.2851400649768,46.3144027478913],[14.285202501908,46.3142246342213],[14.28531656049,46.3140408150795],[14.28546644197,46.3137382769846],[14.2855280258918,46.3136255672805],[14.2856025366271,46.3135072700868],[14.2856941671013,46.3134004162418],[14.2857733513277,46.3132521875202],[14.2858700354551,46.3130861636532],[14.2859398776909,46.3129972578504],[14.2860099501858,46.3128906289962],[14.2860889023508,46.3127601230405],[14.2861425327643,46.3125998582122],[14.2862009092269,46.3124040841181],[14.2862327605231,46.3122611378035],[14.2862343850798,46.3121361770945],[14.2862018122442,46.3120050647583],[14.2861520496881,46.3118679069502],[14.2860596245591,46.3117066402023],[14.2859245899563,46.3115272028809],[14.2857305538862,46.3112522966041],[14.285501859477,46.3110068641143],[14.2853147444648,46.3108688475187],[14.2851355018959,46.310784413077],[14.2849819663637,46.310700049144],[14.2848369725301,46.3106277946571],[14.2847260992059,46.3105675397522],[14.284666765218,46.3105076971685],[14.2846248014119,46.3104300588374],[14.2845497270856,46.3102629612403],[14.2845000487392,46.3101197750819],[14.2844680489384,46.3099351325378],[14.2844450581469,46.3097267038183],[14.2844302738089,46.3095361408738],[14.2843909468273,46.3092562622034],[14.2843691982726,46.3089525610127],[14.284328631411,46.3087678647707],[14.2842795752763,46.3085770872527],[14.2842468543303,46.3084578496354],[14.2842524541196,46.3083569362459],[14.2842751958587,46.3082556803008],[14.2843197946378,46.3081309885303],[14.2844504364852,46.307988930845],[14.2845636310524,46.3078706063859],[14.2846590940804,46.3077878897166],[14.284746464361,46.3076785806351],[14.2848772996803,46.3075214983569],[14.2849918102103,46.3073019633186],[14.2850731565483,46.3069871204998],[14.285101727286,46.3067670479359],[14.2851398468135,46.3064816254839],[14.2851255245824,46.306255436537],[14.28508477767,46.3060944919361],[14.2850089582593,46.305974984996],[14.2848308169778,46.3058072428903],[14.2846780703503,46.3056634119663],[14.2845336339967,46.3055494135417],[14.2843641405239,46.3053757866617],[14.2842117058831,46.3052082044671],[14.2841015419349,46.3050944200385],[14.2839915321002,46.3049688501437],[14.2838906881756,46.3048074387474],[14.283841635765,46.3046167509034],[14.2837922739444,46.3044498136851],[14.2837764418077,46.3043398587747],[14.2838163675559,46.304244828585],[14.2839036974198,46.3041383089597],[14.284050922476,46.3040380125075],[14.2842367936693,46.3039407469314],[14.2843410248364,46.3038521472157],[14.2844278364193,46.3037753146823],[14.2845065981779,46.3036686509933],[14.2845768945436,46.3035441198329],[14.2846743654204,46.3033066638971],[14.284727603737,46.3031760877657],[14.2847463656906,46.3030512340876],[14.2847476052933,46.3029560515096],[14.2847229885863,46.3028725834774],[14.2847161261812,46.302741631342],[14.2847004871484,46.3026167423896],[14.2847060877241,46.3025156489377],[14.2847031996364,46.3024084742564],[14.2847302704764,46.3023134532673],[14.2848263443824,46.3021830550608],[14.2849352811362,46.3020617344139],[14.2851342628145,46.3019439457603],[14.2853549069681,46.3018173849336],[14.2857359249192,46.3015668545751],[14.2860260447294,46.3013781959155],[14.2863596286024,46.3011512098261],[14.2865281171513,46.3010719163561],[14.2867827524127,46.3009663483914],[14.2872317667037,46.3007668014113],[14.2874996489116,46.3006405308958],[14.2876555161582,46.3005432526799],[14.2877941566963,46.3004429878413],[14.2879678527754,46.3002921069696],[14.2880811007057,46.3001678410629],[14.28819452728,46.3000197335733],[14.2883086227508,46.2998299730929],[14.2884278457594,46.2995750146981],[14.2885033388755,46.2993788956635],[14.2885399704023,46.299206557289],[14.2885074245475,46.2990634792049],[14.2884834948515,46.2989266627963],[14.2883564320522,46.2987949627183],[14.2881304793362,46.2986715540666],[14.2879683665922,46.2985901995978],[14.2877463512293,46.2984936263656],[14.2875368783755,46.298420883473],[14.2872891649286,46.2983241492132],[14.2870416461957,46.2982124802715],[14.2868670721413,46.2981013557568],[14.286662580335,46.2979751089626],[14.2865478362476,46.2978848708422],[14.286506086125,46.2978012962073],[14.2864814162909,46.2977118899933],[14.2864914516012,46.2975988577638],[14.2865189013264,46.2974742378372],[14.2865850175428,46.2973407719975],[14.2867025093752,46.2972193230085],[14.2868590081251,46.2970627581847],[14.2870587149411,46.296897375399],[14.2872106998195,46.2967584164622],[14.287354311423,46.2966044697691],[14.2874001360966,46.2965140635494],[14.287442626892,46.2964204875106],[14.2874433212344,46.2963669584625],[14.2874441707801,46.296301464097],[14.2874364541371,46.2962359163446],[14.2874207347369,46.2961168753094],[14.2873959628551,46.2960452831],[14.2873807608412,46.2958963745537],[14.2873908709492,46.2957774045205],[14.2873928782192,46.2956226650701],[14.287403065265,46.2954977573529],[14.2874239024852,46.2952122258795],[14.2874097800385,46.2949800998689],[14.2874039409943,46.2947598118173],[14.2874061792122,46.2945872593055],[14.2874159027374,46.2944980675955],[14.2874168292774,46.294426635531],[14.2874088806836,46.2943789907558],[14.2873680056811,46.2942180458386],[14.2873020507698,46.2940093493321],[14.2872020897032,46.2937706600146],[14.2871615766505,46.2935919027862],[14.2871454733158,46.293502550059],[14.2871037255326,46.2934189755923],[14.2871047294914,46.2933416058404],[14.2870883181202,46.2932760038171],[14.287046647646,46.2931864916489],[14.2870306216645,46.2930912012221],[14.2869228707428,46.2927929015042],[14.2867984522425,46.2924588687402],[14.2866312319268,46.2921126924537],[14.2864971178354,46.2918558848873],[14.2863206743385,46.2915605747798],[14.2860588790605,46.2912316217028],[14.2858089935762,46.2909651830705],[14.2855626713224,46.2907642658688],[14.2852178993718,46.2905389800445],[14.2849193233774,46.2903943272386],[14.2847108923027,46.2902442095086],[14.2845923850001,46.2901155276395],[14.2844319300473,46.2899092070596],[14.2843442690379,46.289724125483],[14.2842141035092,46.2894942415178],[14.2841399889186,46.289255711134],[14.2840858915534,46.289124462896],[14.2840366208865,46.2889514977639],[14.284030191673,46.2887875281926],[14.2840400742694,46.288686461346],[14.2840724649278,46.2885113983586],[14.2841125966739,46.2883896473621],[14.2842040293431,46.2882949392746],[14.2844112941396,46.2881951079469],[14.2845580626436,46.2881364648549],[14.2847136910795,46.2880452170977],[14.2849294555024,46.2879602834137],[14.285080607257,46.2878838525685],[14.2852283022206,46.2877538664558],[14.2853113461966,46.2876353523704],[14.2853776088214,46.287489921619],[14.2854138194312,46.287350061225],[14.285424242025,46.2872072505074],[14.2854476614293,46.2870530045703],[14.2854388772263,46.2867404761892],[14.2854173865956,46.286407084794],[14.2853952175708,46.2861358599403],[14.2853895168883,46.2859155723088],[14.2853918379532,46.2857370819203],[14.2853812175514,46.2855558114716],[14.2853483915007,46.2854454802829],[14.285281125343,46.2853289956283],[14.2852439389943,46.2852246652876],[14.2852457234014,46.2850874687826],[14.2852601917894,46.2849628577088],[14.2852451141139,46.2848050421138],[14.2851653920524,46.2846585187514],[14.2851240659232,46.2845332889153],[14.2850663041595,46.2843546927181],[14.2849739028039,46.2842053007849],[14.2848427804199,46.2840497284087],[14.2846772073649,46.2839088757366],[14.2844686593596,46.2837796302158],[14.2841953891716,46.2836677936298],[14.2838280162392,46.2835375524653],[14.2833277444725,46.2833885726619],[14.2829643077853,46.2832851651229],[14.2826652732262,46.2831791014527],[14.2824092930335,46.2830554927203],[14.2821923058501,46.2829172828008],[14.2819625777836,46.2827610879673],[14.2817195248099,46.2826316206948],[14.2814301871071,46.2824394212526],[14.2811792085245,46.2822712149284],[14.2809236775945,46.2821237630148],[14.280642053248,46.2819970199246],[14.2803858487274,46.2818913097055],[14.2801041879353,46.2817675341403],[14.2798563290864,46.2816885970492],[14.2796252862606,46.281633608032],[14.2793468181376,46.2815931650571],[14.2790854521859,46.2815647055846],[14.2788237218436,46.2815541477031],[14.2784455857189,46.281593419072],[14.278157538683,46.2816302889222],[14.2779595419449,46.2816677267753],[14.2778177440725,46.2816846457081],[14.2776975119356,46.2816898243671],[14.2776118602419,46.2816803759664],[14.2775132329771,46.2816708455072],[14.2774275686831,46.2816524896313],[14.2773723993426,46.2816045456055],[14.2773086674023,46.2815564574567],[14.2772364486015,46.2815024674221],[14.2771854053342,46.2814664257317],[14.2771170379962,46.2814452098874],[14.2770268579463,46.2814446396743],[14.2769581391939,46.2814501432861],[14.2768981014681,46.281446794503],[14.2768126858641,46.2814194425081],[14.276685130455,46.2813204758261],[14.2764598630311,46.2811524217555],[14.276251463378,46.2810141648755],[14.2760857651333,46.2808851752227],[14.2758128395017,46.2807495680179],[14.2755185450322,46.2806108556664],[14.275253206021,46.280549612325],[14.274936759508,46.2804672606624],[14.2747099303397,46.2804182265892],[14.2743973741388,46.2803656789479],[14.2740757318241,46.2803428535996],[14.2737584241139,46.2803259030807],[14.273054290808,46.280348239975],[14.2727060141543,46.2803965894738],[14.2724565063512,46.2804336901171],[14.272323311867,46.2804477778702],[14.2721986428942,46.2804647988534],[14.2720909427869,46.2804938940551],[14.27181587277,46.2805308305519],[14.2715838188777,46.2805531050486],[14.2714078329905,46.2805550427539],[14.2711892554673,46.2805298069713],[14.2709920862135,46.2805047972492],[14.2706873472261,46.2805087919258],[14.2703954143496,46.2805158365991],[14.2700471343918,46.2805641779769],[14.269680974498,46.2806689966723],[14.2694784277381,46.2807361716173],[14.269326947225,46.2808274252607],[14.2691934747057,46.2808622911955],[14.2690687643822,46.2808822775875],[14.2689400473108,46.2808815445907],[14.2687944308353,46.2808538016479],[14.2684776763672,46.2807951828289],[14.2680674515882,46.2806616476522],[14.2678542260682,46.2805561844441],[14.2677351090649,46.2804777754782],[14.2676849456409,46.2803762353182],[14.2676863720283,46.2802691773859],[14.2677565176068,46.2801565314418],[14.2677792702131,46.280055818178],[14.2677592885743,46.27994853316],[14.2676837005902,46.2798171392845],[14.2675830327222,46.2796495057879],[14.2674048204466,46.2794876734112],[14.2671715760989,46.2792782525471],[14.2668271112987,46.2790409463813],[14.2666398741751,46.2789236812043],[14.2664482263874,46.2788063874191],[14.2663704473839,46.2787325608951],[14.2663220884767,46.2791377559589],[14.2662654330356,46.2795131168862],[14.2661488916071,46.2798641607508],[14.2660720093101,46.2800146408232],[14.26587521349,46.2803991787154],[14.2655929975565,46.2809220848453],[14.2653201059499,46.2813974547985],[14.2650974476407,46.2819685176061],[14.264762135566,46.282598507168],[14.2645399164532,46.2831456389735],[14.2643738594451,46.2839854515847],[14.2641473486243,46.2848426892738],[14.2640162772331,46.2856469173354],[14.2638425181687,46.2864210894813],[14.2637161820497,46.2868615897652],[14.2636087813369,46.2871769705031],[14.2634761159827,46.2874503512919],[14.2633004440872,46.2877176066182],[14.2629765697811,46.2881389285234],[14.2625560861587,46.2887087103369],[14.2623352902057,46.2891366333274],[14.2620789793927,46.2896478208399],[14.2619363220189,46.2900166856992],[14.2616436890705,46.2906707834101],[14.2614230077379,46.2910987052419],[14.2611502205845,46.2915501325325],[14.2609481052612,46.2918709265573],[14.2607120288903,46.2921496635707],[14.2604673532935,46.2924403107586],[14.2602914107338,46.2927253739802],[14.260166637512,46.2930465769461],[14.2601024832243,46.2933383912865],[14.2600911065676,46.2935470530033],[14.2601548823121,46.2939291274599],[14.2603105734717,46.2945026273956],[14.2604510627754,46.2949328831132],[14.2605157253439,46.29524937335],[14.2605125948629,46.2954819309786],[14.2604035036216,46.2959105721837],[14.2600961088256,46.2969052040905],[14.2597279121528,46.2968915742483],[14.2590841285851,46.2971197120925],[14.258360264514,46.2974429671962],[14.2578147422022,46.2976990867194],[14.2569324798028,46.298062241722],[14.2562879304567,46.2983450618213],[14.2556829249594,46.2986212978363],[14.2551564226744,46.2989184657359],[14.2547775119874,46.2992439447788],[14.2544975771915,46.2995358785725],[14.2543359771898,46.2998218355739],[14.2542325438214,46.3001832983932],[14.2542471723388,46.3005591169923],[14.2543297041938,46.3010105950418],[14.2544887464882,46.3016401766424],[14.2545621949546,46.3020438200783],[14.2546147103047,46.3025360393572],[14.2546272088106,46.3030690249261],[14.2545728191286,46.3034513211763],[14.2543584498327,46.3039896652448],[14.2542140621243,46.3044601766373],[14.2540013558587,46.3048755391302],[14.2538305588177,46.3051204079455],[14.2534817149004,46.3053982135105],[14.2529732856738,46.3058117328023],[14.2523974072469,46.3061154029262],[14.2517526466654,46.3064050336131],[14.2509496897727,46.3067277237369],[14.2502572650216,46.3068939520995],[14.2492106109338,46.3070169135468],[14.248380837458,46.3071344534678],[14.247491619631,46.3072789476128],[14.2463164126906,46.3074215500168],[14.2443128198671,46.3075791818742],[14.2437899697849,46.3076098243554],[14.2433658955593,46.3076138566544],[14.2422128541491,46.3075789589791],[14.2408609248188,46.3076656309793],[14.2396961260695,46.3077672972132],[14.2389254234422,46.3078919991628],[14.2377188779327,46.3081572062299],[14.2372045554418,46.3082836055714],[14.2364334250573,46.3084288014612],[14.2360185805174,46.3084874811009],[14.2356129943262,46.3085805004317],[14.2351568747257,46.3087687304692],[14.2350267445095,46.3089113651038],[14.2349743673989,46.3091296464025],[14.2350099307732,46.3094099668945],[14.2353093779954,46.3098629091681],[14.2355505471383,46.3102403344628],[14.2357733534421,46.3105287442644],[14.2363290856431,46.3109833964878],[14.2370296599472,46.3116576442303],[14.2374877888944,46.3120365128715],[14.2381253027468,46.3129904155583],[14.2382906363721,46.3131555357909],[14.2385437325729,46.3133963667724],[14.2386379154444,46.3137112655883],[14.2385946926494,46.3139910600762],[14.2385025712322,46.3142295916963],[14.2384833662555,46.3142568152233],[14.2384020382611,46.3143724271566],[14.2381630796248,46.314534763878],[14.2378565996334,46.3145942621072],[14.2378178189203,46.3146940522634]]]},"properties":{"fill-opacity":0,"stroke-opacity":1,"stroke":"#ff0000","lov":"0216","lov_naziv":"DOBRČA","luo":"02","luo_naziv":"Gorenjsko","povrsina":3505.46},"id":"pregledovalniklovisca.1"}]}