{"type":"FeatureCollection","features":[{"type":"Feature","geometry":{"type":"Polygon","coordinates":[[[14.2566225012522,46.0079826749379],[14.2562640882276,46.0083844277978],[14.2544271792732,46.0080739166279],[14.2535458420456,46.0079628909435],[14.2521570062682,46.008094444641],[14.2509432413367,46.0083324916259],[14.2503093435546,46.0085918764642],[14.2501035010766,46.0088891581921],[14.2495196018089,46.0091840475249],[14.248407831855,46.0093349201646],[14.2477989596782,46.0095944556203],[14.2471409171905,46.0097658468086],[14.2453666685443,46.0104217709933],[14.2443075016468,46.0104148622748],[14.2432428256874,46.0108119019175],[14.2426094545244,46.0110185211983],[14.2419061727188,46.010803133183],[14.2416023137468,46.0108890242423],[14.240913052064,46.0114992578328],[14.2384832274738,46.0121332633011],[14.238076823021,46.012341369553],[14.2378453677748,46.0126736390972],[14.2378888593686,46.0131832861319],[14.2380832051213,46.0137291197296],[14.2379933199542,46.0147825049987],[14.2381082708086,46.0156088954823],[14.2384295131004,46.0161028479485],[14.238474940247,46.016472054115],[14.238822817509,46.0168608204579],[14.2396455864083,46.0175689233984],[14.2402653497755,46.0183810333738],[14.2407356850011,46.0190340586815],[14.2414365524525,46.0194427068416],[14.241785910289,46.0197260214373],[14.2419544133331,46.0203244025191],[14.2418465904329,46.0208331335821],[14.2414366607241,46.0213046789347],[14.2414069124106,46.021638293816],[14.2417784748702,46.022150115712],[14.2425273582176,46.0227347093268],[14.242620436089,46.0233150437913],[14.2431954308965,46.0237053012175],[14.2435687009951,46.0240941307645],[14.243970621661,46.0242197878947],[14.2452561453353,46.0242983762101],[14.2461116926411,46.0244621113926],[14.24714713555,46.0243810300893],[14.2468056407546,46.0253976717986],[14.2464944412437,46.0260279739004],[14.2463336505918,46.0267296285145],[14.2458159138989,46.0277099237844],[14.2451736405088,46.0285664865329],[14.2447407570551,46.028862257873],[14.2437262310946,46.0292596323083],[14.2432166843139,46.0296252519392],[14.2430101338825,46.0299752412477],[14.2428768738397,46.0305013493169],[14.2420134483683,46.0309172547128],[14.2411988315022,46.031456475119],[14.2407898898313,46.0318402071027],[14.2403764985853,46.0325577197355],[14.240371573867,46.0329265894091],[14.2407413876007,46.0335613994716],[14.2415919069351,46.0341115824532],[14.2425199322634,46.0345216400169],[14.2436307848062,46.0344762710875],[14.2443679407959,46.0340770642847],[14.2448492223358,46.0339396125663],[14.2453762252125,46.034153907652],[14.2462767015633,46.0347394762337],[14.2473293086177,46.0352733136159],[14.2476026198238,46.0355912894254],[14.2478950574628,46.036366109309],[14.2488182983442,46.0371449861546],[14.2499231502269,46.0375561454193],[14.2504464080003,46.038051387775],[14.2509681424033,46.0386696150303],[14.2508587021359,46.0393013396764],[14.2503379659,46.040509992927],[14.2497972234223,46.041314519762],[14.2498700767184,46.0415258118483],[14.2503963511637,46.0418102599991],[14.2513746102445,46.0422557551183],[14.2521756721041,46.0427352631468],[14.252874791313,46.0433019157496],[14.2535315594161,46.0432534812733],[14.2538640817471,46.0429218415543],[14.2541446660598,46.0426953138254],[14.2547285523942,46.0424355829712],[14.2558397918833,46.0423724625781],[14.2567005978862,46.0421671603562],[14.2579376879365,46.0421223833079],[14.2592971355744,46.0423771063614],[14.2606646696535,46.0420168793501],[14.2621272381785,46.0420965125787],[14.2625261892355,46.0424679893031],[14.2629019268238,46.0426811370472],[14.263708696333,46.0427389733247],[14.2645889749657,46.0429729101253],[14.2650274681828,46.0432970351706],[14.2652160667998,46.0436512237428],[14.2653078057644,46.0440215249159],[14.2654736788488,46.0442578783215],[14.2657849607102,46.0444615146695],[14.266413341666,46.0444688788486],[14.2676485157045,46.044582162177],[14.2687560778046,46.0447998876536],[14.2697864446845,46.0451401963482],[14.272220116711,46.0462446086257],[14.2733502892118,46.0466733371141],[14.2748842480475,46.0471045269351],[14.2760388654632,46.0476036550516],[14.2769446986876,46.0478201129864],[14.2778275030521,46.0478607851971],[14.2785856740997,46.0477776668573],[14.2794225275268,46.0474666806561],[14.2801564084109,46.0473131275367],[14.2811917762606,46.0472669180401],[14.2826327320061,46.0470826132256],[14.2835960138856,46.0467547546335],[14.2839771792102,46.0465463295848],[14.2846439369472,46.0457248854338],[14.2848519695749,46.0452342887249],[14.2852591230591,46.044973296043],[14.2859435690557,46.0447315799981],[14.2865247453077,46.0446824836229],[14.2877866132694,46.0446727187437],[14.2886198902475,46.0446427277403],[14.2891737137854,46.0447514454548],[14.2900787485064,46.0450205203407],[14.2906866927047,46.0448485719152],[14.2911192345503,46.0445701705976],[14.2915273471823,46.0442213449588],[14.2922117569606,46.0439795911318],[14.2929433154362,46.0440016645578],[14.2937721041849,46.0443228744557],[14.2947237778931,46.0449083763172],[14.2952229830885,46.0453505384774],[14.2955689826604,46.0459323866586],[14.2962459414824,46.0462878231839],[14.2969242456446,46.0465379021219],[14.2976027057228,46.0465518811121],[14.298390066386,46.0467517851036],[14.2996332019471,46.0471849058801],[14.3006963546227,46.0477410787645],[14.3012130253385,46.0480848877238],[14.3004670796672,46.0457688427729],[14.3016567085107,46.0454949429948],[14.3028511975567,46.0427793823526],[14.3038194519809,46.0420298458794],[14.3048307042421,46.0418778234418],[14.3054920356531,46.0414602164621],[14.3063540578304,46.0411315504481],[14.3068557383833,46.0413804985778],[14.3074009150347,46.0421917882064],[14.3087015387888,46.043130644177],[14.3094484792673,46.0439606892957],[14.3099600840752,46.0426581377843],[14.3104240676004,46.0419515674],[14.3112117175352,46.0413676939409],[14.3117136484481,46.0410989902284],[14.3123235915822,46.0408611661951],[14.313074867116,46.0407178534823],[14.313565585046,46.0406022134122],[14.314025135417,46.0407393967473],[14.3144692619925,46.0407866896494],[14.3159412385727,46.0413115217369],[14.3166725567481,46.0413509871657],[14.318189255102,46.0411315961269],[14.3193301257064,46.0406991334846],[14.3199306443285,46.0413738394393],[14.3202009461773,46.0420683527017],[14.3215231834269,46.0430322945361],[14.3230668294126,46.043803544301],[14.3246712223924,46.0444919942723],[14.3256377146351,46.0452459410263],[14.3262708998861,46.0455822263779],[14.3271787482628,46.0462527664502],[14.3279308764628,46.0466173652861],[14.3291000818391,46.0470814921856],[14.3300693595777,46.0476137168083],[14.3310781180221,46.0481738768065],[14.3323665689245,46.048666380562],[14.3326472858792,46.0484689933526],[14.3326818021908,46.0481673257733],[14.3331896966964,46.047474686421],[14.3333510958087,46.0472700330091],[14.333967165637,46.0470364483035],[14.3344696577291,46.0468021989538],[14.3348682434716,46.0465367509297],[14.33543331997,46.0459856064185],[14.3359862610332,46.0453247978721],[14.3361943191491,46.0450097410399],[14.3366063325456,46.0447433751312],[14.3376320987165,46.0444330590313],[14.3386986079018,46.0437609062164],[14.3399413069953,46.0431340292294],[14.3408970781443,46.0425016153891],[14.341631741957,46.0423057431638],[14.3423171799461,46.0419460066165],[14.3428445787663,46.0415221042279],[14.3432116210185,46.0412079484558],[14.3435350542899,46.0407355431579],[14.3437738371522,46.0397408799955],[14.3424839965339,46.0394833334753],[14.3417975818107,46.0396233441],[14.3416815245021,46.0396046804612],[14.3413870600869,46.0393780438995],[14.3412469832318,46.039206282155],[14.3411845273496,46.0390259700937],[14.3404364421211,46.0389200724553],[14.3397772029292,46.0385901030004],[14.3391812179429,46.0382542871219],[14.3389261684622,46.0380823975315],[14.3389328661165,46.0379324461992],[14.3391231340197,46.0378487891293],[14.3392635137603,46.0375932590058],[14.3394463028141,46.0374323587003],[14.3397689430422,46.0372009150587],[14.3399665122103,46.0370571047677],[14.3401408812126,46.0368109473773],[14.3403914360105,46.0363180651616],[14.340576423114,46.0361998243614],[14.3413628494636,46.0359571048615],[14.3417444817514,46.0357717933623],[14.342288295543,46.035331701977],[14.3426656958665,46.0347944665296],[14.3434573162952,46.033761592284],[14.3439953433074,46.0329015408338],[14.3439272648649,46.0323992632089],[14.3441544059297,46.0319372797473],[14.3444555582125,46.0314757203377],[14.3444589660732,46.0312311847127],[14.3442397308628,46.0309596386521],[14.34394667191,46.0307263581606],[14.3440994829196,46.0303556336894],[14.344638883075,46.030009620477],[14.3449007990528,46.0297408336438],[14.3447197630751,46.0294180410078],[14.3452058841547,46.0289446732057],[14.3454169606831,46.028276639419],[14.3455920253079,46.0275183327887],[14.345800335927,46.0270948376505],[14.3462122272165,46.0272289197852],[14.3465099447924,46.0270551688698],[14.3471069680621,46.0264735556433],[14.3472240354253,46.0261737937326],[14.3472958231542,46.0258580272628],[14.3474582213503,46.0255586139333],[14.3476653951231,46.025306783439],[14.3483743728385,46.0248680548324],[14.3489256478607,46.0243178426957],[14.3482009653732,46.0237419129196],[14.3475402484423,46.0232744051797],[14.3466242836456,46.0224703629548],[14.3455574302249,46.0219231414539],[14.3443399810664,46.0216070949628],[14.3429370437929,46.0213157024473],[14.3417074663561,46.0211968761872],[14.3402664553178,46.0210464043823],[14.3399800986601,46.0210154187351],[14.3393956148673,46.0210200497006],[14.3393454564903,46.0208937929256],[14.3392837769621,46.0206505003075],[14.3391575253696,46.0204068342909],[14.3389531447705,46.0202167020438],[14.3385034987217,46.0200161524599],[14.3378994203635,46.0197697183665],[14.3381644706815,46.0192044026432],[14.3384294937004,46.0186300884587],[14.3382248000867,46.0184669459412],[14.338074233018,46.01809717093],[14.3380269790663,46.017727994151],[14.3380437579482,46.0174041764125],[14.3380993851872,46.0170715860147],[14.3379209551645,46.0168726044589],[14.3378346401948,46.0165301941447],[14.3377855415657,46.0163049686985],[14.3377229081777,46.016142558288],[14.3378163098062,46.0158911656011],[14.3377279562605,46.0157196984919],[14.3375888091349,46.015475955799],[14.3375647012855,46.0153318538238],[14.3376046229411,46.0152331111686],[14.3376979161204,46.0149907155514],[14.3378807418482,46.0148208197177],[14.3380495797904,46.0147408189829],[14.3385551253088,46.0145817884451],[14.3386077432739,46.0145011141908],[14.3384070339332,46.0140050821791],[14.3382572286031,46.0135723280278],[14.3381707873342,46.0132299170391],[14.3380742469178,46.0126625063662],[14.3382692252873,46.0125556637432],[14.3384890628132,46.0125299434798],[14.3385538407488,46.0125123231185],[14.3382205792924,46.012303448014],[14.3376030287653,46.0121109198521],[14.3371014804061,46.0119370565455],[14.336889172527,46.0113328926286],[14.3349947599794,46.0113786603382],[14.3338124854159,46.0109750685876],[14.3319622527204,46.0108486486201],[14.3297060527965,46.0109348621748],[14.3284895932082,46.0114072957083],[14.3271543754803,46.0118955728197],[14.3258112270082,46.0130452044049],[14.3246030122027,46.0128232068609],[14.3239209526877,46.012290112512],[14.3226364939585,46.0124976405802],[14.3214036628609,46.0123581516453],[14.3199472296819,46.0110764174373],[14.3189564324557,46.0105580113992],[14.3181494949573,46.0105367342153],[14.3174601292966,46.0106153976259],[14.316914479649,46.0105791162154],[14.3163240914503,46.0103276107343],[14.3148008965885,46.0106493321559],[14.3142161104103,46.0099348303117],[14.3139374784781,46.0094206518343],[14.3139912018629,46.0089083781268],[14.3140933308814,46.0083137964239],[14.3139798582383,46.0078832074772],[14.3132307826202,46.0070189827037],[14.3122405311519,46.0064674099265],[14.3116486425798,46.0063316708897],[14.3099905970341,46.0060407654524],[14.309017487757,46.0060348860499],[14.3082363081117,46.0058484075988],[14.3074579462318,46.0054468968623],[14.307051588494,46.005675943426],[14.3063658591301,46.0054569194998],[14.3054930348035,46.0050218005748],[14.3050696186662,46.0047051184349],[14.3045778409985,46.0041565089663],[14.3036055945058,46.0040845458897],[14.3025318681174,46.0039815431711],[14.2997443845619,46.0034494713289],[14.2984176298164,46.003243025744],[14.2983814856023,46.0023334101223],[14.2976529257885,46.001750295258],[14.2947066023702,46.0000954749527],[14.2925293795064,45.9995862462015],[14.2904689348028,45.9992263424681],[14.2894239702885,45.9992860728628],[14.2887602370103,45.9992159011885],[14.2883122767488,45.9989816924096],[14.2881254315063,45.9987324629635],[14.2881050705989,45.99846780465],[14.2888537739831,45.9974472714473],[14.2892856740229,45.9970696266207],[14.288384701167,45.9969979771174],[14.2880500100356,45.9971942912494],[14.287570253755,45.9975881887959],[14.2870188535594,45.9980312145257],[14.2863028723842,45.9983410341087],[14.2856356677655,45.9985518198225],[14.2854209546822,45.9986331660754],[14.2852018992414,45.9990617048202],[14.2848676098263,45.9992249906391],[14.2843220952564,45.9991885543231],[14.2836444604453,45.9992858024681],[14.2821063295077,45.9998528113319],[14.2810322378427,46.0003256348686],[14.2805065268394,46.0006034134913],[14.279528970505,46.0006393640146],[14.2789845576932,46.0008254214771],[14.278370477857,46.0005901256109],[14.2780139103069,46.0006375406781],[14.2773236249372,46.000781999135],[14.2768731164027,46.0007461280067],[14.2767828387669,46.0003818710343],[14.2766936408805,45.9999348422545],[14.2762543958969,45.9997387015151],[14.2757935017982,45.9997969659385],[14.2755989843179,46.0001595088546],[14.275309577849,46.0005214497515],[14.2750181588973,46.000641789769],[14.2746423920197,46.000715705615],[14.2741694296247,46.0005804370398],[14.2734812109464,46.0005761539768],[14.2732184446048,46.0007067489379],[14.2734022875638,46.0011708478888],[14.2730862922358,46.001747568284],[14.2721791006296,46.0023330309803],[14.2697468064354,46.0030162735621],[14.2686283066356,46.003240720948],[14.2678412399325,46.0035333240309],[14.2669101040092,46.0039407975401],[14.2662160714068,46.0043828974502],[14.2644300417947,46.0048179698858],[14.2639749049351,46.0051292378991],[14.2638525268667,46.0054095366027],[14.2638469537445,46.0058394089074],[14.263653653543,46.0061026948102],[14.2633428860102,46.0062660690575],[14.2626290849065,46.0063938213563],[14.2617027022957,46.0064375075923],[14.2604903985108,46.0065620250275],[14.2594904452344,46.0067870599306],[14.2587273491529,46.007046734012],[14.2582491971765,46.0073082527433],[14.2577271587298,46.0072883076256],[14.2572974910685,46.0074674487858],[14.2567251870432,46.0076622164369],[14.2566225012522,46.0079826749379]]]},"properties":{"fill-opacity":0,"stroke-opacity":1,"stroke":"#ff0000","lov":"0234","lov_naziv":"HORJUL","luo":"02","luo_naziv":"Gorenjsko","povrsina":3236.92},"id":"pregledovalniklovisca.1"}]}