{"type":"FeatureCollection","features":[{"type":"Feature","geometry":{"type":"Polygon","coordinates":[[[14.4431936794288,46.4229028953435],[14.4432604712675,46.4228839247932],[14.4434388787285,46.4226960212985],[14.4434931136839,46.4226388992833],[14.443730158376,46.4225748243058],[14.4446066656179,46.422380700562],[14.4452299470786,46.4222423829503],[14.4455618992858,46.4221587012226],[14.4456743890515,46.4219578937273],[14.4467628268284,46.4215949171741],[14.4475500709833,46.4216831146401],[14.4480913812546,46.4218922993111],[14.4486661614718,46.4221888236697],[14.4501188081755,46.4222580767337],[14.4507146516761,46.4223889673764],[14.4514986036045,46.4224699242307],[14.4518364665125,46.4224057761264],[14.4520265622276,46.4223558659136],[14.4520407406831,46.4223521433003],[14.4521105980208,46.4223397922284],[14.4522928571635,46.4222167224822],[14.4523344525164,46.4221886352699],[14.4532790142104,46.421768316528],[14.4542542030972,46.4214714849547],[14.4557039526289,46.4215169011875],[14.4561642342951,46.4214127464035],[14.4564976770277,46.4214125321534],[14.456517106204,46.4214022071413],[14.4567810966091,46.4212619171948],[14.456929931006,46.4211828229369],[14.4574449876982,46.4211170703593],[14.4578586532851,46.4210689188245],[14.4580979656482,46.4211937617604],[14.4585189675038,46.4212324636267],[14.4588221505738,46.421239926711],[14.4594312850134,46.4212775359867],[14.4610249560195,46.4213854642993],[14.4621448118284,46.4217055414353],[14.4624089290661,46.4216375963822],[14.463157998077,46.4218136774961],[14.4638124990701,46.4219490038146],[14.4644044522033,46.4220417475902],[14.4650726770341,46.4220780740382],[14.465832047433,46.4219069017673],[14.4667517053365,46.4219748023682],[14.4672125882566,46.4218739348228],[14.4673907995995,46.4217279808083],[14.4674322556596,46.4216940283926],[14.4674053893073,46.4216341932335],[14.4673780102283,46.4215732160192],[14.4678069310497,46.4212803812439],[14.4684828281146,46.4211690827584],[14.4687971032798,46.421209325621],[14.4689326652804,46.4212266840194],[14.4689051758425,46.4210854868147],[14.4688853291092,46.4209835452763],[14.4700134382703,46.4208854032761],[14.4709673253814,46.4208161344366],[14.4717073909884,46.4206566850529],[14.4717677825035,46.4206436732644],[14.472404661056,46.4202599222091],[14.4732066429824,46.4198602837774],[14.4733343035962,46.4197528766152],[14.473433281213,46.4196696014796],[14.4737406907913,46.4196156849443],[14.474707341691,46.4196233679792],[14.4753996334529,46.4196302344942],[14.4759409963765,46.4198972282873],[14.4764305791779,46.4198116600083],[14.4766371884638,46.4195208857975],[14.476716939453,46.4194086462896],[14.4767417908696,46.4193736709333],[14.476960013799,46.4192724632757],[14.4771995500163,46.4189148481745],[14.4774563545216,46.4188327995989],[14.4779009167513,46.4186106247759],[14.4781058112479,46.4180758329864],[14.4782539262834,46.4176892334933],[14.4780840641109,46.4176584084341],[14.477947561721,46.4174307910381],[14.4779855990421,46.4173138882689],[14.4780029778122,46.417260476701],[14.4780344057249,46.4171638864999],[14.477928260534,46.416999656541],[14.4781804768764,46.4161292679223],[14.4780586030217,46.4159367156913],[14.47803584003,46.4154250028536],[14.478033003653,46.4153612403911],[14.4782914852015,46.4149244695156],[14.4783393428509,46.414843600902],[14.4781859573713,46.4145356554597],[14.4781772427645,46.414518159408],[14.478323351526,46.4138877759143],[14.4785196333514,46.4137249255711],[14.4788135838705,46.4134958522088],[14.4793959086066,46.4134178913918],[14.4801786804946,46.4137098062023],[14.4804682316526,46.4136556104275],[14.4807058656728,46.4137674428895],[14.4815817010459,46.4138487907969],[14.4818963536591,46.4141520663219],[14.4820433883108,46.4141611895383],[14.4823931633392,46.414299887555],[14.4831431035979,46.4147654555725],[14.4839347294769,46.4149503202375],[14.4840054548951,46.4150174111433],[14.4842177195933,46.4152187665101],[14.4844461939799,46.4154354963751],[14.4852761644871,46.4149752593852],[14.4857160386614,46.4147330596045],[14.4865250517389,46.4146185641745],[14.4881459091789,46.414099775237],[14.488593620277,46.4138937674025],[14.4890294070944,46.4137802837357],[14.4894735258658,46.4137216273757],[14.490290414606,46.4134434848898],[14.4914967966231,46.4132161927453],[14.4922142675873,46.4129262581698],[14.4923816137739,46.4131714498011],[14.4926558301158,46.4134086581483],[14.4930037124717,46.4137680119058],[14.4934214003178,46.4140065741075],[14.4937812917498,46.414362379851],[14.493908240587,46.4143634815347],[14.4939236901143,46.4144278562565],[14.4939411821991,46.4145007416755],[14.4939608017523,46.4145150434792],[14.4941643285919,46.4146634050824],[14.4941572885309,46.4146835914373],[14.4940675840587,46.4149408046491],[14.4940413741896,46.4152711486766],[14.4940849724835,46.4153164696704],[14.4944169583151,46.4156615702569],[14.4950581471386,46.4165348631292],[14.4953897965145,46.4169514486446],[14.4957929897801,46.4172702813023],[14.4958137098135,46.4173228251683],[14.496518491629,46.4179626478688],[14.4975435176816,46.4188635269812],[14.498757151747,46.4196149737044],[14.5001235858592,46.4200921272143],[14.5008023733899,46.420125681935],[14.5019155844337,46.4202695392913],[14.5026180860832,46.420299407773],[14.5026394558923,46.4203861781468],[14.5026833646163,46.4205644650867],[14.5027217189604,46.4207201980752],[14.5027215424805,46.420722554933],[14.5026878094673,46.4211730493194],[14.5026741333907,46.4221763345966],[14.5027169577602,46.4222096475231],[14.5027476401639,46.4222335152224],[14.5028084614237,46.4223295232913],[14.5028348564798,46.4223711885149],[14.5031274144039,46.4228329708331],[14.5031880872709,46.4229287376633],[14.503863747687,46.4232680683366],[14.5046810664398,46.423553486851],[14.5051465973106,46.4237378711492],[14.5052278169262,46.4238580331492],[14.505372812362,46.4240725481214],[14.5054032129665,46.4240966015283],[14.5055568938502,46.4242181956638],[14.5062075635593,46.4243891606555],[14.507125893661,46.4248310954766],[14.508286680184,46.4253250785092],[14.5086301739726,46.4255120727375],[14.5095632769615,46.4256892700323],[14.5100808412806,46.4259512313736],[14.5113114267334,46.4261820508241],[14.5121710120277,46.4262480738712],[14.5124314192819,46.4262680739317],[14.5127064391452,46.4262631951952],[14.5136459207813,46.4262465241911],[14.5143945113364,46.426396194851],[14.5145263684331,46.4264225573204],[14.5154698050046,46.426421250055],[14.515889567677,46.4263295499568],[14.5165618424435,46.426182682962],[14.5172252077334,46.4264548549371],[14.5174379510408,46.4265122538724],[14.5176783748721,46.4264701725277],[14.5188992129548,46.426675137805],[14.519371122068,46.4269268783142],[14.5195891430631,46.4268727328137],[14.5200606761526,46.4270640991235],[14.5203502467777,46.4270112420815],[14.5209810995627,46.4271512701023],[14.5212837237439,46.4270935170306],[14.5217558660436,46.4272586999518],[14.5217634073832,46.4272613383285],[14.5217637352964,46.4272607613939],[14.5219953200291,46.4268533049772],[14.521975820907,46.4263154736914],[14.5220790003932,46.425883419818],[14.5222436957371,46.4253497769281],[14.522273070398,46.4250999633384],[14.5222310786674,46.4246345536964],[14.521799636125,46.4244128640998],[14.5221203040172,46.4238219327149],[14.5224345693233,46.4235164481251],[14.5229723442549,46.4230172902634],[14.5233799642469,46.4227770606964],[14.523832084758,46.4222966153525],[14.5242562098093,46.4219975210584],[14.5252278176215,46.4213348815975],[14.5254917533274,46.4207837415516],[14.5256529197651,46.4205463496772],[14.5263622744018,46.4199369542249],[14.5267347038976,46.4197299456911],[14.5267890028861,46.4195738026006],[14.5270149933606,46.4192256540387],[14.5270995469755,46.4190759338082],[14.5271118195344,46.4190708562675],[14.5273858448493,46.4189595265685],[14.5276667144009,46.4186731429214],[14.5283051755943,46.418193449033],[14.5289639262638,46.4179395697978],[14.529136213513,46.4179792362814],[14.5294885241075,46.4175978640228],[14.5296019287536,46.4173898700762],[14.5295683626332,46.4170574728313],[14.5297704467982,46.4167479974102],[14.5302555956736,46.4168020838112],[14.5310779393321,46.4161267249286],[14.5317800809848,46.4155255431104],[14.53194199344,46.4153479752882],[14.5320608094735,46.4146121468313],[14.5337425017953,46.4145207682061],[14.5345851893364,46.4144112883615],[14.5349994009746,46.4144378249249],[14.5351550243936,46.4144477945806],[14.5351607988333,46.414446654065],[14.5361516840753,46.4142509382422],[14.5370677201078,46.4137119507056],[14.5377314317843,46.4133215563246],[14.5382450771823,46.4129557438661],[14.5387607342915,46.4126127895879],[14.5389926424357,46.4123680164403],[14.5398757393587,46.4115935117634],[14.5400484492319,46.4111636997004],[14.5401547480958,46.4104638000332],[14.5401365747952,46.4102272855549],[14.5401988217413,46.4099399914133],[14.5403783266656,46.4096913158698],[14.5404600223845,46.4093956425332],[14.5406424648981,46.4088276744246],[14.5407554504428,46.4081974376541],[14.5407892410655,46.4079836243806],[14.540833900459,46.4076525336748],[14.5408500372593,46.4072949671695],[14.5409824778804,46.406825584772],[14.5407175221013,46.4065797122201],[14.5404855043282,46.4063457574865],[14.5407573658483,46.4060319539828],[14.5409752095187,46.4057693959448],[14.5411200965847,46.4056143290204],[14.5416474991764,46.4048368525039],[14.5418385538034,46.4043553779106],[14.5417810989105,46.4042740845775],[14.5419036196056,46.4041800167604],[14.5421420984943,46.4036257657364],[14.5428430634243,46.4031471394623],[14.5431410159348,46.4029448175406],[14.5436539200822,46.402495844736],[14.5440391240007,46.4021538749329],[14.5443710239942,46.4017311681035],[14.5446994958415,46.4014385435863],[14.5448456866727,46.4013742569862],[14.5453475262485,46.4009700376128],[14.5455364616261,46.4007225607071],[14.545993253318,46.400558379982],[14.546211533194,46.4004571301164],[14.546550384625,46.400181005966],[14.5466430976219,46.399931076311],[14.5468207626629,46.3996457650548],[14.5471497928282,46.3993611429677],[14.5474200266569,46.3991409758684],[14.5475020040571,46.3991297101244],[14.5476242988626,46.3991129036431],[14.5477208481529,46.3990593235704],[14.5479064887873,46.3989563016889],[14.5477736844099,46.3986292744934],[14.5474643452014,46.398090298473],[14.547913890134,46.397959995655],[14.5480976057754,46.39790674408],[14.548181490457,46.3978648946648],[14.5489965084875,46.3974582819404],[14.5494784060578,46.3971305302592],[14.5502767971344,46.3965514749629],[14.5506775115478,46.3960682001126],[14.5512148036101,46.3952778513578],[14.5514483744941,46.3949888833514],[14.5516823191424,46.3942887518911],[14.5521262505038,46.3936373066803],[14.552732158565,46.3931805593575],[14.5530521529453,46.3927996163661],[14.5532719786416,46.3922166576068],[14.5535930112685,46.3917231641565],[14.5536913704969,46.3915723978338],[14.5535546439071,46.3911023986863],[14.5535703636821,46.3908169840103],[14.5535972680452,46.390722620125],[14.5538837116029,46.3905152765141],[14.5540458232414,46.3901196791709],[14.5542796943013,46.3893580017712],[14.5542664796277,46.3890007677116],[14.5542527890289,46.3886700730484],[14.5544550725548,46.3882100328078],[14.5546078372561,46.3877953243628],[14.5549625543946,46.3874078531013],[14.5549490090114,46.3872347872204],[14.5552558303786,46.3869167657337],[14.5553245676063,46.3866176113682],[14.5555076474888,46.3864391019746],[14.5555917315359,46.3864395041755],[14.555808619542,46.3864405413346],[14.5558507552153,46.3864231607532],[14.5558918081607,46.3863818664166],[14.5561578831636,46.3861142250121],[14.5560580688198,46.3858852226162],[14.5562609833902,46.3855687742911],[14.5563850598351,46.3855835153667],[14.5564339935577,46.3855893289669],[14.5564625569164,46.3855620887313],[14.5564822739887,46.3855431355919],[14.5565465487016,46.3854813510705],[14.556616759412,46.3853684404564],[14.5566854221542,46.3853182332181],[14.5567071345391,46.3853021227005],[14.5567230286042,46.3852820309247],[14.556815924064,46.3851612907124],[14.5567310546381,46.3851256933456],[14.5567082089937,46.3850890767746],[14.5567461466465,46.385044058649],[14.5567706953627,46.3850148234223],[14.5567723977643,46.3849811810608],[14.5567733161521,46.3849640902289],[14.5567734716438,46.3849609418647],[14.5567787754977,46.3848678429726],[14.5567430522701,46.384783852021],[14.5567313137673,46.3847563655231],[14.556677145099,46.3847025331327],[14.5566539296758,46.3846795006579],[14.5565978762754,46.3846015488318],[14.5565702222173,46.3845326141806],[14.5565657601529,46.3845217104493],[14.5565878747298,46.3844398330843],[14.5565965866027,46.384407567458],[14.5565729220647,46.384311567156],[14.556560215484,46.384259155058],[14.5565548073745,46.3842366414637],[14.5565468865839,46.3842033216662],[14.5565609286514,46.3841710767108],[14.5565802663278,46.3841270661526],[14.5567131852101,46.3840245652546],[14.5568114237915,46.3839501805381],[14.5568656987777,46.3838783244996],[14.5568884312099,46.3838485423807],[14.5568715268733,46.3838168072624],[14.5568496317425,46.3837752460168],[14.5568298487423,46.38372973425],[14.5568213124682,46.383708198219],[14.5567969969417,46.3836926290574],[14.556730533162,46.3836481059621],[14.5566254416338,46.3835733829215],[14.5565701395068,46.3835312422397],[14.5564865571769,46.3834815243021],[14.5564606367382,46.3834394075448],[14.5564572658129,46.3834222101038],[14.5564511659698,46.3833888073871],[14.5564423346103,46.3833555740161],[14.5564390558093,46.383343055398],[14.5563662865653,46.3833227096969],[14.5563008092074,46.383300952714],[14.556241201965,46.3832928040192],[14.5562104277021,46.3832881860703],[14.5561768818246,46.3832886856752],[14.5560304860494,46.3832896469097],[14.5560026262195,46.3832462629305],[14.5559831145008,46.3832155072295],[14.5559966982757,46.3831435835634],[14.556052002025,46.3830250371995],[14.5560791235912,46.3829670215353],[14.5561534570679,46.3828584457457],[14.5561692446773,46.3828353845982],[14.556286954564,46.3826842410651],[14.5563241324645,46.3826205062454],[14.5563821730013,46.3825812343572],[14.5563757614166,46.3825060841011],[14.5563753039472,46.3824502106332],[14.5563981460785,46.3824068434813],[14.5563973879177,46.3823238877187],[14.5564265217407,46.3822741570592],[14.5564369480188,46.3822709585622],[14.5564731807099,46.382259672839],[14.5565029930927,46.3822545701712],[14.5565371410446,46.3822278014125],[14.5565632628284,46.3821807581526],[14.5565857034205,46.3821227242085],[14.5566011082904,46.382082657085],[14.5566026148031,46.3820089770646],[14.5566030092073,46.3819441998135],[14.556643303311,46.3818808368467],[14.5566907235757,46.3817722463133],[14.5567728593333,46.3816951900318],[14.5568301464196,46.3816042719038],[14.5568251010939,46.3815690738724],[14.5567668089913,46.3815110868687],[14.5566837608491,46.3814760363245],[14.5567139623422,46.3814228008727],[14.5567179884987,46.3813269078864],[14.5567131489438,46.3812502342273],[14.5567007764575,46.3811887363873],[14.5566968983202,46.3811539027543],[14.5566621403895,46.3810794523416],[14.5567441781662,46.3809501228058],[14.5567010877523,46.3808932743312],[14.5566802233061,46.3808369618574],[14.5566645653625,46.3808119793143],[14.5566610128064,46.3807690495908],[14.5566452052184,46.3807143761838],[14.5566384406322,46.3806667555373],[14.5566445464163,46.3805227363591],[14.5566162308704,46.3804072843289],[14.5566382660807,46.3802546897323],[14.5565913893531,46.3801517616044],[14.5565719676282,46.3800939251981],[14.5565155471546,46.3800458420697],[14.5565196274999,46.3799111719659],[14.5564644690951,46.3798196379237],[14.5564725476417,46.3797049567887],[14.5564887556538,46.3796137894976],[14.5564284319674,46.379550126276],[14.5563179725608,46.3794971549523],[14.5562357711281,46.3794542799149],[14.5561488484934,46.379416514816],[14.5560735524994,46.3793877918428],[14.5559621134127,46.3793755730386],[14.5559405871975,46.3793208773152],[14.5559602080674,46.3792417794019],[14.5559811840479,46.3792039832385],[14.5560026923539,46.3791005106194],[14.5559710054289,46.3790323698329],[14.5559602674521,46.3789939107024],[14.5559770020933,46.3788538914938],[14.555942414328,46.3787587482591],[14.5559041646104,46.3786984094059],[14.5558996751137,46.3786588948862],[14.5559274549807,46.3786156369462],[14.555939449805,46.3785952602027],[14.5560097611662,46.3785652131258],[14.5560410058625,46.3785595763134],[14.5561220371751,46.37853811799],[14.5561713898197,46.3785116782526],[14.5561913339426,46.3785049178925],[14.556215176831,46.3784822478659],[14.556300491578,46.3784455110394],[14.5563954694147,46.3783712939005],[14.5564514109458,46.3783338132189],[14.5565374834396,46.3782676587722],[14.5566220657425,46.3781928613057],[14.556689300798,46.3781251941757],[14.5567536402223,46.3780619243407],[14.5568065126772,46.3780020289106],[14.556810267721,46.3779717233744],[14.5568958582713,46.3779168131103],[14.5569313973541,46.3778623386624],[14.5570129101459,46.3777972458332],[14.5571511157659,46.3777302132124],[14.5571762370632,46.3777172089396],[14.557214427724,46.377697439167],[14.5572735481096,46.3776525028283],[14.557323522751,46.3775971844367],[14.5573162320123,46.3775663862694],[14.5573092599526,46.3775424166567],[14.5572978925029,46.3775033358549],[14.5573066079141,46.3774704403555],[14.5573004919392,46.3773907926987],[14.5573193820934,46.377353528027],[14.5572726738286,46.3772942365199],[14.5571449960298,46.3772169072476],[14.5570760852792,46.3771704854413],[14.5569789776038,46.3771065900326],[14.5569133430358,46.3770569418776],[14.5568590393856,46.3770046384757],[14.5567726062436,46.3769549996104],[14.5567684909308,46.376917375946],[14.5567720441758,46.3768798719745],[14.5567737186256,46.3768496483401],[14.5568213453819,46.3768274302443],[14.556840796519,46.3767369052209],[14.5568725645219,46.3766825061368],[14.5568942904234,46.3766482215495],[14.5568793827548,46.3765949011814],[14.556871862823,46.3765282038173],[14.5568606721416,46.3764974804732],[14.5569045509517,46.3765046682086],[14.5569422837444,46.3765324353856],[14.5569794920346,46.3765286208328],[14.5569816453115,46.3765195421428],[14.5570101022683,46.376520911972],[14.5570584969248,46.3765001362809],[14.5570934607096,46.3764845268467],[14.5571202760356,46.3764638474898],[14.5571628030134,46.3764452982948],[14.5572539999245,46.3764523092425],[14.5573158089341,46.3764605559156],[14.5573308024922,46.3764550357788],[14.5572946113763,46.3764134192232],[14.5573023787434,46.3764013032599],[14.5573697487804,46.376413080286],[14.557370353423,46.376413805514],[14.5573960123818,46.3764445816855],[14.5574543552587,46.3764635213713],[14.5574944088401,46.3764293075942],[14.5575196641479,46.3764086221069],[14.5575455463673,46.3763425038785],[14.5575414080401,46.3763076692381],[14.557556448198,46.3762641816514],[14.5575781953759,46.376211093155],[14.5576161253245,46.3761822693549],[14.5577017107355,46.3761597478747],[14.5577585945781,46.3761339663654],[14.5578273971385,46.3760970745573],[14.5578743881327,46.3760729641791],[14.557902868752,46.3760069458828],[14.5579111543176,46.3759305928567],[14.5579512907093,46.3758860326151],[14.5579635629821,46.3758472127447],[14.5579824288705,46.3757967221782],[14.5580108831372,46.3757500474346],[14.5580399437312,46.3757087732644],[14.5580902318996,46.3756948422197],[14.5581124692424,46.3756453543358],[14.5581149619209,46.3755941706811],[14.5581156617175,46.3755758070811],[14.5581166108258,46.3755509011806],[14.5581633627289,46.3755221726939],[14.5581831046144,46.3755100415259],[14.5582115223975,46.3754839698634],[14.5582274355278,46.3754610888292],[14.5582242022684,46.3754537653366],[14.5582182442419,46.3754402701058],[14.5582306579359,46.3754161159629],[14.5582539248815,46.3753839963585],[14.5582645367737,46.3753414812427],[14.5582657245062,46.3753070270787],[14.5582778600451,46.3752851211215],[14.558254388666,46.3752619979733],[14.5582927066874,46.3752171606708],[14.558316647367,46.375182074624],[14.5583835248724,46.3751580408411],[14.5584309020448,46.3751503963481],[14.5584810076062,46.3751590470545],[14.5584865531962,46.3751587782828],[14.5585583805602,46.3751552970841],[14.5586002889665,46.375148801028],[14.5586548608675,46.3751355160631],[14.5586784376724,46.3751132943366],[14.5587114788825,46.3751102728735],[14.5587485293857,46.3751581902505],[14.5587905390582,46.3751713980843],[14.558804038387,46.3752060888613],[14.5588345230129,46.3752138539751],[14.5588657457528,46.3751622413098],[14.5589627911926,46.3751206893156],[14.5590091363256,46.3751443503835],[14.5590258321616,46.3751695165741],[14.5590687459944,46.3751511480998],[14.5590609013446,46.3751244865442],[14.5591141334157,46.3750838451208],[14.5592021203123,46.3750695191006],[14.5593101000186,46.3750583290627],[14.5594061932983,46.3750542907773],[14.5594765488701,46.3750664379507],[14.5595232698869,46.3750757049568],[14.5595562261042,46.3750509100285],[14.5595721824595,46.3750387354779],[14.5596279826337,46.3750009816444],[14.5596401455825,46.3749927523056],[14.5596977346854,46.3749274754334],[14.5597538629026,46.3748498669299],[14.5597578050494,46.3748445738387],[14.5597990505728,46.3747911101176],[14.5598375469895,46.3747238702916],[14.5598664195406,46.3746572232059],[14.5599182915783,46.3746077590477],[14.5599778641884,46.3745705605042],[14.5600450717155,46.3745376199236],[14.5600853547255,46.3745230197115],[14.5601580112696,46.3744913596152],[14.5602397230916,46.3744896094403],[14.5602399166624,46.3744896052941],[14.5603426596539,46.3744990873902],[14.560451096689,46.3745279349688],[14.560495006162,46.3745311627389],[14.5605431942311,46.3745357564941],[14.5605915079611,46.3745408905358],[14.5607163214186,46.3745537860137],[14.5607561113093,46.3745682441887],[14.5607860384252,46.374580685115],[14.5608269374501,46.3745865103435],[14.5608795785304,46.37461937184],[14.560954174994,46.3746375624231],[14.5609798122346,46.3745527285646],[14.560983711542,46.3745370866722],[14.5610015693954,46.3744654505963],[14.5610111160485,46.3744258101908],[14.561055661714,46.3743820755114],[14.5610723167132,46.3743313060249],[14.5610773636653,46.374285440367],[14.5610764052675,46.3742265958853],[14.5610679550361,46.3741780692715],[14.5610539228296,46.374128621524],[14.5610497223674,46.3740850596063],[14.5610554069659,46.374040725896],[14.5610937855111,46.3740041651786],[14.5611442644866,46.3739661213852],[14.5611587230986,46.3739461134166],[14.5611804120776,46.3739159665081],[14.5611853608957,46.3738823364744],[14.5611885212362,46.3738610255568],[14.5611667166388,46.373840698487],[14.561213977162,46.3738149682907],[14.5612387808347,46.3738016578341],[14.5612646358674,46.3737869118753],[14.5612805669794,46.3737777959892],[14.5612789741943,46.3737494491223],[14.5612855345723,46.3737093473788],[14.5612853633435,46.3736658009245],[14.5613506484863,46.3736129686817],[14.5613925983241,46.3735523993948],[14.5614537505182,46.3734962223258],[14.5614984855371,46.3734449306579],[14.5615359873509,46.3734041378056],[14.561570811762,46.373373051507],[14.5616176104039,46.3733237470579],[14.5616793674988,46.373305629775],[14.5617082769074,46.3732989927817],[14.5617387410238,46.3732929915342],[14.5617715037431,46.373292127415],[14.5617843709818,46.3732922666947],[14.561851321705,46.3732890807653],[14.561864861313,46.3732884364622],[14.5619108066187,46.3732807850395],[14.5619615688422,46.3732884470625],[14.5619928463992,46.3732945049318],[14.5620130171408,46.3732753284677],[14.5620759938518,46.3732184382863],[14.5620836672932,46.3732110728767],[14.5621192199141,46.373176947397],[14.5621727415735,46.3731320770251],[14.5621783795599,46.3731259806059],[14.5622051210129,46.3730978321977],[14.5622458246762,46.3730791841519],[14.5622716546578,46.3730674968705],[14.5623140702812,46.3730460662628],[14.562347001016,46.373024149486],[14.5623722887575,46.3730152491972],[14.5623952913998,46.3730157870782],[14.5624561200794,46.3729999150889],[14.5624868625858,46.3729915754697],[14.5625022238335,46.3729723805174],[14.5625295338091,46.3729381162024],[14.5625240489467,46.372908764782],[14.562574645841,46.3728719803911],[14.5626216132896,46.3728664918884],[14.5626515111789,46.3728825310452],[14.5626814550482,46.3728765275565],[14.5626975637462,46.3728288147342],[14.5627060963461,46.3728020361042],[14.5627428442683,46.3727903904659],[14.5627513739679,46.3727639717039],[14.5627821399899,46.3727526630628],[14.5628179714397,46.3726929695584],[14.5628395770805,46.372640509284],[14.5628592668027,46.3726000977512],[14.5628673051643,46.3725537935828],[14.562939612058,46.3725165521914],[14.5629655931337,46.3725021662095],[14.5629927210297,46.3724906636659],[14.5630559925864,46.372461754944],[14.5630844058672,46.3724660415969],[14.5631177893857,46.3724710780894],[14.5631802122762,46.3724670879333],[14.5632153312895,46.372464073105],[14.5632637158858,46.3724601192527],[14.5633051914095,46.3724423734826],[14.5633063647915,46.3724419281101],[14.5633416472651,46.3724184005535],[14.5633192097592,46.3723959121762],[14.5633357661377,46.372385576027],[14.5633889667815,46.3723523628153],[14.5634673912981,46.3723139748276],[14.5635490537163,46.3723259827226],[14.5635966451351,46.3723073604819],[14.5636332083844,46.3723188363156],[14.5636881507257,46.3723238144043],[14.5637146594485,46.3723233292468],[14.5637857807295,46.3723220275686],[14.5638248841239,46.3723409805967],[14.5638647638278,46.3723603864255],[14.5639066254337,46.3723430917629],[14.5639200574783,46.3723375648038],[14.5640024604525,46.372321864231],[14.5640671779073,46.3723071758286],[14.5641271929632,46.3723117231907],[14.5641800697518,46.3723312684193],[14.5642580743621,46.3723946351228],[14.5643373271526,46.3724318250616],[14.5643849761284,46.3724222897505],[14.5644037636814,46.3724134542207],[14.5644818716616,46.3723984567074],[14.5645024422263,46.372410591119],[14.5645488355537,46.3724118474386],[14.564596732276,46.3724038424841],[14.5646210215912,46.3724060042887],[14.5649026707608,46.3724316992554],[14.5651304392057,46.3724524781373],[14.565162885248,46.3724554487396],[14.5652112536522,46.3714739943968],[14.5652102712144,46.3676993591542],[14.5648888497823,46.367258089659],[14.5645672969658,46.3668340031399],[14.5643227971155,46.3665271712742],[14.5636151628938,46.3656247653012],[14.5632409417949,46.3652724505534],[14.5624670694952,46.3645317316971],[14.5615769046646,46.3637095879672],[14.560979680683,46.3636353200182],[14.5593828077751,46.3634312423684],[14.5575779455997,46.3632353349793],[14.5565379381163,46.3632762919295],[14.556109084886,46.3632746280155],[14.5543019718736,46.3633575697253],[14.5531189344151,46.3634070250709],[14.5522348676754,46.3634485521857],[14.5509085808449,46.3635333220144],[14.5502463219002,46.3634677396527],[14.5488828221892,46.3633364096426],[14.5472855584082,46.3631861439805],[14.5460778698142,46.3630733914218],[14.5452338351492,46.3629890641474],[14.5440633453352,46.363092368236],[14.5434149950838,46.3629188367538],[14.5422869461168,46.3626084262588],[14.5418580989531,46.3626067089195],[14.5398954959306,46.3626349073649],[14.5395607907357,46.3622556826112],[14.5390074420594,46.3616056630611],[14.5385955364192,46.3611361532951],[14.5380422111851,46.3604860390628],[14.5375661833782,46.3599172984582],[14.53703856701,46.3593033615147],[14.5363010950483,46.358904501454],[14.5360704686454,46.3585166911266],[14.5355701667434,46.3577499074969],[14.5354561923659,46.3573985579365],[14.5312669526697,46.3599270995324],[14.530952273271,46.3601170873153],[14.5294460088513,46.360252063294],[14.5284491529302,46.3605983934874],[14.5272777715459,46.3607169071338],[14.5254032865597,46.3607959646458],[14.5235228037501,46.3599946912915],[14.5223399612004,46.3593707567342],[14.521882695491,46.358875715213],[14.5211044438228,46.3587699817134],[14.5202569710235,46.3579916898061],[14.5188820719659,46.3563253196915],[14.5188562529241,46.3563208024807],[14.5178982823493,46.3565605889621],[14.5154866783567,46.3570874327796],[14.5134767229634,46.3581231914059],[14.5110335030378,46.3599237947884],[14.5105858965468,46.3601189162112],[14.5082136196395,46.3612341843071],[14.5062681677119,46.3621029270967],[14.5057495388212,46.362330292307],[14.5019961964691,46.3654385154866],[14.5019185030635,46.3666225528653],[14.5013845622964,46.3680689356218],[14.4995016269941,46.3694826079328],[14.4978427288161,46.3716988721743],[14.4966663555215,46.3726813988781],[14.4959784217483,46.3732682167747],[14.492782469399,46.376278270185],[14.4920947758886,46.3764792712986],[14.4896265007525,46.3772612830862],[14.4893714324826,46.3785605799389],[14.489207007805,46.3795900091539],[14.4888497229742,46.380055000246],[14.4887009950745,46.3804179965092],[14.488630964045,46.3805251982269],[14.4884574563905,46.3806319370658],[14.4882150321687,46.3807264011424],[14.4879555413887,46.3807968561099],[14.4876616001758,46.3808672461174],[14.4870046703943,46.3809956580804],[14.4862959980968,46.3811239238129],[14.4855186313879,46.3812159778547],[14.4848447571302,46.3813204589665],[14.4843960249598,46.3813304026904],[14.4840513511192,46.3812929498425],[14.4834994620235,46.3812546501965],[14.4829478166762,46.3812043829005],[14.4822918873815,46.3812253474326],[14.4816018482372,46.3812102553154],[14.481049735046,46.3811958750049],[14.4805319925001,46.3812173664886],[14.4801351127781,46.3812155629366],[14.4797038804717,46.3811897595079],[14.4792730061014,46.381140023906],[14.4789286777427,46.3810667488923],[14.4786357309563,46.3810176392872],[14.4784117146818,46.3809927755308],[14.4780321261957,46.3809910435455],[14.4774967367509,46.3810363729145],[14.4770816568602,46.3811300243716],[14.4765802734855,46.3812352454179],[14.4760621856053,46.3812926133487],[14.475509844969,46.3813020474538],[14.4750432656222,46.3813834892069],[14.4746802612678,46.3814415626962],[14.4742137935293,46.3815111254591],[14.4736777078204,46.3816280503313],[14.4732629763103,46.3816978473203],[14.4726757219023,46.3817548812935],[14.4722786090705,46.3817768916049],[14.4718299867003,46.3817748204374],[14.4714503923264,46.3817731565494],[14.4710883196576,46.3817475502974],[14.4710196367047,46.381711424313],[14.4706585884866,46.3815664304694],[14.4696282631481,46.3810481043732],[14.4696109736787,46.3810480241842],[14.4695069191348,46.3811071920269],[14.4693674747598,46.381249868216],[14.4692452032825,46.3814045900264],[14.4691746840328,46.3815715180315],[14.4691206299019,46.3818101390134],[14.4684904161995,46.38181899773],[14.4683874017411,46.3817573388846],[14.4681941548708,46.3816565730038],[14.467783380597,46.3815592031702],[14.4674617684486,46.3815576159387],[14.4671166981913,46.381561946522],[14.4667282223259,46.3815780397471],[14.4664258891203,46.3816125277405],[14.4662792521877,46.3816118434458],[14.4660548911169,46.3816226721981],[14.4658909057448,46.3816279344304],[14.465735733604,46.381609305426],[14.4655031279503,46.3815724101636],[14.4653052186488,46.3815237105757],[14.4651330042551,46.3814930349774],[14.4649342659758,46.3815159474615],[14.4648474362506,46.3815812196851],[14.4647949967087,46.3816526808302],[14.4646908638832,46.3817059058615],[14.4645095434404,46.3817289891113],[14.4642765878935,46.3817278980111],[14.4640440417308,46.3816849720303],[14.4637775587601,46.381576297886],[14.4635885823715,46.3814917389465],[14.4634162518378,46.3814730263064],[14.4631232125652,46.3814478087032],[14.4628909614221,46.3813750115216],[14.4627800626699,46.3812431335187],[14.4624166010254,46.3804591310463],[14.4622797198341,46.3803390065098],[14.4620558907622,46.3802961174616],[14.4613398242324,46.3802987747458],[14.4610556666264,46.3802436334574],[14.4607803230076,46.3801647807804],[14.4605486094228,46.3800382688969],[14.4603777437436,46.3798582412577],[14.4601984872985,46.3796723256587],[14.460001166547,46.3795519130587],[14.4595628515296,46.3793766489672],[14.4592957531903,46.3793455161022],[14.4590969726683,46.3793864123737],[14.458940747295,46.3794752840584],[14.4584079381977,46.3801535695813],[14.4582424803297,46.3803080751256],[14.4580254609178,46.380444431914],[14.4577224793743,46.3805444824069],[14.4574637787304,46.3805312892453],[14.457128240143,46.3804401760839],[14.4568692439656,46.3804568504179],[14.4566960311366,46.3805276442155],[14.4564703562966,46.3806580188662],[14.4562628713826,46.3807107449528],[14.4559608333098,46.3807153364432],[14.4553752951864,46.3805990063458],[14.4551511616008,46.3805740964548],[14.4549267427951,46.38059093113],[14.4547017882401,46.3806615652371],[14.4543897439504,46.3808093380776],[14.4541042216471,46.3808915581298],[14.4538623217573,46.3809143352956],[14.4528868899806,46.3809694131257],[14.4520929095481,46.3810014199852],[14.4514574409647,46.381613502528],[14.450830926547,46.3821479798602],[14.4501009194016,46.3826820460664],[14.4498742612562,46.3829078617202],[14.449647490758,46.3831576085497],[14.449403548323,46.3833953061551],[14.4491950151343,46.3835376250426],[14.4489513089205,46.3837514806061],[14.448863554942,46.3839063469079],[14.4486893591144,46.3840726725459],[14.4484116693402,46.3842266226473],[14.448064835899,46.3844040805683],[14.4478739468928,46.3845106739011],[14.4477698615269,46.3845699117624],[14.4476299907138,46.3847483676064],[14.4474898775479,46.38495075427],[14.4474019967554,46.3851175848907],[14.4472794140791,46.38529612383],[14.4472259836754,46.3854631208118],[14.4471545391356,46.385701647227],[14.4470661746532,46.385916159615],[14.4469959344009,46.3860353008376],[14.4468558155623,46.386237686654],[14.446645584905,46.38655912394],[14.4464014932464,46.3868087803698],[14.446139987034,46.3870703180051],[14.4459126987781,46.3873678290976],[14.4458419715938,46.3875346515955],[14.4457702760345,46.3877971080023],[14.4456822651515,46.3879758126992],[14.4455762360525,46.388226136458],[14.4455740589691,46.3884411553972],[14.4455768789282,46.3884579935521],[14.4455903833359,46.3885367832086],[14.4456054892502,46.3887399198495],[14.4456728343483,46.3889074114905],[14.4457060875544,46.3890390195617],[14.4457733122083,46.3892184766254],[14.4458239700484,46.3893262368565],[14.4459090920117,46.3894460401611],[14.4459770424133,46.3895538841064],[14.4461141525911,46.3896500969326],[14.4462172921278,46.3896983707675],[14.4463205429101,46.3897228028712],[14.4465091596189,46.3898431067643],[14.4466639255201,46.3899035961304],[14.4467662124341,46.3900234818385],[14.4468853085789,46.390191313046],[14.4469872431233,46.3903590611343],[14.4471062207505,46.3905387676294],[14.447157606401,46.3905748243032],[14.447294841992,46.3906590702295],[14.4474315949815,46.3907911779425],[14.4474654572687,46.390862958045],[14.44756714408,46.391042670469],[14.4476515491525,46.3912341754261],[14.4477360755021,46.3914137148302],[14.447837884881,46.3915814615179],[14.4479913328703,46.3917732995527],[14.4483502219116,46.3921332936705],[14.4487086337238,46.3925411486064],[14.4490851763285,46.3928534511719],[14.4493080254957,46.3929978474181],[14.4503727270981,46.3935404528695],[14.450181810533,46.3936470497648],[14.4499560766535,46.3937892871017],[14.4497818515068,46.3939557039594],[14.4495726782149,46.3941577605609],[14.4494678560924,46.3942886127709],[14.4491362028573,46.3946572438641],[14.4487711691358,46.3949182884272],[14.44837155365,46.395191131069],[14.4480243996179,46.3953805530739],[14.4478165495129,46.3954631321329],[14.4475744721412,46.3955097372634],[14.4474017924737,46.3955089029712],[14.4472467775398,46.3954843116506],[14.4470742188161,46.3954715113868],[14.4468328653221,46.3954464120494],[14.4466605568849,46.3954217362806],[14.4462639385849,46.3953840082681],[14.4459189523688,46.3953584051487],[14.4456259684784,46.3953211770018],[14.4453330974313,46.3952600165272],[14.4451260909017,46.3952590122975],[14.4449875155436,46.3953061141094],[14.4436652367653,46.3963627790826],[14.4434909852354,46.3965290961941],[14.4433166016968,46.3966955023636],[14.4430562569974,46.396849523589],[14.4429002596727,46.3969085040702],[14.4426573208601,46.3970386770578],[14.4424663771274,46.3971452608862],[14.4421888553097,46.397287230323],[14.4419979098006,46.3973938133566],[14.4416685017247,46.3975355283379],[14.441563532165,46.397678338574],[14.4412668822967,46.3979993433263],[14.4408302995717,46.3984988840845],[14.4406028122485,46.3988083491462],[14.4403234456788,46.3991294359352],[14.440236000802,46.3992365224893],[14.4399059658109,46.3994379695854],[14.4395931020609,46.3996513759543],[14.4390202307999,46.3999830768591],[14.4384290705165,46.4003981775227],[14.4382903608704,46.4004692026292],[14.4381857371378,46.4005642371605],[14.4378553260038,46.4008134506854],[14.43717706981,46.4013116990714],[14.4367249707109,46.4016320166701],[14.4363683834633,46.4017823995107],[14.4363609384983,46.4017855117773],[14.436170951147,46.4017964513086],[14.4359812084801,46.4017836395729],[14.4357399549168,46.4017466412737],[14.4354643567283,46.4016855408275],[14.4353096936061,46.4016130708945],[14.4352411331282,46.4015649581007],[14.4351898686054,46.4015169306903],[14.4351209378757,46.4015047141451],[14.4350691804284,46.4015044584753],[14.4349832018899,46.4014681355591],[14.4338662487724,46.400972993113],[14.4336936823166,46.4009721386892],[14.4336247535453,46.4009598312798],[14.4335382886207,46.4009832451505],[14.4335033257668,46.4010189701143],[14.4333993172842,46.4010662290753],[14.4332428029424,46.4011729680205],[14.433017365996,46.401279275086],[14.4328440555955,46.4013501220256],[14.432687539361,46.401456860197],[14.4324273903705,46.40158692599],[14.4322019432967,46.4016813553119],[14.4320461748054,46.4017283560341],[14.431838765818,46.4017512578636],[14.4316827492631,46.4018220989871],[14.4315266013264,46.4018930292143],[14.4313183230951,46.4019995081843],[14.4311270979388,46.4021418797816],[14.4309876242888,46.4022725425179],[14.4308655695644,46.4023914156941],[14.4307946523256,46.4025701935802],[14.430757830168,46.4027969153577],[14.4307565875152,46.4029163897081],[14.4307217525898,46.4029520244773],[14.430634282818,46.4030591035049],[14.4305634874996,46.403226005758],[14.4305102371758,46.4033690632421],[14.4304739104058,46.4035480131499],[14.4304557441661,46.4036315050602],[14.4304546253402,46.4037390139611],[14.430430811809,46.4039277429521],[14.4304495583466,46.411511155174],[14.4312787881406,46.4130997460267],[14.4326620500373,46.4157452597833],[14.4341716341137,46.416906604883],[14.4362322413321,46.417080617068],[14.4374013022059,46.4171852512823],[14.4383568907846,46.4184684225816],[14.4389317059201,46.4193743632234],[14.4395971197414,46.4202135372214],[14.4407931964921,46.4220347164998],[14.4413104825722,46.4226831391465],[14.4419421356225,46.4230388154491],[14.4421954321474,46.4237111426352],[14.4422087907198,46.4237070664841],[14.4422645213185,46.4236900611743],[14.4423686667542,46.4236711355221],[14.4423440647585,46.423446116069],[14.4423374876194,46.4233859586849],[14.4425008243337,46.4233506966922],[14.4426781949675,46.4233124046662],[14.4426380003676,46.4230964055831],[14.4426316931349,46.4230625114131],[14.4431936794288,46.4229028953435]]]},"properties":{"fill-opacity":0,"stroke-opacity":1,"stroke":"#ff0000","lov":"0222","lov_naziv":"JEZERSKO","luo":"02","luo_naziv":"Gorenjsko","povrsina":4696.2},"id":"pregledovalniklovisca.1"}]}