<?xml version="1.0" encoding="utf-8" ?>
<kml xmlns="http://www.opengis.net/kml/2.2">
<Document id="root_doc">
<Schema name="pregledovalniklovisca" id="pregledovalniklovisca">
	<SimpleField name="lov" type="string"></SimpleField>
	<SimpleField name="lov_naziv" type="string"></SimpleField>
	<SimpleField name="luo" type="string"></SimpleField>
	<SimpleField name="luo_naziv" type="string"></SimpleField>
	<SimpleField name="povrsina" type="float"></SimpleField>
</Schema>
<Folder><name>pregledovalniklovisca</name>
  <Placemark id="pregledovalniklovisca.1">
	<Style><LineStyle><color>ff0000ff</color></LineStyle><PolyStyle><fill>0</fill></PolyStyle></Style>
	<ExtendedData><SchemaData schemaUrl="#pregledovalniklovisca">
		<SimpleData name="lov">0208</SimpleData>
		<SimpleData name="lov_naziv">KROPA</SimpleData>
		<SimpleData name="luo">02</SimpleData>
		<SimpleData name="luo_naziv">Gorenjsko</SimpleData>
		<SimpleData name="povrsina">3452.43</SimpleData>
	</SchemaData></ExtendedData>
      <MultiGeometry><Polygon><outerBoundaryIs><LinearRing><coordinates>14.2000287621214,46.3215925302 14.2003746950872,46.3215402471776 14.2010067500265,46.3214763771406 14.2014803436406,46.3214591720533 14.2017270337529,46.3214712413765 14.2019472517552,46.3215087673503 14.2021803240884,46.3215553797684 14.2027744887239,46.3217754563087 14.2032655617295,46.3219498255642 14.2035497934136,46.3220507747048 14.2042610946265,46.3222536650257 14.2048046386451,46.322383406944 14.2051797706509,46.3224849841723 14.2055684096333,46.3225596624966 14.2062685614718,46.3226365024196 14.2069067851714,46.3226583856498 14.2077542497287,46.3227051979418 14.2081880816103,46.3227082031062 14.2084649647896,46.3226622552656 14.208682800184,46.3225954745302 14.2088317829927,46.3225213791235 14.2090113566752,46.3223791166392 14.2091225703176,46.322195353938 14.2092735202751,46.3219846044971 14.2094229930621,46.3218763224431 14.2095620059396,46.3218089949933 14.2099189798735,46.3216747951725 14.2102470340645,46.3214926194925 14.2105859063986,46.3212353011804 14.2111546934125,46.3207746126696 14.2116043657181,46.3203608750341 14.212083340036,46.3199679410645 14.2125324101506,46.3195952227055 14.21278064907,46.3194807785462 14.2130675432665,46.3194144648788 14.2135120015376,46.3193628201569 14.2138278142481,46.3193444785062 14.2139854757538,46.3193524003068 14.2141232373087,46.3193806986775 14.2142008788403,46.3194631965818 14.214287051755,46.3196482308991 14.2146651000863,46.3201086044707 14.2148398621656,46.320301084643 14.2150635424335,46.3205145039066 14.2154734548132,46.3208179128346 14.2160512655127,46.3210951201612 14.2164922558395,46.3212962606703 14.2169251995418,46.3213607672679 14.2171955536146,46.3213709858989 14.2175587433801,46.3214004633684 14.2180260684621,46.3214126575752 14.2182987496105,46.3214145221409 14.218976520587,46.3212392103839 14.2193030595368,46.3211064828286 14.219681792868,46.3209560262374 14.2202052715611,46.3206716880077 14.2207811940484,46.3203517160881 14.2212262436795,46.3201028273396 14.2217372320597,46.3197824082872 14.2219344217214,46.3196128039803 14.2220932945761,46.3193979527654 14.2222133420288,46.3191737500715 14.2224255622501,46.3187403599482 14.2225779029579,46.3184271244572 14.2226307259519,46.3181815007654 14.2226577172636,46.3176692949663 14.2226850622659,46.3171229022381 14.2226554596577,46.3164257794125 14.2226813859696,46.3159886926773 14.2227356568558,46.3156406007782 14.2228479379763,46.3153680296147 14.2230179704245,46.3151984186742 14.2233355929396,46.3150502337149 14.2237914195051,46.3148893104668 14.2241665991645,46.3148577575238 14.2245712517207,46.3148263132644 14.2251933701434,46.3147689899953 14.2257174549358,46.3146563866088 14.2261030775428,46.314583870874 14.2264003757301,46.3144765669798 14.2267875369762,46.3142946535944 14.2271350332132,46.3141262364761 14.2281144664921,46.3138937076109 14.2291127629573,46.3137227482998 14.2298635471397,46.313618491986 14.2306930747321,46.3135283463329 14.2315909979431,46.3134866093292 14.232646056637,46.3134800192936 14.2339277728464,46.3134953619798 14.2346865072492,46.3135277944898 14.2352079314179,46.3136132477738 14.2356111768925,46.3136910708117 14.236131522941,46.3138448912658 14.2365529857319,46.3140321484571 14.2367287552628,46.3141563134473 14.237012366301,46.3143221350329 14.2372571135727,46.3144535973363 14.2375611257709,46.3145717786067 14.2378565996334,46.3145942621072 14.2381630796248,46.314534763878 14.2384020382611,46.3143724271566 14.2384833662555,46.3142568152233 14.2385025712322,46.3142295916963 14.2385946926494,46.3139910600762 14.2386379154444,46.3137112655883 14.2385437325729,46.3133963667724 14.2382906363721,46.3131555357909 14.2381253027468,46.3129904155583 14.2374877888944,46.3120365128715 14.2370296599472,46.3116576442303 14.2363290856431,46.3109833964878 14.2357733534421,46.3105287442644 14.2355505471383,46.3102403344628 14.2353093779954,46.3098629091681 14.2350099307732,46.3094099668945 14.2349743673989,46.3091296464025 14.2350267445095,46.3089113651038 14.2351568747257,46.3087687304692 14.2356129943262,46.3085805004317 14.2360185805174,46.3084874811009 14.2364334250573,46.3084288014612 14.2372045554418,46.3082836055714 14.2377188779327,46.3081572062299 14.2389254234422,46.3078919991628 14.2396961260695,46.3077672972132 14.2408609248188,46.3076656309793 14.2422128541491,46.3075789589791 14.2433658955593,46.3076138566544 14.2437899697849,46.3076098243554 14.2443128198671,46.3075791818742 14.2463164126906,46.3074215500168 14.247491619631,46.3072789476128 14.248380837458,46.3071344534678 14.2492106109338,46.3070169135468 14.2502572650216,46.3068939520995 14.2509496897727,46.3067277237369 14.2517526466654,46.3064050336131 14.2523974072469,46.3061154029262 14.2529732856738,46.3058117328023 14.2534817149004,46.3053982135105 14.2538305588177,46.3051204079455 14.2540013558587,46.3048755391302 14.2542140621243,46.3044601766373 14.2543584498327,46.3039896652448 14.2545728191286,46.3034513211763 14.2546272088106,46.3030690249261 14.2546147103047,46.3025360393572 14.2545621949546,46.3020438200783 14.2544887464882,46.3016401766424 14.2543297041938,46.3010105950418 14.2542471723388,46.3005591169923 14.2542325438214,46.3001832983932 14.2543359771898,46.2998218355739 14.2544975771915,46.2995358785725 14.2547775119874,46.2992439447788 14.2551564226744,46.2989184657359 14.2556829249594,46.2986212978363 14.2562879304567,46.2983450618213 14.2569324798028,46.298062241722 14.2578147422022,46.2976990867194 14.258360264514,46.2974429671962 14.2590841285851,46.2971197120925 14.2597279121528,46.2968915742483 14.2600961088256,46.2969052040905 14.2604035036216,46.2959105721837 14.2605125948629,46.2954819309786 14.2605157253439,46.29524937335 14.2604510627754,46.2949328831132 14.2603105734717,46.2945026273956 14.2601548823121,46.2939291274599 14.2600911065676,46.2935470530033 14.2601024832243,46.2933383912865 14.260166637512,46.2930465769461 14.2602914107338,46.2927253739802 14.2604673532935,46.2924403107586 14.2607120288903,46.2921496635707 14.2609481052612,46.2918709265573 14.2611502205845,46.2915501325325 14.2614230077379,46.2910987052419 14.2616436890705,46.2906707834101 14.2619363220189,46.2900166856992 14.2620789793927,46.2896478208399 14.2623352902057,46.2891366333274 14.2625560861587,46.2887087103369 14.2629765697811,46.2881389285234 14.2633004440872,46.2877176066182 14.2634761159827,46.2874503512919 14.2636087813369,46.2871769705031 14.2637161820497,46.2868615897652 14.2638425181687,46.2864210894813 14.2640162772331,46.2856469173354 14.2641473486243,46.2848426892738 14.2643738594451,46.2839854515847 14.2645399164532,46.2831456389735 14.264762135566,46.282598507168 14.2650974476407,46.2819685176061 14.2653201059499,46.2813974547985 14.2655929975565,46.2809220848453 14.26587521349,46.2803991787154 14.2660720093101,46.2800146408232 14.2661488916071,46.2798641607508 14.2662654330356,46.2795131168862 14.2663220884767,46.2791377559589 14.2663704473839,46.2787325608951 14.2664199197283,46.2782438785774 14.266466526664,46.2779698518784 14.2666225361654,46.2772373979489 14.2667569126747,46.2768326643463 14.2669152752844,46.2765653822208 14.2671245890045,46.2763400836947 14.2675506025132,46.275996959827 14.268018444687,46.2757375065749 14.2689896849767,46.2751294790441 14.2693103941256,46.2749467258258 14.2699427484228,46.2745988833637 14.2711278945811,46.2740697594908 14.2720452761923,46.2736342894964 14.2722641212366,46.2735882672275 14.2724971808951,46.2735857916725 14.2726776685807,46.2735949475468 14.2728179294267,46.2735554421208 14.2729881814728,46.273455575792 14.2733698996024,46.2732787773665 14.272963243346,46.2728198519394 14.2727772611776,46.2726181205421 14.2727713778801,46.2726116950766 14.2727674191811,46.2726069013568 14.2726072339195,46.2727501981339 14.2724835035091,46.2728544986786 14.2723542560282,46.2729344714169 14.272312776705,46.2728922802619 14.2720329173072,46.2726078952418 14.2719214704629,46.2725291794719 14.2718411474359,46.2724222305282 14.2717502888762,46.2723172837844 14.2712695584902,46.2723682041338 14.2709264067641,46.272317521253 14.2708292973605,46.2723025063624 14.2704009373727,46.2723177680738 14.2695055356745,46.272330045048 14.2693748455018,46.2724011879089 14.2687108094021,46.272576887367 14.2681941474857,46.2724026338314 14.2680946619294,46.2720690989281 14.2679925523815,46.271942483772 14.2678117651574,46.2718783454052 14.2675765685856,46.2720028003672 14.2671489296853,46.2719640710387 14.2670608751487,46.2717565699243 14.2667880773761,46.2717818125049 14.2665985190985,46.2714027123435 14.2665089072707,46.2713121650017 14.2660225339795,46.270814195014 14.2659477108903,46.2707530731897 14.2658201119381,46.2707286810836 14.2654871635168,46.270779716274 14.2649999258628,46.2709006570206 14.2645044906865,46.2710038183765 14.2641456155704,46.2710724074442 14.2639579678229,46.2710948623056 14.2636512845537,46.2710928875051 14.2631828554258,46.2710780832056 14.2627051525771,46.271116300942 14.2623468001761,46.2711553767626 14.2621334647474,46.2711776628903 14.2618954953868,46.2711406776727 14.2617003457131,46.2710743675364 14.2615905079127,46.2710027598809 14.2614716023065,46.2709784190679 14.2613606542927,46.2709894887257 14.2612065986037,46.2710416670638 14.261112456865,46.2710765078419 14.2609591153757,46.2710755167286 14.2607288648578,46.2710917527099 14.2605153705487,46.2711258211854 14.2601998866534,46.2711415047809 14.2599018443213,46.2711337276239 14.2596808216291,46.271090909312 14.2595710362194,46.2710252382378 14.2594524004122,46.2709712961259 14.2592821446057,46.2709642550191 14.2590771321145,46.2710043139448 14.2587772897082,46.2711205042648 14.2586233901567,46.2711608937399 14.2584526558175,46.271189297451 14.2582469245973,46.2712825239585 14.2580931844531,46.2713110373866 14.2578714436215,46.2713214746227 14.2576073608363,46.2713256983089 14.2574535400594,46.2713601485366 14.2572985220531,46.2714832136665 14.2572031009175,46.2716125140086 14.2570740375675,46.2717062364827 14.2567993441544,46.2717658123949 14.2560080577082,46.2716493699602 14.2553459385331,46.2716810483482 14.2550724764754,46.2717070684004 14.2547071244082,46.2715726977121 14.2544518741705,46.2715473707426 14.2541625841474,46.2715159729366 14.253813747804,46.271484185778 14.2536267672896,46.2714475161204 14.25350018523,46.2713580668011 14.253382116712,46.2712627347533 14.253204020844,46.2712024596597 14.2530337640161,46.2711954992131 14.2527948679403,46.2712176009137 14.2525812889166,46.2712575022317 14.2522501147563,46.2713009527838 14.2517714575551,46.271198851495 14.2513607297205,46.270872261811 14.2509225901662,46.2706534580252 14.2505707271285,46.2707681163469 14.2502334221781,46.2707569975432 14.2501292705198,46.2707833062228 14.2494249240042,46.2710575990659 14.2495793792426,46.2711575826954 14.2494877083468,46.2712199617017 14.2493556441294,46.271390042413 14.2487176269623,46.2715567993746 14.2483023638221,46.271563067096 14.2483148449633,46.2715991381484 14.2484185070977,46.2716088168979 14.2484694158867,46.2716811295335 14.2484559508287,46.2717170300131 14.248532068358,46.271843491811 14.2483358714656,46.2719591662948 14.2480371181924,46.271984193486 14.2473712963523,46.2722857187495 14.2471266461088,46.2723200969532 14.2468948580965,46.2720216612157 14.2466147414073,46.2716239368085 14.2464637491362,46.2712810462972 14.2465199565021,46.2709665130327 14.2463268415798,46.2708572731714 14.2458228706854,46.2707099938386 14.2453560924898,46.2706889192748 14.2449519554331,46.2708302070042 14.2444577472104,46.2709169146109 14.2442521582971,46.2707715998089 14.2439928233747,46.2707608879941 14.2437972383523,46.2708316624843 14.2435223309596,46.2710097888385 14.2431039754033,46.2712409484414 14.2426109999616,46.271237683734 14.2423138599073,46.2711457424199 14.2420674966653,46.2711351122041 14.2413060560731,46.2708331525665 14.2408117180516,46.2709288408023 14.2406821127126,46.2709189828539 14.2404912914485,46.2709357098569 14.2401639404953,46.2708615567469 14.239865687251,46.2708505769107 14.2398150393512,46.2707602676614 14.2398259548868,46.2707496335116 14.2397946876781,46.2707496055573 14.2389740679478,46.270712655729 14.2385931717238,46.2709639321064 14.2381361185695,46.2712897367994 14.2384690043368,46.2715544043389 14.2386176599854,46.2717064582198 14.2386937215046,46.2718540697418 14.2387035928558,46.2719469870758 14.2387357233578,46.2720440114114 14.2388179759042,46.2721568447153 14.2388558994531,46.2722384323159 14.238849410497,46.2723041589966 14.2387231752221,46.2725473238668 14.2386941886039,46.2726167695463 14.2387312016675,46.2727641209946 14.2387280388007,46.2729925400302 14.2386814256125,46.2731355557807 14.238607963046,46.273118691584 14.2378114168044,46.2729805847642 14.2374225476594,46.2736180557746 14.2342594082844,46.2729671966783 14.2297626235545,46.2719233603599 14.2236494820763,46.2755985954025 14.2234153501366,46.2762915924969 14.2236248569335,46.2770757754485 14.2237637647595,46.2772638612582 14.2232971917611,46.2773075681771 14.2230009421308,46.2771526021187 14.2229504435323,46.2770532892566 14.2226016628639,46.2769429513243 14.222302744357,46.2769769073805 14.2222776866685,46.2769137562367 14.2215319080606,46.277349545553 14.2213632406707,46.2773483969833 14.2208804116255,46.2766163310954 14.2208856394263,46.2762474797627 14.2205773211252,46.2760294444401 14.2203258776821,46.2754609036261 14.2202215755144,46.2754961812669 14.2201057031669,46.2754324101991 14.2196780733811,46.2753935033732 14.2188591788868,46.2754868810336 14.2186793334431,46.2753596907025 14.2181570493577,46.2755900486266 14.217728907743,46.2755871199882 14.2175982715847,46.2756492067831 14.2172590261094,46.2757818433642 14.2168790612929,46.2760402514183 14.2166549122069,46.2762906386786 14.2160786613466,46.2766645731973 14.2154579524021,46.2765163596404 14.2150906927054,46.2767927534213 14.214687333855,46.276870958721 14.2145876528646,46.2765823622111 14.2142270743323,46.2763819452246 14.2134031644931,46.2759264174494 14.2126910089193,46.2758225458693 14.2122776448572,46.2756937371511 14.2113850197917,46.2754986414159 14.210594770545,46.2754123025323 14.2097928444142,46.2752358150478 14.2094582403607,46.2750445597275 14.2085132228667,46.2748850682369 14.2084591256237,46.2750376469045 14.2081868048119,46.2750267639703 14.2080535673417,46.2752687667735 14.2082178222627,46.275575810778 14.2082557075684,46.2756480511061 14.2082785460849,46.2758731403899 14.208533104609,46.2762167981916 14.2084207616902,46.276809838523 14.208009875773,46.2774098082439 14.2077309304293,46.2778577376997 14.2081039505925,46.2780852530342 14.2078770307646,46.2785245458919 14.2075631736507,46.2786934084894 14.2073265155928,46.2789077017119 14.2076335000351,46.2792247330793 14.2076309062587,46.2794046598959 14.2078494043726,46.2795501298209 14.20800264012,46.2797221389703 14.2078455147146,46.2798200200423 14.2081639268142,46.2802360987289 14.20808374334,46.2803974936476 14.2079357019029,46.2807653548805 14.2078007633889,46.2811243094536 14.2080479415474,46.2810810357013 14.208812575356,46.2811583075378 14.2092651568411,46.2812694054145 14.208992028134,46.2813125022591 14.2085490539092,46.2814353979557 14.2077801373969,46.2816550034823 14.2071662711504,46.281929662555 14.2068557691275,46.2818645282922 14.2064341947136,46.2820235531838 14.2060617985095,46.2820299650292 14.2056373787713,46.2817660971434 14.2054949093863,46.2817471127161 14.2053410255995,46.2816200819413 14.2049550178786,46.2813924674236 14.2044909018206,46.2811733053808 14.2041946851689,46.281018290901 14.2039623037678,46.2809356980251 14.2034862614648,46.2806535581506 14.2032283236915,46.2805437940138 14.2031596708787,46.2803384484345 14.203041987058,46.280337628163 14.2029470469543,46.28030754536 14.2028952575702,46.2802190113614 14.2028756850784,46.2801011910185 14.2028233864022,46.2800567399042 14.2027382102237,46.2800781892119 14.2026531409955,46.280092261466 14.2025474550041,46.2800694811225 14.2024211537935,46.2800097581621 14.2023382166106,46.2798769201399 14.2022007438549,46.2798538277279 14.2019337442462,46.2799843136797 14.2016877022531,46.2801369885794 14.2014535580694,46.2801941053995 14.2011784794992,46.2801480973003 14.2009572172385,46.2800510004595 14.2006207016523,46.2798574567603 14.2003166407035,46.2796274303325 14.1999799152272,46.2794486387358 14.1996847641822,46.27932888915 14.199484977789,46.2792098965328 14.1994018366357,46.2790916304591 14.1993821868555,46.2789885644245 14.1994267552632,46.2788418615954 14.1995146912197,46.2786219549299 14.1995818224617,46.2783871470616 14.1995527949741,46.2781884646799 14.1994594655223,46.2780481740245 14.1993120016102,46.2779809216812 14.1991640019908,46.2779504641165 14.1989626157198,46.2779416755708 14.1987189313972,46.2779326802051 14.1985389309779,46.2779166630544 14.1983806143391,46.2778640889066 14.1982446481585,46.2777381638022 14.1981406313068,46.2776013960066 14.1978230359673,46.2775623693691 14.1976110344258,46.2775608816996 14.1973984956562,46.2775961885907 14.1971225755358,46.2776089167928 14.1968786787927,46.2776145815176 14.1963802255871,46.2776183667681 14.1961791852223,46.2775949102421 14.1959997235667,46.2775421841258 14.1958198100613,46.2775114977956 14.1957457045838,46.2775035987846 14.1956182332205,46.2775247452626 14.1954586288432,46.2775604209618 14.1952664849693,46.2776472416671 14.1950748996968,46.2777047349681 14.1949043339195,46.2777622859936 14.1946270343026,46.2778779269205 14.1944772064466,46.2779724221133 14.1942428479459,46.2780442781529 14.1940409227338,46.2780722758618 14.1938287043568,46.2780854451564 14.1936592345193,46.2780769622872 14.1934470160422,46.2780901308725 14.1932766626054,46.2781330154595 14.1930954759903,46.2781978665806 14.1928707816252,46.2783360077177 14.1927428752279,46.2783865688999 14.1926363124797,46.2784151474466 14.1925091616398,46.2784142494757 14.1923718038905,46.2783838582792 14.1922240226519,46.2783387277673 14.1920438918672,46.2783227894418 14.1918949233748,46.2783584453528 14.1917344716629,46.2784602395935 14.1915832321308,46.2786502717206 14.1914533559679,46.2788257892221 14.1912719478682,46.2789053913581 14.1908570593398,46.2790053842866 14.1905596574799,46.2790399878585 14.1902081057883,46.2791477145942 14.1899950153948,46.2792197125554 14.1898567898823,46.2792481541528 14.1896762231667,46.2792616299909 14.189485169098,46.2792823189623 14.1893677683238,46.2793328608671 14.1892607877172,46.2793983219912 14.1891529402342,46.2795225288511 14.189003207389,46.279609639787 14.1888228779123,46.2796157382224 14.1886214874437,46.2796069314344 14.1883359133512,46.2795608179345 14.1878920300844,46.2794620251389 14.187564138836,46.2794082313767 14.1867796623057,46.2793952764165 14.1861223609407,46.2793905092264 14.1859307397204,46.2794406092004 14.1857277164814,46.2795420918679 14.185524059718,46.27969503388 14.1852882662323,46.2798624120283 14.1850325213531,46.2799487622764 14.1848097624388,46.2799545519288 14.1845133328871,46.2799230169828 14.1843963614266,46.2799442258369 14.1842473823648,46.2799799616747 14.1840650880749,46.2801182980253 14.1838297251894,46.2802562552535 14.1836486288297,46.2803138042682 14.1834472569137,46.2803123662365 14.1831506083339,46.2802954916971 14.1828641607438,46.280308200245 14.18261935729,46.2803652023148 14.1823849933865,46.2804444117285 14.1821601546992,46.2805898185134 14.1819660098601,46.2808089519214 14.1818045284631,46.2809694768038 14.1816761678937,46.2810494433131 14.1815853354533,46.281092789641 14.1814724744227,46.2811950000785 14.181295339363,46.2813259911904 14.1812449904883,46.2813608098423 14.1811846114199,46.2813633465222 14.1810989008774,46.2813328618118 14.1810089528464,46.2812993775933 14.1809215308423,46.2812531353211 14.1808429418128,46.2811975991397 14.180788726562,46.2811696791318 14.1807180644164,46.281156936549 14.1806489878159,46.2811684078591 14.1805796898809,46.2811947229862 14.1805189984345,46.2812182206432 14.180435349844,46.2812496512198 14.1803604616315,46.2812766459194 14.1802856521122,46.2813070600849 14.1801757602649,46.2813579162932 14.1800261653171,46.2814083976807 14.1799017112436,46.2814350365838 14.1797672150874,46.2814650222584 14.1796491513659,46.2814808200729 14.1795454269987,46.2815009493704 14.1794590483058,46.281515264886 14.1793812332458,46.2815296418031 14.1792646618281,46.2815497686064 14.1791352950964,46.2815577471241 14.1790361196589,46.2815600041141 14.1787780084248,46.2815343077391 14.1786275033698,46.2815153220739 14.1784469415459,46.2814930611718 14.178296436724,46.2814740750722 14.1781082387555,46.2814331344677 14.1778496070991,46.2813902475271 14.1777347450994,46.2814088555326 14.1773812976421,46.2815365030388 14.1770314035525,46.281643391406 14.1768021743872,46.2816907760997 14.1765733232124,46.2817042434653 14.1764966500204,46.2817376108169 14.1764526000474,46.2817675242461 14.1763912011369,46.2818727095424 14.1762744007276,46.2820378671319 14.1761639706244,46.2821502567124 14.1759920489231,46.2823565840427 14.1758536905215,46.2825140281345 14.1757317774056,46.2826564752598 14.1756863285894,46.2827882270321 14.1756396743091,46.282991678071 14.1756360537902,46.2832330478299 14.1756006549909,46.283421464636 14.1755493989058,46.2835682898193 14.1755959573255,46.2837346245515 14.1756968846897,46.2839013512624 14.1757240074437,46.2841868491428 14.1757142554862,46.2842486798125 14.1757179710258,46.2842951323329 14.1757310915262,46.2843461512757 14.1757134750606,46.2843872316041 14.1756716625942,46.284432186234 14.1756110125985,46.2845044465866 14.1755528608402,46.2845399262317 14.1755264162744,46.2845725754415 14.1755228975142,46.2846168164606 14.1754922564039,46.284669679177 14.1754674544382,46.2847225839955 14.1754882985104,46.2847864347359 14.1755202023626,46.2848051091401 14.1754164193232,46.2849151166301 14.1753288626334,46.2850939799326 14.1753285977114,46.2850943379111 14.1753284639003,46.2850946068629 14.1753283287393,46.2850949657774 14.1752415685075,46.2852466631074 14.1752410386608,46.2852473790639 14.1752405074638,46.285248184983 14.1752399776171,46.2852489009394 14.1751424098294,46.2853770374475 14.1751420137928,46.2853774844519 14.1751417488682,46.2853778424299 14.1751413528315,46.2853782894343 14.175023729665,46.2855110496778 14.1749843672163,46.2856261101725 14.1749767818551,46.285768301688 14.1749766264305,46.2857700100407 14.1749762114807,46.2857717165206 14.174975668119,46.2857733321016 14.1749346372731,46.2858784835788 14.1749340993119,46.2858797393092 14.1749331653087,46.2858814420432 14.1749319717798,46.2858831429043 14.1749306498387,46.2858847528665 14.174844768,46.2859777942597 14.1748446355353,46.2859779732483 14.1748430554141,46.2859794913737 14.1748413468807,46.2859809185999 14.174839380172,46.2859822539905 14.1746461028828,46.2861058304476 14.1746440091039,46.2861069849728 14.1746417869128,46.2861080485987 14.1746395660728,46.286109022262 14.1746370884084,46.2861098141265 14.1744617350101,46.2861632512786 14.1744608226114,46.2861635146075 14.1744582178816,46.2861641256061 14.1744556145033,46.286164646642 14.1744530138279,46.2861649877527 14.1744502860921,46.2861651480013 14.1744476908228,46.2861651292616 14.1744449671415,46.2861650196223 14.1742859190509,46.2861524445829 14.1741051328357,46.2861701229394 14.1739144330245,46.2861997856722 14.1739124825143,46.286200041496 14.173910403593,46.2862002064196 14.1739083260241,46.2862002813806 14.173767474433,46.2862031323908 14.1737650075733,46.2862032045359 14.1737624150079,46.2862030058556 14.1737596940317,46.2862027162749 14.1737571055243,46.2862022477068 14.1737546494858,46.2862016001514 14.1737521948,46.2862008626333 14.1737497428197,46.2861999451901 14.1737475517191,46.2861989396599 14.1735965836769,46.2861237113451 14.1735965850298,46.2861236213825 14.1735964552665,46.2861236204446 14.1733616586994,46.2860047790903 14.1733615302896,46.2860046881895 14.1733614018799,46.2860045972888 14.1733612721168,46.2860045963506 14.1731488091156,46.2858936536506 14.1731471357358,46.2858927418253 14.1731455934724,46.2858917409759 14.1731440525628,46.2858906501639 14.1729826915709,46.2857645115038 14.1729819211195,46.2857639660967 14.172981152022,46.2857633307271 14.1729805140409,46.2857626063336 14.1728492857041,46.2856348859974 14.1727668678925,46.2855838152212 14.1725683973061,46.2855263262671 14.1723815096322,46.2855097682545 14.1721902169496,46.2854927281803 14.1721881448262,46.2854924432601 14.1721855550109,46.2854920646192 14.1721829679061,46.2854915060533 14.1721805132735,46.2854907685017 14.1719767319238,46.2854240628877 14.1716776913459,46.2853834785571 14.1713854119169,46.2853506800665 14.1712269478045,46.2853684256777 14.1712262976403,46.2853685109371 14.1712235699357,46.2853686711089 14.1712209733494,46.2853687422588 14.1712182497151,46.2853686325429 14.1712155287943,46.285368342902 14.1710919724605,46.2853517919894 14.1710900301099,46.2853515079902 14.1710874430231,46.2853509493995 14.1710849870548,46.2853503017871 14.1710825338005,46.2853494742496 14.1710802116647,46.2853485576903 14.1710780220044,46.2853474621468 14.1710760932241,46.2853462785224 14.170958870494,46.2852712013929 14.1709577148575,46.2852703832621 14.1709559185581,46.2852690206515 14.1709542533772,46.2852675690194 14.1709528504333,46.2852659393442 14.1708678253431,46.2851641938602 14.1707138809782,46.2850888501641 14.1705201699427,46.2850258138842 14.1705188791257,46.2850253546575 14.1705175896667,46.2850248054683 14.1705163002077,46.2850242562791 14.1703764524564,46.2849608007752 14.1703751630003,46.2849602515844 14.1703731044883,46.2849590670066 14.1703711770949,46.2849577934079 14.1703692510598,46.2849564298466 14.1703073427976,46.2849052361959 14.1702610999325,46.284916686982 14.170187006756,46.284916149238 14.1700390792442,46.2849065281121 14.1698914106775,46.2848711765838 14.1698055067872,46.2848363633474 14.1696326656151,46.2848265607862 14.1692492258632,46.2848666021166 14.1690261703764,46.2849249027163 14.1688648799125,46.284975104529 14.1687770356064,46.2850600296063 14.1687509563262,46.2851540410427 14.1687866432451,46.2852485015436 14.1688098731959,46.2853428714698 14.1687843122794,46.2854026072165 14.1686836212852,46.2855217182776 14.1685707322208,46.2856407405425 14.1684696514342,46.2857941280354 14.1683933543367,46.2859391483349 14.1683557238916,46.2859817014469 14.1683064136015,46.2859727953816 14.1682450359409,46.2859466167906 14.1682097380075,46.2858350642183 14.1681872860552,46.2856807782626 14.1680553135173,46.285422946998 14.1679831633693,46.2852940314342 14.1680096325741,46.2851829282666 14.1679995090477,46.2850372793429 14.1679271007192,46.284925456602 14.1678043467872,46.2848731889509 14.1676810739641,46.284855196855 14.167508103981,46.28486248489 14.1672109533389,46.2849116950332 14.1671123353058,46.2849024292808 14.1669647982378,46.2848585275555 14.1668424342863,46.2847891669651 14.1665980971986,46.2846076213968 14.1664041102529,46.2843749782298 14.1663633961683,46.2842871382675 14.1664897659304,46.2842719545644 14.1664915866461,46.2842716979209 14.1664934087262,46.284271351315 14.1664952308062,46.2842710047091 14.1668004394422,46.2841951333557 14.1668007003233,46.2841950452846 14.1668008300819,46.2841950462302 14.1668010909629,46.284194958159 14.1670292295359,46.2841351693974 14.167058207935,46.2841325913764 14.1670191771056,46.2840449438524 14.166968575798,46.2838901825984 14.1669496355955,46.2837356520155 14.1668151774286,46.283514059981 14.1665427878917,46.2832915523297 14.1662372920516,46.2831642632867 14.1659626757537,46.2830887528661 14.1654757060353,46.2830336452252 14.1651792716931,46.2830020601293 14.1649139756717,46.2830221659092 14.1645841885284,46.2830931740819 14.1643595152661,46.2832238815357 14.1640699016984,46.2834349089444 14.1638666181982,46.2835583940785 14.1636536999591,46.2836156786766 14.1633778552233,46.2836209482564 14.1630918357664,46.28360409946 14.1628066003945,46.2835357914915 14.162489333172,46.2834746259047 14.1620864385885,46.2834716738503 14.161757430081,46.2834912153741 14.1615021920178,46.2835408079456 14.1612152756391,46.2835827898088 14.1610349306506,46.2835888443011 14.1607484458175,46.283594029458 14.1604729547738,46.2835846291274 14.1601976708842,46.2835531864223 14.1598376575403,46.2835210304745 14.1596046919746,46.283497275046 14.1593078269999,46.2835023802918 14.1590421724591,46.2835371353072 14.1587546742428,46.2836085276835 14.1585733165745,46.2836807005382 14.1583803225083,46.2838262948765 14.1582299660469,46.2839501595866 14.1579738213095,46.2840585795349 14.1575799701493,46.284151138889 14.1572826324063,46.2841783685968 14.157007027367,46.2841762468377 14.1567957920305,46.2841232249446 14.1566481384927,46.2840706716857 14.156447414298,46.2840177266818 14.1562457885626,46.2840235266316 14.1560863835102,46.2840517710832 14.1559372634685,46.2840947567405 14.1557352974239,46.2841226864812 14.1555879849651,46.2840480011671 14.1555366252028,46.2839446934305 14.1554858132741,46.2837973032507 14.1554249433944,46.2836204177769 14.1552279516092,46.2833248426799 14.1550814330958,46.2831986983621 14.1548914670269,46.2831384523833 14.1547327418669,46.2831226135058 14.1545944725863,46.2831436344037 14.1543924135249,46.2831862265862 14.1541580949873,46.2832506229878 14.1538597425157,46.2833439659918 14.1536044996459,46.2833934509268 14.1533912320856,46.2834727570665 14.1530831437705,46.2835071840087 14.1530169715522,46.2835148812969 14.1532047678559,46.2833874319221 14.1532066052351,46.283386095945 14.1532083156304,46.2833845790826 14.1532097665132,46.283383060298 14.153210560298,46.2833820764809 14.1534056652238,46.2831339379589 14.1536920684137,46.2827968624448 14.1540243587631,46.2824207178319 14.1540247549488,46.2824202709014 14.1540251525193,46.2824197340088 14.154025548705,46.2824192870784 14.154197695984,46.2821868124357 14.1543694223879,46.2819815960517 14.154370082226,46.2819808811528 14.1543704825583,46.2819801643346 14.1543710126435,46.2819794484761 14.1544752481486,46.2818170994191 14.1546351017919,46.281674955452 14.1547692536439,46.2815839055256 14.1549954969439,46.2814534084227 14.1549958889652,46.2814532313753 14.1549961512349,46.2814530533689 14.1549964135046,46.2814528753624 14.1551271655427,46.281371876796 14.1551291311762,46.2813706317078 14.1551308400724,46.2813692047775 14.1551324205999,46.2813676869261 14.155132815386,46.2813673299538 14.1553273057418,46.2811581415917 14.1555212201371,46.2809610049423 14.1557151563267,46.2807792534037 14.1557162109109,46.2807781815223 14.155717265495,46.2807771096409 14.1557180619607,46.280775945881 14.1558389723696,46.2806089501488 14.1558392360142,46.2806086821781 14.1558393712908,46.2806083232873 14.1558396363172,46.2806079653544 14.1559781925505,46.280390355308 14.1559783264442,46.2803900863791 14.1559784617193,46.2803897274881 14.1559787253622,46.2803894595171 14.1560423548872,46.2802766539442 14.1560432893759,46.2802749513662 14.156043835999,46.2802731559526 14.1560443840034,46.2802712705768 14.1560445413796,46.2802694722899 14.1560445703882,46.280267583083 14.156044339899,46.2802656919605 14.1560438485305,46.2802638888847 14.1560438526746,46.280263618998 14.156006207616,46.2801461969971 14.1560055823569,46.28014466285 14.1560049557165,46.2801432186651 14.1560040695788,46.2801417725646 14.1559482884728,46.2800561568725 14.1535262863546,46.2801639420019 14.1511994577285,46.2802674339576 14.1509056000133,46.2802805472493 14.14959538274,46.2803388282812 14.146156569956,46.2805021401533 14.1453806656815,46.281014044251 14.1445852216845,46.2814964658414 14.1440326141582,46.281858697599 14.1437146426293,46.2820362613947 14.1434952757503,46.2821233310147 14.1434966820023,46.2821246911359 14.1434978273465,46.2821261392749 14.143498711783,46.2821276754317 14.1435927793132,46.282286821521 14.143593284308,46.2822877250279 14.1435940361927,46.2822894401358 14.1435946569224,46.2822912442338 14.1435950167437,46.2822931363497 14.1435951184603,46.2822949365599 14.1435950890217,46.2822968257601 14.1435809782108,46.2824445447325 14.143605928712,46.2825755515117 14.1436968267389,46.282704982867 14.1438443773895,46.2828797346316 14.1440597926007,46.2830715492149 14.1440611974896,46.2830729992911 14.1440626009774,46.2830745393292 14.1440637435538,46.2830761673864 14.1442080633185,46.2833001993545 14.1442090747473,46.2833019164008 14.1442098252639,46.2833037214666 14.1442104460248,46.283305525561 14.1442108072744,46.283307327713 14.1442353513052,46.2834978930167 14.1442353499044,46.2834979829786 14.1442353485035,46.2834980729405 14.1442597240777,46.2837078010908 14.1442598328221,46.2837091514906 14.1442598132106,46.2837104109572 14.1442596638425,46.2837116694527 14.1442269466177,46.2839626274739 14.1442268070543,46.283963256236 14.1442266674908,46.283963884998 14.1442265279273,46.2839645137601 14.1441486009886,46.2842685769349 14.1441485953845,46.2842689367824 14.1441484600224,46.2842692956587 14.1441483246603,46.2842696545349 14.1440182641291,46.2846630297922 14.1440177226733,46.2846644652964 14.1440170514585,46.2846658998291 14.1440162504848,46.2846673333903 14.143901924985,46.2848419235157 14.1438223382849,46.2849941006358 14.143803955393,46.2851161454501 14.1438039539914,46.285116235412 14.1438039525898,46.2851163253739 14.1438039511881,46.2851164153358 14.1437790615895,46.2852645933748 14.1437790545811,46.2852650431842 14.1437785075062,46.2852668385344 14.1437778306709,46.285268632913 14.1437768943149,46.2852704253479 14.1437248888177,46.2853598282871 14.143723694339,46.285361528816 14.1437225012621,46.285363139383 14.1437209203052,46.2853646570726 14.1437193393483,46.2853661747622 14.1437175016737,46.2853675105844 14.1436207037459,46.2854331851766 14.1436192623586,46.2854340741037 14.1436171679617,46.2854352280565 14.143614946608,46.2854362011136 14.1436125954935,46.2854371731987 14.1436102485848,46.2854378753982 14.1436076421546,46.2854385756537 14.1436050399302,46.2854390060235 14.1436024391078,46.2854393464314 14.1435997113286,46.2854395059436 14.1434421993941,46.2854455237699 14.1432982505973,46.2854556017955 14.1432198499351,46.2854899235734 14.1431817137813,46.285613619695 14.1431811694886,46.2856152351184 14.1431804982402,46.2856166696457 14.1431795660667,46.28561819219 14.1431218497652,46.2857075520519 14.1431209203941,46.2857088946719 14.1431198612616,46.2857102363194 14.1431186737705,46.2857114870325 14.143015509146,46.2858108530268 14.1430017983404,46.285966042544 14.143016618375,46.2860892358137 14.143036938985,46.2862258761889 14.1430370477034,46.2862272265891 14.1430370196446,46.2862290258258 14.1430368604202,46.2862309140518 14.1430364430736,46.2862327103706 14.1429894890396,46.2863891802261 14.1429894876365,46.2863892701879 14.1429893578736,46.2863892692152 14.1429300563003,46.2865801958672 14.1429299153118,46.2865809145891 14.142929645963,46.2865815423763 14.1429292454478,46.2865822591527 14.1429088226316,46.2866269122816 14.142889592912,46.2866699548487 14.1428062968639,46.2868765366766 14.1427181790012,46.28711763166 14.1427176374864,46.287119067157 14.1427168378458,46.2871204107462 14.1427160382051,46.2871217543354 14.1426189469906,46.2872641722671 14.1425438716835,46.2874261892541 14.1424807578329,46.2875618440374 14.1424271729217,46.2877355385813 14.1424271701136,46.2877357185049 14.1424263634367,46.2877375119007 14.1424255581636,46.2877392153348 14.1424243635922,46.2877409158488 14.142269983487,46.287953262102 14.1421552609099,46.2881774221612 14.1420621467813,46.2884057030309 14.1419971562648,46.2886115218509 14.1419966133111,46.2886130473056 14.1419958108211,46.2886145708127 14.1419950083311,46.2886160943197 14.1417428632808,46.2889967640816 14.141725006033,46.2891180026765 14.1417608849922,46.2892222800001 14.1418422858145,46.2893618982288 14.1418426652889,46.2893625308832 14.1418430447634,46.2893631635376 14.1418432944679,46.289363795218 14.1419248468421,46.289551909593 14.1419253476596,46.2895530829916 14.1419258386426,46.2895548861226 14.1419261998553,46.2895566882796 14.1419263001223,46.2895585784505 14.1419250806449,46.289636665256 14.1419250736202,46.2896371150648 14.1419247859805,46.289638912352 14.1419243671651,46.289640798627 14.1419238199841,46.2896425939664 14.1419228834913,46.2896443863838 14.1419219484033,46.2896460888395 14.1418527530233,46.2897470582485 14.1418520901185,46.2897479529959 14.1418507671191,46.2897495625671 14.1418491859829,46.2897510802285 14.1418474764809,46.289752506954 14.141845638613,46.2897538427437 14.1417521536356,46.2898145021282 14.1417230473066,46.289966246843 14.1417487675824,46.2900645097224 14.1417491301976,46.2900662219181 14.1417492332697,46.2900679321654 14.1417492065701,46.2900696414386 14.1417419808402,46.290174944753 14.1417419681929,46.2901757544087 14.141741549367,46.2901776406828 14.1417410021744,46.290179436021 14.141740195438,46.2901812294109 14.1417392603351,46.2901829318648 14.1417380656883,46.2901846323704 14.1417367426748,46.2901862419401 14.141645026348,46.2902831733435 14.1416438401287,46.2902843340776 14.1416425241371,46.2902854938374 14.1416410797789,46.2902865626612 14.1414879194021,46.290395268852 14.1414859517315,46.2903966036612 14.1414838570997,46.2903977575723 14.1414816355069,46.2903987305855 14.1412831685438,46.2904831636539 14.1412808185775,46.2904840457267 14.1412783402446,46.290484836863 14.1412758647237,46.2904854480758 14.1412732608363,46.2904859683522 14.1410812285349,46.2905157462476 14.1410795372717,46.2905160034588 14.1410768078274,46.2905162528705 14.1410742109685,46.2905163233337 14.1410714871497,46.2905162128984 14.1410688945099,46.2905160134763 14.1408895930403,46.2904952322929 14.1407487004929,46.2904832868623 14.1406182711537,46.2905326010626 14.1403719910958,46.2906616592906 14.1401289129527,46.2908265500364 14.1398338952851,46.291034326177 14.1396407007007,46.2911961722147 14.1396395186455,46.2911970630423 14.1396382068161,46.2911979528934 14.1396368949867,46.2911988427445 14.1394435136761,46.2913145312616 14.1394419422919,46.2913154191568 14.1394397192171,46.2913164820914 14.1394373677768,46.2913174540874 14.1394350191546,46.29131824616 14.1392119264168,46.2913835061136 14.1390760666796,46.2915389449491 14.1389675410981,46.2917307583299 14.138834269099,46.2920356602956 14.1387676869427,46.2923750739837 14.1387761232089,46.2925489639393 14.1387761203884,46.2925491438626 14.1387760907736,46.292551033057 14.1387758030143,46.2925528303346 14.13877525429,46.2925547156186 14.1387745771985,46.2925565099635 14.1386753742367,46.2927743952414 14.1386752374068,46.2927748440718 14.1386749722094,46.292775201963 14.1386748353795,46.2927756507934 14.1385539247687,46.2929955317544 14.1384955130312,46.2931944701382 14.1384892299013,46.2933302808893 14.138487257775,46.2933732727631 14.1385280465112,46.2935035900021 14.1386518522637,46.2936372318503 14.1388559407269,46.2938327493709 14.1390253899346,46.2939693437765 14.1391970573083,46.2939644283006 14.1394298553311,46.2939431479017 14.139636281865,46.2938984557455 14.1396364116455,46.2938984567221 14.139636542835,46.2938983677371 14.1396366726156,46.2938983687137 14.1399473797189,46.2938335871139 14.1400114907198,46.2938672691212 14.1402119254228,46.2939151122879 14.1404069459941,46.293993774874 14.1405812586467,46.2940354828254 14.1407611796285,46.2940588783232 14.1409247353578,46.2941078826312 14.1410514753349,46.2941456335107 14.1411625983638,46.2941611337702 14.1414593649318,46.2941744292145 14.1416714275554,46.294176021435 14.1418674854377,46.2941884697499 14.1420638862158,46.2941789670772 14.1421862678108,46.2941467755694 14.1423406905983,46.2941074465682 14.1425053522099,46.2940940161808 14.1426854469261,46.2941063433677 14.1428176657406,46.2941257790359 14.1429395464012,46.2941339804977 14.1430562197357,46.2941348550489 14.1432311073333,46.2941398545968 14.1434425962309,46.2941782378742 14.1436539143457,46.2942275960927 14.1439602376386,46.2943106850994 14.1441504583653,46.2943562855448 14.1442820505383,46.2944160223837 14.1444506032484,46.2944944799584 14.1446504801567,46.2945952148265 14.1448394448911,46.2947215997794 14.1449528823092,46.2948220474366 14.1450425416123,46.2947906878192 14.1451726060338,46.2947985882058 14.1452647153263,46.2948349958119 14.1454112394195,46.2949195853325 14.1455041987668,46.2949931576233 14.1455061245272,46.2949945215992 14.1455080530863,46.2949957056516 14.1455102412122,46.2949968916439 14.1455124321369,46.2949978977126 14.1455148854269,46.2949987257977 14.1455173401164,46.294999463921 14.145519927388,46.2950000230907 14.145522128108,46.295000399427 14.1456371378944,46.2950165541864 14.1456398591487,46.295016844438 14.1456424520188,46.2950170437579 14.1456451788696,46.2950169741622 14.1456479071195,46.2950168146048 14.145650506985,46.2950165641157 14.1456523295492,46.2950162178459 14.1458079019317,46.294986429812 14.1458088132128,46.2949862566759 14.1458095947105,46.2949860825701 14.1458105073904,46.2949858194722 14.1459680560069,46.2949457891525 14.1461694919608,46.2949548513137 14.1461722174098,46.2949548716673 14.1461748158719,46.294954711128 14.1461775455156,46.2949544615961 14.1461801481724,46.2949540311714 14.1461826224441,46.2949535098156 14.1461830131922,46.2949534227615 14.1463583000352,46.2949078561194 14.1463606459179,46.294907243829 14.1463629959944,46.2949063616532 14.1463650865044,46.2949054775394 14.146527996928,46.2948294076217 14.1466394576776,46.2947899320507 14.1468919917716,46.2947766113466 14.1471505710772,46.294766844095 14.1473914383962,46.294760902954 14.1475703489526,46.2947661058061 14.1475730743932,46.2947661261262 14.1475756728428,46.294765965555 14.1475782740842,46.2947656250601 14.1475808767216,46.2947651946033 14.1475834821507,46.2947645842229 14.1475859591928,46.2947638829129 14.1475883092437,46.2947630007118 14.1475901387672,46.2947622046019 14.1476866457172,46.2947160485484 14.1476879547109,46.2947153385288 14.1476891339218,46.2947146275418 14.1476903131326,46.2947139165547 14.1478144803755,46.2946334172564 14.1479636716838,46.2946132057535 14.1481777781153,46.2946337852719 14.1481782958507,46.2946338791015 14.1481788149811,46.2946338829692 14.1481793341115,46.2946338868369 14.1483988733647,46.2946473086403 14.1484006903216,46.2946473221738 14.1484025072785,46.2946473357073 14.1484043256299,46.294647259279 14.1485903556227,46.2946369483698 14.1485929554578,46.2946366978135 14.1485956864697,46.2946363582619 14.1485981607049,46.2946358368535 14.1486007675111,46.294635136488 14.1486031161463,46.2946343442276 14.1486049442568,46.2946336380632 14.1487296044404,46.2945798631903 14.1487302561409,46.2945796880982 14.1487307794529,46.2945794220779 14.1487313027649,46.2945791560576 14.1488525505712,46.2945194174767 14.1489915802044,46.2944848234004 14.1491589386417,46.2945151300018 14.1493069601369,46.2945620273149 14.149485584618,46.2946275963989 14.1496152128786,46.2947307690622 14.14961700895,46.2947321320042 14.1496190659799,46.294733406915 14.1496212555779,46.2947345028674 14.1496213839682,46.2947345937945 14.1497724007063,46.2948060751947 14.1497747228779,46.2948069921856 14.1497770450497,46.2948079091764 14.1497795011816,46.2948085572466 14.1497818289228,46.2948091143899 14.1502117088813,46.294893735181 14.1505047125452,46.2949912831306 14.1506273920926,46.295031962296 14.1510896214879,46.2952492591863 14.1510911691663,46.2952499004832 14.1510927168447,46.29525054178 14.1510943956975,46.2952510940785 14.1514222342593,46.2953541166959 14.1518389116384,46.295562884974 14.1518396847919,46.2955632505983 14.1518404579455,46.2955636162226 14.151841232488,46.2955638918851 14.1522330478387,46.295726948348 14.1522348551147,46.2957275915542 14.1522366623907,46.2957282347603 14.1522386008404,46.2957287889669 14.1532552424859,46.2959868052978 14.1532573121278,46.2959872704865 14.1532593831565,46.2959876457132 14.1532614569586,46.295987841016 14.1536149808314,46.2960250079597 14.1536177035666,46.29602520806 14.1536202979018,46.2960253172375 14.1536230261813,46.2960251574899 14.1536234155395,46.2960251603723 14.153860316243,46.2960073898787 14.1538629161207,46.296007139203 14.1538655187697,46.2960067086033 14.1538681241901,46.2960060980797 14.1538706012101,46.2960053966336 14.1538729512153,46.2960045143031 14.1538743885613,46.2960038951349 14.1541029788053,46.2959020286097 14.154335264519,46.2958551619695 14.1545477561998,46.295871488912 14.1551405968474,46.296088205602 14.1554511690304,46.2962259982597 14.1556484241602,46.2963385708137 14.155714699898,46.2963926836642 14.1557449789232,46.2964579571419 14.1557713322473,46.2965421857537 14.1558280109315,46.2968069425119 14.1558280095489,46.2968070324738 14.1558596653576,46.2969516715395 14.155860155479,46.2969535645738 14.1558609079422,46.2969552796007 14.1558617888112,46.2969570855477 14.1558629320219,46.2969587134874 14.1558633130921,46.2969592561339 14.1559518364748,46.2970692258706 14.1559522161644,46.2970698584788 14.1559527270249,46.2970704020832 14.1559532392677,46.2970708557256 14.1560779586398,46.2971989970301 14.1560788547232,46.2971998133939 14.1560797508065,46.2972006297576 14.156080648272,46.2972013561594 14.15628381028,46.29736066675 14.1562840684769,46.2973607586276 14.1562841955026,46.2973609395093 14.1562843239101,46.297361030429 14.1565725500698,46.2975768409107 14.1567711362254,46.2977722856759 14.1567722877659,46.2977733738347 14.1567735690967,46.2977744629506 14.1567748531897,46.2977753721426 14.1569198883078,46.297874061501 14.1569206573856,46.2978746969772 14.1569215576348,46.2978752434484 14.1569225890553,46.2978757009148 14.1570677944904,46.2979548673813 14.1570699843665,46.2979559631922 14.1570721770038,46.2979568790792 14.1570745008124,46.297957705961 14.1572146653724,46.2980016559624 14.1572171203562,46.2980023938361 14.1572197078916,46.2980029527424 14.1572222981876,46.2980033317248 14.1572250196548,46.2980036217018 14.1572265771451,46.2980036331824 14.1573842123231,46.2980087538103 14.1573868095206,46.298008682979 14.1573894067182,46.2980086121477 14.1573920066757,46.2980083613923 14.1575499205018,46.2979868520871 14.1576842928715,46.2980022376597 14.1578322361218,46.2980637887803 14.1579039145651,46.2981806507294 14.157939410422,46.2982953567379 14.157911763848,46.2983968216481 14.1578282570688,46.2985095714799 14.1577086430775,46.2986405895153 14.1577073203223,46.2986421992692 14.1577062557722,46.2986439008974 14.1577053210144,46.2986456034818 14.1577047852905,46.2986466792009 14.1576614415767,46.2987559459513 14.1576251010142,46.2987555882381 14.1575318968637,46.2989588683461 14.1574635986646,46.2991716890114 14.1574166892722,46.299496412646 14.1573673704097,46.2997158510952 14.1573618186894,46.3003569515388 14.1572553798945,46.3005849661318 14.1570877202686,46.3009618829954 14.1569247902428,46.3015125705972 14.1569352512373,46.3017782453736 14.1566492527921,46.3026247529166 14.1565937916368,46.3027957406306 14.1564910157529,46.3029622405387 14.1562825499842,46.3032819926661 14.1562392242484,46.3035079527054 14.1562506636201,46.3037012971323 14.1563120619233,46.3039552015279 14.1565749497286,46.3039888112765 14.1568368049482,46.304022052917 14.1571883008086,46.3041187552748 14.1574764541927,46.3042148998279 14.1577194015807,46.3043045025649 14.157927128613,46.3043374329116 14.1581983609799,46.3043519363323 14.1585242702859,46.3043480373726 14.1589503782917,46.3042947601588 14.1591865811788,46.3042399949831 14.1593405923125,46.3042286213588 14.15947623921,46.3042296186408 14.1596115368373,46.3042619234705 14.1597281800418,46.304325581265 14.1598436114271,46.3044769527876 14.1599754224052,46.3047287633685 14.1601628703787,46.3048994678037 14.1603693550094,46.3050138992538 14.1605857557013,46.3050656926158 14.1610007700606,46.3051439554154 14.1613169255806,46.3051839732454 14.1614884431094,46.3052165415258 14.1618485286645,46.3053383947189 14.1620182280551,46.3054901618231 14.1621076519074,46.3055598257441 14.1622698937036,46.3056048309848 14.1625680716389,46.3056321175417 14.1629661339056,46.3056476284954 14.1632645043508,46.3056623185602 14.1634084161204,46.305726082164 14.1635953999953,46.3059281777746 14.1637102374448,46.3061109412342 14.1637433994016,46.3063118213992 14.1637764643236,46.3065190888511 14.1637780268424,46.3069194757444 14.1638428825576,46.3069147316902 14.1639610662533,46.3068778976596 14.1640431267501,46.3068345913298 14.164162263204,46.3067351435355 14.1643176180016,46.3066358703717 14.1644550229228,46.3065302577524 14.1645927133566,46.3064058429005 14.1647030471338,46.3062875260657 14.1647771043137,46.3061813602644 14.1648681540792,46.3061444170466 14.1649855707457,46.3061578707114 14.1651030229054,46.3061775325842 14.1651931205822,46.3062032026825 14.1653377635781,46.3062105567314 14.1653714815848,46.3062044148595 14.1654548004261,46.3062490193629 14.1656616826088,46.3063383419261 14.1657868527938,46.306439664036 14.1659211717244,46.3065284566655 14.1661635122422,46.3066681513913 14.1664424169551,46.3067768019159 14.1666021885165,46.3068139554203 14.1665828071812,46.3069532707609 14.1665886865142,46.307027810439 14.1666472549675,46.3072234765931 14.1668971559733,46.3073101413685 14.1670539386186,46.307501664411 14.167396232792,46.3078739424577 14.1678291965053,46.3080205998604 14.1679326245004,46.3081264398811 14.1680776343776,46.3082213358716 14.1682247393684,46.3084436472482 14.1682183951399,46.3084853480947 14.1682048282709,46.3085753113501 14.1685818648015,46.3089434298891 14.1723208605209,46.3091341267925 14.1729042102665,46.3090382993621 14.1733586219266,46.3088485057923 14.1733266113013,46.3090688856238 14.1737689773219,46.3089547597305 14.1736435556832,46.3092052349981 14.173939162506,46.3091548274743 14.1739764448854,46.3091275654069 14.1742545091558,46.3089227284025 14.1743689258792,46.308842669875 14.1751480576648,46.3089453731793 14.1755379327094,46.3089372985832 14.1758152519166,46.3091795231162 14.1765848744193,46.3092934845372 14.1772130736035,46.3091414557179 14.1776218833862,46.3090914933646 14.1781513642074,46.3090983595619 14.1782892825106,46.3092693978477 14.1784280440506,46.3093407530907 14.1782669220606,46.3094448624095 14.1791443034841,46.3097940479144 14.1796728793335,46.3102095531498 14.1796995076373,46.3103303965735 14.1797528830742,46.310624987747 14.1797596998679,46.3106814490555 14.1797355529539,46.3107681887152 14.1796835448937,46.3109208578508 14.179635753256,46.3110606912257 14.1795507617569,46.3112310280459 14.1794143744782,46.311478191857 14.1793199630429,46.3116532293992 14.1792611109942,46.311751146268 14.1792608891888,46.3117833546235 14.1792482957925,46.3119570000001 14.1792348616611,46.3121695072023 14.179214096888,46.3124381042435 14.1791965750833,46.3125939897495 14.1792206690889,46.3126324907469 14.1792230271561,46.3127092537112 14.1792258669541,46.3128059039237 14.1792297126128,46.3130958210005 14.1790521219988,46.3139272359005 14.1790059976827,46.3141202542981 14.1786832633625,46.3144636084236 14.1788575620287,46.3148771114702 14.1786827228521,46.3153155482085 14.1786731096485,46.3153505681814 14.1788726034056,46.3157552549375 14.1785734705086,46.3163863281975 14.1784580325308,46.3166294124851 14.1783025030025,46.3165232977139 14.1782774684128,46.3171027164152 14.1784797876455,46.3173014785097 14.1786635409409,46.3174914695766 14.178926277433,46.3176793284035 14.179015783666,46.3176333657178 14.1790888898432,46.3176247134967 14.1791874772161,46.3176227221294 14.1793084244105,46.3176450935961 14.1797052127963,46.3177606756779 14.1799148387845,46.317827229043 14.1802993754726,46.3178677746514 14.1807504974426,46.3180495120128 14.1810119953087,46.318486399137 14.1809706346555,46.3184995986399 14.1806425130474,46.3186287865434 14.180518367318,46.3186726128236 14.1805498178633,46.3187056779435 14.1806256338021,46.3187939438022 14.1807679844371,46.3189485457151 14.1807994979978,46.3189861098064 14.1809864622976,46.3190923563315 14.1811908133651,46.3191473531617 14.1821490082881,46.3190433658229 14.1821594067902,46.3189555377477 14.182336973743,46.3189344047397 14.1828131720579,46.3188109489348 14.1829150063337,46.3187828857338 14.1830900522731,46.3186693324917 14.1831653876953,46.3187639812295 14.1833847703229,46.3186902418958 14.1832432160552,46.3185514839661 14.183853810659,46.3182793606585 14.1846427144039,46.3179267213831 14.1846932573487,46.3179071980285 14.1848929927121,46.3179231975414 14.1849571419298,46.3178181178943 14.1852532954931,46.3176633177507 14.1860258197013,46.3173457311706 14.186282554225,46.3173269550394 14.1863964920384,46.3173405418552 14.1864905607463,46.3174681614384 14.1865378216456,46.3175123139679 14.1865081481578,46.3176570474579 14.1868510968687,46.3179105983143 14.1869589929223,46.317990270885 14.1871544066026,46.3181315664542 14.1874413955815,46.3183236268153 14.1874788234294,46.3183479152695 14.187830218946,46.3184524398931 14.1879753871645,46.3185495608583 14.1880066809606,46.3185759648978 14.1874914113623,46.3187870671433 14.1874653019783,46.3188841411209 14.1877285454185,46.3188910499621 14.1878585870483,46.3188872052161 14.1880137551408,46.3188702229372 14.1886577993986,46.3187760058555 14.189028725412,46.3187630722262 14.1895222550183,46.3187311227599 14.1900857094626,46.318624450071 14.190461497571,46.3185018706042 14.1909361608664,46.3184105800068 14.1911394415837,46.3184153472144 14.1911330784777,46.3183713059862 14.1912410146531,46.3184751772045 14.1912549415061,46.3185522915788 14.1913482280156,46.3190688496843 14.1913556751651,46.3191098395208 14.1913657739352,46.3193322312447 14.1913696992678,46.3194183620099 14.1914895538449,46.3197006413455 14.1917219905096,46.3196834806186 14.192012285756,46.3199083925125 14.1923020960922,46.3201575926139 14.1926126322554,46.3203133676778 14.1926473024514,46.3203311569887 14.1928468297879,46.3205563254954 14.1930055251965,46.3207942513679 14.193042499554,46.3208496650184 14.1930518489186,46.3208673654686 14.1930837286625,46.3208630018969 14.1932439587668,46.3208199564342 14.1934590321767,46.3208446864773 14.1935785558101,46.3210443671327 14.1935960777173,46.3212482767521 14.1938827974847,46.3214878240052 14.1941163841595,46.321552000986 14.1944739725162,46.3215465133049 14.1947146925786,46.3215405613493 14.1950313780141,46.321543691042 14.1951771429497,46.3215484060089 14.195322258674,46.3215531162209 14.1955026310478,46.321562302996 14.1956927071481,46.3215650797809 14.1959899096023,46.3215418879847 14.1962434446182,46.3215032732042 14.1966233437076,46.3215260967929 14.1968038990567,46.3214784206528 14.1969210931927,46.3214654781706 14.1971764523111,46.3216305701795 14.1972900812537,46.3216571898565 14.19748010104,46.3216993709002 14.1977238034627,46.3216759790219 14.1978597873073,46.3216391449603 14.1981833069652,46.3215567507325 14.198300471557,46.3215636004145 14.1985123636283,46.321566435503 14.1987280058457,46.3214903012825 14.1988262997581,46.3214643584348 14.1991456137095,46.3214564286237 14.1995066099925,46.321448699778 14.1995603406426,46.3214597825763 14.1996866955009,46.32148648896 14.1997311177877,46.3215303462123 14.1998991030267,46.3216321102518 14.2000287621214,46.3215925302</coordinates></LinearRing></outerBoundaryIs></Polygon></MultiGeometry>
  </Placemark>
</Folder>
</Document></kml>
