<?xml version="1.0" encoding="utf-8" ?>
<kml xmlns="http://www.opengis.net/kml/2.2">
<Document id="root_doc">
<Schema name="pregledovalniklovisca" id="pregledovalniklovisca">
	<SimpleField name="lov" type="string"></SimpleField>
	<SimpleField name="lov_naziv" type="string"></SimpleField>
	<SimpleField name="luo" type="string"></SimpleField>
	<SimpleField name="luo_naziv" type="string"></SimpleField>
	<SimpleField name="povrsina" type="float"></SimpleField>
</Schema>
<Folder><name>pregledovalniklovisca</name>
  <Placemark id="pregledovalniklovisca.1">
	<Style><LineStyle><color>ff0000ff</color></LineStyle><PolyStyle><fill>0</fill></PolyStyle></Style>
	<ExtendedData><SchemaData schemaUrl="#pregledovalniklovisca">
		<SimpleData name="lov">0224</SimpleData>
		<SimpleData name="lov_naziv">KRVAVEC</SimpleData>
		<SimpleData name="luo">02</SimpleData>
		<SimpleData name="luo_naziv">Gorenjsko</SimpleData>
		<SimpleData name="povrsina">3610.03</SimpleData>
	</SchemaData></ExtendedData>
      <MultiGeometry><Polygon><outerBoundaryIs><LinearRing><coordinates>14.5072513777909,46.2091496113692 14.5072539149564,46.2091702261836 14.5072517408177,46.2091524920786 14.5072513777909,46.2091496113692</coordinates></LinearRing></outerBoundaryIs></Polygon><Polygon><outerBoundaryIs><LinearRing><coordinates>14.4992348558086,46.2021323973511 14.4990527162563,46.2022125754143 14.498831997056,46.2022745893878 14.498452711064,46.2026598115441 14.4982575291898,46.2027489284514 14.4978561732445,46.202711176883 14.4974922959435,46.2028265433906 14.4971161162668,46.2028698759234 14.4967401824651,46.2028862162885 14.4963126648142,46.2028753361426 14.4960149698159,46.2028380347851 14.4956916421653,46.2027556328923 14.4955108130786,46.2026918536846 14.4953814017594,46.2026733778255 14.4952649488672,46.2026548690598 14.4950317135996,46.2026538390683 14.4947594408541,46.2026706307567 14.4945641705161,46.2027687383067 14.4941501072585,46.2027039255298 14.4936596224024,46.2024948153878 14.4931560183842,46.2023036396459 14.4926383010177,46.2022383617848 14.4918609393125,46.2022259118207 14.4915371701347,46.2022064775742 14.4911614054834,46.2022048056688 14.4904896167605,46.2019858774377 14.489855955834,46.2018480914518 14.4892483794081,46.201692423811 14.4887560394115,46.2016723184056 14.4884586066874,46.2016080065117 14.4883289506136,46.2016164236146 14.4881864207873,46.2016157855954 14.4879513513437,46.2018126744181 14.4875485498162,46.2019458296247 14.4873930995997,46.2019271380203 14.4868251551493,46.2016906591436 14.4865661773445,46.2016715016394 14.4858000199996,46.2018480049109 14.4855395302389,46.2019907903927 14.4854479049425,46.2020893487597 14.4853155203735,46.2024036596903 14.4852235578619,46.202538205707 14.4850406393828,46.2026994239578 14.4847530510281,46.2029680482912 14.4841926760285,46.203307420118 14.4839319224714,46.2034771927254 14.4837107990136,46.2035661676831 14.483490012113,46.2036191543847 14.4830617323394,46.2036891972743 14.4828672819188,46.2036973151742 14.4827250846022,46.2036606825042 14.4825057325161,46.2035607190676 14.4822992543953,46.2034698108457 14.4817702736492,46.2032244860194 14.4813045613425,46.2031413978962 14.4810843668336,46.2031314012787 14.4808909349983,46.203031552385 14.4805574689862,46.2026522394503 14.4802752040106,46.202354044378 14.4794987788123,46.2022425438741 14.4790462057372,46.2021415116753 14.4785933790001,46.2020674685446 14.4776847451228,46.2022342701712 14.4774103368869,46.2024759442658 14.4771763349297,46.2025558503906 14.4767479701992,46.2026348665889 14.4759557671454,46.2028202719647 14.4755924431222,46.2028725899428 14.4751373018326,46.2030414506554 14.4748905080679,46.2031032986888 14.4745790115583,46.2031558514927 14.4742027264493,46.2032081054817 14.4737222642642,46.2033138627253 14.4731769260011,46.2034283163359 14.4726314994045,46.2035517642737 14.4722159912338,46.2036399100995 14.4716678005039,46.2040512554657 14.4714203080689,46.2041850714653 14.4711974352593,46.2044539608571 14.470961472798,46.2047497812365 14.4707914642629,46.204910946411 14.4705681532731,46.2052248191919 14.4703716206549,46.205448842235 14.4702149123471,46.205574078812 14.4698886219283,46.2058154942841 14.4696449269387,46.2055534412968 14.4692988691835,46.2051559526039 14.468912685854,46.2048752418014 14.468346092263,46.2045038074234 14.4681786814639,46.2043950607091 14.4674272120822,46.204382565053 14.4666882656344,46.2044151095614 14.4664678076468,46.2044320755733 14.4662216080494,46.2044309262985 14.4657414690361,46.2045006621482 14.4654946583598,46.2045624898082 14.4652735883794,46.204642432011 14.4650788702682,46.2046775104105 14.4645331512449,46.2048279103333 14.4638847271486,46.2048789453274 14.4627545770163,46.2051615545659 14.4615217175646,46.2053446981915 14.4605481885468,46.2055110578598 14.4592143848898,46.2054148727966 14.4586962380788,46.2053944258942 14.458243943386,46.2052663207004 14.457946085171,46.2052469141144 14.4572979170602,46.2052708309792 14.4568964834695,46.2052419325828 14.4565207002117,46.2052401467289 14.45649336446,46.2053839741463 14.4568727966091,46.2063304976037 14.4569184642848,46.2069695252566 14.4567870173662,46.2071578447383 14.4560315162143,46.2075502249786 14.4552115676221,46.2079062138007 14.4540795289191,46.2083686747935 14.4538577139063,46.2085205699692 14.4541011682446,46.208800650011 14.4542495461902,46.2095211448405 14.4542579121211,46.209998043219 14.4542144006085,46.2104656965713 14.4542129747261,46.2106096470098 14.4544072751515,46.21061957179 14.4545880820028,46.2106834158308 14.4558948411489,46.2109055785825 14.4561921963884,46.210978972053 14.4556245832305,46.212037955106 14.4542536729052,46.2117345071598 14.4538526389576,46.2116607033745 14.4534932229365,46.2126306969186 14.453040791966,46.2125115679905 14.4527361941525,46.2131669149503 14.4524816410213,46.214002447168 14.4523733993716,46.214460792151 14.4523702692827,46.2147756834126 14.4522893277508,46.2151081965355 14.4522601868019,46.2154319604599 14.4528292841194,46.2155516508574 14.4530003607065,46.2152915472492 14.4539436162987,46.2155839708115 14.4537592258672,46.2158800014812 14.4534673105098,46.2165624025609 14.453281128408,46.2170383702034 14.4533846363482,46.2170568597922 14.4532253962934,46.2174429829493 14.4529336445762,46.2181073886366 14.4527616650162,46.2184574608546 14.4524907320493,46.2183302911917 14.4522325833836,46.2182210867977 14.4519610271387,46.2181568041265 14.4512622944718,46.2180364873076 14.4510756399763,46.2185574355553 14.4509699778762,46.2187548691048 14.4510568510036,46.2191421708153 14.4506500259965,46.2196440662417 14.4500593965753,46.2203790062888 14.4495993976051,46.2210245990642 14.4492575336162,46.2215088974629 14.4488756082559,46.2221098767411 14.4480358737459,46.2218269088922 14.4471315192378,46.2215256277512 14.4466071694912,46.2221079159845 14.4460643042292,46.2219523326331 14.445160410846,46.2216061415542 14.4441140929388,46.2212321689583 14.443468640387,46.2209681066389 14.4429132886342,46.2207674609373 14.4428219199057,46.2208299968567 14.4426185723769,46.2217107421728 14.4424958524697,46.2223219609099 14.4426639947046,46.2223587699805 14.4424639175247,46.2229156276112 14.4420922276478,46.223777555962 14.4420130861375,46.2239121293353 14.4410562414989,46.2236736151692 14.4403327273016,46.2234361455066 14.4396479229952,46.2232168556119 14.4395675861962,46.2234683864605 14.4394595841388,46.2238907304519 14.4393102198481,46.224555798751 14.4393341299206,46.2247538567599 14.4393846065376,46.2248890638917 14.4398764543846,46.2249634531798 14.4405624693784,46.2250657825783 14.4411063538105,46.2251224265856 14.4420776824377,46.2252261413382 14.4429329494788,46.2252572139431 14.4432825791961,46.2252949062718 14.4431093328347,46.2257619223562 14.4429617363884,46.2262560550337 14.4426541176793,46.2271903652741 14.4429773780604,46.227272916474 14.4440645098911,46.2274670615066 14.444762983029,46.2276234100293 14.4446563733277,46.2279108058578 14.4445497625005,46.2281982015675 14.4443811472913,46.2282063795209 14.4442749884297,46.2284487906549 14.4440494317787,46.2289605401177 14.4440475242216,46.2291494741307 14.4435303415273,46.2290120884224 14.4435435778898,46.2289851609501 14.4434269054822,46.2289845930072 14.4432941768616,46.2292898549404 14.4432252647787,46.2296943978 14.4432899926538,46.2297037103121 14.4432892649561,46.2297756851563 14.4433151925294,46.2297758114089 14.4433145558213,46.2298387893971 14.4433403924701,46.2298479124996 14.4433385211044,46.2300458439467 14.4433899217718,46.2300910807007 14.4433235561827,46.230243711632 14.4433346099909,46.2304327087032 14.4431340545261,46.2310345508865 14.4424467759996,46.23104919575 14.4423920951516,46.2313278452472 14.4423098449959,46.2317683115409 14.4422406489905,46.2321998441355 14.4422122593319,46.2324426325785 14.4431458791069,46.2324291892619 14.443172444858,46.2323663375947 14.4444429947645,46.2323815161072 14.4443578538251,46.2331098831272 14.4443002746138,46.2336764327064 14.4442949167747,46.2342072468809 14.4442497557009,46.2348278404303 14.4452372183445,46.2346346959369 14.4452409360038,46.2355524375523 14.4451925201588,46.2364969179 14.4455682441725,46.2365257324773 14.4455483404641,46.2372274243486 14.4455007438004,46.2380909329562 14.4454667450135,46.2388916163563 14.4454374594403,46.2392243738031 14.4452042525115,46.2392052477851 14.4450619891994,46.2391685681977 14.4438179804147,46.2390905447791 14.4427935769558,46.2390945539024 14.4426926129903,46.2401017574815 14.4426466995852,46.2407943243524 14.4425382679143,46.2412707415441 14.4424537249033,46.2419361279942 14.442409811977,46.2424307641797 14.4423952045334,46.2425926439495 14.4422601573751,46.2431228246096 14.4422293910669,46.2435995302053 14.4421877543515,46.2438692453627 14.4425683313378,46.2447168455099 14.4423639763087,46.2456875545711 14.4422144942743,46.2463616208494 14.4415142381241,46.2463582922537 14.4415388039818,46.2464933713406 14.4414309528409,46.2468977217075 14.4412566545575,46.2474726953724 14.441149164838,46.2478410580914 14.4411739131587,46.2479581435738 14.440987973218,46.2483891035127 14.4408643119255,46.2490722912348 14.4407559934068,46.24952162484 14.4405552467964,46.2501324568696 14.4404349080495,46.2505007558756 14.4402889571689,46.250824032992 14.4400229898255,46.2514705336965 14.4401131312016,46.2515339560209 14.4399361100467,46.2523608372621 14.4398549064018,46.2526933381718 14.439758808615,46.2532147085247 14.4396880444829,46.2538081809981 14.4396461122195,46.2541048850919 14.4396675612623,46.2545458559661 14.4396503763744,46.2549596456794 14.4396989565517,46.2552837850914 14.4398023484033,46.2553202807772 14.4397743015855,46.2555270802934 14.4398622507577,46.2558064262191 14.4398692663604,46.256391282322 14.4399464455033,46.2564546412144 14.4399324143895,46.2565715368189 14.4399536823999,46.2570305910464 14.4399597830556,46.2577054150864 14.4400062607801,46.2582364807593 14.4400159340851,46.2585604292758 14.4400530141054,46.258740555954 14.4401406949697,46.259046891951 14.4402911631237,46.2595694693097 14.4405208856165,46.2599394810112 14.4407371828218,46.2603544128089 14.4409532089364,46.2607963345906 14.4411959121207,46.2611664083243 14.4413610650918,46.2615091108744 14.4415013737007,46.2617437248239 14.4417185455792,46.2620866809187 14.4418582180687,46.2623842720316 14.4421901839549,46.2629077324694 14.4424577535721,46.2633858916503 14.4424440522083,46.2634578028002 14.4418060637883,46.2636886181431 14.4418560334896,46.2638778042471 14.4419309430283,46.2641660817527 14.4420698916694,46.2645356469164 14.44224588068,46.2651033319431 14.4424205572271,46.265634481437 14.4432443006551,46.2655481634399 14.4451697610229,46.2652238158341 14.4470899355262,46.2654229597834 14.4495584191453,46.2657196334797 14.4517545461624,46.2657771510797 14.4538143765236,46.2657387846426 14.4553264992383,46.2655552568359 14.4560847807358,46.265225518946 14.4589756839668,46.264429303648 14.4600799684023,46.2638156034762 14.4614560447277,46.2634885657485 14.4628313048521,46.2632566984606 14.4637964285474,46.2628326001222 14.4645555487562,46.2624076189982 14.4670266313768,46.2624184452663 14.470595102024,46.2625292257233 14.4732740041724,46.2623504973508 14.4773977731349,46.2617971964083 14.4804211909326,46.2614769985319 14.4835103818292,46.2614425004744 14.4873552058359,46.2613635342118 14.4887297341041,46.2611789475094 14.4902407373827,46.2610900537454 14.4919589084359,46.2608592744634 14.4927057548161,46.2617666339744 14.4934552565799,46.2623883377217 14.4934508740558,46.2628641825322 14.4946217457717,46.262440735418 14.4955140632918,46.2624444962875 14.4966878293042,46.2616878727848 14.4991643950706,46.2610793779642 14.5010885125766,46.2608493634646 14.5021197648232,46.2606632072722 14.5028765399227,46.2604759386237 14.503494227491,46.2604784427737 14.5045238804467,46.2604825497117 14.5056234335348,46.2603442533193 14.5071368166358,46.2599696638941 14.5083061163154,46.2596888560211 14.5089929665258,46.2596440324462 14.5100961772144,46.2590773497509 14.510785428405,46.2587469530195 14.5111997881292,46.258463062624 14.5121599445847,46.2585620845332 14.5128462265651,46.2585648308291 14.5132618377249,46.2581381519355 14.5147866021869,46.2564310166779 14.5155470478077,46.2558154103925 14.5160985835396,46.2555320832864 14.516375958398,46.2551999986471 14.5164494587289,46.2546292537824 14.514872580354,46.2544326415772 14.5137748498069,46.2543807428166 14.5128851882668,46.2540916528091 14.5124084570944,46.2536614412211 14.5122740621088,46.2533277895213 14.511593500304,46.2526588172528 14.5104983491057,46.2523213250265 14.5094726668737,46.2518889293521 14.5089927133418,46.2518394535645 14.5091477932112,46.2497936923525 14.5090850032522,46.2491271753883 14.5109413282497,46.248753917045 14.5124530912185,46.2485220362767 14.5130782252262,46.2476678908013 14.5137027894871,46.2468613349085 14.5145948568681,46.2468649458848 14.5155569123425,46.2467259698738 14.5161119932744,46.246014297364 14.5174959275065,46.2446872908699 14.5179791606633,46.2443560703389 14.5185987501816,46.2441205231434 14.519012127185,46.2439317907576 14.5191509842735,46.2437419925822 14.5191986812399,46.2433736649055 14.5191673334723,46.2430283976828 14.519161374575,46.2427308327909 14.5191708162508,46.2426297431439 14.5192145951548,46.2425168315238 14.519224036693,46.2424157418681 14.5191995057369,46.2422847283676 14.5191835330211,46.2421537508515 14.5191854043828,46.2419395336117 14.5192042881011,46.2417372643121 14.5191973152616,46.2415409144409 14.5192075621918,46.2413624515855 14.5192257179026,46.2412434939764 14.5193652430443,46.2409763216875 14.5196712874286,46.2403051514173 14.5199857258939,46.2396519200792 14.5202393458466,46.2390876856145 14.5203788613137,46.2388204219783 14.5206656931969,46.2383872362433 14.5208131396626,46.2381915336788 14.5210992924728,46.2378356306103 14.5213507193217,46.2375213288113 14.5215154578239,46.2373196695286 14.5215245837164,46.2372542974818 14.521490793927,46.237188655848 14.5213628986362,46.2371048056452 14.5209703206748,46.2368770597121 14.5207739939656,46.2367751074779 14.5207313371181,46.2367451476585 14.5206553317357,46.2366139185444 14.5205291226624,46.236321877331 14.5203355471479,46.2359044910938 14.5198894915528,46.2349266832658 14.5198734413233,46.2347897671435 14.5196964529978,46.2334382610139 14.5194780926615,46.2319258887995 14.5194201969743,46.2316816389198 14.5193691438011,46.2316338286327 14.5188149510986,46.231256670288 14.5184568851277,46.2310170943273 14.5182865135856,46.2308854659919 14.5182015754453,46.230783978507 14.5181085754844,46.2306407995115 14.5180580976996,46.2305274907636 14.5180079319945,46.2303785540263 14.5179913151083,46.2303070454618 14.5180864226619,46.2302241314694 14.5182849596164,46.2300702147358 14.5184920247586,46.2299342381869 14.5186474923709,46.2297980440277 14.5187340937628,46.2297091554612 14.5188121655167,46.2296023263122 14.5189077902026,46.2294599416876 14.5191502710281,46.2291872641066 14.5193831810936,46.2290156753629 14.5198835063573,46.2286845177794 14.5205301585858,46.2282825332319 14.5208578493166,46.2280637432223 14.5209959865593,46.2279513160313 14.5211869085802,46.2277021708946 14.5213685224904,46.2275244250015 14.5216100008974,46.2273647439803 14.5218768867611,46.2272349497607 14.5220665365497,46.2271167084921 14.5221872997845,46.2270338982956 14.522300126568,46.2268796162606 14.5224653966417,46.2266125471061 14.5227871437806,46.2260902477769 14.5230221686954,46.2256866199962 14.5230833209707,46.2255559643958 14.5232240753683,46.225139976457 14.5233823503523,46.2246764656337 14.5234609987308,46.2245161016789 14.523573943954,46.2243321277182 14.5236173134355,46.2242787744951 14.5236611466128,46.2241717992644 14.5236880988366,46.2240231861466 14.5236806756824,46.2238922444631 14.5236558583154,46.223779044963 14.5235967678734,46.2236717308341 14.5234694672975,46.2235223848899 14.5233249534204,46.2233849334445 14.5232230098335,46.2232715022105 14.5231126150966,46.2231460692163 14.5230025816295,46.2229789801008 14.5229352475585,46.2228359119198 14.5228851791438,46.2226750111154 14.5228863131381,46.2225441050604 14.5229040935413,46.2224668024381 14.5229476686932,46.2223896074511 14.5230428311132,46.2222829365702 14.5231728071127,46.2221227868729 14.5232335430254,46.2220397251239 14.5232514523943,46.2219624229789 14.5232435403247,46.2218731367081 14.5232270479541,46.2218017192923 14.5231848133178,46.221724166317 14.5231168111432,46.2216583822878 14.5229972462683,46.2216043495084 14.522595804061,46.2214241672751 14.522177306239,46.2212379741195 14.5220919111644,46.2211900214203 14.5220237555864,46.2211421407346 14.521947355275,46.2210585062217 14.5219139363296,46.2209512085407 14.5219060007744,46.2208798267052 14.5219237304569,46.2208084622238 14.521958750849,46.2207312318171 14.5220453575028,46.22062452596 14.5221663648007,46.2205119356264 14.5223820420158,46.2203641113677 14.5227354725966,46.2201453332505 14.5231835426495,46.2198794429969 14.5234248272252,46.2197376617794 14.5236490534368,46.2195897807767 14.5238820896764,46.2194122448989 14.5240893310866,46.2192346011646 14.5242190908566,46.2190982921684 14.5243317409257,46.2189619118347 14.5244792009756,46.2187720522087 14.5245833193841,46.2186178214566 14.5247308801038,46.2184160854626 14.5248606875661,46.2182738376924 14.5249385254697,46.2181908460601 14.5253525825246,46.2178979938896 14.5253665298875,46.2177986314939 14.5253022803749,46.2177639050268 14.5255763236867,46.2175491070854 14.5257850175769,46.2173970186199 14.5259051950682,46.2171230990003 14.5253888124413,46.2162353507842 14.5246232890778,46.2151727362379 14.5246026624984,46.2149195559462 14.5248788554647,46.2146044484241 14.5253128229687,46.2144796588907 14.5188839397187,46.2123342755031 14.51791190598,46.2114763347926 14.5166097428621,46.2118821038745 14.5163184712126,46.211327446604 14.5155741925475,46.2104703592463 14.5151936446587,46.2097096417745 14.5134144469758,46.2101161397907 14.512512316369,46.2103504557142 14.5119957168956,46.2106161020393 14.5115188441703,46.2112388396049 14.5108706384227,46.2118310610583 14.5104384893628,46.2122457873089 14.5099633969304,46.2124899185638 14.5098354800274,46.2123003364546 14.5100459572629,46.211950343131 14.5099822292507,46.2118151101549 14.5098399927274,46.2117785111102 14.5093989627605,46.2118216059463 14.5085809763814,46.21198913183 14.5080489042369,46.2120678193621 14.508027930411,46.2119347486801 14.5080270714314,46.21192934659 14.5080224030082,46.2119006250408 14.5079875601544,46.2116806704965 14.5079588525357,46.2112961812935 14.5079412655062,46.2110596559298 14.5079444801405,46.2106996868242 14.5078963386322,46.2102856026657 14.5077018682371,46.2102937627205 14.5073397308288,46.21021122677 14.5073177048876,46.2097612655666 14.5072938379033,46.2095317308892 14.50726997111,46.2093021961984 14.5072477547661,46.2091199945475 14.5072458229168,46.2091041509252 14.5072216748914,46.2089061056407 14.50706592534,46.2089324261662 14.5069536412915,46.2084460862675 14.5069070386908,46.2078610589148 14.5068339876095,46.2073209040409 14.5070810064482,46.2072319960771 14.5070311840957,46.2070068479936 14.5069696915234,46.2066376922572 14.5068689220506,46.2063133537049 14.5066917729342,46.2058357308392 14.5066106442044,46.2056338404865 14.5065650095526,46.2055202771358 14.5064393274613,46.2050697779694 14.5063899931085,46.2047906476239 14.5060512294336,46.2049961231001 14.5055626965992,46.2045621392177 14.5052161427368,46.2041917491331 14.5048049661552,46.2038030833984 14.5043288772268,46.2034141347285 14.503056447542,46.2022569515077 14.5024379830621,46.2018673758637 14.5019230557707,46.2014782479872 14.5013565180745,46.2010798953193 14.5010478267368,46.2008266229252 14.5005586364653,46.2004735905161 14.5004527788011,46.2007160561976 14.5001911083488,46.2009938300239 14.5000735140922,46.2011013738951 14.4999405958816,46.2014696834904 14.4997682322951,46.2019008016855 14.4995468954184,46.202016798371 14.4992348558086,46.2021323973511</coordinates></LinearRing></outerBoundaryIs></Polygon></MultiGeometry>
  </Placemark>
</Folder>
</Document></kml>
