{"type":"FeatureCollection","features":[{"type":"Feature","geometry":{"type":"Polygon","coordinates":[[[14.5886913690382,46.1376056897859],[14.5881116975655,46.1373753376106],[14.5872285314789,46.137161521949],[14.5851576661449,46.1368910302622],[14.5820048571,46.1359492098735],[14.5813892846964,46.1357827540074],[14.5797830523514,46.135590163723],[14.5788216963411,46.1356923455195],[14.5717262450863,46.1347015462465],[14.5669559668558,46.1337711437366],[14.5645840597437,46.1332356931124],[14.5635008515999,46.1327750316248],[14.5617651280958,46.1316970646502],[14.560810092455,46.1310084236637],[14.5599070884409,46.1301267097549],[14.5570295156506,46.1264794546984],[14.5553234350951,46.1249096125544],[14.5548712405162,46.1243891491317],[14.55279447852,46.1249260190667],[14.5516820385225,46.1249745665005],[14.5500590467217,46.1256361607194],[14.5486356807292,46.1266147807938],[14.5474172503092,46.1272603890661],[14.5464786205116,46.1276784694742],[14.5449849509822,46.1279715188763],[14.5442003887508,46.1283298208086],[14.5425308311227,46.1282783439972],[14.5416192749794,46.1284681374661],[14.5407336602504,46.128587667819],[14.539870641121,46.1290236326557],[14.5389027312542,46.1299160584026],[14.5383453544372,46.1300720738335],[14.5374098445135,46.1301035617815],[14.5364735784284,46.1302404891142],[14.5343737211272,46.1304606699497],[14.533490284097,46.1303166177382],[14.5326313241272,46.1302780189095],[14.5318750687229,46.1300465690558],[14.5311384069607,46.1304654402519],[14.5299595964845,46.1313028501812],[14.5278500238359,46.1327733363526],[14.5260753438557,46.1341605962324],[14.5244216818004,46.135611763767],[14.5231066073704,46.1365571344353],[14.5219157582879,46.1371861196569],[14.5210611986208,46.1375840080985],[14.5201468436299,46.1378760991828],[14.5188974403413,46.1382512592299],[14.5179839854432,46.1384376168857],[14.5174352449526,46.138625507484],[14.5167016072002,46.1390873055918],[14.5160311389062,46.1392958186794],[14.5155740555874,46.1394207463956],[14.5151766892343,46.1396726094705],[14.5149004248195,46.1399884170602],[14.514394212771,46.1402679773997],[14.514687868177,46.1407280936672],[14.5151462975838,46.1413212604025],[14.514809208505,46.1416643418189],[14.5147437018707,46.1417540380803],[14.5144931138972,46.1422838225223],[14.5142951654308,46.1427148583065],[14.5141241299581,46.1430290415196],[14.5140706142594,46.1432267575036],[14.5139111726397,46.1436940359307],[14.5137518875092,46.1441432299322],[14.5141787960677,46.1441720373836],[14.5147343536716,46.144291273758],[14.5150048314548,46.1444453779381],[14.5154310325783,46.1445551545606],[14.5161050622756,46.144450040689],[14.5167000877548,46.1444975451197],[14.5169853258144,46.1444447661701],[14.5170635398973,46.1443821146375],[14.5174383621292,46.1444466795597],[14.5177588679626,46.1448169266601],[14.5178487689181,46.144898282735],[14.5180812899029,46.1449532478131],[14.5183009457992,46.1449991607783],[14.5185195823627,46.1451620355773],[14.5192293010613,46.1452398813238],[14.5193731077412,46.1452556017358],[14.5194244143459,46.1453098020058],[14.5209512722726,46.145379192883],[14.5215310295214,46.1456965309482],[14.5215966723102,46.1457248776579],[14.5222661247031,46.1460145153552],[14.5224370314549,46.1463097152115],[14.5226371633187,46.1468482372191],[14.5233366387439,46.147531091374],[14.5233802927871,46.1477526999696],[14.5229678536099,46.1480831643926],[14.5228273237378,46.1485411764423],[14.5225828879656,46.1491133815086],[14.5224433603779,46.1496045076961],[14.5223046436557,46.1500016140324],[14.5221761606872,46.1504276446643],[14.5220957004867,46.1507644415675],[14.5221335243927,46.1508815661228],[14.5220677849371,46.1509982577161],[14.5217175566704,46.1510777696474],[14.5218026265434,46.1512255032442],[14.5226420042606,46.1515294352577],[14.5233107895639,46.1515602080667],[14.5240742346109,46.1516934018093],[14.5248261632389,46.1515856817455],[14.5266237145804,46.151616712941],[14.5266408175228,46.1526872062778],[14.5264694973077,46.1532504546419],[14.5260882624849,46.1540152744165],[14.5261027754354,46.1547528524401],[14.5264931960723,46.155332823886],[14.5273433347145,46.1563106716684],[14.5274057575537,46.1565808520147],[14.5284444956254,46.1562342427316],[14.5284473391101,46.1559013503215],[14.5286282074307,46.1559470833279],[14.5291125890958,46.1563683589245],[14.5291165718797,46.1563719742941],[14.52957981689,46.1567067856908],[14.5301212848134,46.1569789348946],[14.5303407698018,46.1570517261556],[14.5312494194194,46.1567765361306],[14.5313385958551,46.1569478525204],[14.5316476410249,46.157147062095],[14.531775202238,46.1573725198347],[14.5317479346377,46.1575343614668],[14.5317590500674,46.1577503447547],[14.5321463175354,46.1578868914905],[14.5325728091651,46.1579786102755],[14.5330498502603,46.1582324872671],[14.5335016321771,46.1583962851264],[14.5341054424505,46.1589565867079],[14.5347391790942,46.1590401444442],[14.5357227993796,46.159089130618],[14.5361498355541,46.1591178564169],[14.5370156492569,46.1593193092429],[14.5373510002198,46.1594736228272],[14.5382290187905,46.1597650898716],[14.5388360491892,46.1599474884237],[14.5399875582432,46.1600510994746],[14.5402843039109,46.1601782568643],[14.5405047684787,46.160152061077],[14.5405691321527,46.1601973067862],[14.5406466681947,46.1602156131847],[14.5408526329329,46.1603603990714],[14.540942892497,46.1604057485778],[14.5412659115739,46.1604880219072],[14.5414970270668,46.160722881564],[14.5413513870648,46.1611091855606],[14.5410375707044,46.1614769094264],[14.5409460372431,46.1615845106885],[14.5409577131521,46.1617375133715],[14.5409826364438,46.161854579646],[14.5412118589204,46.1621775167571],[14.5412377830049,46.1623144712345],[14.5410527685509,46.1627635985083],[14.5422530648278,46.1630969061414],[14.5429076701628,46.1637636233641],[14.5439042699964,46.1643527046395],[14.5449013807914,46.1648823963898],[14.5444406195238,46.1655605841576],[14.5438162976594,46.1667240665492],[14.5434548396783,46.1676517841111],[14.5432476891585,46.1683189228293],[14.5429837420571,46.1682908757403],[14.5419841928788,46.1680497940899],[14.5413237653905,46.1680788169153],[14.5400015874246,46.168310855309],[14.5401768054629,46.169133921574],[14.540376928634,46.1697039910928],[14.5402744535707,46.1700039118051],[14.5401611249775,46.1710000064568],[14.5399297686552,46.1714419268619],[14.5394715234944,46.1718202211876],[14.5393547923862,46.1721513044553],[14.5394657253544,46.1724838448267],[14.5402547968069,46.1734199595188],[14.5403198845498,46.1737998207704],[14.5409490355629,46.1747985388476],[14.5411485304972,46.1754319454628],[14.5427611716899,46.1758968234281],[14.5447638299305,46.1759995584374],[14.5461302311004,46.1766463246168],[14.5474692815026,46.1771575556199],[14.5488106851098,46.1773841032438],[14.5497439842249,46.1774035284206],[14.5508861724451,46.1769492452747],[14.5517323991093,46.1764780451114],[14.5531898253996,46.176436154686],[14.5544268239065,46.1761197765174],[14.5551892087042,46.1769498742842],[14.5551420889652,46.1771394455666],[14.5551857663864,46.1773767863208],[14.5556598643589,46.1778688969942],[14.5564520824041,46.1784412373331],[14.5584893138021,46.1799353993864],[14.5593278152489,46.1804288114393],[14.5604826956211,46.1812081108525],[14.5610477471847,46.1817399569497],[14.5667113634064,46.1867695858205],[14.5671100391285,46.187139987891],[14.5674710575883,46.187357290988],[14.5677418938259,46.1875112704725],[14.568232106412,46.1877740463695],[14.5688251132187,46.188145176188],[14.5691474227429,46.1883443332313],[14.5698309011015,46.1887607855104],[14.5703852761548,46.1891047697263],[14.57105547922,46.1895481567968],[14.5723438791972,46.1904797112649],[14.5727566201357,46.1907151857123],[14.5733762950678,46.1909964178556],[14.5737349159708,46.1912118925922],[14.5739276270917,46.1913375842104],[14.574098295795,46.1914489775678],[14.5744462760846,46.1916842045837],[14.574729900021,46.1918652070376],[14.5750785005527,46.1920374529652],[14.5753873459214,46.1923085210203],[14.5760064987184,46.1926617156748],[14.5766769284134,46.1930870756303],[14.5771153423163,46.1933586186787],[14.5775537605401,46.1936301600475],[14.5780181549971,46.1939107929555],[14.5785088174695,46.1941285393853],[14.5789479358135,46.1943101044825],[14.5792324120487,46.1943831306561],[14.5797230835443,46.1946008718867],[14.5799021885203,46.1946791772902],[14.5799139913195,46.1946775111662],[14.5799103232489,46.1946828061214],[14.5805107845725,46.1949456641556],[14.5813502445169,46.1953175425917],[14.5820863464984,46.1956351429505],[14.5824482974411,46.1957444336718],[14.5827265801245,46.19578143913],[14.5948060095342,46.1949660948139],[14.5947983411855,46.1942290050927],[14.5948663597114,46.1930654393303],[14.5948544874867,46.1918601124067],[14.5946109851147,46.1908826767524],[14.5946402962385,46.1899971713293],[14.594972645514,46.1874679332741],[14.5949622295751,46.1864873643548],[14.5952051654324,46.1844164927544],[14.595322391448,46.183958222279],[14.5953736716293,46.1831835509112],[14.595179315889,46.1817437343689],[14.595003586059,46.1808733365347],[14.5946338792721,46.1785157052179],[14.5944356049659,46.1776136452935],[14.5942669944678,46.1757785724715],[14.5950802598376,46.1735514561743],[14.5953657010048,46.1718919104501],[14.5953937119044,46.1711804066733],[14.5950383707009,46.1699771880094],[14.5947167944745,46.1684105033116],[14.5946689642339,46.1675879725273],[14.5944501450916,46.166385325232],[14.5942771482381,46.1651511690833],[14.5936784410312,46.1630141410659],[14.5936377533888,46.1623497187107],[14.5931620026246,46.1589795803213],[14.5931287429378,46.1562896881113],[14.5930803572772,46.1551429763458],[14.5929713185887,46.1544967541938],[14.592940996513,46.1534819183869],[14.593027449462,46.1520456995078],[14.592785580344,46.1488556144303],[14.5928376966749,46.1469316120381],[14.5937988789281,46.1451690176242],[14.5942425218497,46.1441425475568],[14.5944534811027,46.142278399624],[14.5944173390263,46.1410131429323],[14.594334338587,46.1402949434422],[14.5942236138338,46.1395100643918],[14.5940716851333,46.1381857326297],[14.5938968261622,46.1378864867014],[14.5886913690382,46.1376056897859]]]},"properties":{"fill-opacity":0,"stroke-opacity":1,"stroke":"#ff0000","lov":"0227","lov_naziv":"MENGEŠ","luo":"02","luo_naziv":"Gorenjsko","povrsina":2905.73},"id":"pregledovalniklovisca.1"}]}