{"type":"FeatureCollection","features":[{"type":"Feature","geometry":{"type":"Polygon","coordinates":[[[14.2648867196063,46.0433391384988],[14.2643901602738,46.0437588308095],[14.263893354414,46.0441965145478],[14.263344022562,46.0446969307261],[14.2629129969417,46.0450450581161],[14.2623510880822,46.045518305572],[14.2617627298258,46.0460363673763],[14.2613181638458,46.0464293892019],[14.2606126615624,46.0470096710011],[14.2599850287186,46.0475634598266],[14.2594049231887,46.0474607287118],[14.2587724066271,46.0474026427299],[14.2582740773761,46.0479483530315],[14.2578818774641,46.0482877156456],[14.257699419654,46.0484034994813],[14.2567906186009,46.0487215067323],[14.2560501420319,46.0490136097561],[14.2552571271745,46.0493683487823],[14.2549192446938,46.0495101080554],[14.2544110860894,46.0498217098926],[14.2539053446407,46.0499533733992],[14.2533618070765,46.0500128070237],[14.2529488145743,46.0499741179204],[14.2525500709644,46.0498275494052],[14.2521390233027,46.0496449086133],[14.2516115674399,46.0494705017355],[14.2512389238404,46.049315101939],[14.2508404403959,46.0491595315488],[14.250479139971,46.0491211723332],[14.2497545842619,46.0491794015446],[14.2490812306243,46.0492829505507],[14.2486666608661,46.0493612043138],[14.2482889002049,46.0495836601668],[14.2475839537117,46.0501099693733],[14.2469705446205,46.0505558090398],[14.2463053177181,46.0510103012728],[14.2457686825019,46.0515106262295],[14.2454932878872,46.0518057289773],[14.2451641200502,46.0522534349304],[14.2449532046104,46.0525579597645],[14.2446125780039,46.0528976173182],[14.2443225304095,46.0533185865578],[14.2441646443456,46.0535244870369],[14.2438224093329,46.0539811901473],[14.2435873552667,46.0541595864622],[14.2433134103309,46.0543467223978],[14.2431557633708,46.0545346278613],[14.2429581191908,46.0548122440287],[14.2425938357243,46.0549897822181],[14.2422419800436,46.0552033919779],[14.2419048907735,46.0552821348277],[14.241435866454,46.0555579479483],[14.2409288096209,46.0557795210428],[14.2405909750386,46.0559122405636],[14.240175109974,46.0560804306882],[14.2397209685096,46.0562123743512],[14.2394098383198,46.056282284928],[14.2391631968662,46.0563616215578],[14.2384493610017,46.0565818069197],[14.2381380979437,46.056651713146],[14.2379185361262,46.0566412517675],[14.2377132588763,46.0565319118301],[14.2373905641334,46.0565027663635],[14.2369878543257,46.0566531274665],[14.2367526430254,46.0568405061891],[14.2367893990476,46.056864865163],[14.2365219096082,46.0568997887628],[14.2354313203567,46.0572793043996],[14.2344186303819,46.0575011539604],[14.232853180494,46.057526107584],[14.2311840042452,46.0577612453801],[14.2304209896949,46.0581780067872],[14.2290725799068,46.058959896674],[14.2283343726068,46.0594119919406],[14.227091480901,46.059843125282],[14.2260552292031,46.0599417444322],[14.2248928282659,46.060021953458],[14.223808126025,46.0599620462101],[14.222139333575,46.060161873926],[14.2215301519173,46.0604039000148],[14.2208144759824,46.0610493680543],[14.2196992404418,46.0613758395445],[14.2189126232765,46.0616693659059],[14.2184239741843,46.0623163701579],[14.217380342529,46.0629420280784],[14.2159320575449,46.0636177168885],[14.2155223301502,46.0640367115824],[14.214932181494,46.0647181844606],[14.2140627806227,46.0655207310679],[14.2131680217555,46.0663230963914],[14.2125274119738,46.0670042092052],[14.2114355901011,46.0674537578671],[14.2103476305454,46.0676221487707],[14.2095868322176,46.0678630633238],[14.2083393428367,46.0686103148942],[14.2073600685338,46.0688055230442],[14.2076230041644,46.0694012755476],[14.2076820963723,46.0697885804997],[14.2076632486807,46.0702023377969],[14.2075822177994,46.0704447102455],[14.2075893496362,46.0708496500391],[14.2077421432885,46.0710126654039],[14.208327861211,46.0716465533206],[14.2090988746346,46.0728755595055],[14.2088322768322,46.0729861838632],[14.2085656779698,46.07309680759],[14.2079918957987,46.0734437377735],[14.2078978048492,46.0736951073448],[14.2078922698787,46.0740819639888],[14.2080189624281,46.0742627931084],[14.2077873649614,46.0750979608615],[14.2075758986638,46.075420406941],[14.2072930956699,46.0762102307295],[14.2073748262566,46.0768226312403],[14.2074489122626,46.0770660789429],[14.2078023806385,46.0776623679337],[14.2082439043141,46.0784393067881],[14.2091399725574,46.0790663416109],[14.2094047749619,46.0795360461803],[14.2095374755789,46.0802117801735],[14.2095992896664,46.0804101537204],[14.2097002741189,46.0805818054359],[14.2100032311995,46.0810967600405],[14.2102041786578,46.0815120359319],[14.2103023429467,46.0818816136006],[14.2102531592256,46.0826100749176],[14.2102860410331,46.0830331866924],[14.2103463204599,46.0833395196538],[14.2107536267333,46.0837923000781],[14.2109928634008,46.0842438289419],[14.2112996986084,46.0844888803013],[14.2116485422474,46.0846535126401],[14.2123143121346,46.0849817443692],[14.2126179571978,46.0854517086701],[14.2127179361291,46.0856953309506],[14.2130226126172,46.0860114433044],[14.2133066768532,46.0861222690747],[14.2138316374545,46.0864245994191],[14.2140626168785,46.0866133367341],[14.2143296679453,46.0869300865706],[14.2141959012937,46.0872530783243],[14.2142413606043,46.0876942701504],[14.2143152353175,46.087955706543],[14.2147073807784,46.088570233921],[14.2150029853941,46.0886982300233],[14.2157611431802,46.0890363433591],[14.2167891921418,46.0895022668382],[14.2178173835415,46.0899501869332],[14.2187451963688,46.0901814708947],[14.2191556698022,46.0904182116987],[14.2196709869593,46.0905566940095],[14.2203532658134,46.0907862883094],[14.2208560388915,46.0908976871056],[14.2211775316151,46.0910258436445],[14.2218212807581,46.0912281740169],[14.2223638646467,46.0912678569675],[14.2227501431776,46.0913874523021],[14.2228907386895,46.091505376188],[14.2232117344754,46.0916695137263],[14.2233907453661,46.0918146906506],[14.2233863254872,46.0921295741324],[14.2231851646328,46.0926500637748],[14.2232190315443,46.093001197522],[14.2235693610151,46.0938403478527],[14.2239118177919,46.0943195425277],[14.223813976765,46.0948407345821],[14.2243859322841,46.0955554216341],[14.2247026690014,46.09602544173],[14.2249315345114,46.0963059171153],[14.2254323515766,46.0965612427287],[14.2258305984333,46.096752888798],[14.2265878010123,46.0971719009716],[14.227090896277,46.0972652793213],[14.2275157721596,46.0974031144368],[14.2279284726423,46.0974867906306],[14.2285110523198,46.0974547343219],[14.2292067576108,46.0976483759809],[14.2295979822152,46.0974170780947],[14.2310653211785,46.0969950779695],[14.2315949117118,46.0970436271322],[14.2321237539002,46.0971461539342],[14.2329098686684,46.0973493779275],[14.2333614971711,46.0974243882051],[14.2340240287012,46.0972128896345],[14.2344902083208,46.0971710252083],[14.2349168443045,46.0971828793128],[14.2360347467668,46.097402248377],[14.2361034952026,46.0974157542708],[14.2361827033033,46.097299315864],[14.2363906115262,46.0972287248965],[14.2365978984374,46.0972031169997],[14.2369468234386,46.0972324395052],[14.237140185418,46.0972787178192],[14.2372701273208,46.0972345974156],[14.2385981770719,46.0975313725848],[14.2390484549311,46.0977052341178],[14.239876491299,46.0976837512784],[14.240561901631,46.0976883074299],[14.2411434836694,46.0977191627322],[14.2418164555996,46.0976876387027],[14.2421522017606,46.0977258554083],[14.2428741933423,46.0978925955659],[14.2438032365439,46.0980607011904],[14.2441915764094,46.0980362772218],[14.2449176310077,46.0979061132344],[14.245164573069,46.09781776914],[14.2453486939081,46.0975940469781],[14.2461567471965,46.0971405057946],[14.24672588483,46.0971352605405],[14.2471793675551,46.0970752656419],[14.2475674544062,46.0970688235738],[14.2478768473975,46.097142840055],[14.248788922613,46.0975987141061],[14.2494545651858,46.0981069480007],[14.2499141536962,46.0985508433087],[14.2500847266304,46.0993347464636],[14.2502102729517,46.0996144930757],[14.2503791302764,46.0995616155468],[14.2503198392799,46.1001190725852],[14.2503637671492,46.1006952015782],[14.2501873446464,46.1013058752429],[14.2501534282904,46.1018994885316],[14.250668687629,46.1020558253537],[14.2518816213396,46.1022707134908],[14.2526275022812,46.1025905058954],[14.2528665535082,46.1030869317723],[14.2529140342801,46.1034021549472],[14.2526617301844,46.1038863710215],[14.2526708952156,46.1041653536931],[14.2528174788608,46.1048141325312],[14.2529551344606,46.1051569375528],[14.2531861250635,46.1052934096241],[14.2536366325987,46.105458307367],[14.2540236855871,46.105532814157],[14.254316803765,46.1058586369972],[14.2544665564795,46.1062645015814],[14.2546712017132,46.1064367887947],[14.2549037777552,46.1064563001469],[14.2556154101099,46.1064429418841],[14.2562149558556,46.1065017296472],[14.2568037999825,46.106567642684],[14.2576823729263,46.1066453319349],[14.2579798645349,46.1066472635909],[14.2587941388311,46.1067065318514],[14.2597521301743,46.1066497576166],[14.2601890131838,46.1068684362834],[14.260638351829,46.1071232738266],[14.2615410063201,46.1073360517056],[14.2620424538265,46.1075642278445],[14.2628008003869,46.1079290214887],[14.2631253675897,46.1078411393603],[14.2635392784247,46.1078438070151],[14.2642652983534,46.1077225175742],[14.2648107083377,46.1075640719618],[14.2650722808466,46.107358811575],[14.2652558756415,46.1071710443597],[14.2656332480211,46.1070025170095],[14.2658925356775,46.106959195094],[14.2659054582488,46.10696017784],[14.2661249987589,46.1069876803833],[14.2664620123903,46.1069358586923],[14.2670606964786,46.106660776673],[14.267913893757,46.1067022345303],[14.2683139097401,46.1067767759218],[14.2689094905336,46.1067355994206],[14.2695841032386,46.1065869548497],[14.2700107022004,46.1066076751578],[14.2702565753709,46.1066002476783],[14.27060485603,46.1066744507397],[14.2710187588251,46.1066770912597],[14.2714075039593,46.1066255849047],[14.2719907387717,46.106539326136],[14.2728484337264,46.1062388706977],[14.2730941866909,46.1062404338523],[14.2734835290289,46.1061529342199],[14.2745238937253,46.1067173874042],[14.2754518760511,46.1069752036721],[14.2760200550042,46.1070506939627],[14.2765134647799,46.1059201328527],[14.2769552307803,46.1057699706815],[14.2777495087128,46.1053701047145],[14.278375514688,46.1049781684651],[14.2796076518304,46.1047250131626],[14.2799860184419,46.1044754670967],[14.280596841059,46.1042543755933],[14.2814664532012,46.1040259104514],[14.2823596036274,46.1039865341012],[14.2832415552481,46.1038031204511],[14.2838129737506,46.1036267521704],[14.2845497341237,46.1036673562401],[14.2851860484787,46.10347339227],[14.2861066677955,46.103299195823],[14.2862299217169,46.1027691126574],[14.2864010765062,46.102536246141],[14.2877216881097,46.1024365132611],[14.2893239420491,46.1025634543089],[14.2900324153371,46.1028017023496],[14.2901860021645,46.1029286213375],[14.2905341718145,46.1030117605298],[14.2912191947586,46.1030520004633],[14.2913867561571,46.1030980269281],[14.2922817132313,46.1029056266286],[14.292657479237,46.1028539676166],[14.2935772610118,46.1027426883548],[14.2936555520554,46.1026891871567],[14.2945383645508,46.102433711577],[14.2947992148522,46.1022643686058],[14.295110536126,46.1021943088861],[14.2954503594818,46.1019174813263],[14.2958786513046,46.10180315292],[14.2965284106392,46.1015642210462],[14.2967346376586,46.1015295000701],[14.297720791269,46.1013736082588],[14.2980460648127,46.1012226486796],[14.2983706670333,46.1011346666147],[14.2987841887019,46.1011641967891],[14.2997291136132,46.101107007305],[14.3001297026086,46.1011364533769],[14.3005276751933,46.1013728247344],[14.3010553258864,46.1015829952239],[14.3012075708188,46.1018178613072],[14.3016745367876,46.1017127451266],[14.3033056174281,46.1016057310835],[14.3036012724611,46.101751492933],[14.303830336756,46.1020498060744],[14.3042165301073,46.1021961177254],[14.3055926393246,46.1028342217378],[14.3059679413305,46.1028185061731],[14.3062664311433,46.1027393406573],[14.307053467107,46.1028970723689],[14.3086345255015,46.1026547164265],[14.3100100921774,46.1022941307324],[14.3114629216268,46.1021571320864],[14.3119452497773,46.1016579756863],[14.3126655313184,46.1009425086697],[14.3131371610258,46.1004594783254],[14.3143764216516,46.0996210627904],[14.3149008527942,46.0990393691608],[14.3151096892577,46.0988966605266],[14.3165673855699,46.0981585923166],[14.3174815480718,46.0974442536669],[14.3186329792595,46.0974150433774],[14.3193566419278,46.0974643425688],[14.3198975923729,46.0976475128538],[14.3204535788735,46.0976598172216],[14.3207533461311,46.0974726512571],[14.3210388538557,46.0973933699593],[14.3219862296188,46.0971290682043],[14.3225357797581,46.0966104709358],[14.32328838178,46.0964079863568],[14.3243905873278,46.0961714837731],[14.3251922908525,46.0961942147464],[14.3262902100242,46.0963086615922],[14.3264277493942,46.0963143308567],[14.3271966846745,46.0960434457008],[14.3277883519473,46.0951510442653],[14.32903659036,46.0942799509256],[14.3293223298144,46.0936778044812],[14.3297691050425,46.0929874362418],[14.3309351791043,46.0921348248144],[14.3316210170661,46.0914458483003],[14.3323427819537,46.0910896259002],[14.3325490692274,46.0905087809499],[14.3327955139353,46.0899003676415],[14.3328690188805,46.089220223919],[14.3321953414662,46.0893337975388],[14.3313477184643,46.0891381844884],[14.3295614366147,46.0885455807607],[14.3276987813875,46.0876752860031],[14.3271499458134,46.086923462056],[14.3261228498285,46.0861689066241],[14.3242169117388,46.0856032258622],[14.3228757875207,46.0844586303565],[14.3216496854068,46.0837028552301],[14.3206210235075,46.0830868026345],[14.3200316969574,46.0823902179659],[14.3187289800036,46.081384453646],[14.3173865949906,46.0803490154239],[14.3168228818141,46.0797093413022],[14.3156936281796,46.0787169051968],[14.31494979608,46.0775907255929],[14.314437399782,46.0771442543148],[14.3136071191822,46.0766127348009],[14.3129765405197,46.0760546073419],[14.3119046748193,46.0753867496987],[14.3108840403161,46.074489573345],[14.3108511181102,46.0739355756304],[14.3113757358931,46.0733843985003],[14.3124561947083,46.0730027487048],[14.3137350217862,46.0726777048321],[14.3146491215115,46.0722712817401],[14.3157382767058,46.0717472217328],[14.3158247528777,46.0711934001033],[14.3152350523781,46.0705524818183],[14.3147272620549,46.0697179742467],[14.3149501933873,46.0677791671197],[14.3147968657215,46.0672793332952],[14.3144424323219,46.0669446580447],[14.3149633061448,46.0666982787601],[14.3171172745289,46.0664615761205],[14.3177175387331,46.066243371071],[14.3176422303987,46.0658825691172],[14.316497932748,46.0649889318859],[14.316025318294,46.0645427046052],[14.3144156898936,46.0626207179429],[14.3141419308867,46.0622033878339],[14.3144281247159,46.0615952496374],[14.3145557743315,46.0609308248903],[14.3146458864992,46.0600721871922],[14.3156494049132,46.059440632335],[14.3166136508608,46.0587534087392],[14.3171361456939,46.0583684662845],[14.3152707121461,46.0578308576231],[14.3135674043518,46.0570724020101],[14.312663886498,46.0560415180881],[14.3117183190193,46.0552044514047],[14.3117700420073,46.0542346437425],[14.3124541364729,46.0536567075106],[14.3125824790888,46.0529367731321],[14.3128282322786,46.0523775215484],[14.3135247095902,46.0511520069851],[14.3137399047827,46.050064141432],[14.3144577462993,46.0491549242761],[14.3135315496413,46.04853464972],[14.3134359483035,46.0480949030849],[14.3135958254671,46.0473932414724],[14.3117492922903,46.0456783525184],[14.3105937331156,46.0452323053783],[14.3096921837006,46.0446647838488],[14.3094484792673,46.0439606892957],[14.3087015387888,46.043130644177],[14.3074009150347,46.0421917882064],[14.3068557383833,46.0413804985778],[14.3063540578304,46.0411315504481],[14.3054920356531,46.0414602164621],[14.3048307042421,46.0418778234418],[14.3038194519809,46.0420298458794],[14.3028511975567,46.0427793823526],[14.3016567085107,46.0454949429948],[14.3004670796672,46.0457688427729],[14.3012130253385,46.0480848877238],[14.3006963546227,46.0477410787645],[14.2996332019471,46.0471849058801],[14.298390066386,46.0467517851036],[14.2976027057228,46.0465518811121],[14.2969242456446,46.0465379021219],[14.2962459414824,46.0462878231839],[14.2955689826604,46.0459323866586],[14.2952229830885,46.0453505384774],[14.2947237778931,46.0449083763172],[14.2937721041849,46.0443228744557],[14.2929433154362,46.0440016645578],[14.2922117569606,46.0439795911318],[14.2915273471823,46.0442213449588],[14.2911192345503,46.0445701705976],[14.2906866927047,46.0448485719152],[14.2900787485064,46.0450205203407],[14.2891737137854,46.0447514454548],[14.2886198902475,46.0446427277403],[14.2877866132694,46.0446727187437],[14.2865247453077,46.0446824836229],[14.2859435690557,46.0447315799981],[14.2852591230591,46.044973296043],[14.2848519695749,46.0452342887249],[14.2846439369472,46.0457248854338],[14.2839771792102,46.0465463295848],[14.2835960138856,46.0467547546335],[14.2826327320061,46.0470826132256],[14.2811917762606,46.0472669180401],[14.2801564084109,46.0473131275367],[14.2794225275268,46.0474666806561],[14.2785856740997,46.0477776668573],[14.2778275030521,46.0478607851971],[14.2769446986876,46.0478201129864],[14.2760388654632,46.0476036550516],[14.2748842480475,46.0471045269351],[14.2733502892118,46.0466733371141],[14.272220116711,46.0462446086257],[14.2697864446845,46.0451401963482],[14.2687560778046,46.0447998876536],[14.2676485157045,46.044582162177],[14.266413341666,46.0444688788486],[14.2657849607102,46.0444615146695],[14.2654736788488,46.0442578783215],[14.2653078057644,46.0440215249159],[14.2652160667998,46.0436512237428],[14.2650274681828,46.0432970351706],[14.2648867196063,46.0433391384988]]]},"properties":{"fill-opacity":0,"stroke-opacity":1,"stroke":"#ff0000","lov":"0233","lov_naziv":"POLHOV GRADEC","luo":"02","luo_naziv":"Gorenjsko","povrsina":4645},"id":"pregledovalniklovisca.1"}]}