<?xml version="1.0" encoding="utf-8" ?>
<kml xmlns="http://www.opengis.net/kml/2.2">
<Document id="root_doc">
<Schema name="pregledovalniklovisca" id="pregledovalniklovisca">
	<SimpleField name="lov" type="string"></SimpleField>
	<SimpleField name="lov_naziv" type="string"></SimpleField>
	<SimpleField name="luo" type="string"></SimpleField>
	<SimpleField name="luo_naziv" type="string"></SimpleField>
	<SimpleField name="povrsina" type="float"></SimpleField>
</Schema>
<Folder><name>pregledovalniklovisca</name>
  <Placemark id="pregledovalniklovisca.1">
	<Style><LineStyle><color>ff0000ff</color></LineStyle><PolyStyle><fill>0</fill></PolyStyle></Style>
	<ExtendedData><SchemaData schemaUrl="#pregledovalniklovisca">
		<SimpleData name="lov">0223</SimpleData>
		<SimpleData name="lov_naziv">ŠENČUR</SimpleData>
		<SimpleData name="luo">02</SimpleData>
		<SimpleData name="luo_naziv">Gorenjsko</SimpleData>
		<SimpleData name="povrsina">4975.51</SimpleData>
	</SchemaData></ExtendedData>
      <MultiGeometry><Polygon><outerBoundaryIs><LinearRing><coordinates>14.4583495609829,46.191710339258 14.4574190712483,46.1915683571274 14.4566043356555,46.191420529574 14.4557636949642,46.1912725728843 14.4550134751096,46.1911520331794 14.454211796014,46.1909952534431 14.4534746263583,46.19086585855 14.4526340027194,46.1907178789058 14.4518063382304,46.1905699552186 14.4509656837252,46.1904129657873 14.4504097143977,46.1903023259641 14.449711517287,46.1901640068041 14.4489872341015,46.1900436423369 14.4483408615927,46.1899055645798 14.4475778127331,46.1897759167634 14.4468407664754,46.1896373923124 14.4458967260657,46.1894708678963 14.4453665946973,46.1893693261163 14.4447975119243,46.1892765900695 14.4439828439069,46.1891287627761 14.4432323684256,46.1890261391681 14.4425213426469,46.1888787162044 14.4422609853067,46.1890034093271 14.4420919435659,46.1890655660069 14.4413919605755,46.18910713452 14.4412364187918,46.1891153717272 14.4413637681335,46.1889360468706 14.4407077596872,46.1888698577264 14.4396590204281,46.1888108278079 14.439089221136,46.1887900387194 14.4382736603938,46.1887320499936 14.4376524130424,46.1886750114757 14.4368884882278,46.1886352615862 14.436008069807,46.1885859345578 14.4350376188576,46.1884732642659 14.4344940099102,46.1884255896088 14.4335491042674,46.1883489325215 14.4330312763792,46.1883013786506 14.4326032205494,46.1882668643486 14.4327547442143,46.1887498750074 14.4328268239822,46.1892990717816 14.4328371871182,46.1895510493395 14.4328873387539,46.1897132506603 14.4328464398631,46.1899109897154 14.4329580331683,46.1903974007984 14.4325034218384,46.1905121106042 14.4316978292658,46.1907421299795 14.4310872930862,46.1909010457004 14.4307755463694,46.1909804700779 14.4299713359689,46.1910754337852 14.4294518464323,46.1911988052814 14.429166191406,46.1912603607662 14.4285439930266,46.1912932416265 14.4279609380905,46.1912993228997 14.4275585007133,46.1913783746276 14.4270137480014,46.1914386270174 14.4268323817325,46.1914377178245 14.4260928382521,46.1915419758119 14.4253536670909,46.1916102414484 14.4246016332508,46.1916694402044 14.4243163462332,46.1916949959833 14.4239147478295,46.1916929728994 14.4234357020614,46.1916636557187 14.4232265433041,46.1918425478136 14.4225160660435,46.191632021732 14.4222061886965,46.1915314849892 14.421883829433,46.1913858974834 14.4216527208249,46.1911867865884 14.4215244012892,46.1910691716476 14.4214762642946,46.1907180309863 14.4209470173818,46.1905354041917 14.4207379494275,46.1907052948687 14.4199765651248,46.1904225160964 14.4191379013218,46.190085355422 14.4185314165671,46.1898573381234 14.418363674431,46.1897935032515 14.4178352057667,46.1895389770422 14.4174845851803,46.1896181672226 14.4170846192649,46.1894631732826 14.4167238989101,46.1892723887321 14.4161172426391,46.1890623524378 14.4154196261763,46.1888788399023 14.4152612193278,46.1891569480352 14.414958882425,46.189569279884 14.4148275256595,46.1897395574615 14.4142204892779,46.1895654986242 14.4134194924247,46.1893454546594 14.4128896141808,46.1892258587816 14.4122306771998,46.1890605201583 14.411985028229,46.1890142700517 14.4116027342467,46.1896331210977 14.4108404508598,46.1894402504048 14.4103361981447,46.1893476768728 14.409507996279,46.1892624256141 14.4093824054544,46.1888928848843 14.4093046808841,46.1888924832946 14.4093173458527,46.1889195408296 14.4091604506222,46.1890536905016 14.4092866186056,46.189369250265 14.4092680740404,46.1898910015161 14.4090221346441,46.189871735638 14.4084922610936,46.1897521194098 14.4082220554905,46.1895797710683 14.4078353602838,46.1893978213594 14.4076799097649,46.1893970160169 14.4072467146647,46.1899256150945 14.4068261753191,46.1904812702414 14.4066684950723,46.1906873912834 14.4058692902092,46.1903143485889 14.4057663335604,46.1902508319166 14.4054348932213,46.1905556487107 14.4050445458096,46.1909645273627 14.4044964296339,46.191694148586 14.4040771346717,46.1924065339503 14.4039684798684,46.1929418501973 14.4040377746552,46.1936746863823 14.4042092944608,46.1944794942514 14.4045883540683,46.1951066954119 14.4056491850419,46.1957823386664 14.4060451066947,46.1960253455494 14.4065815162993,46.1963854161751 14.406628144859,46.1968321968246 14.4062101837263,46.1974196230946 14.4055345187397,46.1980413374985 14.4049896153491,46.198467316371 14.4041865536487,46.1989812011278 14.403616814573,46.1993176103072 14.4030738187141,46.199564902581 14.4022212864526,46.1998820130478 14.4012922333189,46.2001451821982 14.4001422354154,46.2005402554178 14.3984933144377,46.201389938106 14.3976772239004,46.2019127057053 14.3972103925604,46.2022407175922 14.3968596207844,46.2025604325666 14.3965853541106,46.2029341744602 14.3964262075027,46.2033620577219 14.3964581039124,46.2039874514378 14.3964792604755,46.2043984717162 14.3963465131101,46.2047818673159 14.3959943174577,46.2052177276434 14.3954873956011,46.2056883982454 14.3952370284014,46.2062319528911 14.3949750709489,46.2066503826064 14.3944555919923,46.207094259976 14.3941824651885,46.2073607536113 14.3939987084287,46.2076903418209 14.393866003022,46.2080558298556 14.393821269218,46.2084232237871 14.3934722323001,46.2087683097304 14.3930838304007,46.2089806548792 14.3926954569351,46.2092019062134 14.3923065568554,46.2094588728358 14.3922127493405,46.2097977535558 14.3926134600486,46.2108092039653 14.3923198553793,46.2111790534945 14.3914983061928,46.2117551013275 14.3908368486833,46.212186059691 14.3900457376435,46.2126088547297 14.3890164755644,46.2130365798849 14.3881945321817,46.2135724736275 14.387099900304,46.2143044810914 14.3862895307594,46.2148218885927 14.3852255399782,46.2150800633825 14.3842768965042,46.2152450974422 14.3833064513579,46.215620453447 14.382735049153,46.216043752853 14.3822374783607,46.21688663364 14.3819182996642,46.2176090129224 14.3816783046558,46.2179506930221 14.381477260395,46.2182170058508 14.3808132863965,46.2185580989273 14.3794592026222,46.2193834588904 14.3783614714597,46.2198871032558 14.3778010801943,46.2201086277562 14.3765221104974,46.2205088784031 14.3755665346599,46.220828916013 14.3745978414883,46.2211273702776 14.3738665790452,46.2213031339386 14.3730227398471,46.2215181336802 14.372249747951,46.221635265547 14.3716735504222,46.2216932819123 14.3710855231649,46.2217882092636 14.3703095535497,46.2218703120696 14.3696334006308,46.2220537299684 14.3690010192427,46.222330957545 14.3684578723403,46.2226710259882 14.3678690239071,46.2230732805016 14.3673686916705,46.2236007245788 14.3669578195585,46.2241598825006 14.3664114126491,46.2247806391966 14.3657291049655,46.2254942113428 14.3651819521529,46.2261773092458 14.3647249778119,46.2268297749103 14.3644956511939,46.2272340090236 14.3641777981091,46.2275129576837 14.3637701072933,46.2277914055204 14.3632731697391,46.2280069135573 14.3626860307614,46.2282532272473 14.3618731494053,46.2285917601034 14.3613767585733,46.2288035740294 14.3609342060429,46.2289448779689 14.3608954550377,46.2289550082464 14.3599385646158,46.2296018695536 14.3597709837867,46.2297203254273 14.3589496699549,46.2303009076404 14.3582686541677,46.230744792736 14.357702760576,46.2311659275998 14.3573433575135,46.2316230401363 14.3571595413473,46.2319650737832 14.3567927601256,46.232586793633 14.3564730146576,46.2330216331932 14.3562310036231,46.23332788832 14.3563138873182,46.2335909861601 14.356380494756,46.2337824637781 14.3564718568262,46.2340635138355 14.3565203057502,46.2343444122485 14.3566030524675,46.2346194754649 14.3566688252561,46.2348825666618 14.3567086496765,46.2351693546372 14.3566975904372,46.2353723613722 14.3566864525936,46.2355931823014 14.356676510763,46.2357005540615 14.3566669067135,46.2357901130758 14.356674557338,46.2358677128091 14.3566728131187,46.2360169681128 14.3566977665327,46.2361006933935 14.356748251083,46.2361965287234 14.356781412665,46.2363101711828 14.3568053306126,46.2364714472833 14.3568473280376,46.2365612966001 14.3569062315622,46.2366690556416 14.3569819026243,46.2368066000285 14.3570143561196,46.236992036824 14.3570210300997,46.2371533058482 14.3569765805528,46.2372844163224 14.3569240815709,46.2373498012643 14.3568797111422,46.2374630075299 14.3568960389615,46.2375526224363 14.3569032013869,46.2376720567919 14.3569020157923,46.2377735395752 14.3568662021918,46.2378867939608 14.3568652256949,46.2379703733062 14.3569163999795,46.2380184367926 14.3570104913222,46.2380666516655 14.3570870580981,46.2381387906794 14.3571118834146,46.2382225151178 14.3571794761511,46.2383303228483 14.3572986019484,46.2384444484361 14.3574345545668,46.23859447769 14.3575443575741,46.2387742308356 14.3576365000406,46.2389896038823 14.3577125025625,46.239121391325 14.3577721064176,46.2391695017755 14.3578322677113,46.2391698397182 14.3578924190811,46.2391821439687 14.3579349786013,46.2392241304191 14.3579346301913,46.2392539994634 14.3579336552702,46.2393375788062 14.3578893555845,46.2394447576381 14.3578542991403,46.2395043027372 14.3577674394421,46.2395694950386 14.3576377316872,46.2396285083197 14.3574815352224,46.239735058218 14.3572822107452,46.2398593600283 14.3571947919075,46.2399723243491 14.3571762131905,46.2400975521126 14.3571837253252,46.2401871173676 14.3572340746642,46.2402949180455 14.3573187059906,46.2404207260499 14.3574718380685,46.2405768799612 14.3576419488041,46.2407449155076 14.357914494457,46.2409912627023 14.3582042272778,46.2412317675123 14.3585102952451,46.2415617962567 14.3587911288976,46.2418320306332 14.3589525492391,46.2420120718099 14.3591729536516,46.2422939327598 14.3593763145575,46.2425696695879 14.3595798858175,46.2428275026239 14.3598169772223,46.2431691977241 14.3600041491421,46.2433433533873 14.3602255964514,46.2435475715279 14.3605072807301,46.2437461879812 14.3606347669401,46.2438901377446 14.3607446691002,46.2440519836056 14.3608370396168,46.2442495405237 14.3609116705702,46.2445007119647 14.3609173778375,46.2447574362898 14.3609146739974,46.2449902707928 14.3608675324002,46.2453422507726 14.3608129414765,46.2455986379583 14.3608014789615,46.2458374516327 14.3608942695014,46.2459991116484 14.3610815048203,46.2461912603674 14.3613202234795,46.2463836064201 14.3616184111066,46.2466479923501 14.3617461925041,46.2467561332814 14.3618997708924,46.2468763844317 14.3620357566975,46.2470264081642 14.3621421911869,46.247197410461 14.3622567552247,46.2473384070987 14.3623289247123,46.2474223943523 14.362443312643,46.247500318909 14.3625461123713,46.2475486676726 14.3626402238589,46.2475969679077 14.3627940138579,46.2476993144379 14.3628534240965,46.2477653256609 14.3629301416101,46.2478374614703 14.3630495168689,46.2479216213251 14.363126028687,46.2480115704602 14.3631510049399,46.2480834178751 14.3631930911668,46.2481672369912 14.363244219427,46.2482093590953 14.3633725515777,46.2482816920898 14.3634920571137,46.2483659421734 14.3635947994168,46.2484082614918 14.3637236848936,46.248432821641 14.3638264951101,46.2484692929001 14.3638691349325,46.248505339314 14.3639548286357,46.2485416252446 14.3640925490071,46.2485423913514 14.3641956361915,46.2485549310681 14.3642467666204,46.2485969627598 14.3643581288988,46.2486453574976 14.3644948156882,46.2487356402513 14.3646488275244,46.2488081145466 14.3647431497095,46.2488385096339 14.3648636918203,46.2488332411586 14.3650014129458,46.2488340061742 14.3651815684966,46.24888872038 14.3654213455402,46.2489915407715 14.3656180609418,46.2491060880985 14.3658056073469,46.2492623315706 14.3659503065899,46.2494004325386 14.3661212861324,46.2495088980588 14.3662750960898,46.2495992736048 14.3664976917646,46.2497079346849 14.3667636245293,46.2497811162013 14.3669612467902,46.2498060533905 14.3671503021968,46.2498429091892 14.3673646303462,46.2499038372691 14.3675534123306,46.2499645336581 14.3676646506228,46.2500129244749 14.3677155793285,46.2500728580579 14.3677578037003,46.2501566762249 14.367790660764,46.2502882180876 14.3678062699139,46.250419664564 14.3677964072092,46.2505330656156 14.3677868184016,46.2506226254108 14.3677855841173,46.2507300459995 14.3678365818325,46.2507840417038 14.3679137906759,46.2508143395346 14.3680251002337,46.2508567022154 14.3681964313761,46.2509352956065 14.3683503850677,46.2510137927321 14.3684783886957,46.2511158991028 14.3685546468044,46.2512178095164 14.3686135800468,46.2513376187398 14.3686377442049,46.251480988719 14.368618920348,46.2516181830965 14.3686002326766,46.2517435018246 14.3685642897895,46.2518806016424 14.3685283467198,46.2520177014446 14.3685010310831,46.2521489106897 14.368552098952,46.2521969682509 14.368628769578,46.2522630717457 14.3687401431421,46.2523114622413 14.3689117618881,46.2523541570261 14.3690751628922,46.2523670252457 14.3692043409756,46.2523557716815 14.3693853330945,46.2523388655837 14.3696271779536,46.2522745192463 14.3698690296042,46.2521982060675 14.3701195687071,46.252122030212 14.3704047556887,46.2520101455135 14.3706552942321,46.2519338785064 14.3708626459201,46.2518573733041 14.371191418276,46.251721883715 14.3715371780897,46.2515864865595 14.3717878487479,46.251498341397 14.3719779419471,46.251433705702 14.3721591355466,46.2513988017797 14.3723660059302,46.2513641285053 14.3725385022367,46.2513412325761 14.3727537894017,46.2513304475571 14.3730204191962,46.2513438764464 14.3732269429956,46.2513509470436 14.3733643991142,46.2513755432921 14.3736134408537,46.25141874533 14.3737762975467,46.2514792893775 14.373947638924,46.2515578741922 14.3741787550382,46.2516606287286 14.3743156005529,46.2517390241564 14.3744953004175,46.2518354684811 14.3746145587515,46.2519436382561 14.3747169094292,46.2520217545312 14.3748701915508,46.2521718574371 14.375014649395,46.252333878261 14.3751078992596,46.2524597199203 14.3751837586922,46.2526093991922 14.3752091603899,46.2526453471363 14.3752852972369,46.252759218729 14.3753276761917,46.2528191921421 14.3753610901432,46.2529148357078 14.3753766496356,46.2530523089795 14.3753315594253,46.2532311082265 14.3752864617171,46.2534219637458 14.3752500654535,46.2535889340638 14.3751533556206,46.2537675411088 14.3750399334266,46.2539101576239 14.3749267192914,46.2540229942132 14.3748565629834,46.2541360661349 14.374812142738,46.2542670933323 14.374802367458,46.254362590828 14.3748013491466,46.2544521980141 14.3748174452592,46.2545537751757 14.3748766063984,46.2546436214501 14.374935761473,46.2547454340204 14.3750292175515,46.2548534622344 14.3751570443535,46.2549615882496 14.3753106075335,46.2550877592997 14.3754473957386,46.2551720912022 14.3755845223645,46.2552266438468 14.3757133608731,46.2552572183499 14.3758337190587,46.2552578754968 14.3759798084232,46.2552884539047 14.3761003637201,46.2552831736532 14.3762295413262,46.2552838785113 14.3763674145425,46.2552726642961 14.3764963268192,46.2552853337652 14.3766767179033,46.2553221265113 14.3767879078298,46.2553764463272 14.3769249018055,46.2554428730251 14.3770013842836,46.2555268743882 14.377002514968,46.2556102851733 14.3769058408148,46.2557859247351 14.3767583585805,46.2558895790727 14.3766800887661,46.2559518632894 14.3766232418419,46.2560351379095 14.3766352309374,46.2561217569376 14.3766817257731,46.2561965977348 14.3767326689788,46.2562566172812 14.3768049058502,46.2563376265222 14.3768901474901,46.2564156475261 14.377040220755,46.2564612717101 14.377220920597,46.2564711634597 14.3773353862209,46.2564540623215 14.3774473895273,46.2564367677155 14.3775768406459,46.2564135398244 14.3777236806009,46.2563666536634 14.3778534682265,46.2563136463556 14.378000652015,46.256224834471 14.3781736342089,46.2561600954301 14.3784064585367,46.2561255524061 14.3785954192456,46.2561504223513 14.3787755443517,46.2562111430479 14.3789126108754,46.2562715395814 14.3790151043676,46.2563497426918 14.3791257541657,46.2564637991018 14.3792103975099,46.2565836523862 14.3792866107329,46.2567034598369 14.3793536623836,46.2568650547609 14.3793868210368,46.2569726620486 14.3794369600441,46.2571042942046 14.379530496949,46.2572062909637 14.3796241011643,46.2573023498181 14.3797689231641,46.2574344955527 14.3798536321476,46.2575602868865 14.3799636137692,46.2577339906627 14.3800483895598,46.2578539339894 14.3801324986956,46.2580215591064 14.3802170076815,46.258165253617 14.3802846699254,46.2582730476588 14.3803437709686,46.2583808852303 14.3804030799951,46.2584587630279 14.3805399512683,46.2585371510406 14.3806766213564,46.2586334423408 14.3808046695662,46.2587236586186 14.3809755737682,46.2588439776924 14.3811205376795,46.2589641560927 14.3812489174726,46.2590365590935 14.3814025108498,46.2591507556722 14.3815309592253,46.2592171305628 14.3817278830778,46.2593078083327 14.3819163147032,46.2593924116901 14.382078801922,46.2594887508937 14.3821984271687,46.2595670436931 14.3823521526971,46.2596813296706 14.382488963135,46.2597656531907 14.3826253054456,46.2598917212829 14.3827189196133,46.2599877776079 14.3827611789237,46.2600596239148 14.3827861871817,46.260131377076 14.3828364703904,46.2602511320661 14.3829039394446,46.2603768280091 14.3829541565164,46.2605025207731 14.3830051746454,46.2605683860944 14.383116715423,46.2605929206798 14.3831768969682,46.2606051217579 14.3832889025097,46.2605997877985 14.383392418227,46.2605765034062 14.383495934866,46.2605531289525 14.3836513383618,46.2605181577616 14.3837894272002,46.2604771548508 14.3839278470807,46.260418159048 14.3840662666654,46.2603591630755 14.3842222705578,46.260270480732 14.3844037525836,46.260211716275 14.3846020879409,46.2601769749442 14.3847829052147,46.2601659817297 14.3849629839602,46.2602326305648 14.3850741215811,46.2603048465224 14.3852191646862,46.2604190819275 14.3853469530915,46.2605451907318 14.3854322133722,46.2606232054014 14.3854998878374,46.260731086343 14.3855159420671,46.2608267234654 14.3854980203,46.2608982452799 14.3854539564429,46.2609875311091 14.3853668286293,46.2610765854181 14.3852800956962,46.2611418890341 14.3851321842375,46.2612724535563 14.3849931639109,46.2613850712065 14.3848459151319,46.2614678635061 14.3846899036629,46.261568602961 14.3844218850172,46.2616745873991 14.3841707193622,46.261804594677 14.3839111255463,46.2619225896389 14.3837468890833,46.2619814462562 14.3836346092058,46.2620225882482 14.3835650623504,46.2620819550457 14.3835211285141,46.2621592744696 14.3834680338212,46.2622784716681 14.3834578671883,46.2624216530872 14.3834910992668,46.26253528763 14.3835762258475,46.2626252692796 14.3836786080464,46.2627034675145 14.3837467503309,46.262769514761 14.3838661854983,46.2628656192982 14.3839945114853,46.2629439570565 14.3841485888727,46.2630164052271 14.384268559108,46.2630648267951 14.3843887299544,46.2630953447888 14.3845177922031,46.2631080059941 14.3846898576423,46.2631148703414 14.3848189874335,46.2631215034125 14.3850254938555,46.263122614382 14.3852754618971,46.2631001159557 14.3854392326309,46.2630830918633 14.3855856848395,46.2630719126525 14.3858356534385,46.2630493230318 14.3862143538127,46.2630573848805 14.3865239769483,46.2630828893947 14.3867647206572,46.2631081136139 14.3869970377614,46.2631212358304 14.3871603418897,46.2631460439835 14.3872977005304,46.2631825892328 14.3874522489207,46.2632131982581 14.3875900727602,46.2632079984088 14.3877278304718,46.2632087362241 14.3879172809883,46.2632038124444 14.3880462816994,46.2632104411787 14.3882185437196,46.2632113630819 14.3883906100008,46.2632182218632 14.3884766079814,46.2632306482185 14.3885623442588,46.263254949479 14.3886396481016,46.2632792955571 14.3887342744593,46.2632857396994 14.3888031534265,46.2632861079389 14.3888634074329,46.2632804918491 14.3889843119965,46.2632452390367 14.389113707477,46.2632280259645 14.389208332807,46.2632345596815 14.3893200156703,46.2632470326441 14.3894146389314,46.2632654425487 14.3895174281294,46.2633078286622 14.3896458332282,46.2633681659905 14.3897056209488,46.2634162605466 14.3899707241691,46.2635729678784 14.3903472438743,46.2637898305458 14.3906467925657,46.2639406918124 14.3907320646227,46.2640187925132 14.3907654452365,46.2641204593543 14.3907644535833,46.2642099766889 14.3907460100959,46.2643173955206 14.3907442250476,46.2644785267158 14.3907172867732,46.264579872114 14.3907249880387,46.2646575594001 14.3907849106499,46.2646936877599 14.3908536588708,46.2647060204053 14.3909309028157,46.2647243364518 14.3910082793147,46.2647306868133 14.3910943460123,46.2647371733777 14.3911803479923,46.2647495077434 14.3913256793595,46.2648398941326 14.3913850738773,46.2649237947462 14.3914097650103,46.2650254151255 14.3914086419576,46.2651268980897 14.3913977045636,46.2653298177479 14.3913789296411,46.265478982118 14.3913594304496,46.2656818561826 14.3913230717168,46.2658607977806 14.3913386754552,46.2659981788148 14.3913802894548,46.2661297601255 14.3914905225655,46.2662855493521 14.3915670422988,46.2663695409943 14.3916866303377,46.2664537617427 14.3917890295928,46.2665438291074 14.3918747689159,46.2665801841905 14.3919519501786,46.2666044373876 14.3920035144714,46.266610649792 14.3920466483153,46.2666049409824 14.3920983448935,46.2665991877126 14.3921935044177,46.2665579464255 14.3923146775678,46.2664988488393 14.3924619287483,46.266416047004 14.3926263646082,46.2663512407881 14.3927558342833,46.2663161194775 14.3928943249685,46.2662511750704 14.3930498066344,46.2661982870319 14.3932312989959,46.2661395086724 14.3934039675921,46.266092649545 14.393550754706,46.2660516810298 14.393645715788,46.2660282520235 14.3937835461753,46.2660230447419 14.3939215084126,46.2660058716573 14.3940679667966,46.2659946816161 14.3941712888948,46.2660012573106 14.3943432993388,46.2660140450109 14.3945411235872,46.2660270591291 14.3947131975794,46.2660458747634 14.3947989410363,46.2660701713699 14.3948846162991,46.2661124620405 14.3949786573951,46.2661726114621 14.3950638074386,46.266262674587 14.395157323549,46.2663705964499 14.3952590732908,46.2665084326359 14.395395329043,46.2666465411797 14.3955062312652,46.266742588355 14.3956856246664,46.2668629301296 14.395813911655,46.2669471925294 14.3959589945858,46.26706141437 14.3961131629088,46.2671398749851 14.3962673994958,46.2672003412655 14.3964391499356,46.2672490234343 14.3965934523463,46.2673035514406 14.3966965156611,46.2673339661777 14.396808140966,46.2673644259936 14.3968597716685,46.2673646983765 14.3969546024208,46.2673532322719 14.3970793355697,46.2673477719892 14.3972126893671,46.2673724977843 14.3973155583553,46.2674088491184 14.3973757495837,46.2674211327263 14.39743594223,46.2674214499774 14.3975049924793,46.2673948221466 14.3975660645051,46.2673385513071 14.3976095919651,46.2672850671144 14.3976277609635,46.2672015784561 14.3976284803878,46.267135902373 14.3976123396518,46.2670342384575 14.3975880934833,46.266890874594 14.3975811667557,46.2667415738271 14.3975646329618,46.2666758068294 14.3975918869021,46.2665445906731 14.3976103818776,46.2664313228467 14.3976461322527,46.2663060896191 14.3976988734629,46.2662048785577 14.3977860556198,46.266109787067 14.3979248009255,46.2660209952091 14.3981410558086,46.265926583078 14.3982703900943,46.2659034211446 14.3984082207709,46.2658981183168 14.3984770381838,46.265904418584 14.3986233645781,46.2659051883485 14.398804066216,46.2659181050245 14.39903633243,46.2659372306493 14.3992513457684,46.2659562651488 14.3994748550986,46.2659813720233 14.3996898030538,46.2660183098712 14.3999474940512,46.2660733761707 14.4002133567215,46.2661642937905 14.4004192240743,46.2662369916597 14.4005477118098,46.2662914689291 14.4006589479064,46.2663576420086 14.4007871757191,46.2664479266756 14.4009069085016,46.2665201721962 14.4010690592251,46.2666523815044 14.4013937537666,46.266880902479 14.4016075371402,46.2670133813365 14.4018297532348,46.267157870243 14.4020176588259,46.2672961511133 14.4021709934179,46.2674521554196 14.4022471419098,46.2675719469706 14.4023236795876,46.267667897812 14.4023482620907,46.2677814815347 14.4023634398706,46.2679725723107 14.4023614285402,46.2681576350488 14.4023251041854,46.2683246139035 14.4022630934271,46.2684914584538 14.4022104229137,46.2685867337689 14.4021055365951,46.2687234832036 14.4020088220651,46.2689080506246 14.4018519769477,46.2690863652111 14.401764082485,46.2692471358732 14.4017368370869,46.2693783530034 14.4017441654682,46.2695037228911 14.4017509735872,46.2696649890361 14.4017758161228,46.2697546415486 14.4018266700454,46.2698265256417 14.401912161849,46.269886714558 14.4020407902827,46.2699411008741 14.4021951704088,46.2699896835178 14.4023758218178,46.2700085324476 14.4025049049138,46.270009207105 14.4027289519097,46.2699984114218 14.4030395940741,46.2699343539591 14.4031774979304,46.2699231975581 14.403298213827,46.2699058331655 14.4034448096618,46.2698827554786 14.4035915351631,46.269847711953 14.403730087484,46.2697767266328 14.4038340646522,46.2697116789845 14.4039469295743,46.2696285931268 14.4040341054859,46.2695335868701 14.4041731087908,46.2694208561719 14.4042511397734,46.2693675492778 14.4043374745238,46.2693381282762 14.4044408695083,46.2693386669118 14.4045438113071,46.2693690739273 14.4046122460833,46.2694111775138 14.4047059791593,46.2695012780936 14.4048161925421,46.2696629924355 14.404900395284,46.26984256576 14.4049415928323,46.270015887048 14.4049652772664,46.2702130498233 14.4049973304857,46.2704281606421 14.4050213384961,46.2705954542485 14.4050284807715,46.2707387274287 14.4050609862194,46.2709120933855 14.4050590480122,46.2710912182772 14.4049972370505,46.2712400707957 14.4049261512182,46.2714426784737 14.4048808812801,46.2716455104521 14.4048534482716,46.2717946317893 14.4048609135495,46.2719080358114 14.4048941299913,46.2720157256672 14.4049278648197,46.2720875192429 14.4049878036692,46.2721117638388 14.4050739488899,46.2721122121263 14.4051516606651,46.2720886838273 14.4052381931975,46.2720533250119 14.4053598157947,46.2719405025018 14.4054381083664,46.2718752298579 14.4055077726381,46.2718039741203 14.4056208315656,46.2716911067994 14.4058117295311,46.2715548012492 14.405993935729,46.2714303265712 14.4061758821351,46.2713178165749 14.4063924018763,46.2712115139438 14.4065913441129,46.2711229341989 14.4067300880359,46.2710341317256 14.4068683161626,46.2709931017319 14.4070063512809,46.2709579187736 14.4071444499932,46.2709288540989 14.4072911769516,46.2708937158665 14.407403137358,46.2708942962253 14.4075493483374,46.270907020285 14.4077215711234,46.2709138507621 14.4078677822325,46.2709265744151 14.4080830110242,46.2709276888939 14.4082293510417,46.2709284464275 14.4084791539655,46.2709237109589 14.4087632715578,46.2709251805467 14.4090301983613,46.2709206223965 14.4091936644424,46.2709334335414 14.4093742576732,46.2709582092823 14.4095030223795,46.2709887452163 14.4097774885163,46.2710916512583 14.4099918211544,46.2711763418383 14.410292106403,46.2712793798765 14.4105150677178,46.2713580858294 14.4107297877944,46.2714189343449 14.4108669896305,46.2714613885749 14.4110476489776,46.2714802238345 14.411245049145,46.2715350439851 14.4113738824251,46.2715715163362 14.4114767687293,46.2716078549833 14.411622857201,46.2716444158727 14.4117428706628,46.2716928087406 14.4119147752602,46.2717175357589 14.4120525549039,46.2717182443657 14.4121645170852,46.27171882007 14.4122592243792,46.2717193069648 14.4123883751823,46.2717140326339 14.4125609174448,46.2716791102909 14.4127682248256,46.2716204336077 14.4131138843605,46.2715087533226 14.4134504682466,46.2714328344271 14.4138815660976,46.2713753935706 14.4140973701868,46.2713226962082 14.4143392441266,46.271246379281 14.4145724926383,46.2711758658791 14.4148399287357,46.2711235214513 14.4150383513673,46.2710946659971 14.4152361991303,46.2711076444038 14.4153994138082,46.2711442880625 14.4155965672883,46.2712348184644 14.4158021542057,46.2713253916169 14.4159645451836,46.2714396763966 14.4160666764002,46.2715595913674 14.4161598616256,46.2717033932057 14.416209974846,46.2718469750435 14.4162515266542,46.2719904231715 14.416267196997,46.2721397672906 14.4162225395032,46.2722888033879 14.4161259929289,46.2724614171569 14.4159690560507,46.2726517168372 14.4157772911345,46.272871619176 14.4155942777822,46.2730736614264 14.4154027002558,46.2732756595878 14.4152456953765,46.2734718960756 14.4151492699618,46.2736326332603 14.4150872894697,46.2737875184357 14.4150164278757,46.273972228941 14.4150064672707,46.2741035375497 14.415031141929,46.2742111807051 14.4150810648931,46.2743725765183 14.4151314978665,46.27449825591 14.415224812822,46.2746300927836 14.4153356992447,46.2747201823154 14.4155149112649,46.2748763008248 14.4155914796834,46.2749602764896 14.4157108689781,46.2750684035723 14.4158732717014,46.2751825984905 14.4160528030686,46.2753089369467 14.4161892609158,46.2754349652105 14.4162568237419,46.2755607315486 14.4163756463899,46.2757224785123 14.416485968573,46.2758783337667 14.4165533435553,46.2760219134717 14.4166030816335,46.2762013020785 14.4166271273335,46.276368593256 14.4166253534248,46.2765357526845 14.4165633764834,46.2767026049112 14.4164840796117,46.2768753068758 14.4164135347622,46.2770302389454 14.4163171704127,46.2771849491873 14.4162812623922,46.2773161253657 14.4162801847721,46.2774176085699 14.4162787899717,46.2775489609414 14.4163292925348,46.2776686119472 14.4163710389927,46.2777941564005 14.4164473586938,46.2779020627958 14.4165318019037,46.2780637240253 14.4165989265952,46.278231145015 14.416666176762,46.2783867802368 14.4167499216941,46.2786021511543 14.4168167307966,46.2787994411718 14.4168754185494,46.27895503258 14.4169259208493,46.279062716984 14.4170016737126,46.2792243335136 14.4170860575806,46.2793919321592 14.4171369403817,46.2794638094566 14.4171791955989,46.2795416708901 14.4172127612063,46.2796313643475 14.4172633277284,46.2797331107502 14.4173140212819,46.279822891471 14.4173730281166,46.2799486134456 14.4174055157095,46.280127823699 14.4174300717914,46.2802473419485 14.4174798193683,46.2804386963913 14.4175126231687,46.2805881274098 14.4175715054229,46.2807257249608 14.4175959992028,46.2808511810099 14.4176281705946,46.2810603503028 14.4176011466038,46.2811736675914 14.4176335756874,46.2813707819097 14.4176562349253,46.2816694250532 14.4176528823914,46.2819858401565 14.4176594887507,46.2821829128841 14.4176755419553,46.2822844832658 14.417682654577,46.2824337833345 14.4177325287116,46.2826012056397 14.4177994718685,46.2827866192982 14.4178836110204,46.2829780586266 14.4179674942711,46.2831814628816 14.4180341226243,46.2833967455386 14.4180839986765,46.2835641676713 14.4181247419093,46.2837852566756 14.4181574257783,46.2839586194028 14.4181557198713,46.2841197508446 14.4181712718495,46.2842810600774 14.4182042063961,46.2844185251658 14.4182797848093,46.2846099205848 14.418321599625,46.2847176500341 14.4183377845161,46.2848192209472 14.4183796036841,46.2849388267156 14.4184391238847,46.2850167754323 14.4185063851835,46.2851603531731 14.4185641372409,46.2854054610483 14.4186223951978,46.2856027962571 14.4186887767695,46.2858419197973 14.4187129593241,46.285997244655 14.4187285771753,46.2861525259615 14.4187267452938,46.2863257129725 14.4187758057886,46.2865706865304 14.4188507540956,46.2868098534843 14.4189683451335,46.2870910741174 14.4190609333248,46.2872945216569 14.4191460298576,46.2873964425289 14.4192398809663,46.287480503357 14.4193596200477,46.2875587574206 14.4194622293337,46.2876369243825 14.4195305091135,46.2876969225503 14.4195557031082,46.2877567919244 14.4196068495529,46.2878047367755 14.4196581205573,46.2878408958916 14.4197781137089,46.2878952182252 14.4198979807794,46.2879615060804 14.4200438666976,46.2880218976602 14.4201979984455,46.2881003252857 14.4203690139628,46.2882145572143 14.4205740457589,46.2883768264237 14.4207451917459,46.2884911484166 14.4209158948403,46.2886352486654 14.4210266963053,46.2887492645842 14.4211032297491,46.2888391743232 14.4211280487538,46.2889348503243 14.4211524906391,46.2890663332933 14.4211861309583,46.2891500876521 14.4212364623235,46.2892756735296 14.4212435806503,46.2894130969071 14.4212417574347,46.2895861939288 14.4212136675502,46.2898009949899 14.4211239769044,46.2901467533997 14.421096703328,46.2902840026364 14.4210951307853,46.290433258306 14.4211018725708,46.2906063986608 14.4211262525402,46.2907438194384 14.4211508837988,46.2908573988884 14.4212267957688,46.2910189231083 14.421354419307,46.2911628945291 14.4215253207366,46.2912890903655 14.4216365056904,46.2913672987086 14.4217650155118,46.2914395664348 14.4219105936021,46.2915179484409 14.4221160197679,46.291644317939 14.4223299492203,46.2917767581527 14.4224580171559,46.2918788935741 14.4226369277854,46.2920708977362 14.4227557411782,46.2922386656602 14.422866303234,46.2923765210961 14.4229163899677,46.292526037482 14.4229497846433,46.2926336326132 14.4229656001016,46.2927590434454 14.4229641622864,46.2929082997542 14.4229625313632,46.293063583209 14.4229263780229,46.2932186024531 14.4228904799532,46.2933616566939 14.422845884972,46.2935047569916 14.4228448812474,46.2936003021881 14.422860638435,46.2937436171468 14.4229017841868,46.2939288972246 14.4229854510299,46.2941562288527 14.4230442988705,46.294299761226 14.4231034555816,46.2944015481226 14.4231966974365,46.2945453439158 14.4232474806516,46.2946411503398 14.4233671163404,46.2947312758797 14.4234783108526,46.294809482429 14.4235893768343,46.294887598249 14.4236920689957,46.2949597336021 14.4238722416001,46.2950203830003 14.4240527330359,46.2950630393249 14.4242417900512,46.2951058284694 14.4244399194868,46.2951127641534 14.4246293529415,46.2951196557342 14.4248792593276,46.2951030086259 14.4251812018293,46.2950627800169 14.4254139753362,46.2950460456046 14.4256037209974,46.2950230664446 14.4258883382569,46.2949886870799 14.4260521300658,46.2949775431253 14.4261810223993,46.2950021226104 14.4263616405452,46.2950328096528 14.4265504504276,46.2950994363121 14.426670216496,46.2951776827395 14.4267727264564,46.2952677188283 14.426874982128,46.2953697198207 14.4269341470887,46.2954715047541 14.4269843145704,46.2956270477979 14.4270169042498,46.2958003171766 14.4270498106491,46.2959556837081 14.4270912836313,46.2961110931507 14.4271067970418,46.2962664624769 14.4271397039622,46.2964218289723 14.4271635414103,46.2966129588513 14.4271788744259,46.2967981079643 14.4271867561031,46.2968638269704 14.4272119006517,46.296929632457 14.4272275453469,46.2970849124303 14.4272844769947,46.2974135951896 14.4273175657333,46.297539181803 14.4273252610277,46.297622804272 14.4273326509494,46.2977481721857 14.4273574227923,46.2978497845911 14.4273998311494,46.2979156764867 14.427433667838,46.2979695591758 14.4275012836816,46.2980953186191 14.4275769129012,46.2982867076696 14.4276781801503,46.2984842531172 14.4277543649062,46.2986099653188 14.4278393084698,46.298729783151 14.4279412614454,46.2988616522851 14.4280859411696,46.2990415101352 14.4281961521933,46.2992032010419 14.4283227619478,46.2994606139643 14.4283736778332,46.2995324861612 14.4284414849566,46.2996402515889 14.4284581270717,46.2997000761205 14.428449373815,46.2997179367731 14.4284752045137,46.2997180658923 14.4285181691436,46.2997182806454 14.4285613253504,46.2997125581944 14.4286386374798,46.2997427252576 14.4288121811417,46.2998187188802 14.4288599623392,46.2997801796786 14.4289206937946,46.2997445842405 14.4289966365781,46.299694219373 14.4290396271998,46.2995795399439 14.42903404479,46.2994547210398 14.4289888106502,46.2993107200443 14.4288564520021,46.2990191797834 14.4287811393716,46.2988342711653 14.4287481036042,46.2987031969833 14.4287406511444,46.298596003198 14.4287335692275,46.298453182382 14.4287608233145,46.2983163812871 14.4288056375484,46.2981261346144 14.4289110482727,46.297900561716 14.4290425919586,46.2976333722369 14.4292967368985,46.2971347569859 14.4295417557487,46.2966895389325 14.4296642319156,46.296469988577 14.4297081831022,46.2963749275106 14.4298219682204,46.2961672099229 14.4300053393299,46.2958705869549 14.4300319027926,46.2957874053424 14.4300852217999,46.2956150149314 14.4301477852271,46.2953772609462 14.4302544194891,46.2950326598876 14.4303608003988,46.2946998437761 14.430414301042,46.294509729605 14.4304408083208,46.2944443620506 14.4305013329357,46.2944030065055 14.4305628440602,46.2942664654844 14.4308278070935,46.2935476489909 14.4309417059694,46.2933279644816 14.4310202236875,46.2932033841349 14.4311249999455,46.2930372773459 14.4312039480742,46.2928710419708 14.4312747005006,46.2926689569116 14.4313278886444,46.2925085314568 14.4313922288624,46.2920982191786 14.4314468935734,46.2917950154008 14.4314925004628,46.2915392717731 14.4315899308446,46.2912422186849 14.4316261091805,46.2910697422087 14.4316893985158,46.2907606429806 14.4317953928718,46.2904635422731 14.4318395196738,46.2903506666997 14.4319017614166,46.2901426906915 14.4319836558494,46.2896908080737 14.4320304264224,46.2893220650155 14.432093097687,46.2890723439632 14.4321036927936,46.2888759875718 14.4321601956835,46.2883941978527 14.4321818768165,46.2879538922113 14.4322007287545,46.2877873575375 14.432246389055,46.2875257655132 14.4323086882305,46.2873117613383 14.4324308245387,46.2871219867496 14.4326391705501,46.2868908927979 14.4330470536781,46.2864643789746 14.4333941102845,46.286109000103 14.4336284561863,46.2858602186762 14.4338670304454,46.2856164961344 14.4340406758072,46.2854269748101 14.4341714286804,46.2852312128234 14.4343200452796,46.2849641011967 14.434460164454,46.2847028854947 14.4345649674037,46.2845189609682 14.4347037988683,46.2843827098765 14.4348508803314,46.2842644038478 14.4350752405839,46.2841524176463 14.4352991709898,46.2840821759523 14.4355314223299,46.2840356375723 14.4357032773284,46.2840067950801 14.4356697527333,46.2839351917361 14.4355929701134,46.2838931556282 14.4354729225908,46.283868720341 14.4353959562871,46.2838445876496 14.4353188689566,46.2838322406593 14.4352417119895,46.2838140450837 14.4352076990161,46.2837900344533 14.435182486941,46.2837304383206 14.4351663981876,46.2836291401771 14.4351677435208,46.2834982373491 14.4351777762434,46.2833554111388 14.4351795496246,46.2831828533124 14.4351815680048,46.2829864540696 14.4351910495444,46.2828972485288 14.4352265988265,46.282784329132 14.4352102575275,46.2826949960278 14.4351955142265,46.2824627950187 14.4351279104189,46.2823612423553 14.4349827850025,46.2822772110426 14.4347431394679,46.2822106167488 14.4345204397109,46.2821619202534 14.4342806128188,46.282113048609 14.4341693860202,46.282076779261 14.4340498397226,46.2820167159703 14.4339905572549,46.2819390464413 14.4339402069964,46.2818257021499 14.4339319485878,46.2817959704451 14.4338821518006,46.2816289154752 14.433866249509,46.2815098035421 14.4338331504567,46.2813846682858 14.4338173095033,46.2812596184803 14.4338196384439,46.28103352991 14.4338385449396,46.2808609669021 14.4338313904555,46.280724083771 14.433832187435,46.2806467116315 14.433875497634,46.2805993307988 14.433979137469,46.2805403723019 14.4340655879938,46.2804872667928 14.4340833291576,46.2804277930129 14.4340495558545,46.2803681542188 14.4339986556545,46.280308340658 14.433973392769,46.2802665584653 14.4339653800877,46.2802129853382 14.4340001259013,46.2801655620548 14.4340006771253,46.2801120313237 14.4339494705392,46.2800819970206 14.4338957921555,46.2800525802612 14.4338563637155,46.2799625028005 14.4338399707874,46.2798910736686 14.4337811746507,46.2797538448082 14.4337756905873,46.2796689738568 14.4337535886247,46.2796101125448 14.4337830745262,46.2795694111882 14.4338264525031,46.2795279688671 14.4338271271335,46.2794624724376 14.4338197884143,46.2793434928308 14.4338048061753,46.2791351329586 14.4338330105894,46.2788912679678 14.4338951702592,46.2786892282285 14.4340095758052,46.2784160991178 14.4340538038737,46.2782793803193 14.4340626120396,46.27825567125 14.4342513475358,46.2782744198113 14.4342770384304,46.2782745469324 14.4342012444969,46.2781373241153 14.4341408753321,46.2780899698753 14.4341514482474,46.2779704491025 14.4341784864229,46.2778396733097 14.4341883362616,46.2777147506155 14.4342158104714,46.277554196154 14.4342000843859,46.2774053942141 14.4341671778256,46.2772743217488 14.4341254559663,46.2771550819783 14.4341176889879,46.2770776674028 14.4341359799917,46.2769646628121 14.4341893886324,46.2767804840138 14.4342158751585,46.2767032389474 14.4342344177994,46.2765783592411 14.434218630805,46.2764354951461 14.4342035255144,46.2762390109507 14.4341712251279,46.2760365034809 14.434138625026,46.275875741644 14.4340538971915,46.2757622271335 14.4338758247386,46.2755530597336 14.4338252349031,46.2754635567298 14.4337241780501,46.2752726749182 14.4336148043872,46.2750579091565 14.4334885510597,46.2748192169902 14.4333875586677,46.2746223070348 14.4333038830771,46.2744196346167 14.433168510331,46.2742225540409 14.433032592844,46.2740909704288 14.432853670223,46.2739651115057 14.4327690092217,46.2738456581627 14.4327013581577,46.2737501318158 14.4326084413123,46.2736009465244 14.4325749269747,46.2735293421899 14.4325330887631,46.2734219775252 14.4324752914489,46.2732015284048 14.4324170645619,46.2730227342956 14.4323671556112,46.2728677341393 14.4322999978604,46.2727246146307 14.4322415196603,46.2725576955154 14.4322252545177,46.2724743003739 14.4321923555112,46.272343227262 14.4321431846557,46.2721168825988 14.4321013483375,46.2720095177583 14.4320430012183,46.2718425991712 14.4319510114095,46.2716041653418 14.4319013513632,46.2714253235097 14.4318518134194,46.2712346958801 14.4317945751817,46.2709606255895 14.4317374593089,46.2706747694871 14.4317303111426,46.2705378860107 14.4316892151401,46.2703590866183 14.431649552537,46.2702675675186 14.4315456640232,46.2701263342684 14.4315228966676,46.2701073268723 14.4314610186435,46.2700187563028 14.4314193694204,46.2698935775747 14.4313690957454,46.2697743840838 14.4315073371157,46.2696797908074 14.4316546996408,46.2695436754697 14.4317331199,46.2694250318246 14.4317686663715,46.2693122031974 14.4317528263314,46.269175276491 14.4317117995944,46.2690024155851 14.4316790809364,46.2688416522562 14.4315948608652,46.2686805429117 14.431485385626,46.2684776507077 14.4313849099931,46.2682451122617 14.431213338083,46.2679877475538 14.4310185469611,46.2677427731895 14.4316920792543,46.2674458851954 14.4320386473975,46.267114349568 14.4332772296966,46.2668346533758 14.435616491905,46.2663220454917 14.4374737567842,46.2659498954475 14.4399483796534,46.2656282464447 14.4419386217042,46.2656849439002 14.4424205572271,46.265634481437 14.44224588068,46.2651033319431 14.4420698916694,46.2645356469164 14.4419309430283,46.2641660817527 14.4418560334896,46.2638778042471 14.4418060637883,46.2636886181431 14.4424440522083,46.2634578028002 14.4424577535721,46.2633858916503 14.4421901839549,46.2629077324694 14.4418582180687,46.2623842720316 14.4417185455792,46.2620866809187 14.4415013737007,46.2617437248239 14.4413610650918,46.2615091108744 14.4411959121207,46.2611664083243 14.4409532089364,46.2607963345906 14.4407371828218,46.2603544128089 14.4405208856165,46.2599394810112 14.4402911631237,46.2595694693097 14.4401406949697,46.259046891951 14.4400530141054,46.258740555954 14.4400159340851,46.2585604292758 14.4400062607801,46.2582364807593 14.4399597830556,46.2577054150864 14.4399536823999,46.2570305910464 14.4399324143895,46.2565715368189 14.4399464455033,46.2564546412144 14.4398692663604,46.256391282322 14.4398622507577,46.2558064262191 14.4397743015855,46.2555270802934 14.4398023484033,46.2553202807772 14.4396989565517,46.2552837850914 14.4396503763744,46.2549596456794 14.4396675612623,46.2545458559661 14.4396461122195,46.2541048850919 14.4396880444829,46.2538081809981 14.439758808615,46.2532147085247 14.4398549064018,46.2526933381718 14.4399361100467,46.2523608372621 14.4401131312016,46.2515339560209 14.4400229898255,46.2514705336965 14.4402889571689,46.250824032992 14.4404349080495,46.2505007558756 14.4405552467964,46.2501324568696 14.4407559934068,46.24952162484 14.4408643119255,46.2490722912348 14.440987973218,46.2483891035127 14.4411739131587,46.2479581435738 14.441149164838,46.2478410580914 14.4412566545575,46.2474726953724 14.4414309528409,46.2468977217075 14.4415388039818,46.2464933713406 14.4415142381241,46.2463582922537 14.4422144942743,46.2463616208494 14.4423639763087,46.2456875545711 14.4425683313378,46.2447168455099 14.4421877543515,46.2438692453627 14.4422293910669,46.2435995302053 14.4422601573751,46.2431228246096 14.4423952045334,46.2425926439495 14.442409811977,46.2424307641797 14.4424537249033,46.2419361279942 14.4425382679143,46.2412707415441 14.4426466995852,46.2407943243524 14.4426926129903,46.2401017574815 14.4427935769558,46.2390945539024 14.4438179804147,46.2390905447791 14.4450619891994,46.2391685681977 14.4452042525115,46.2392052477851 14.4454374594403,46.2392243738031 14.4454667450135,46.2388916163563 14.4455007438004,46.2380909329562 14.4455483404641,46.2372274243486 14.4455682441725,46.2365257324773 14.4451925201588,46.2364969179 14.4452409360038,46.2355524375523 14.4452372183445,46.2346346959369 14.4442497557009,46.2348278404303 14.4442949167747,46.2342072468809 14.4443002746138,46.2336764327064 14.4443578538251,46.2331098831272 14.4444429947645,46.2323815161072 14.443172444858,46.2323663375947 14.4431458791069,46.2324291892619 14.4422122593319,46.2324426325785 14.4422406489905,46.2321998441355 14.4423098449959,46.2317683115409 14.4423920951516,46.2313278452472 14.4424467759996,46.23104919575 14.4431340545261,46.2310345508865 14.4433346099909,46.2304327087032 14.4433235561827,46.230243711632 14.4433899217718,46.2300910807007 14.4433385211044,46.2300458439467 14.4433403924701,46.2298479124996 14.4433145558213,46.2298387893971 14.4433151925294,46.2297758114089 14.4432892649561,46.2297756851563 14.4432899926538,46.2297037103121 14.4432252647787,46.2296943978 14.4432941768616,46.2292898549404 14.4434269054822,46.2289845930072 14.4435435778898,46.2289851609501 14.4435303415273,46.2290120884224 14.4440475242216,46.2291494741307 14.4440494317787,46.2289605401177 14.4442749884297,46.2284487906549 14.4443811472913,46.2282063795209 14.4445497625005,46.2281982015675 14.4446563733277,46.2279108058578 14.444762983029,46.2276234100293 14.4440645098911,46.2274670615066 14.4429773780604,46.227272916474 14.4426541176793,46.2271903652741 14.4429617363884,46.2262560550337 14.4431093328347,46.2257619223562 14.4432825791961,46.2252949062718 14.4429329494788,46.2252572139431 14.4420776824377,46.2252261413382 14.4411063538105,46.2251224265856 14.4405624693784,46.2250657825783 14.4398764543846,46.2249634531798 14.4393846065376,46.2248890638917 14.4393341299206,46.2247538567599 14.4393102198481,46.224555798751 14.4394595841388,46.2238907304519 14.4395675861962,46.2234683864605 14.4396479229952,46.2232168556119 14.4403327273016,46.2234361455066 14.4410562414989,46.2236736151692 14.4420130861375,46.2239121293353 14.4420922276478,46.223777555962 14.4424639175247,46.2229156276112 14.4426639947046,46.2223587699805 14.4424958524697,46.2223219609099 14.4426185723769,46.2217107421728 14.4428219199057,46.2208299968567 14.4429132886342,46.2207674609373 14.443468640387,46.2209681066389 14.4441140929388,46.2212321689583 14.445160410846,46.2216061415542 14.4460643042292,46.2219523326331 14.4466071694912,46.2221079159845 14.4471315192378,46.2215256277512 14.4480358737459,46.2218269088922 14.4488756082559,46.2221098767411 14.4492575336162,46.2215088974629 14.4495993976051,46.2210245990642 14.4500593965753,46.2203790062888 14.4506500259965,46.2196440662417 14.4510568510036,46.2191421708153 14.4509699778762,46.2187548691048 14.4510756399763,46.2185574355553 14.4512622944718,46.2180364873076 14.4519610271387,46.2181568041265 14.4522325833836,46.2182210867977 14.4524907320493,46.2183302911917 14.4527616650162,46.2184574608546 14.4529336445762,46.2181073886366 14.4532253962934,46.2174429829493 14.4533846363482,46.2170568597922 14.453281128408,46.2170383702034 14.4534673105098,46.2165624025609 14.4537592258672,46.2158800014812 14.4539436162987,46.2155839708115 14.4530003607065,46.2152915472492 14.4528292841194,46.2155516508574 14.4522601868019,46.2154319604599 14.4522893277508,46.2151081965355 14.4523702692827,46.2147756834126 14.4523733993716,46.214460792151 14.4524816410213,46.214002447168 14.4527361941525,46.2131669149503 14.453040791966,46.2125115679905 14.4534932229365,46.2126306969186 14.4538526389576,46.2116607033745 14.4542536729052,46.2117345071598 14.4556245832305,46.212037955106 14.4561921963884,46.210978972053 14.4558948411489,46.2109055785825 14.4545880820028,46.2106834158308 14.4544072751515,46.21061957179 14.4542129747261,46.2106096470098 14.4542144006085,46.2104656965713 14.4542579121211,46.209998043219 14.4542495461902,46.2095211448405 14.4541011682446,46.208800650011 14.4538577139063,46.2085205699692 14.4540795289191,46.2083686747935 14.4552115676221,46.2079062138007 14.4560315162143,46.2075502249786 14.4567870173662,46.2071578447383 14.4569184642848,46.2069695252566 14.4568727966091,46.2063304976037 14.45649336446,46.2053839741463 14.4565207002117,46.2052401467289 14.4568964834695,46.2052419325828 14.4572979170602,46.2052708309792 14.457946085171,46.2052469141144 14.458243943386,46.2052663207004 14.4586962380788,46.2053944258942 14.4592143848898,46.2054148727966 14.4605481885468,46.2055110578598 14.4615217175646,46.2053446981915 14.4627545770163,46.2051615545659 14.4638847271486,46.2048789453274 14.4645331512449,46.2048279103333 14.4647030903529,46.2046757514686 14.4644618730249,46.2041617735336 14.4643732669237,46.2039454223231 14.4637385987253,46.2039155449038 14.4631554125273,46.2039218051073 14.46263701496,46.2039283668928 14.4621832304378,46.2039532249914 14.4620404317065,46.203979545123 14.461146874285,46.2039213527748 14.460835976491,46.2039108895865 14.4604219454345,46.2038459547952 14.4601805539788,46.2033409642528 14.4599641535926,46.2029440592863 14.4596975141914,46.2023849643286 14.4595322443379,46.202060278846 14.4601819599278,46.2018744044834 14.4608054926866,46.2017153949582 14.4608456844706,46.2015806243964 14.4612368626506,46.2013305430299 14.4616151263966,46.2010624048115 14.4620456074961,46.2007675190332 14.4624485916352,46.2006343645288 14.4623893351492,46.2000672532493 14.462691201312,46.1996727892962 14.4630304431575,46.1994314549462 14.4631606234305,46.1993690849273 14.4637459496272,46.1991379011238 14.4642403126043,46.1989332800881 14.4647606723423,46.1987197812816 14.4654882444831,46.1985162464755 14.4659703371881,46.1982394918244 14.4662565979699,46.1981148658483 14.4663985086127,46.1981785097497 14.4668390263643,46.1981805650778 14.4672800658439,46.1981286370607 14.4676691052113,46.1980944599071 14.4685117041596,46.19805339365 14.4689394380333,46.1980373867563 14.4691728260814,46.1980204760082 14.4692917721137,46.1977780998938 14.4693341491171,46.1974004080295 14.469247440185,46.1969861274947 14.4692104776105,46.1967880142178 14.4691770078658,46.1964828486884 14.4682832803426,46.1961988777486 14.4674953143749,46.1959522816313 14.466901170842,46.1957605681795 14.4663837211836,46.1956771778541 14.4656463734203,46.1955567681381 14.4654160932159,46.1952407842401 14.4649377797671,46.1951305783095 14.4641614872619,46.1950190640403 14.4635411916462,46.1948542025578 14.463295560462,46.1947990655193 14.4630108877392,46.1947617392734 14.4629852394636,46.1947346267367 14.4623755372827,46.1948127371903 14.4621675454535,46.1948837376615 14.4619768988289,46.194504951779 14.461811550899,46.194189266128 14.4609444150901,46.1940952070116 14.4606338367958,46.1940577526822 14.4598950251891,46.1940902539234 14.4595103773851,46.1936656503368 14.4592295959934,46.1932324494697 14.4591404980875,46.1930700755808 14.4590137711675,46.1927815605788 14.4588739139074,46.1925109779813 14.4588361967344,46.1923938338137 14.4585037840577,46.1919423919243 14.4583495609829,46.191710339258</coordinates></LinearRing></outerBoundaryIs></Polygon></MultiGeometry>
  </Placemark>
</Folder>
</Document></kml>
