{"type":"FeatureCollection","features":[{"type":"Feature","geometry":{"type":"Polygon","coordinates":[[[14.1919180620096,46.0364138451708],[14.1918134116616,46.0365559873486],[14.1916559156176,46.0368048273113],[14.1916023295894,46.0369711741316],[14.191651749016,46.0370905621498],[14.1917696340827,46.0372104343454],[14.1919552914924,46.0373783829939],[14.1920215455677,46.0375217335493],[14.1920707493835,46.0376648735553],[14.1920775909237,46.0377361830349],[14.1920778112601,46.037738793901],[14.1920778099488,46.0377388838679],[14.1920778086376,46.0377389738348],[14.1920778047038,46.0377392437354],[14.1920779312626,46.0377394245824],[14.1920855459662,46.0378197371416],[14.192237839728,46.0379279752197],[14.192407186109,46.0380363335925],[14.1925593081097,46.0381564468754],[14.1926264321293,46.0382402389969],[14.1926422708259,46.0383236687977],[14.1926153927328,46.0384127352571],[14.1925883840579,46.0385018907625],[14.192595783159,46.038579322517],[14.1926033114628,46.0386567551828],[14.1926188042846,46.038763936238],[14.1926859278075,46.0388478182881],[14.192753572995,46.0388958934798],[14.1929243105454,46.038908976165],[14.193044107867,46.0388979452322],[14.1931120554836,46.0389341454966],[14.1931958878922,46.0390418089329],[14.1931939812603,46.0391728007228],[14.1932438822065,46.0392683477294],[14.1933800400805,46.0393050293049],[14.193551297387,46.0392824841727],[14.1936724813475,46.0391761776435],[14.1937764397647,46.0390816263208],[14.193896929424,46.0390230020035],[14.1940506153197,46.0390359627345],[14.1941518039182,46.0391318710102],[14.1942339070955,46.0393586498825],[14.1943688102891,46.0394906061514],[14.1946572739533,46.0396354313106],[14.1949634816177,46.0397328733335],[14.1952875643943,46.0397827530512],[14.1953721793822,46.0398368845917],[14.1954569224161,46.0398911069464],[14.1955228437685,46.0400582067567],[14.1955209438738,46.0401891086312],[14.1955534941581,46.0402964993001],[14.1956365982404,46.0404637199761],[14.1956852943221,46.0406426652649],[14.1956482955197,46.0408328842929],[14.1956806309363,46.0409640270921],[14.1958668739922,46.0410843760301],[14.1961388135461,46.0411934506044],[14.1963422836134,46.0413020430839],[14.1964945965452,46.0414101855742],[14.1966969898621,46.0416020877088],[14.1968491738146,46.0417103187898],[14.1969418989528,46.0418024760501],[14.1970417095793,46.0418514944925],[14.1981185452774,46.0422679062667],[14.1982235517441,46.0424223221153],[14.1982906894511,46.0425061109376],[14.1983908585181,46.042673449247],[14.1984562740852,46.0428763542078],[14.1985740143754,46.0430080950775],[14.1987611303153,46.0430689711905],[14.1990168924649,46.0431183613005],[14.1992210642067,46.0431792662155],[14.1992530649225,46.0433342492578],[14.1992159048378,46.0435363450575],[14.1990768073011,46.0437020960005],[14.1989704408566,46.0439632708453],[14.1989162253525,46.0441652469871],[14.1988280731241,46.0443551083652],[14.1986526705457,46.0446633962458],[14.1985469459275,46.0448888546678],[14.1985793329887,46.0450081200761],[14.1986800237977,46.04513974123],[14.198831146094,46.0453312799618],[14.1989476881986,46.0455463297918],[14.1990816288925,46.0457377477511],[14.199113457672,46.0459046963699],[14.1990256903092,46.0460588400613],[14.1988876197367,46.0461530669675],[14.1987831414499,46.0462832496855],[14.198678963594,46.0464015575776],[14.1985581166769,46.0464841179823],[14.198471036513,46.0465905787658],[14.1984856374062,46.0467692835459],[14.1985161321072,46.0470194507524],[14.1985114827987,46.0473409024092],[14.1984551530413,46.047697622105],[14.1985209193597,46.047876685672],[14.1986558971249,46.0479966703878],[14.1988258043924,46.0480692125291],[14.1989967433975,46.0480704106883],[14.1991170756427,46.0480236566787],[14.1992034690829,46.0479647879165],[14.1993413733894,46.0478823463465],[14.1994780724667,46.0478833039125],[14.199700305386,46.0478848602872],[14.1999734885815,46.04791061653],[14.2002143232525,46.0478051407091],[14.2003532552003,46.0476513541443],[14.2005782348947,46.0474624488462],[14.2007333187585,46.0473802157314],[14.2008870715788,46.047381290874],[14.2009387490266,46.0474088249424],[14.2009871767031,46.0474197806841],[14.2009913050239,46.0478414370575],[14.201027212755,46.0480396352636],[14.2011638916182,46.0484184898103],[14.2013504398812,46.0489236590282],[14.2015534126482,46.0491860075264],[14.2016800272655,46.0493669339182],[14.2016655505208,46.0494838015531],[14.2014927772088,46.0496454510684],[14.2014294735256,46.0497250873754],[14.2013746776152,46.0499406467958],[14.2013989636115,46.050048787646],[14.2014749339176,46.0501572896099],[14.2016028481115,46.0502481592069],[14.2017549199694,46.0504561661245],[14.2017527165561,46.0506091098487],[14.2016970136187,46.0508876462166],[14.2017081201404,46.0510136901136],[14.2017579905623,46.0511400047536],[14.2019608436643,46.0514113491809],[14.2020070868749,46.0517895709841],[14.2020829311532,46.0519070692224],[14.2021705312772,46.0521056278053],[14.2021423562339,46.0522673877818],[14.2019711361024,46.0525001297649],[14.2017862155636,46.0527777637565],[14.2012787687109,46.0530171535477],[14.2010694251862,46.0531957321516],[14.2012105268669,46.05326869914],[14.2017497430496,46.0535153114754],[14.2020186382947,46.0536882334162],[14.2025436439526,46.054024808636],[14.2027865719838,46.0542064551781],[14.2035520624717,46.0549046064636],[14.2038304025912,46.0553204347986],[14.203986245418,46.0552675347946],[14.2044780662713,46.0552169736452],[14.2049939232174,46.0552925437998],[14.2053803019787,46.0553851166859],[14.2059808139234,46.0558662522977],[14.20616056853,46.0559483892729],[14.2067901602304,46.0562046929411],[14.2071143816547,46.056134961974],[14.207540308284,46.056173906354],[14.2090415766828,46.0569311053786],[14.2092158155329,46.0574001854449],[14.2092379353598,46.0576613583874],[14.2089598752646,46.058127308515],[14.2089104429081,46.0588827632595],[14.2090749749198,46.0591268366708],[14.2095721743572,46.0596071480972],[14.2097272127375,46.0605169757508],[14.2096861315966,46.0606786481041],[14.2098244400412,46.0609495317557],[14.2100037031769,46.0610767370712],[14.2102336345487,46.0612672752783],[14.2104881325034,46.0615479584929],[14.2107181956966,46.0617294990416],[14.2108471771544,46.0617483848461],[14.210960927885,46.0619291217376],[14.2110352669474,46.062154574337],[14.2110315503535,46.0624154783846],[14.2109914968636,46.0625051776423],[14.210714194602,46.0629172414114],[14.2105931334411,46.0632493155838],[14.2104326568525,46.0636261051924],[14.210416526007,46.0638509330988],[14.2103749321501,46.0640575899315],[14.2103078731235,46.0642280805038],[14.2101632672544,46.0643980351587],[14.2099537815917,46.0645855363086],[14.2096789017208,46.0648265703271],[14.2093266005558,46.0650580705317],[14.2091160816888,46.0653175435514],[14.2090074162106,46.0656856919722],[14.2087161297974,46.0661696344613],[14.2085721568024,46.0662946035826],[14.2084535185122,46.06645573826],[14.2082840802347,46.0665535379391],[14.2079669341198,46.0670372093407],[14.2073009328657,46.0675094632434],[14.2071490955257,46.0681832276225],[14.2072103729555,46.0684175894279],[14.2073600685338,46.0688055230442],[14.2083393428367,46.0686103148942],[14.2095868322176,46.0678630633238],[14.2103476305454,46.0676221487707],[14.2114355901011,46.0674537578671],[14.2125274119738,46.0670042092052],[14.2131680217555,46.0663230963914],[14.2140627806227,46.0655207310679],[14.214932181494,46.0647181844606],[14.2155223301502,46.0640367115824],[14.2159320575449,46.0636177168885],[14.217380342529,46.0629420280784],[14.2184239741843,46.0623163701579],[14.2189126232765,46.0616693659059],[14.2196992404418,46.0613758395445],[14.2208144759824,46.0610493680543],[14.2215301519173,46.0604039000148],[14.222139333575,46.060161873926],[14.223808126025,46.0599620462101],[14.2248928282659,46.060021953458],[14.2260552292031,46.0599417444322],[14.227091480901,46.059843125282],[14.2283343726068,46.0594119919406],[14.2290725799068,46.058959896674],[14.2304209896949,46.0581780067872],[14.2311840042452,46.0577612453801],[14.232853180494,46.057526107584],[14.2344186303819,46.0575011539604],[14.2354313203567,46.0572793043996],[14.2365219096082,46.0568997887628],[14.2367893990476,46.056864865163],[14.2367526430254,46.0568405061891],[14.2369878543257,46.0566531274665],[14.2373905641334,46.0565027663635],[14.2377132588763,46.0565319118301],[14.2379185361262,46.0566412517675],[14.2381380979437,46.056651713146],[14.2384493610017,46.0565818069197],[14.2391631968662,46.0563616215578],[14.2394098383198,46.056282284928],[14.2397209685096,46.0562123743512],[14.240175109974,46.0560804306882],[14.2405909750386,46.0559122405636],[14.2409288096209,46.0557795210428],[14.241435866454,46.0555579479483],[14.2419048907735,46.0552821348277],[14.2422419800436,46.0552033919779],[14.2425938357243,46.0549897822181],[14.2429581191908,46.0548122440287],[14.2431557633708,46.0545346278613],[14.2433134103309,46.0543467223978],[14.2435873552667,46.0541595864622],[14.2438224093329,46.0539811901473],[14.2441646443456,46.0535244870369],[14.2443225304095,46.0533185865578],[14.2446125780039,46.0528976173182],[14.2449532046104,46.0525579597645],[14.2451641200502,46.0522534349304],[14.2454932878872,46.0518057289773],[14.2457686825019,46.0515106262295],[14.2463053177181,46.0510103012728],[14.2469705446205,46.0505558090398],[14.2475839537117,46.0501099693733],[14.2482889002049,46.0495836601668],[14.2486666608661,46.0493612043138],[14.2490812306243,46.0492829505507],[14.2497545842619,46.0491794015446],[14.250479139971,46.0491211723332],[14.2508404403959,46.0491595315488],[14.2512389238404,46.049315101939],[14.2516115674399,46.0494705017355],[14.2521390233027,46.0496449086133],[14.2525500709644,46.0498275494052],[14.2529488145743,46.0499741179204],[14.2533618070765,46.0500128070237],[14.2539053446407,46.0499533733992],[14.2544110860894,46.0498217098926],[14.2549192446938,46.0495101080554],[14.2552571271745,46.0493683487823],[14.2560501420319,46.0490136097561],[14.2567906186009,46.0487215067323],[14.257699419654,46.0484034994813],[14.2578818774641,46.0482877156456],[14.2582740773761,46.0479483530315],[14.2587724066271,46.0474026427299],[14.2594049231887,46.0474607287118],[14.2599850287186,46.0475634598266],[14.2606126615624,46.0470096710011],[14.2613181638458,46.0464293892019],[14.2617627298258,46.0460363673763],[14.2623510880822,46.045518305572],[14.2629129969417,46.0450450581161],[14.263344022562,46.0446969307261],[14.263893354414,46.0441965145478],[14.2643901602738,46.0437588308095],[14.2648867196063,46.0433391384988],[14.2650274681828,46.0432970351706],[14.2645889749657,46.0429729101253],[14.263708696333,46.0427389733247],[14.2629019268238,46.0426811370472],[14.2625261892355,46.0424679893031],[14.2621272381785,46.0420965125787],[14.2606646696535,46.0420168793501],[14.2592971355744,46.0423771063614],[14.2579376879365,46.0421223833079],[14.2567005978862,46.0421671603562],[14.2558397918833,46.0423724625781],[14.2547285523942,46.0424355829712],[14.2541446660598,46.0426953138254],[14.2538640817471,46.0429218415543],[14.2535315594161,46.0432534812733],[14.252874791313,46.0433019157496],[14.2521756721041,46.0427352631468],[14.2513746102445,46.0422557551183],[14.2503963511637,46.0418102599991],[14.2498700767184,46.0415258118483],[14.2497972234223,46.041314519762],[14.2503379659,46.040509992927],[14.2508587021359,46.0393013396764],[14.2509681424033,46.0386696150303],[14.2504464080003,46.038051387775],[14.2499231502269,46.0375561454193],[14.2488182983442,46.0371449861546],[14.2478950574628,46.036366109309],[14.2476026198238,46.0355912894254],[14.2473293086177,46.0352733136159],[14.2462767015633,46.0347394762337],[14.2453762252125,46.034153907652],[14.2448492223358,46.0339396125663],[14.2443679407959,46.0340770642847],[14.2436307848062,46.0344762710875],[14.2425199322634,46.0345216400169],[14.2415919069351,46.0341115824532],[14.2407413876007,46.0335613994716],[14.240371573867,46.0329265894091],[14.2403764985853,46.0325577197355],[14.2407898898313,46.0318402071027],[14.2411988315022,46.031456475119],[14.2420134483683,46.0309172547128],[14.2428768738397,46.0305013493169],[14.2430101338825,46.0299752412477],[14.2432166843139,46.0296252519392],[14.2437262310946,46.0292596323083],[14.2447407570551,46.028862257873],[14.2451736405088,46.0285664865329],[14.2458159138989,46.0277099237844],[14.2463336505918,46.0267296285145],[14.2464944412437,46.0260279739004],[14.2468056407546,46.0253976717986],[14.24714713555,46.0243810300893],[14.2461116926411,46.0244621113926],[14.2452561453353,46.0242983762101],[14.243970621661,46.0242197878947],[14.2435687009951,46.0240941307645],[14.2431954308965,46.0237053012175],[14.242620436089,46.0233150437913],[14.2425273582176,46.0227347093268],[14.2417784748702,46.022150115712],[14.2414069124106,46.021638293816],[14.2414366607241,46.0213046789347],[14.2418465904329,46.0208331335821],[14.2419544133331,46.0203244025191],[14.241785910289,46.0197260214373],[14.2414365524525,46.0194427068416],[14.2407356850011,46.0190340586815],[14.2402653497755,46.0183810333738],[14.2396455864083,46.0175689233984],[14.238822817509,46.0168608204579],[14.238474940247,46.016472054115],[14.2384295131004,46.0161028479485],[14.2381082708086,46.0156088954823],[14.2379933199542,46.0147825049987],[14.2380832051213,46.0137291197296],[14.2378888593686,46.0131832861319],[14.2378453677748,46.0126736390972],[14.238076823021,46.012341369553],[14.2384832274738,46.0121332633011],[14.240913052064,46.0114992578328],[14.2416023137468,46.0108890242423],[14.2419061727188,46.010803133183],[14.2426094545244,46.0110185211983],[14.2432428256874,46.0108119019175],[14.2443075016468,46.0104148622748],[14.2453666685443,46.0104217709933],[14.2471409171905,46.0097658468086],[14.2477989596782,46.0095944556203],[14.248407831855,46.0093349201646],[14.2495196018089,46.0091840475249],[14.2501035010766,46.0088891581921],[14.2503093435546,46.0085918764642],[14.2509432413367,46.0083324916259],[14.2521570062682,46.008094444641],[14.2535458420456,46.0079628909435],[14.2544271792732,46.0080739166279],[14.2562640882276,46.0083844277978],[14.2566225012522,46.0079826749379],[14.2567251870432,46.0076622164369],[14.2562512587292,46.0074533567226],[14.2549666878534,46.0073220816659],[14.2539377139525,46.0069465550082],[14.2531600696332,46.006625298061],[14.2527629829503,46.0061485257667],[14.2521378555479,46.0057404417596],[14.2515670088904,46.0050516228402],[14.2503660983512,46.0043236689648],[14.2499664427619,46.0040399597593],[14.2489054946633,46.0041736254144],[14.2487056061068,46.0040317680292],[14.2490107119161,46.0038405935265],[14.2492989403368,46.0029688139547],[14.2493604640521,46.002142962409],[14.2491424336043,46.0014910887729],[14.2478407092614,46.0007791811217],[14.2465078786791,46.0005065896175],[14.2457340850988,45.9999212254922],[14.2450909728871,45.9990028157767],[14.2437682567424,45.9979919099883],[14.242521953688,45.996928768816],[14.2426064727217,45.9962788870133],[14.243787622322,45.9947222826885],[14.2423471885815,45.994958648726],[14.2409597277071,45.9950020783234],[14.2393217413432,45.9949381910728],[14.2377735229524,45.9946924961502],[14.2366698543605,45.9942635884136],[14.2365601174565,45.9949306631393],[14.2359223229204,45.995488845566],[14.2351564615152,45.9961868010489],[14.2343698844183,45.9965507087825],[14.2325694048081,45.9973121625499],[14.2302864092506,45.9983165154172],[14.22901462306,45.999134108995],[14.2283768191389,45.9996747034317],[14.22766799868,45.9998809107663],[14.227468660285,46.0000291947248],[14.2269555016991,46.0003507205943],[14.2262478914769,46.0004691100219],[14.2245739098478,46.0011785674368],[14.2239850437477,46.0018248319417],[14.2235269643721,46.0021381685365],[14.2230221228341,46.0022499075317],[14.2225346343241,46.0027817734818],[14.2219155167684,46.0030779020958],[14.2208363472763,46.0034207387846],[14.2209087945934,46.0036496834459],[14.2207534200433,46.0039474366098],[14.2208994326715,46.0043349718207],[14.2196576050793,46.0047836705493],[14.2185968192008,46.004899600462],[14.2175129530518,46.0048572735358],[14.2169106807581,46.0046423329607],[14.2162802597349,46.0046381014416],[14.2157524077807,46.0045115722687],[14.2153865252271,46.0054405890959],[14.215029450067,46.0057369494455],[14.2148230603379,46.0060694349251],[14.2147641347648,46.006684110271],[14.2143481169376,46.0075951435371],[14.2148222798362,46.007949760856],[14.2146676065339,46.0081947840767],[14.2136598395795,46.0081176727393],[14.2126773803741,46.0080408168415],[14.2112908180915,46.0079963452127],[14.2101223701829,46.0086036253517],[14.2093048970765,46.0093537757644],[14.208440798558,46.00982242052],[14.2065967106786,46.0100383534779],[14.2048353149036,46.0097452947121],[14.2028168553825,46.0098018644531],[14.2016458376594,46.008774705185],[14.2007916780902,46.0085404644351],[14.1998779267931,46.0089559710043],[14.1994360877723,46.0098843143934],[14.1986757850944,46.0101427072587],[14.1983059723951,46.0095427591092],[14.1972262272107,46.0092014564767],[14.1961668402041,46.0092117353975],[14.1954881783098,46.0090489609955],[14.1945863638593,46.0086209786604],[14.1938886605768,46.0080187047492],[14.1931925054509,46.0073109848335],[14.1922989183666,46.0063031429493],[14.1917294529074,46.0055612183129],[14.191237579357,46.0046791163619],[14.190068473055,46.0053212780948],[14.1899063889369,46.0060758431887],[14.1890927903009,46.0065358821974],[14.1893032086922,46.0076971738329],[14.1894953869896,46.0083662534144],[14.1901299973315,46.0098468184764],[14.1907967394991,46.0108530707139],[14.1910305942077,46.0121375221713],[14.192152018349,46.013094257432],[14.1917899065985,46.0137244121502],[14.1909728946573,46.0142170113456],[14.1901852435332,46.0148204838284],[14.1899531064077,46.0151879223176],[14.1902958884629,46.0159107932779],[14.1900525890968,46.0170513207378],[14.1900928196245,46.0177721374335],[14.1896431735951,46.0192275583368],[14.1901571238853,46.0203382714842],[14.1903448657975,46.0213236737871],[14.1900753313793,46.0225343759166],[14.1896043110392,46.0237261032192],[14.1890380992761,46.0246247297508],[14.1885454493424,46.0255352126941],[14.1886361600475,46.0262390218312],[14.1894282141406,46.027281979279],[14.1901200665734,46.0282714049201],[14.1904094715165,46.0291875245847],[14.191109186406,46.0296496486292],[14.1918078888083,46.0301820326562],[14.191746624046,46.0309199446437],[14.1913278568473,46.0319541385666],[14.1918991107974,46.0325735267223],[14.1927767362352,46.0329489913151],[14.1935804695514,46.0332008403001],[14.1941821882351,46.0334688947693],[14.1941763129436,46.0338731164844],[14.1934040197106,46.0349223696337],[14.1925875469513,46.0354637496144],[14.1919375422747,46.0362473470263],[14.1919180620096,46.0364138451708]]]},"properties":{"fill-opacity":0,"stroke-opacity":1,"stroke":"#ff0000","lov":"0235","lov_naziv":"ŠENTJOŠT","luo":"02","luo_naziv":"Gorenjsko","povrsina":2554.08},"id":"pregledovalniklovisca.1"}]}