<?xml version="1.0" encoding="utf-8" ?>
<kml xmlns="http://www.opengis.net/kml/2.2">
<Document id="root_doc">
<Schema name="pregledovalniklovisca" id="pregledovalniklovisca">
	<SimpleField name="lov" type="string"></SimpleField>
	<SimpleField name="lov_naziv" type="string"></SimpleField>
	<SimpleField name="luo" type="string"></SimpleField>
	<SimpleField name="luo_naziv" type="string"></SimpleField>
	<SimpleField name="povrsina" type="float"></SimpleField>
</Schema>
<Folder><name>pregledovalniklovisca</name>
  <Placemark id="pregledovalniklovisca.1">
	<Style><LineStyle><color>ff0000ff</color></LineStyle><PolyStyle><fill>0</fill></PolyStyle></Style>
	<ExtendedData><SchemaData schemaUrl="#pregledovalniklovisca">
		<SimpleData name="lov">0230</SimpleData>
		<SimpleData name="lov_naziv">TOŠKO ČELO</SimpleData>
		<SimpleData name="luo">02</SimpleData>
		<SimpleData name="luo_naziv">Gorenjsko</SimpleData>
		<SimpleData name="povrsina">6661.01</SimpleData>
	</SchemaData></ExtendedData>
      <MultiGeometry><Polygon><outerBoundaryIs><LinearRing><coordinates>14.5196317272754,46.0999090294378 14.5211097093981,46.0977404456431 14.5213583757593,46.0952641147068 14.5213341294011,46.0922069300771 14.5217757625165,46.0907854624174 14.5225425074071,46.089734339266 14.5234073389382,46.0890173376439 14.5249028043905,46.088390678168 14.5265470574941,46.0880983333444 14.5312989921865,46.087642309111 14.5350178627662,46.0869009869238 14.5391430645197,46.0858624650806 14.5410694255032,46.0850263385094 14.5436540609479,46.083964272378 14.5457142028538,46.0830227004811 14.5463437550334,46.0828818703501 14.5459828147706,46.0823065751493 14.5450584822649,46.0811084783609 14.5442812479273,46.0804379456112 14.5429500749216,46.0795721968191 14.5424737725384,46.0791487570063 14.5421999869407,46.0786734009607 14.5421046664433,46.0780054023648 14.5412290165038,46.0770358260653 14.5404288799689,46.0760840917233 14.540581124964,46.0759967978538 14.5358053820348,46.0704621908401 14.5341565586846,46.0684003534028 14.5318117664507,46.0680227730232 14.5295448233747,46.0674169272382 14.5264712906546,46.0666498805817 14.5252332986225,46.0638514549344 14.524162317955,46.0621782246596 14.522087059248,46.059886255673 14.5206482113491,46.0598807701496 14.5206597210039,46.0585805807884 14.5237890195831,46.0586627630103 14.5254582002029,46.058299995551 14.5268265061466,46.0577077802937 14.528222827181,46.0567817646105 14.5291386236954,46.0559593845692 14.5304951825831,46.0537681188823 14.5306559952771,46.052679263533 14.5305109255333,46.0519407768411 14.5300875665248,46.0512715070773 14.5291347331008,46.0505475997353 14.5277539684273,46.0496990101264 14.5267029760509,46.0486584118218 14.5283204148855,46.048400929336 14.5284742468806,46.0481203897494 14.5252269705717,46.0471417765184 14.5176542076287,46.0444598307418 14.5163968067067,46.0439630691982 14.5156442505639,46.0434506191033 14.514943917517,46.0427451174648 14.5137431094135,46.0415632203557 14.511094600403,46.0386010713686 14.5107968657838,46.0380376276448 14.5103629785539,46.0377069075499 14.509555681214,46.0376880603001 14.508629995359,46.0374996335981 14.5076675168097,46.0371924525813 14.5066873482564,46.0367402357913 14.505763439135,46.0363408898021 14.50491560966,46.0359155929053 14.5037462324723,46.0354624410429 14.502746320169,46.0351155564469 14.5022763168293,46.0347576555227 14.5003618481354,46.0329702963448 14.4977393925914,46.0320758669958 14.4971525645311,46.0320997396047 14.496603824742,46.0320973240063 14.4960562732434,46.031949959588 14.4950940809588,46.031629537094 14.4941130327405,46.03129570656 14.4932445843145,46.0310810453306 14.4925258364918,46.0310383567305 14.4914682804282,46.030809705656 14.4905421668285,46.0306869927572 14.4892749435583,46.0306155645284 14.4884606860939,46.030691011994 14.4877588659943,46.0308724096079 14.4870759074779,46.0310671140403 14.4865513370164,46.031190005332 14.4859199303493,46.031257438338 14.4852893373307,46.0312370548734 14.4847105577794,46.0310763589169 14.4840812749531,46.0309154320599 14.4834752207334,46.0309654206671 14.4828935000003,46.0311209681201 14.4818034103257,46.0316960166159 14.4814728061482,46.0319756923846 14.4809130975858,46.0324827760813 14.4802061011997,46.0325498341741 14.4795256474016,46.0324589208404 14.4785683860247,46.0322964696093 14.4779864725663,46.0324695365094 14.4774797192746,46.0327133053597 14.4755259807267,46.0338993283778 14.4747924748102,46.0340893185333 14.4739839307279,46.0342086873656 14.4734775164175,46.0343996240376 14.4727673109398,46.0348006123228 14.4721351392602,46.0349558721894 14.471528695297,46.0350409762497 14.470696618353,46.034984399854 14.4681788243899,46.0344105416107 14.4670218496385,46.0340187050621 14.4661925397402,46.0336633883028 14.4651849580568,46.0334830446348 14.4643015532671,46.0335140880582 14.4635678043229,46.0337390957129 14.4619727560148,46.0343115837155 14.4608606575247,46.0345172469344 14.4604809596651,46.0346385423967 14.4600234649307,46.0349878282264 14.459789123428,46.0353982711593 14.4627920390954,46.0367931071014 14.478651344997,46.043613305811 14.4782424226491,46.044173789016 14.4777831389652,46.044716405342 14.4770963324709,46.04531079489 14.4770838245503,46.0466637944247 14.4765694322978,46.04771577656 14.4764608446156,46.0485411671887 14.4761771098697,46.0492076675428 14.4758668791728,46.0499969525354 14.4750327412948,46.0501337564336 14.474400066865,46.0503242066862 14.4737156955091,46.0506374122819 14.4731822612557,46.0510039454041 14.472976742979,46.0513896237881 14.4729733626228,46.0517585987914 14.4727935400649,46.0520916694896 14.472640213658,46.0523018652967 14.4716258668448,46.0528068031813 14.4713461144992,46.0530339579716 14.4708611543517,46.0536116074311 14.4698216973791,46.054116412948 14.4691864339703,46.0545704510673 14.468524444878,46.0551823586915 14.4681149962393,46.0557779826393 14.4680348407691,46.0562520514259 14.4665221919943,46.0587402963445 14.4661606879633,46.0595996753572 14.4663596426355,46.0599168687946 14.4670617243747,46.0604121313503 14.4675833925344,46.0609069091838 14.4685633749283,46.0618072671212 14.4690626074192,46.0624070252464 14.4695865102678,46.063077166544 14.4701890626989,46.0634313158443 14.472633122822,46.0639345153769 14.473438892212,46.0641665883563 14.4738402959272,46.0644319753214 14.4740631430887,46.0649074420667 14.4745020129256,46.0665787768185 14.4748768635255,46.0670022148999 14.4760565900953,46.0677456080491 14.4772789897307,46.0684085660398 14.4763614791401,46.0685432884257 14.4748452054346,46.0688139061423 14.474005067676,46.0691983771234 14.4736029913519,46.069584770263 14.472202944971,46.0701885274309 14.4667232257276,46.0724931864233 14.4639258870727,46.0733956906822 14.462009386462,46.073830714643 14.4597369542586,46.0739869902868 14.4579857667235,46.0738127846987 14.4559965253597,46.0735266597486 14.4544363773058,46.0741849516718 14.4521279352134,46.0739527501943 14.45105610186,46.0735598133995 14.4503390295675,46.0735565471816 14.4483004845869,46.0742402561475 14.4460245231167,46.0747565936522 14.4439540091088,46.0746361397677 14.4430363165978,46.0747705936539 14.4414372831745,46.0753175788881 14.4397567700376,46.0760305968385 14.4392006218743,46.0758616849147 14.4382830280258,46.0759960111255 14.437084756525,46.076295402458 14.4364486969822,46.0761537959809 14.4361737965753,46.0757644663298 14.4358603666328,46.0752362937233 14.4349050928995,46.0751486174626 14.4349573585231,46.0739290790849 14.4346857474654,46.0732070327862 14.4351262384417,46.072987331159 14.4343719081615,46.0727343686802 14.432385958258,46.0721428321691 14.4309137493292,46.0719695967739 14.4291339231814,46.0707136610986 14.427469158645,46.0699018530401 14.4256840136567,46.0691726431257 14.425089317268,46.0688925287842 14.4244976361391,46.0683353019106 14.4229120561854,46.0675792506989 14.4225575421391,46.0671894856676 14.4224564826615,46.0654147470657 14.4217065268911,46.0647458555893 14.4217974329015,46.0636650788466 14.4215671384677,46.0628322690844 14.4213356918496,46.062110392845 14.4218598122013,46.0615030104504 14.422655771586,46.0608792738639 14.4219851997476,46.0602382272092 14.4210604215331,46.061093084011 14.4202570674679,46.0617544717513 14.4196129241195,46.0624166623499 14.4188112791783,46.062911683564 14.4181299178601,46.0633241740763 14.4174497132461,46.0636257264814 14.416846783167,46.0641494589573 14.4156831673818,46.0649753404079 14.4142414685424,46.065716647663 14.4131834765061,46.0662413566752 14.4125613278058,46.0664012864532 14.4123941920894,46.0666328341844 14.4119967900178,46.067063752781 14.4112352809548,46.0675035020423 14.4103047576789,46.0676690286324 14.4093163460418,46.0681591501554 14.4077087626253,46.0695163894001 14.4072472280294,46.0698467262133 14.4066870664459,46.0700794656463 14.4055673232191,46.0704896043365 14.404266483759,46.07106515296 14.4032890387674,46.0711987963853 14.4029901206687,46.0712145107224 14.4022278645967,46.0717234769162 14.4015443237956,46.0723160774782 14.401003719982,46.072576693796 14.4003246605563,46.0727533538966 14.3991849090213,46.0731633249231 14.3987216371087,46.0736461263929 14.3982604886572,46.0739209138879 14.3967239412957,46.0741763522012 14.3960644544603,46.0743808026946 14.3952667101391,46.0744598119921 14.3942104627184,46.074509733478 14.3935517216333,46.0746448923275 14.392893759726,46.0746969142091 14.3919352190976,46.0749136981991 14.3896414102276,46.0751927225418 14.3892010060511,46.0753983031214 14.3887155772528,46.0760750224659 14.3883927764172,46.076447593357 14.3879528410857,46.0765977467408 14.3867408324884,46.0763141258871 14.3857839322297,46.0763783587114 14.3850240908389,46.0766376309679 14.3843471135057,46.0766063640415 14.3843244052919,46.0768695997637 14.3839168430014,46.0776992262955 14.3836701925724,46.078404833221 14.3834051945749,46.0789579222597 14.3830845291275,46.0791225564144 14.3828593162141,46.0796897150594 14.3824940052013,46.0802977749908 14.3822879437893,46.0809204606809 14.3823197553069,46.0818353219444 14.3820694460012,46.0826798270514 14.3819809543339,46.0834833680421 14.3820139146294,46.0841212912259 14.3820088070635,46.0845786980235 14.3816044054319,46.0851171723037 14.3810616969032,46.085557902895 14.3805984997412,46.0859989718143 14.3800759971845,46.0864120947789 14.3795141551929,46.08676948704 14.3792285405812,46.0873778784558 14.3796171560204,46.0882741623923 14.3798487577423,46.0889546422524 14.3799644825779,46.0893018546428 14.3801991987162,46.0897050469566 14.3827664561095,46.0920510064198 14.3836155725005,46.091633694981 14.384626522529,46.0922567318725 14.3856802760155,46.0929402731643 14.3864975616995,46.0934568014332 14.3870680352742,46.0938866141373 14.3874371384612,46.0947618915392 14.3876898518264,46.0953454746555 14.387985775969,46.0956242728879 14.3886015560428,46.0958076985607 14.3896565322968,46.0959103299716 14.3908710969731,46.096013802228 14.3915086597379,46.0960171081608 14.3920879750317,46.0958953952584 14.3927284263184,46.0956354425707 14.3938683860045,46.0952532507839 14.3943513431273,46.0948121435341 14.3947937034262,46.0944401900922 14.3953535563726,46.0942629328782 14.3959710101651,46.0942939098656 14.3970477001102,46.0942302238102 14.39754566487,46.0942604719305 14.3983005659515,46.0944723808929 14.3990355363995,46.0946980362399 14.4001511601343,46.0947176626646 14.400709627452,46.0946789336502 14.4014900314057,46.0943641508783 14.4020095829693,46.0942282185404 14.4025479784302,46.0942033216751 14.4034253794168,46.0941385336791 14.4045629777941,46.093978011547 14.4051806026706,46.0939812273317 14.4062966414181,46.0939730835956 14.4069930163687,46.0940736917965 14.4074696046916,46.0942285812758 14.4079273184464,46.0942863778092 14.4088582020744,46.0948317664884 14.4091506243303,46.0949274824137 14.409320874457,46.0951282870561 14.4097997255394,46.0951573932735 14.4100835113454,46.0955054423885 14.410964545762,46.0955499350323 14.4113832876075,46.095832004743 14.4118615909847,46.0959011384143 14.4123771600144,46.0960903984758 14.4127575038844,46.0963722657103 14.4129454846763,46.096719815381 14.413171736338,46.0970808775235 14.4133142446016,46.0974848773723 14.4138100440116,46.0977230658486 14.4144645931266,46.0980174901453 14.4147226111639,46.09811580473 14.4147608136391,46.0982823642267 14.4143982228843,46.0986548033746 14.4138981349614,46.0988325501822 14.4133388819354,46.0989544765375 14.4130972325285,46.0992027368077 14.4132732141953,46.0995242213648 14.4141024680092,46.1002752678282 14.4145154158923,46.1008040976006 14.4155876558682,46.1011837909673 14.4158433304505,46.1015178255076 14.4158756826911,46.1022388705682 14.4160716102619,46.1025725092152 14.4170897078682,46.1024113420124 14.4177686256381,46.1022900069777 14.4185061292306,46.1022798151649 14.4191636683417,46.1022970145482 14.4198002883975,46.1023972408586 14.4205537743587,46.1027752690624 14.42106913571,46.1030550934093 14.4217213065113,46.1035990543716 14.4224716370859,46.1042820690062 14.4228449861671,46.1048106681907 14.4230390990613,46.1053107392139 14.4231146967121,46.105726984961 14.4232657088907,46.1065525472204 14.4233208272648,46.1070102578191 14.4233577754328,46.1072877469149 14.4233568913247,46.1073105061079 14.4233574864754,46.1073154577306 14.4233307426216,46.1079945433909 14.4230428929557,46.1088526209873 14.4228179801839,46.1094060007159 14.4225950893617,46.1097653143607 14.4219706208507,46.1103998100574 14.4215662541284,46.1109662256498 14.4212412913082,46.1115468079874 14.4209353558938,46.1122245685907 14.4206502068714,46.1128192069394 14.4205034738874,46.1135253953175 14.4204364256821,46.114232077455 14.4206053812716,46.1152448805605 14.4210123721207,46.116383684217 14.421045379968,46.1170492148148 14.421206513342,46.1175628869671 14.4212752709074,46.1179653322706 14.4212514129574,46.1183533625256 14.4214651927514,46.1188811568508 14.4215598494458,46.1193807257256 14.4217919497278,46.1200749753019 14.4220281288213,46.1203673279294 14.4225237361291,46.1206470449131 14.4233000163264,46.120775669025 14.423854830653,46.1211111033266 14.4248062458964,46.1216565528104 14.4253415998591,46.1219364575046 14.4254758602015,46.1224638441774 14.4255100768795,46.1230185300488 14.4254052605762,46.1235170926574 14.4251035046893,46.1237790211817 14.4250197485978,46.1241806066472 14.4246947429223,46.1247611972682 14.4246911203857,46.1251216174311 14.4248284259476,46.1253440958837 14.4249255912712,46.1255940844088 14.4248981485817,46.1263286790946 14.425034592063,46.1266343794291 14.4249520000882,46.1269111757256 14.4246509455855,46.127103736018 14.4244492200905,46.1273384539318 14.4244054673894,46.1277125279435 14.4236224065015,46.1282492394406 14.4233583015212,46.1287192842532 14.4234160442644,46.12892750678 14.4235116183363,46.129329995221 14.424045579505,46.1297624054471 14.4246848336486,46.1296408299319 14.4254046474056,46.129450285434 14.4259664875114,46.1291065262639 14.4262863253165,46.1290249055214 14.42664413245,46.1291376394666 14.427421418113,46.1291691578344 14.4277779371955,46.1294065865229 14.4279334573654,46.1298093712963 14.4281308586143,46.1300044341705 14.430649536719,46.1293791775318 14.4331119228921,46.1290889214077 14.4376797644317,46.1282491673889 14.4382449110435,46.1275586920136 14.4380423904146,46.1258665339497 14.4386996137259,46.123942776495 14.4390818535695,46.1235980705072 14.4405455059817,46.1227734278314 14.4419304044955,46.1218374430669 14.4456511079564,46.1205661207435 14.4482981157644,46.1189984316669 14.4516486180628,46.1168102630267 14.4569691129208,46.1170432347499 14.4586429167369,46.1171204548073 14.460898149075,46.1168537213694 14.4632281974211,46.117114096897 14.4652626453525,46.1169987475267 14.4668224057821,46.1164929977096 14.4684007278001,46.11612596399 14.4718871188692,46.1163637327932 14.474001608682,46.1162208854352 14.475361775407,46.1157280464936 14.4791719082236,46.11544018642 14.4809664065653,46.1154066906038 14.4819214110633,46.1156050086385 14.4870832514485,46.1154667830136 14.4898696914588,46.1159497304597 14.4923801768552,46.1160988381441 14.4954137505346,46.1157233988907 14.4978146449529,46.1147630546055 14.4999412961408,46.1132471257482 14.5015035136209,46.1124218626195 14.5047403948406,46.1115757741459 14.5078966227614,46.1108123834401 14.5107406344119,46.1092713566946 14.5151636005859,46.1049367688721 14.5190690273645,46.1005422464691 14.5196317272754,46.0999090294378</coordinates></LinearRing></outerBoundaryIs></Polygon></MultiGeometry>
  </Placemark>
</Folder>
</Document></kml>
