<?xml version="1.0" encoding="utf-8" ?>
<kml xmlns="http://www.opengis.net/kml/2.2">
<Document id="root_doc">
<Schema name="pregledovalniklovisca" id="pregledovalniklovisca">
	<SimpleField name="lov" type="string"></SimpleField>
	<SimpleField name="lov_naziv" type="string"></SimpleField>
	<SimpleField name="luo" type="string"></SimpleField>
	<SimpleField name="luo_naziv" type="string"></SimpleField>
	<SimpleField name="povrsina" type="float"></SimpleField>
</Schema>
<Folder><name>pregledovalniklovisca</name>
  <Placemark id="pregledovalniklovisca.1">
	<Style><LineStyle><color>ff0000ff</color></LineStyle><PolyStyle><fill>0</fill></PolyStyle></Style>
	<ExtendedData><SchemaData schemaUrl="#pregledovalniklovisca">
		<SimpleData name="lov">0213</SimpleData>
		<SimpleData name="lov_naziv">ŽELEZNIKI</SimpleData>
		<SimpleData name="luo">02</SimpleData>
		<SimpleData name="luo_naziv">Gorenjsko</SimpleData>
		<SimpleData name="povrsina">9157.84</SimpleData>
	</SchemaData></ExtendedData>
      <MultiGeometry><Polygon><outerBoundaryIs><LinearRing><coordinates>14.1615869920975,46.182344030037 14.1614603192991,46.1822240653663 14.1614206153792,46.1820154844268 14.1613114928226,46.1818658669523 14.1611426753684,46.1816979964811 14.1610250964047,46.181542378387 14.1609852139394,46.1813456725225 14.1609038589406,46.1810653463304 14.160813285207,46.1808205820804 14.1607043473291,46.1806590887852 14.160552087673,46.1805270586394 14.1603573616742,46.1803768115498 14.1601460456783,46.1801847842864 14.1600288343984,46.1800054146945 14.1599559435378,46.1797310882373 14.1599188763841,46.1793498659768 14.1598190357412,46.1791527189751 14.1597096969703,46.179017944012 14.159566211854,46.1788800387285 14.1594223264904,46.1787599451697 14.1592790251291,46.1786100743279 14.1591783721273,46.178466455297 14.1591121286885,46.1783172409902 14.1591314017023,46.1781745040408 14.1591763562681,46.1780378942751 14.1592383137987,46.1779074378064 14.1592492198163,46.1777527627174 14.1592348981786,46.1775621823899 14.1591865678406,46.1773594753375 14.1590945037344,46.1772218576614 14.1589681195859,46.1770840773797 14.1588156927787,46.1769639201735 14.1586548098283,46.176837762237 14.1584256924658,46.1766931969056 14.1582388068075,46.1765906000821 14.1580518298484,46.1764940305388 14.1578820401543,46.1763915590458 14.1576694744837,46.1762829237866 14.157448727894,46.1761502947359 14.1572622087326,46.176023945858 14.1570589215106,46.1758676916147 14.1567608501709,46.17575239583 14.1564960968556,46.1757028462334 14.1560941098496,46.1756582212536 14.1557352614795,46.1755960986152 14.155599576597,46.1754998138829 14.1553793835989,46.1753315551765 14.155217457998,46.1752827623439 14.1550200834504,46.1752991183881 14.154668418249,46.1753262997564 14.1544212195873,46.1752470937511 14.1542953081401,46.1750795303294 14.1542810952149,46.1748830117997 14.154348592576,46.1747127403813 14.154483029665,46.1745690565501 14.1545880945161,46.1744150782352 14.1545901018194,46.1742840908329 14.1545461840976,46.1741243319613 14.1544823806547,46.1740452227021 14.1544066057217,46.1739613461972 14.1543221020847,46.1738892816435 14.1541776024856,46.1738108348205 14.1539730006309,46.1737498478448 14.1537597242473,46.1736887063105 14.1535205330787,46.1736452773206 14.1533329351562,46.1735903534012 14.1531453917805,46.1735234630239 14.1528975638254,46.1734859070329 14.152700323199,46.1735023500394 14.1524852207861,46.173560228304 14.152201245858,46.1736415284864 14.1519515884574,46.1737229925901 14.1516248789002,46.1738038843152 14.1513239004144,46.1738790278555 14.1510665706981,46.173895021905 14.1507846096913,46.1738452412847 14.1499721263216,46.1737558864088 14.1496901121303,46.1737180692442 14.1495356956544,46.1737288870453 14.1491490786373,46.1737974493898 14.148762315327,46.1738838242054 14.1484537081903,46.1739746488444 14.148330976921,46.1740051354529 14.148151212879,46.1740638086879 14.1475138597592,46.1742911904217 14.1470663587883,46.1744187645148 14.146929623785,46.1743999293059 14.1466906188028,46.1743446108377 14.1465792494114,46.1743437794252 14.1463389559552,46.1743717665985 14.1460732609014,46.1743757203818 14.1458517199192,46.1742966874869 14.1456305863307,46.1741997523638 14.1452565643922,46.174006571095 14.1449933066792,46.1738617234529 14.1448410114194,46.1737356102149 14.1447408665357,46.1735622006999 14.144710148079,46.1733298376985 14.1446093024876,46.1732100473754 14.1444823739283,46.1731019383343 14.1441935356753,46.1729451107635 14.1439382783357,46.1728360402765 14.1437516172279,46.1727215447736 14.1435908734332,46.1725894282656 14.143412021643,46.1725225870139 14.143155344521,46.1724968201561 14.1426755097527,46.1725051889479 14.1422544295271,46.1725912843781 14.142004762526,46.1726727267028 14.1417383337474,46.1727243511758 14.1414810454527,46.1727461722734 14.1412584058507,46.172738561637 14.1410532665193,46.1727132671953 14.1408741386776,46.1726643247458 14.1406783460115,46.1725794470421 14.1405165897581,46.1725128197459 14.1403631399763,46.1724700078529 14.1400972687673,46.1724858229986 14.1398221442884,46.1725551924668 14.1395986709481,46.1726011069195 14.1393502055934,46.1726052647303 14.1390758794605,46.1726150755503 14.1387324928375,46.1726600851176 14.1383891983971,46.1726991560567 14.1381145359587,46.1727387434655 14.1378649183814,46.1728083005388 14.1376323374677,46.1728898621772 14.137469132657,46.1729243505415 14.1371863494055,46.1729282446956 14.1368953008962,46.1729140809208 14.1366305430972,46.17285854694 14.1364511399973,46.1728274103529 14.1362456308268,46.1728258576532 14.1360142591112,46.1728300474013 14.1357489431439,46.1728102268807 14.135253038143,46.172752941856 14.1347388856187,46.1727609277374 14.1344386371321,46.1727884360552 14.1342836615452,46.1728348587675 14.1340591546459,46.1729462557164 14.1338614447253,46.1729923541173 14.1337750062192,46.1730453236985 14.1335922388603,46.1732284754597 14.1334192337546,46.1733342332262 14.1331960319707,46.1733623223444 14.133025269327,46.1733253076111 14.1329238517642,46.1732352840547 14.1327712474472,46.1731389337897 14.1326350475151,46.1730783375427 14.1324299111013,46.1730530276455 14.1320954383865,46.173074241787 14.1318897402592,46.1730846463778 14.1317619947165,46.1730300515863 14.1316355952691,46.1728981791127 14.1314839891508,46.1727303952554 14.131322468151,46.1726577284641 14.1311178618489,46.1725906722457 14.131008090585,46.1724886169192 14.130855116127,46.1724161044092 14.1306244022395,46.1723786302283 14.1302045822924,46.1723754365306 14.1297427222274,46.1723362015119 14.1293149197411,46.1722972240452 14.1288866834574,46.1722939613993 14.1285434785448,46.1723270651604 14.1282767935336,46.1724024094784 14.1279746627916,46.1725489222308 14.1277418794788,46.1726424287683 14.1274195218884,46.1727083488378 14.1272047724863,46.172742429072 14.1269557407769,46.1727822753407 14.1266808821439,46.1728337103628 14.1264449061404,46.1728587195587 14.1262265419257,46.1728511123123 14.1260001498702,46.1728106926885 14.1257999053945,46.1727466294444 14.125663242288,46.172715802773 14.1254451140721,46.1726933501077 14.125299798809,46.1726773025357 14.1251543527119,46.1726613437516 14.1250391731008,46.1726396781639 14.1248769178816,46.1726056855117 14.124701984223,46.1725626881086 14.1245313712605,46.1725167543824 14.1243948036864,46.1724799886314 14.1242500562332,46.1724282243438 14.1241098165844,46.1723617386559 14.1240342779353,46.1723068154435 14.1239841326004,46.1722349917016 14.1239002978674,46.172115313419 14.1239016207227,46.1720320075087 14.1239033207117,46.1719249513154 14.1239222446337,46.1718179371535 14.123889819101,46.1716986528487 14.1238220734431,46.1716505372781 14.1237190680383,46.1716616242827 14.1236325276973,46.1717205237224 14.1235794186335,46.1718271857681 14.1235432123408,46.1719459439496 14.1234566713636,46.1720048432487 14.1233874725962,46.1720400323309 14.1232671845833,46.172062862976 14.1230104589712,46.1720490170566 14.1227535446786,46.1720470456985 14.1225642458893,46.1720931891171 14.122358360974,46.1721154517066 14.1221354436751,46.1721256165621 14.1218267408049,46.1721470885322 14.1214321240226,46.1721797759612 14.1210211718625,46.1721647401002 14.1203529266814,46.172171476266 14.1199239931872,46.1722038944044 14.1196657491294,46.1722852219181 14.1193559057603,46.1723780279208 14.1190633427387,46.1724591796455 14.1188918326323,46.1724697343393 14.1186355474355,46.1724201622577 14.1182942381554,46.1723342140798 14.1180390356833,46.1722250861309 14.1178517650041,46.1721522016083 14.1176819677158,46.1720556984777 14.1175804827292,46.1719715990438 14.1173926421707,46.1719344291006 14.1173070475414,46.1719337681715 14.1172550675269,46.1719690865053 14.1171680246666,46.1720589282755 14.117115840091,46.1720989236207 14.117011627383,46.1721934012841 14.116925522721,46.1722164893026 14.1167711046834,46.1722272628289 14.116685319489,46.1722384765485 14.1165988328949,46.1722854045163 14.1165289968752,46.1723681808412 14.1165282347947,46.1724157712698 14.1164751099148,46.1725225198619 14.1164221764518,46.1726173033472 14.1162310920284,46.1727825482249 14.1160405801466,46.1729119875032 14.1158165138607,46.1729935706086 14.1154573492242,46.1729550721686 14.1148942648004,46.1728079245951 14.1143653102041,46.1726728252871 14.113922142993,46.1725266019364 14.1134796815381,46.1723446626019 14.1132924165896,46.1722717706512 14.1131726966949,46.1722589653206 14.1130182793271,46.172269643808 14.112708807095,46.1723386815038 14.1124517626727,46.1723366859791 14.1120755116954,46.1722980442356 14.1118199997838,46.1722008665499 14.1115651948472,46.1720678840751 14.1113806154663,46.1718284677085 14.1112630069835,46.1716846744241 14.1110594829632,46.1715521794735 14.1107352221148,46.1714782178666 14.1102914983468,46.1713676958082 14.1099683919302,46.1712223015236 14.1096798559274,46.1710534224067 14.109306175954,46.1708481593999 14.1090177734321,46.1706792796385 14.1086609991619,46.1704860228681 14.1084748997032,46.1703417825598 14.1083402095015,46.1701978529981 14.1082569252415,46.1700544142875 14.1081381740563,46.1699820483235 14.1078483031674,46.1698964702196 14.1075060648486,46.1698699554541 14.1072478765348,46.1699393787892 14.1070069094494,46.1700089360766 14.1067632444865,46.1702451039566 14.1066746334095,46.1704229202616 14.1065180361018,46.1705764519226 14.1062554087837,46.1709196297179 14.1060117365475,46.1711557959064 14.1058895147597,46.1712976289654 14.1058538496476,46.1713806660665 14.1057826485874,46.1715467412423 14.1057642055191,46.1716299130359 14.1057626613679,46.1717251835899 14.1057437037594,46.1718321045297 14.1056913300818,46.1718912576807 14.1056055432834,46.1719024630731 14.1055545199396,46.1718783106588 14.1055381985301,46.1718305866169 14.1055572210194,46.1717116996556 14.1055603085635,46.1715212485189 14.1055104436583,46.1714256656628 14.1054429085221,46.1713655742698 14.1053928514085,46.1712818664453 14.1052756449148,46.1711143169422 14.1050720743904,46.1709936875333 14.1047319546918,46.1708362686363 14.1043920297031,46.1706669736562 14.1041374413014,46.1705221896512 14.10374882103,46.1701857889399 14.1035290015801,46.1700055564192 14.1033091200632,46.1698371995753 14.1031729611146,46.1697765684822 14.1030367374453,46.1697279032857 14.1028485270256,46.1697145496729 14.1020777553227,46.1696966210579 14.101700948638,46.1696936605181 14.101513126903,46.169656464599 14.1013423976615,46.1696194027483 14.1012574526869,46.1695711385551 14.101189729553,46.1695230097157 14.1011903113437,46.1694872945343 14.1011739943949,46.169439569882 14.101208953968,46.1693922484195 14.1013131227633,46.1693097513304 14.1014867590021,46.1691682372906 14.101746306909,46.1690155215309 14.1021100837389,46.1687684312339 14.1024736004777,46.1685450909199 14.1026129166532,46.1684033956479 14.1026827683155,46.1683206278834 14.1026674189054,46.1682133481005 14.1025494530874,46.1680933861048 14.1023115866989,46.1679724824388 14.1021587281691,46.1678879657733 14.1019379551927,46.1677671955848 14.1016148906211,46.1676218678721 14.1013085325262,46.1675004237856 14.100933357182,46.1673903142245 14.1006606028139,46.1673048524635 14.1000818835027,46.16707419256 14.0996389306726,46.1669278253497 14.0993151647063,46.1668182053576 14.0991452226656,46.1667335500299 14.0989576927016,46.1666554139046 14.0985957026997,46.1672211970942 14.0983021098847,46.1675712206041 14.0980652814261,46.1678074239831 14.0977181552649,46.1680809053586 14.0973995945883,46.1682783130945 14.0971650952412,46.1683717438928 14.0969452567889,46.1684080664317 14.0967530498456,46.1684256223319 14.0964794013719,46.1683948478665 14.0962750027304,46.1683265611652 14.0960303633231,46.168200912216 14.095853911884,46.1680946966968 14.0956911848072,46.1679886794536 14.0955003828413,46.1679205888998 14.0953502906441,46.167881252073 14.0951585541909,46.1678701972117 14.0949380908342,46.167944660018 14.0947713044371,46.1680862183917 14.0945759743815,46.1682941313547 14.0943246475632,46.1685682712175 14.0941720511937,46.1686814193055 14.0940051054922,46.1688324225758 14.093811489662,46.1689356178134 14.0935774514979,46.1690004331021 14.0933441947767,46.1690176577517 14.0931522981051,46.1690161355245 14.0929618107987,46.1689288787338 14.0927034510466,46.168803113801 14.0925950035037,46.1687355820741 14.0924996830248,46.1686966762881 14.0924040474947,46.1686769324291 14.0922943744598,46.1686760615807 14.0921711056002,46.1686750826503 14.0920060345995,46.1687118306373 14.0918540609176,46.1687868315093 14.0917156826982,46.1688619402082 14.0915357879243,46.1689652406186 14.0913557354415,46.1690780767573 14.0910800478116,46.1691710776746 14.0908041744794,46.1692831509815 14.0905292678501,46.1693286503976 14.0902819704451,46.1693647416429 14.0900353003073,46.169362778256 14.0896521327776,46.1693216682626 14.0895135344337,46.1692921325311 14.0893622077579,46.1692570068044 14.0891559138966,46.1692175740019 14.0888689062741,46.1691723689675 14.0887042239073,46.1691853620901 14.0884149619772,46.1692688010686 14.0881448720162,46.1694380477031 14.0878759612195,46.169535863583 14.0876484611145,46.1696197934323 14.0874426005479,46.1696324560648 14.087237106006,46.1696308153501 14.0869897263019,46.1696716674479 14.0867829199153,46.1697414549594 14.0866978592994,46.1699121762321 14.0867151389427,46.1701122369711 14.0867507484189,46.1704411072479 14.0867851774981,46.1708413175976 14.086821864276,46.1711129728353 14.0868383049547,46.1713559444967 14.0867932376503,46.1715984247759 14.0867478051591,46.1718551180294 14.0866620306875,46.1720687511923 14.0866158867338,46.1723683563663 14.0865903331725,46.1726680360668 14.0865033755377,46.1729530091352 14.0864194903165,46.1730523899981 14.0863128875875,46.173280072307 14.0861444072995,46.1735215657261 14.0860160292744,46.173820513125 14.0859290667718,46.1741054856641 14.0859269382063,46.1742339517143 14.0860471430786,46.1744206194918 14.0862691164016,46.1746795401319 14.0867168315262,46.1749544800522 14.0872094948025,46.1752528105113 14.087305921299,46.17533491707 14.0874103833832,46.1755419717743 14.0874889697122,46.1756925859949 14.0876496043309,46.1757689066142 14.0878642427025,46.1758455679713 14.0879967031631,46.1759966117129 14.0880736125669,46.1762409651579 14.0881796272134,46.176354368469 14.0883927194699,46.1765247695049 14.0884448636984,46.1766376529643 14.0884700700446,46.1767504115655 14.0883276924341,46.1771992365664 14.0881602343257,46.1775353936879 14.0880737151045,46.177872196281 14.0880419990219,46.1781532022237 14.0879803762787,46.1786213855261 14.087866476044,46.1789767740178 14.087754255677,46.179238332838 14.0875874082712,46.1795369747015 14.0872328439186,46.1797591691501 14.0871775980694,46.1798336763817 14.0868782767123,46.1799813624693 14.0865258804588,46.1800722998957 14.0858761519953,46.1801983780629 14.0853894242431,46.1802507184921 14.0846861780093,46.1803388424998 14.0841106542519,46.1804341938176 14.0823642071833,46.18043494308 14.079584545283,46.1815590444188 14.0793606292283,46.1816495545987 14.0772624003582,46.1812438586197 14.0741867058535,46.1806491838017 14.073195409875,46.1808964072055 14.0733401900207,46.1809601129321 14.0734995611347,46.1811113915102 14.0737135685552,46.1812256834077 14.0739538872367,46.1813776172585 14.0741400154588,46.1815478262924 14.0742450690249,46.181717378451 14.0743220529512,46.1819618315204 14.0744264782761,46.1821688975817 14.074610408273,46.1824703601258 14.074849477743,46.1826972303018 14.0750082287833,46.182886020872 14.0752209896097,46.1830752481719 14.0754614499916,46.1832271799435 14.0757551624978,46.1834170609435 14.0758872938923,46.1835868304654 14.0759923551352,46.1837564709891 14.0761533118808,46.183814005694 14.0761511131057,46.1839452599892 14.0763100031832,46.1841339598556 14.0763884414413,46.1842845803019 14.0763569750799,46.1845468701602 14.0764330320066,46.1848474579575 14.0765099017939,46.1850918185174 14.0764540078245,46.1852038344229 14.0762070709446,46.1854455785892 14.0760398269382,46.1857630046825 14.0758296405806,46.1864242337563 14.0755515548005,46.1870707873688 14.0753473338116,46.1871670272787 14.074077561135,46.1876363102552 14.0732979688835,46.1881674072153 14.073712940062,46.1888286599573 14.0736942849825,46.1888749353353 14.0737347841713,46.1890938101688 14.0737410288792,46.189092241239 14.073985867349,46.1892084917742 14.0741484540858,46.1893240756218 14.0743385023298,46.1894398816148 14.0745282312553,46.1895747591735 14.074772753503,46.1897100799201 14.0749904558434,46.1898070341779 14.0752095650127,46.1898278814737 14.0753466110798,46.1898289901091 14.0755111181842,46.1898303206737 14.0756749873594,46.1898697048065 14.0758117138708,46.1898898847686 14.075810756344,46.1899470104582 14.0759175989155,46.1901192745035 14.076024442148,46.1902915384488 14.0761592554768,46.1904259693815 14.0763215308597,46.1905606220585 14.0765387299698,46.1906957182144 14.0768100865056,46.190869310303 14.0769733211392,46.1909468363697 14.0770258829199,46.1910806020797 14.0771613390598,46.191176888072 14.0773807736999,46.1911786593604 14.0774342925759,46.1912552991847 14.0776801041292,46.1913144161897 14.0778704856611,46.1914111444874 14.0780340423286,46.1914695971651 14.0782528404852,46.1915095105701 14.0784705561044,46.191606458268 14.0785231221326,46.191740223306 14.0785205765488,46.1918925285563 14.0785726350058,46.1920644383946 14.0786520279961,46.1922364785486 14.0788136789517,46.1924091815508 14.0788937089568,46.1925431677152 14.0789198983369,46.1926195866039 14.0791369838868,46.1927545868766 14.079353561567,46.1929278215323 14.0797089741257,46.1929878168041 14.0799274627651,46.1930467089799 14.0802552269075,46.1931254644945 14.0802258565779,46.1932395849457 14.0801694725543,46.1933343235902 14.0800840357806,46.1935241107146 14.0798621776435,46.193674740811 14.0793899126131,46.1940328132041 14.0789741582597,46.1942961466362 14.0785277546368,46.1947496161136 14.0781046655997,46.1954509697751 14.0776583734203,46.1959045266502 14.0772443795886,46.1960536011856 14.0766947288847,46.1961252808035 14.0762533961371,46.1962741309258 14.0755652708453,46.1964209838184 14.0749055665224,46.1965108392314 14.0744375300202,46.1966214073094 14.0737270728399,46.1968398674083 14.073312664274,46.1974133307316 14.0731684804944,46.1977123143695 14.0730308880274,46.1979582667273 14.0728268175336,46.1983587045611 14.0726664754149,46.1989400741107 14.0723281783137,46.1991008116027 14.0714036250447,46.1995577495113 14.0709710556788,46.1994071277032 14.0708308220255,46.199570639918 14.0705474297431,46.1998711877516 14.0702401297916,46.2002061803152 14.0697228727598,46.2007431641685 14.069652899731,46.2008277098721 14.068742483436,46.2015569117606 14.0684262344755,46.2017915057495 14.0681206218108,46.2020176380587 14.0678986983122,46.2021681542491 14.0675663890682,46.2023559185208 14.0670708212323,46.2024662317906 14.0665768665149,46.2024811839369 14.0663299202931,46.2024791672361 14.064613186085,46.2034365789104 14.0647142005288,46.2039516951372 14.0647106461935,46.204161124832 14.0647041817214,46.2045420205711 14.0646440735029,46.2048462696514 14.0645292850519,46.2051501612036 14.0643846349534,46.2055870592412 14.0642145847679,46.2059093926026 14.0642107028901,46.2061379839233 14.0641778649728,46.2064615303301 14.064037220779,46.206669837559 14.0639459321406,46.206696082182 14.0636185918777,46.2067110361438 14.0635002307112,46.2068738186111 14.0633748885428,46.206951698595 14.063023662671,46.2074033672117 14.0627086823169,46.2077961292515 14.0621871399587,46.2084316543651 14.06194135869,46.2087098156555 14.0619219671385,46.2091409001307 14.0619532234254,46.2092308603231 14.0617407163672,46.2094345261064 14.0616867809547,46.2097631169316 14.0619091749478,46.2099683725048 14.0619823501723,46.2101158099075 14.0620018765101,46.210377163516 14.0618048619255,46.2105764578221 14.0616735636174,46.2106153284449 14.0614687956061,46.2108588255335 14.0619332475691,46.2111577511666 14.0619732993718,46.2111574500093 14.0619654377678,46.2112309838993 14.0605128512674,46.2112776279724 14.0601193661925,46.2113773232606 14.0600957811772,46.2113847771009 14.0600259347113,46.2114070560897 14.0594089206737,46.2116033418144 14.0592116056442,46.2117207531803 14.059078052715,46.2119900246166 14.0590423567347,46.2121677885201 14.0590372567674,46.2125726276457 14.0589919483503,46.2129413262852 14.0588047165398,46.2133406171369 14.0585723425377,46.2135448331194 14.0582440667491,46.2135817175428 14.0578479863215,46.2134833517953 14.057531216443,46.2136052640422 14.0571999926144,46.2137613361294 14.0569878923396,46.2139391738848 14.0568045929719,46.2141531483252 14.0565541381149,46.2143605400211 14.0563318064268,46.2145301045103 14.0561654646675,46.2146240132322 14.0558605135001,46.2148119690197 14.0556371985714,46.2150386572256 14.0554144047057,46.2152272904863 14.0555480506533,46.2154379430891 14.0557103479129,46.2155726246197 14.0559562435021,46.2156317887399 14.0562563056364,46.2157294583239 14.0566106632899,46.2158657239804 14.0569388532509,46.2159255650869 14.0571283044195,46.2160794530096 14.0572909322871,46.2161951505911 14.0575078594682,46.2163492644552 14.0577261653407,46.2163925418933 14.0577366286769,46.2163946075567 14.0578085791804,46.2164088765711 14.0579705586894,46.2165626266309 14.05821320511,46.2168122330326 14.0583827998256,46.216922498055 14.0585937483477,46.2170248258221 14.0588446608381,46.2171929829375 14.0592442920087,46.217487336657 14.0594872738915,46.2177178686876 14.059457198492,46.217869946371 14.0594264715911,46.2180601674425 14.0592861033988,46.2182494863074 14.0591470357598,46.2183626081556 14.0591179332987,46.2184576505521 14.0591979520384,46.218591649824 14.059469063659,46.2187843545644 14.0596310562574,46.2189380123351 14.0598197445648,46.2191300381836 14.0597897973157,46.2192822069451 14.0597312709781,46.2194911838106 14.059563424321,46.2196802769536 14.0595000359995,46.2197791761436 14.0595328262814,46.2198704990553 14.0596117430975,46.2200616220852 14.0596924149708,46.2201575675719 14.0596353178243,46.2202903485965 14.0594962441406,46.2204035607568 14.0592740928745,46.2205540579165 14.0591350193175,46.2206671796606 14.0590226402383,46.2208186697105 14.0590759669154,46.2209143005558 14.0590736892513,46.2210476224561 14.0589318805191,46.2213131364433 14.0590112526863,46.2214851892202 14.0590629523533,46.2216760885368 14.0591696726891,46.2218483662909 14.0593568716605,46.2221356624066 14.0595146459205,46.2225368924002 14.0597288726475,46.2228433946153 14.0598341005265,46.2231109412811 14.0598563765152,46.2234158644222 14.0598488989135,46.2238538834336 14.0598110172352,46.2244630516751 14.0598064648858,46.2247296953625 14.059828286015,46.2250536890406 14.0598799916758,46.2252445879164 14.0599027901491,46.2255113665221 14.0599227912824,46.2259496113512 14.0598352820249,46.2262536314882 14.0597759007349,46.2265198241583 14.0599362902169,46.2267687498779 14.0600143724157,46.2270169986128 14.0600636750717,46.2273412180833 14.0600303445617,46.2276837424742 14.060111028127,46.2277796876289 14.0607516564038,46.2281247821937 14.0607669158639,46.2285222297983 14.0603958847697,46.2295552236069 14.0604631295941,46.229656366449 14.0610867227678,46.2307737397792 14.0611002164367,46.2308035417906 14.0611414799178,46.2309230952932 14.061229232279,46.2310534674509 14.0615470830102,46.231527717125 14.0616214882154,46.2316425939671 14.0618170561068,46.2318294540887 14.0620393495262,46.2323045375904 14.0621454743968,46.2324906632307 14.0623062023725,46.2327441767655 14.0628485425223,46.2332692992348 14.0631306035921,46.2337911166766 14.0632550603159,46.2341346646919 14.0632011567197,46.2347194089071 14.0637644566833,46.2356604648332 14.0642861930345,46.2356228989353 14.0643681905674,46.2356426443844 14.0646968309029,46.235683392295 14.0651319134732,46.2359154830496 14.0652962339272,46.2359359010125 14.0655949371449,46.2361287262003 14.0659777726176,46.2362080620191 14.0663313169025,46.2364014232977 14.0667406710919,46.2365381061172 14.0674257725378,46.236600829938 14.0678142722345,46.240005794106 14.0672502178728,46.2403880778349 14.0665549772998,46.2408592608116 14.0656231389239,46.2415175395214 14.0648508411645,46.2419430956637 14.0639770526394,46.2423805918156 14.0640043059807,46.24247843578 14.0640699083704,46.2427384553223 14.0640431479393,46.2430233610014 14.0641132832243,46.2436497880479 14.0641414573821,46.2443645849459 14.0640781904176,46.2451489921178 14.0640766013851,46.2454101709226 14.0640451038888,46.2456761433486 14.064021511142,46.2458814486588 14.0639706590611,46.2460958879665 14.0639281096875,46.2462262704239 14.0638851121222,46.2463753635871 14.0638278052156,46.2465803927618 14.0637160494177,46.2468224047677 14.0635079886331,46.2471756442242 14.063338109513,46.2475636557911 14.0633032998597,46.2477344093155 14.0632664862399,46.2479162130867 14.0630725897543,46.2482369075411 14.0628228462714,46.2484860651616 14.0627224624131,46.2486309984885 14.0624821551903,46.2489046154004 14.0623294170418,46.2491612253902 14.0622742813911,46.2491850658654 14.0623409231409,46.2492851226223 14.0623786358331,46.249385661862 14.0623311230698,46.2495025069972 14.0621741154102,46.2496366284816 14.0619384276696,46.2497301561582 14.0615911890253,46.2498397726364 14.0615888410873,46.2498405631204 14.0615864900806,46.2498415335252 14.0615843953528,46.2498426859796 14.0615822990906,46.2498439283943 14.0615804606417,46.2498452628983 14.0615787503322,46.2498466884271 14.061577297836,46.2498482060451 14.0615759734792,46.249849814688 14.0615755767859,46.2498502612967 14.061387179693,46.2501136851413 14.0613870469492,46.2501138639974 14.0613869142054,46.2501140428536 14.0613867814615,46.2501142217097 14.0612572882484,46.2503077700503 14.061078987144,46.2504885910925 14.0609721283921,46.2505032787447 14.0608857972872,46.2504550638597 14.0608836112339,46.2504539662262 14.0608812939699,46.2504529574877 14.0608789736349,46.25045212867 14.0608765220892,46.2504513887473 14.0608739377973,46.2504508276801 14.0608713504344,46.2504504465336 14.0608686318608,46.2504501542822 14.0608660398913,46.2504500430167 14.0608633151755,46.2504501106066 14.060861496651,46.2504502756137 14.0607055063461,46.250463659668 14.0607029066973,46.2504639982006 14.0607003055128,46.2504644266936 14.0606978309318,46.2504650361727 14.0606953532792,46.2504658255725 14.0606930037659,46.2504667059981 14.0606907823921,46.2504676774494 14.0606885579465,46.2504688288215 14.0606865913155,46.2504700722848 14.0606854088796,46.2504709622994 14.0605474142345,46.2505773461216 14.0605459662987,46.2505785938449 14.0605447777138,46.2505798436994 14.0605435891289,46.250581093554 14.0604096136613,46.2507406842718 14.0602690202778,46.2508548740451 14.0600822006033,46.2509798402461 14.0600803620799,46.2509811747251 14.0600787813726,46.2509826012968 14.0600771975915,46.2509842077892 14.0600758731633,46.2509858164138 14.0600748065511,46.2509875171311 14.0600745410507,46.2509878748402 14.0599892053093,46.2511394974606 14.0599883980451,46.2511412003095 14.0599877189206,46.2511429941851 14.0599872991499,46.2511447901931 14.0599481816892,46.2513543755053 14.0598818698819,46.2515387246828 14.0598093156141,46.2517164544512 14.0597460779639,46.2517891723643 14.0596232264394,46.2518136242458 14.0594396654199,46.251793219863 14.0594394060632,46.2517932177292 14.0594392779228,46.251793126702 14.059439018566,46.2517931245682 14.0592200678167,46.2517717088823 14.059217347649,46.2517715065515 14.0592147540829,46.2517714852085 14.059212027762,46.2517716427188 14.059209429581,46.2517718912566 14.0592077391481,46.2517721472645 14.0590444897652,46.2518002248818 14.0590418869664,46.2518007432966 14.0590394107687,46.2518014426994 14.0590370627107,46.2518022331298 14.0590347115754,46.2518032034808 14.0590324885798,46.2518042648594 14.0590305218637,46.2518055082932 14.0590303921853,46.2518055072259 14.0589159242284,46.2518781628908 14.0589140871856,46.2518794073901 14.0589125064221,46.251880833945 14.0589109256585,46.2518822604998 14.0588031842272,46.2519938397459 14.0586453619764,46.2521443247101 14.0586443045327,46.2521454856515 14.0586432455497,46.2521467365531 14.0586423177851,46.2521478985623 14.0585551935114,46.2522748527661 14.0585551919719,46.2522749427264 14.0585550592137,46.2522751215791 14.0585549264554,46.2522753004318 14.0584126474122,46.2524951022741 14.0582722153223,46.2525766307065 14.0580708752747,46.2526324647178 14.0580683974871,46.2526332540594 14.0580660478396,46.2526341344296 14.0580638247918,46.2526351957888 14.058062778108,46.2526357270026 14.057877127534,46.2527372162592 14.0578760793059,46.2527378374315 14.0578750310778,46.2527384586039 14.0578739813091,46.2527391697364 14.0577236481446,46.2528458982988 14.0577228608151,46.2528464316471 14.0577220719447,46.2528470549557 14.0577214127552,46.2528476793332 14.0575274509588,46.2530178388534 14.0575260013488,46.2530191764972 14.0575248111011,46.2530205162791 14.0575237505346,46.2530218571301 14.0573088226896,46.253325543235 14.0571677046929,46.253416601778 14.0569334768417,46.2534764812477 14.0566153146862,46.2535373771317 14.0566132305124,46.2535378997709 14.0566111463385,46.25353842241 14.0566090590793,46.2535391249695 14.0563813329576,46.2536206504668 14.0563789816981,46.2536216207619 14.0563767585781,46.2536226820875 14.0563746635975,46.2536238344438 14.0563726967563,46.2536250778306 14.056370986194,46.2536265032786 14.0563694037712,46.2536280197572 14.0563679510308,46.2536295373063 14.0563671544186,46.2536306104063 14.0562583347646,46.253781856395 14.0562578006004,46.2537827517148 14.05625713521,46.2537837359244 14.0562567291854,46.253784722275 14.0561628983422,46.2539770295909 14.0560007944076,46.2541344034284 14.0557880648243,46.2543168212583 14.0554345455941,46.2545178695773 14.0551466577482,46.254650719926 14.0549112491389,46.2547109453772 14.0545755243387,46.254751716397 14.0543221268588,46.2547642861612 14.0543195300624,46.2547644446263 14.0543169286265,46.2547648729718 14.0543143256441,46.2547653912774 14.0543125023192,46.2547658260594 14.0541082833172,46.2548224390194 14.0537868329173,46.2548778114683 14.053513984983,46.2548900385084 14.0530966626962,46.2549013382665 14.0530964033253,46.2549013361182 14.0530960142689,46.2549013328958 14.0530956236641,46.2549014196334 14.0528476719976,46.2549140312353 14.052846632965,46.2549141126 14.0528455939323,46.2549141939646 14.0528445548996,46.2549142753292 14.0526531052743,46.2549372516329 14.0526505038178,46.2549376799403 14.0526479008121,46.2549381982077 14.0526454243935,46.2549388974699 14.0526430761111,46.2549396877669 14.0526407247301,46.2549406579839 14.0526386311709,46.2549417203103 14.0526365345132,46.2549429625569 14.0526346956772,46.2549442969129 14.052633380231,46.2549453656873 14.052475391505,46.2550814450253 14.0524752587201,46.2550816238706 14.0524749962494,46.2550818016411 14.0524748634645,46.2550819804864 14.0523338617829,46.2552107326633 14.0521927875858,46.2552834309299 14.0519895710868,46.2553192646678 14.0517950890064,46.2553224203439 14.0517923624908,46.2553225776757 14.051789764111,46.2553228260431 14.0517871626299,46.2553232543307 14.0517845595981,46.2553237725782 14.0517820816007,46.2553245617815 14.0517797332896,46.2553253520604 14.0515374728289,46.2554215028996 14.051536296343,46.2554220329766 14.0515352510948,46.2554224741695 14.0515342042954,46.2554230053224 14.0513199602795,46.2555341436907 14.051317865121,46.2555352959525 14.0513160262333,46.2555366302868 14.0513141857941,46.2555380545811 14.0513126047286,46.2555394810276 14.051311150247,46.2555410884705 14.051310351957,46.255542251494 14.0511586706845,46.2557560279733 14.0510366577781,46.2558965426437 14.0510353329666,46.2558981511593 14.0510342659786,46.2558998517879 14.0510333271263,46.2559016434531 14.0510326476495,46.2559034372713 14.051032371203,46.2559044246787 14.0510096242834,46.2559974478017 14.0510093400763,46.2559988850092 14.0510091840051,46.2560004132532 14.0510091591739,46.2560018526138 14.0510140454688,46.2561246162314 14.0510141565336,46.2561256968283 14.0510142691504,46.2561266874652 14.0510145099035,46.2561277691386 14.0510847374948,46.2564102372048 14.0510851063875,46.2564114099145 14.0510854768321,46.2564124926643 14.0510859754138,46.2564136664505 14.0512185701985,46.2566824363497 14.0513489974987,46.2569641441939 14.0513433743232,46.2571322568828 14.0513433634629,46.257132886603 14.0513434838447,46.2571334274393 14.0513434745359,46.2571339671995 14.0513549873133,46.2572862069019 14.0513550952839,46.2572874674184 14.0513554626366,46.2572887300872 14.0513557002982,46.2572899916798 14.0514364158946,46.2575361074785 14.0514365424835,46.2575362884746 14.0514365393808,46.2575364683946 14.0514366659698,46.2575366493907 14.0514636697806,46.2576104712693 14.0514644169053,46.2576122769259 14.051465424965,46.2576139947747 14.0514665642678,46.2576156237395 14.0514679629542,46.2576172548563 14.0514694928839,46.2576187970892 14.0514712852997,46.2576201615541 14.0514730777157,46.257621526019 14.0514751326179,46.2576227127158 14.0514768046499,46.2576235363444 14.0515609467969,46.2576634626091 14.0515624922417,46.2576641052405 14.0515640376867,46.2576647478719 14.0515657143747,46.2576653016192 14.0517064467584,46.2577106457482 14.0517088984996,46.2577113858681 14.0517114830347,46.2577119471437 14.0517140706716,46.2577123284991 14.0517166598594,46.2577126198945 14.0517193818411,46.2577127324456 14.0517217162976,46.2577127518092 14.0519483291439,46.2577047342552 14.0519509260853,46.2577045758451 14.0519535261276,46.2577042375149 14.0519561277204,46.2577038092246 14.0519587324141,46.2577032010142 14.0519600370867,46.2577027619689 14.0521733959859,46.257635881761 14.0521736569198,46.2576357939514 14.0521739178536,46.2576357061419 14.0521741787875,46.2576356183323 14.0523690961508,46.2575700244292 14.0525793417665,46.2575482840479 14.0527474398878,46.2575637127599 14.0528279957435,46.2575859736901 14.0529344495358,46.2576710702384 14.0529361153959,46.2576722536861 14.052937910948,46.2576734382081 14.052939709598,46.25767444281 14.0531150887425,46.257764248902 14.0531172764753,46.2577652567237 14.0531195954489,46.2577661756594 14.0531220472121,46.2577669157492 14.0531246302161,46.257767566953 14.0531272163174,46.2577680382366 14.0531298039672,46.2577684195601 14.0531325244065,46.2577686220376 14.0531333025598,46.2577686284826 14.0533207957022,46.2577726104828 14.0533227410856,46.257772626592 14.0533246880173,46.2577725527411 14.0533266364972,46.25777238893 14.0535210275839,46.2577524049605 14.0537061534397,46.257765813883 14.0538953255885,46.2577928418973 14.0539550621291,46.2578114207931 14.0539727797409,46.2577918633461 14.0540269491294,46.2577570422146 14.0541076132812,46.2577051654796 14.0543231337441,46.2576557538853 14.0545817473178,46.2576574429679 14.0545829145458,46.2576574526205 14.0545840817739,46.2576574622731 14.0545852505481,46.2576573819656 14.0548327712279,46.2576403543577 14.0548343306231,46.2576401873042 14.0548358900184,46.2576400202507 14.0548374509594,46.257639763237 14.0553607082038,46.2575488067574 14.0553622691398,46.2575485497366 14.055363701929,46.257548201684 14.0553652659549,46.2575477647428 14.0557513727149,46.2574367788332 14.0557528070431,46.2574363408155 14.055754372607,46.2574358139089 14.0557558100237,46.2574351959709 14.055977142471,46.2573417425448 14.055978187721,46.2573413013115 14.0559792345149,46.257340770118 14.0559802813087,46.2573402389245 14.0562573211794,46.2571902021297 14.0562584992021,46.2571895820441 14.0562596803117,46.2571887820382 14.0562607301868,46.2571880709218 14.0564627394592,46.2570413730306 14.0566832129394,46.2568843902789 14.0567893789731,46.2568276835852 14.0567910819127,46.2568267079332 14.0567926567047,46.256825641251 14.0567942330392,46.2568244846087 14.0569049791074,46.2567351554318 14.0570586491729,46.2567295850708 14.0572478880571,46.2567828801793 14.0572504710654,46.25678353129 14.0572530571573,46.2567840024803 14.0572556463329,46.2567842937502 14.0572565526214,46.2567843911966 14.0574478843967,46.2567988349404 14.057450476657,46.2567989462855 14.0574532001488,46.2567989687396 14.057455928265,46.2567987213131 14.0574585282325,46.256798382857 14.0574611297414,46.2567979544407 14.0574636061846,46.2567972550746 14.0574655607845,46.2567967313519 14.0576693403042,46.2567281423922 14.0576694715352,46.256728053501 14.0576697324562,46.2567279656788 14.0576698621461,46.2567279667478 14.0578812586942,46.2566538618747 14.0578836100581,46.25665289155 14.0578858317322,46.2566519201565 14.0578879267979,46.2566507677738 14.0578892391028,46.2566498788592 14.0580547234935,46.2565376066859 14.0582083278745,46.2564524981939 14.05842872749,46.2564282214876 14.0586674203784,46.2564264082635 14.05891148982,46.2564363352772 14.0589120085771,46.2564363395475 14.0589125273343,46.2564363438179 14.0589130460914,46.2564363480882 14.05918344827,46.256438573669 14.0594719780836,46.2564957412423 14.059653182917,46.2566245435083 14.0599210633481,46.2569261763948 14.0599211899637,46.2569263573818 14.0599213165794,46.2569265383687 14.0599215728855,46.2569267204221 14.0601032558672,46.2571187768367 14.0602677774638,46.2573284165494 14.0603337378398,46.2575218605853 14.0603355387066,46.2577429387562 14.0602485379761,46.2579762430883 14.0600983103875,46.2582432172398 14.0599298878724,46.2585425217744 14.0599298863349,46.2585426117346 14.0599297551031,46.2585427006284 14.0599297535656,46.2585427905886 14.0597554867892,46.258865169821 14.0595873270451,46.2591564683983 14.059587325507,46.2591565583586 14.0595873239689,46.2591566483188 14.0594668039051,46.2593699722171 14.0594392465445,46.2594188706801 14.0594074111601,46.2594752016858 14.0593089569705,46.2596421010139 14.0590655080166,46.2600500138793 14.059065240926,46.2600504615453 14.0590649722964,46.2600509991714 14.0590647052058,46.2600514468374 14.0588489234863,46.2604948562782 14.0588487907087,46.2604950351309 14.0588486579311,46.2604952139834 14.0588485251535,46.2604953928361 14.0586787480913,46.2608806083261 14.0586786137725,46.2608808771387 14.0586784809934,46.2608810559911 14.0586783466746,46.2608813248036 14.0585665280438,46.2611693967885 14.0585663921838,46.261169755561 14.058566254784,46.2611702042937 14.0585661189241,46.2611705630663 14.0584891792946,46.2614215834555 14.0583001034712,46.2617289928467 14.0580536987254,46.2619146462201 14.0580529097271,46.2619152695291 14.0580519894858,46.2619159817295 14.0580511989467,46.2619166949986 14.0578557224919,46.2621052867802 14.0575492755532,46.2623880647345 14.0570916795215,46.2627930380188 14.0570915467326,46.2627932168692 14.057091282697,46.26279348461 14.0570911499081,46.2627936634604 14.0568050046324,46.2630646404482 14.0568042140605,46.2630653537083 14.0568034219458,46.2630661569284 14.0568027595359,46.2630669612186 14.0565425684122,46.263390155939 14.0562213410467,46.2636640809438 14.0552228497606,46.2645098554713 14.0549508279374,46.2646901619326 14.0549504341736,46.2646904285959 14.0549500404099,46.2646906952593 14.0549497763547,46.2646909629948 14.0547336625183,46.2648487880197 14.0545406520098,46.2649756731183 14.0545402582421,46.2649759397802 14.0545398644743,46.2649762064421 14.0545394707065,46.2649764731039 14.0543911494624,46.265084563317 14.05439035883,46.2650852765596 14.0543894384881,46.2650859887294 14.0543886478557,46.2650867019721 14.0542397891506,46.2652260080932 14.0542383344934,46.2652276155694 14.0542370095458,46.2652292241185 14.0542359424708,46.2652309247736 14.0542358096666,46.2652311036205 14.0541376626975,46.2654012399089 14.0539558547268,46.2656534587835 14.0537491217563,46.2658010126845 14.0534709213874,46.2659778454877 14.0534692150068,46.265979001006 14.0534676367891,46.265980247558 14.0534663179946,46.2659814962579 14.0532257539166,46.2662176621863 14.0532252257747,46.266218197649 14.053224696084,46.2662188230717 14.0532241679421,46.2662193585345 14.0529424198926,46.2665567620259 14.0529417558343,46.2665576562524 14.0529410933254,46.266558460519 14.05294055898,46.26655935582 14.0528023251893,46.2667893506133 14.0525929175388,46.2670164161469 14.052439988578,46.2671429100251 14.0524399870278,46.267142999985 14.0524398557633,46.2671430888698 14.052439726049,46.2671430877947 14.0522340841002,46.2673170999533 14.0522334262234,46.2673176343359 14.0522328965107,46.2673182597537 14.0522322386338,46.2673187941362 14.0521004277295,46.2674543699251 14.0520993698492,46.2674555307996 14.0520984416838,46.2674566927495 14.0520976432333,46.2674578557749 14.051976308256,46.267647951782 14.051895487795,46.2677681149457 14.0518944190462,46.2677699055372 14.05189361128,46.2677716083203 14.0518930598429,46.2677734931746 14.0518926396728,46.2677752891448 14.0518924851387,46.267776727427 14.0518768922558,46.2680264523911 14.0518768813975,46.2680270821101 14.0518768705393,46.2680277118292 14.051876859681,46.2680283415482 14.0518941399005,46.2683278241223 14.0518681717591,46.2685472321839 14.0518098745756,46.2687229152823 14.0517123132808,46.2688883756721 14.0517116460709,46.2688894498105 14.0517111085793,46.2688905250248 14.0517106992546,46.2688916912749 14.051645523304,46.2690825226113 14.051645115528,46.2690835989013 14.0516449671897,46.2690846773434 14.0516446891326,46.2690857547094 14.0516249970136,46.2692496116134 14.0516249644287,46.2692515007701 14.051625061563,46.2692533910028 14.0516252899682,46.2692551923517 14.0516259075312,46.2692569969289 14.0516266548135,46.2692588025821 14.051678296213,46.269363779246 14.0517096604626,46.2694032675075 14.051829855693,46.2695127715091 14.0520923939795,46.2697566152834 14.0521692488825,46.2699042678808 14.0522196356023,46.2701498612132 14.0522489863306,46.2703062071605 14.0522494742036,46.2703080106588 14.0522500917984,46.2703098152325 14.0522509703875,46.2703115319972 14.0522521084201,46.2703132509125 14.0522533777253,46.2703148809435 14.0522549080248,46.2703164231653 14.0522552909873,46.2703167862308 14.052404969781,46.2704546954724 14.0524066313611,46.2704561488075 14.0524084242139,46.2704575132581 14.0524104796119,46.2704586999393 14.0524126662825,46.2704597977358 14.0524140823727,46.2704604392819 14.0527091941703,46.2705837182535 14.0527290380618,46.2706669274687 14.0527295259536,46.270668730965 14.0527302732907,46.270670536611 14.052731281623,46.2706722544469 14.052732421228,46.2706738833977 14.0527326760234,46.2706741554269 14.0528647670865,46.2708390001073 14.0529956445041,46.2710140914628 14.0531333528224,46.2712822709884 14.0531421418384,46.2715026868672 14.0531421402891,46.271502776827 14.0531421371905,46.2715029567467 14.0531421356412,46.2715030467066 14.0531536966673,46.2716981132405 14.0531538155473,46.2716987440337 14.0531538047022,46.2716993737526 14.0531539235823,46.2717000045459 14.0532124961134,46.2720130546842 14.0532126180932,46.2720135055577 14.0532127385237,46.2720140463911 14.0532128605034,46.2720144972646 14.0532393983166,46.27210837858 14.0532400159633,46.2721101831482 14.053240763336,46.2721119887907 14.0532419014361,46.2721137076962 14.0532430410855,46.2721153366418 14.0532445714623,46.2721168788505 14.0532461018391,46.2721184210592 14.0532478947665,46.2721197854967 14.0532480244926,46.272119786571 14.0533314677445,46.2721790497528 14.0534315742487,46.2722501472848 14.0534334984603,46.2722514228337 14.0534355539471,46.2722526094968 14.0534378719846,46.2722536183883 14.053440191571,46.2722545373199 14.0534426439815,46.2722552774059 14.0534434192422,46.27225546377 14.0536451785071,46.2723078786296 14.0536476340199,46.2723084387915 14.0536499613547,46.2723089079197 14.0536524230617,46.2723091082421 14.0539403964618,46.2723352443968 14.0539431191723,46.2723353569001 14.0539458434308,46.2723353794435 14.0539484410588,46.2723352209937 14.0539511699615,46.2723349736574 14.0539528610513,46.2723347177332 14.054252594819,46.2722806048303 14.054711369975,46.2722656847539 14.0550008890987,46.2723151339367 14.0551609874521,46.2723834868013 14.055325442106,46.2725003706996 14.0553819890621,46.2726149232611 14.0554143783481,46.2727837996275 14.0554063860919,46.2731130334961 14.0553880697782,46.2735220777512 14.0553548914443,46.2738219523396 14.0553547431645,46.2738230307861 14.0553547246148,46.2738241103045 14.0553548342494,46.2738252808546 14.0553645116033,46.2739190223303 14.0553648698786,46.2739208247433 14.0553653563384,46.2739227181881 14.0553661053507,46.2739244338569 14.0553669825476,46.2739262405576 14.0553674906487,46.2739268745643 14.0554237862692,46.2740108343037 14.0554248009285,46.2740121922765 14.0554259468642,46.2740134613612 14.0554272225305,46.2740147315177 14.0557786833848,46.2743412663275 14.0560215088604,46.2745718020357 14.0560225312685,46.2745727102038 14.0560234254894,46.2745735273409 14.0560245807189,46.2745742566605 14.0565401530949,46.2749403823795 14.0565420774725,46.2749416578768 14.0565441331271,46.2749428444847 14.0565464513352,46.274943853314 14.0565485131656,46.2749446800823 14.0568746582793,46.2750610064635 14.0572544413532,46.2752349968083 14.0572562452809,46.2752357314645 14.0572580507514,46.2752363761608 14.0572599859556,46.2752370219269 14.0576699316087,46.2753546668292 14.0576708366616,46.2753548542343 14.0576717401723,46.2753551315992 14.0576726452251,46.2753553190043 14.057946184689,46.2754146159359 14.0579478650645,46.2754149896726 14.0579496782574,46.2754151845586 14.0579514899087,46.2754154694044 14.0581673061997,46.2754359618227 14.0584263413378,46.2755012562525 14.0585449881254,46.2755436207432 14.0587012166471,46.2756266022698 14.0588363959123,46.2757037420271 14.0588375542836,46.2757042913987 14.0588388408495,46.2757049317982 14.0588399992208,46.2757054811698 14.0591126937092,46.2758219009513 14.0593300608106,46.2759187007004 14.0593319929847,46.2759195263515 14.0593340564335,46.2759202631101 14.0593362511571,46.2759209109762 14.0595873699847,46.275986497523 14.0597126038781,46.2760459198011 14.0597697872888,46.2761088310777 14.0597700436828,46.2761090131315 14.0597701703411,46.2761091941184 14.0597702969994,46.2761093751052 14.0598272903074,46.276168236022 14.0598466279315,46.2762514397502 14.0598453124359,46.2763283555007 14.0598066353621,46.276419989428 14.0597232241045,46.2765173735717 14.0595060395521,46.276659993149 14.0595048596056,46.276660703223 14.059503807857,46.2766615043243 14.0595028843062,46.2766623964527 14.0593484956785,46.2767977046784 14.0593477033996,46.276798507913 14.0593467813834,46.2767993100802 14.0593461188418,46.2768001143822 14.0592425934759,46.2769202756836 14.0592413965847,46.2769219753139 14.0592403294311,46.2769236760118 14.059239392015,46.2769253777772 14.0592387125345,46.2769271716377 14.0592387094552,46.2769273515576 14.0592148622155,46.2770091203484 14.0592143109312,46.2770110052363 14.0592141504001,46.2770128033669 14.059214247805,46.2770146935928 14.0592144749477,46.2770165848861 14.0592145908286,46.277017395593 14.0592401826301,46.2771217944338 14.0592407989884,46.2771236889299 14.059241548164,46.2771254045736 14.0592425552764,46.2771272123125 14.0592436952061,46.277128841199 14.0592444582385,46.2771297472036 14.0593825486193,46.2772872557609 14.0595094404843,46.2774698643462 14.0595470315901,46.2776389621277 14.0595503247443,46.2777725984882 14.0595128064051,46.2780011800773 14.0595128017874,46.278001449957 14.0595127987089,46.2780016298768 14.0595126658903,46.2780018087293 14.0594865465923,46.2782163583793 14.0594863922231,46.2782177966705 14.0594864973352,46.2782192370962 14.0594866024474,46.2782206775219 14.05950697312,46.2783496858115 14.0595073346364,46.2783513082916 14.0595078243545,46.2783530217989 14.0595085766332,46.2783545575209 14.059557505622,46.2784525802454 14.0595585143076,46.2784542980214 14.0595596527345,46.2784560168646 14.0595610537223,46.2784575579225 14.0595627141927,46.2784591011148 14.0595643777415,46.2784604643873 14.0595659161666,46.2784615567128 14.0596382883966,46.2785090277138 14.059640344251,46.2785102142669 14.059642531386,46.2785113119271 14.0596447200601,46.2785123196274 14.0596471712951,46.2785131495421 14.0596476871826,46.2785133337304 14.059754060105,46.2785454290857 14.0597566441624,46.2785460801453 14.0597592312975,46.278546551285 14.0597618199716,46.2785469324648 14.0597644101845,46.2785472236845 14.0597671347555,46.2785472460916 14.0597689511361,46.2785472610295 14.0600190455319,46.2785369013251 14.0600207337093,46.2785368252325 14.0600224234251,46.2785366591799 14.0600241146793,46.2785364031674 14.0603818802411,46.2784822115061 14.0603831807301,46.2784820422493 14.0603846124984,46.2784817840988 14.0603859160631,46.2784814349221 14.060605372171,46.2784263756813 14.0611875417114,46.2783159928382 14.0611876714523,46.2783159939035 14.0611878011933,46.2783159949689 14.0611879309343,46.2783159960343 14.06150848066,46.2782525879549 14.0619165317174,46.2782017733577 14.0623028396949,46.278193246022 14.0623037478801,46.2781932534708 14.0623046575999,46.2781931709596 14.062305565785,46.2781931784084 14.0624804638002,46.2781789575339 14.0624830632174,46.2781787089322 14.0624856672378,46.2781781904505 14.062488271258,46.2781776719688 14.0624907501407,46.2781768825431 14.062491533188,46.2781766190466 14.062757868542,46.2780811825116 14.0627579982825,46.2780811835752 14.0629830894258,46.2779998040022 14.0632097457434,46.278001661433 14.0634644887369,46.2780229126517 14.0637312227224,46.2780715231884 14.0639400381985,46.2781152502509 14.0641259550354,46.2781930690331 14.0643125983534,46.2782816001918 14.0644704216637,46.2783938279168 14.0646530856083,46.2786018994779 14.0647659756732,46.2788383711495 14.0648795499116,46.2790880742599 14.064937576589,46.2792697535678 14.0649675577312,46.2794829637791 14.0649865570681,46.2796857373202 14.0649867844193,46.2796876286029 14.0649872727895,46.2796894320477 14.0649880206485,46.2796912376147 14.0649886510061,46.2796923224404 14.0650923729834,46.2798805834578 14.0650926278825,46.2798808554598 14.0650927530367,46.2798811264008 14.0650928781909,46.2798813973419 14.0652408893269,46.2801207648877 14.065242029496,46.2801223937154 14.065243429156,46.2801240246647 14.0652449600915,46.2801255667148 14.0652464956169,46.2801268388848 14.0654286011987,46.2802690446843 14.0654298833595,46.2802699548906 14.0654312952661,46.2802708661575 14.0654327087024,46.2802716874643 14.0656778675025,46.2804070305235 14.0656792824753,46.2804077618673 14.0656808271942,46.2804084942714 14.0656823734424,46.2804091367154 14.0660369097053,46.2805453728097 14.0660376835978,46.2805456490494 14.066038585708,46.2805460163089 14.0660394893469,46.2805462936085 14.0664218576547,46.2806636816907 14.0664225033321,46.2806638669082 14.0664232787563,46.2806640531852 14.0664240541805,46.2806642394622 14.0667856084617,46.2807541946867 14.0671814979497,46.2808778986926 14.0675223091035,46.280997463236 14.0678954367234,46.2811321357015 14.0678955664713,46.2811321367593 14.0682213818469,46.2812485178858 14.0685954539759,46.2814195446485 14.0686523189226,46.2814868574714 14.0686816920029,46.2815990225436 14.0686192553736,46.2817456189579 14.0686189791051,46.2817466064048 14.0686187043611,46.2817475038916 14.0686184296172,46.2817484013784 14.0685880908113,46.2818769948373 14.0685877992957,46.2818788818848 14.0685876390544,46.2818806800294 14.0685877367878,46.281882570248 14.0685877337386,46.2818827501682 14.0686129090959,46.2820664991595 14.0686129045222,46.2820667690397 14.068612898424,46.28206712888 14.0686130236005,46.2820673998172 14.0686490004272,46.282249347367 14.0686398141377,46.2824621474474 14.0686398110886,46.2824623273676 14.0686398095641,46.2824624173276 14.068639806515,46.2824625972478 14.0686369068468,46.2826337012992 14.0685966324005,46.283019265186 14.0685966293512,46.2830194451062 14.068596495025,46.2830197139293 14.0685964919757,46.2830198938494 14.0685810977719,46.2832697119837 14.0685810672785,46.2832715111848 14.0685812962911,46.2832733125001 14.0685816550566,46.2832751148725 14.0686508002232,46.2835138353104 14.0686511742381,46.283514738082 14.0686515467284,46.2835157308136 14.0686519207434,46.2835166335851 14.0687541393626,46.2837258424822 14.0687823344625,46.283930579559 14.0685445094857,46.2840732279571 14.0685435905283,46.2840738502774 14.0685425402914,46.2840745615006 14.0685416198093,46.284075273781 14.06843417817,46.284158882526 14.0682665625581,46.2841864877809 14.0681402467802,46.2841892371306 14.0681375188722,46.2841893948411 14.0681349191938,46.2841896435692 14.0681323164644,46.2841900722173 14.0681317943931,46.2841902479069 14.0679904806965,46.2842203164468 14.0679878749132,46.2842209250116 14.0679853958337,46.2842217145542 14.0679830449836,46.2842225951145 14.0679808223629,46.2842235666926 14.0679791187629,46.2842245425018 14.0678597200684,46.2842938375804 14.0678577523757,46.284295081152 14.0678559113863,46.2842965057014 14.0678542001522,46.2842979313088 14.0678527469028,46.284299448992 14.0678514203569,46.2843011476531 14.0678512860238,46.2843014164753 14.0677762498626,46.2844101212039 14.0677758529655,46.2844105678299 14.067775584298,46.284411105474 14.0677753171565,46.2844115531581 14.0677005509796,46.2845425732064 14.0676101739743,46.2846605098588 14.0674755526732,46.2847932009392 14.0673239189254,46.2848959721927 14.0673220794288,46.2848973067732 14.067320368162,46.2848987323721 14.067318913355,46.2849003400082 14.0673177211151,46.2849017698413 14.0672600828459,46.2849793057366 14.0672588860219,46.284981005449 14.0672579471849,46.2849827972386 14.0672572678616,46.2849845911455 14.0672567182953,46.2849863861109 14.0672564282428,46.2849881831936 14.0672564206082,46.2849886329936 14.0672488529804,46.2851057153854 14.0672488422917,46.2851063451053 14.0672488316031,46.2851069748253 14.0672488209145,46.2851076045452 14.0672528781807,46.2851820448626 14.0672169090008,46.2852674051752 14.0670507744187,46.2853374877234 14.0668530262805,46.2853662845699 14.0668525057215,46.2853663702935 14.0668519851626,46.2853664560172 14.0668514646036,46.2853665417409 14.0660209554722,46.2855159523007 14.0660205646687,46.2855160390806 14.0660201738653,46.2855161258605 14.06601991282,46.2855162137004 14.0656942007887,46.2855833710334 14.065422484233,46.2856118308217 14.0652087722226,46.2856100836399 14.0649929885532,46.2855775485396 14.0648077698991,46.2855486820059 14.06480504957,46.2855483898366 14.0648024574682,46.2855481886886 14.0647997325463,46.285548166399 14.0647970045623,46.2855483240292 14.0645901278662,46.2855643561749 14.0645256651853,46.2855698568931 14.0643761828428,46.2855839289997 14.0641532571026,46.2855745467568 14.0640117510479,46.2855393787761 14.0640108473377,46.2855391014603 14.0640099420953,46.2855389141043 14.0640090368529,46.2855387267483 14.063650279842,46.2854734381943 14.0632693408921,46.2853924015377 14.0632686936367,46.285392306262 14.0632681761392,46.2853922120496 14.0632675288838,46.285392116774 14.063099050545,46.2853633846271 14.0630964615263,46.2853630035208 14.0630937396824,46.2853628012709 14.063091014771,46.2853627789406 14.0630884180835,46.2853628476335 14.0630856885708,46.2853630951828 14.063083476555,46.2853634369453 14.0629535795485,46.2853857652115 14.0629509751898,46.2853862837006 14.0629484975208,46.285386983173 14.0629460183177,46.2853877726052 14.062943795562,46.2853887440841 14.0629426185383,46.2853892742718 14.062755206697,46.2854814893532 14.0627540296695,46.2854820195389 14.0627529823999,46.2854825507883 14.0627520633539,46.2854831730612 14.0623942932533,46.285710029196 14.0622402649637,46.2857927102052 14.062096761187,46.2858366092486 14.061928255186,46.2858778737144 14.0619270812134,46.2858782239717 14.0619260385355,46.2858784853338 14.0619248645629,46.2858788355911 14.061777628763,46.2859284618485 14.061775277742,46.2859293422796 14.0617729251849,46.2859303126705 14.0617708290738,46.2859314651107 14.0617688611857,46.2859327085757 14.0617670215204,46.2859340430652 14.0617654383012,46.2859355596042 14.0617646474595,46.2859362728937 14.0616727982722,46.2860331392009 14.0616716058612,46.2860345689736 14.0616705416733,46.286036089771 14.0616696072445,46.2860376116334 14.0615938921156,46.2861776171183 14.0615936218427,46.286178244707 14.0615933500335,46.2861789622555 14.061592950001,46.2861795887791 14.0615400100564,46.2863158223734 14.0615393305298,46.2863176162444 14.0615390387465,46.2863195032705 14.0615388767231,46.2863213913617 14.061538867505,46.2863219311207 14.0615413806121,46.2865015367336 14.0615414934724,46.2865025273568 14.0615416047963,46.2865036079398 14.0615417176566,46.286504598563 14.0615833446618,46.2867040492431 14.0615834682774,46.2867044101475 14.0615835903567,46.2867048610117 14.0615837139722,46.2867052219161 14.0616368962691,46.286889202185 14.061637138893,46.2868901938731 14.0616375128145,46.2868910966664 14.061638014961,46.2868920904845 14.0617350024916,46.2870872269183 14.0617352558707,46.2870875888874 14.061735377952,46.2870880397515 14.061735629795,46.2870884916804 14.0617859762416,46.2871725792034 14.0618244147519,46.2872320065162 14.0619161348767,46.2873252507788 14.0619172843076,46.2873263398791 14.0619184352744,46.2873273390195 14.0619197160036,46.2873283392247 14.0621171868447,46.2874684268758 14.0622074590271,46.2875781239748 14.0622823744149,46.2877283625782 14.0623783616354,46.2879671268513 14.0623787386462,46.2879678497225 14.0623789874284,46.2879684815697 14.0623793644392,46.2879692044408 14.0625004766935,46.2881882907477 14.0625006033881,46.2881884717315 14.0625007300827,46.2881886527152 14.0625008552424,46.2881889236587 14.0626145485084,46.288378887913 14.0626508611934,46.288517383248 14.0626514777912,46.2885192777237 14.0626522272236,46.2885209933437 14.0626532361862,46.2885227110915 14.0626545046792,46.2885244309671 14.0627809909535,46.2886796806098 14.062918120122,46.2888729856929 14.0629188803069,46.2888740715925 14.0629197717921,46.2888750685957 14.0629207930434,46.2888760666626 14.0630979799232,46.2890492761075 14.0630991309473,46.2890502752362 14.0631002819714,46.2890512743649 14.0631015642959,46.2890521845972 14.0633297564439,46.2892102464157 14.0633306556099,46.2892107936166 14.0633314265427,46.2892112497946 14.0633321959419,46.2892117959324 14.0635498289328,46.2893345915936 14.0635515021059,46.2893354150497 14.063553175279,46.2893362385058 14.0635548515185,46.2893368820422 14.0638851235984,46.2894605996053 14.0638867998457,46.2894612431368 14.0638884791584,46.2894617067487 14.0638902882386,46.2894621714231 14.0642033928681,46.289534733155 14.064449304677,46.2896052146831 14.0646087640054,46.2897071085408 14.0647019471757,46.2898140382944 14.0647157537246,46.2899178893955 14.0646730561887,46.2900168696026 14.0645370917923,46.2901052797175 14.0645363039887,46.2901058131059 14.0645355161851,46.2901063464942 14.0645347283815,46.2901068798825 14.0643082967463,46.2902870410715 14.0640905298939,46.2904079809449 14.0636101799184,46.2906063056563 14.0636100501483,46.2906063045934 14.0631965963388,46.2907783636738 14.0628717519612,46.2908991435679 14.062609928082,46.2909471117818 14.0626073234557,46.2909476302607 14.0626048455306,46.290948329723 14.0626023645356,46.2909492091049 14.0626018423824,46.2909493847684 14.0623352444477,46.2910565150264 14.0623344581445,46.2910569584395 14.0623335436055,46.2910573108284 14.0623327588377,46.2910576642817 14.0621051335014,46.2911702420505 14.0618736343237,46.2912055912912 14.0615876182233,46.2911880387169 14.061307250322,46.2911513676873 14.0611044904875,46.291077095071 14.0611025546822,46.2910764493672 14.0611004875685,46.2910758925575 14.0610984189175,46.2910754257075 14.0610891061451,46.2910735497812 14.0611936293294,46.2911318104784 14.0613800147676,46.2913060877467 14.0615376156229,46.2914179575337 14.0617159102945,46.2914885196758 14.0617951302308,46.2915237191772 14.0619404074291,46.2915592806875 14.062086734509,46.2915713678405 14.0623644673097,46.2915876815905 14.0626554242674,46.291627675843 14.0628513083469,46.2916715686556 14.0630332959583,46.2917388300316 14.0632074442857,46.2918624395483 14.0633137704262,46.2919902616957 14.0634927157281,46.2922360925183 14.0636249655133,46.2924345750556 14.063765166451,46.2925625842298 14.0639532642125,46.2926675925729 14.064182544722,46.2927399178538 14.0644459066382,46.2928078430024 14.0646896939315,46.2928286418504 14.0649067595245,46.2928256488762 14.0651852986494,46.2927949968006 14.0654643960246,46.2927315087071 14.0657161311238,46.2926818320205 14.066008694641,46.2926278097626 14.0662738961386,46.29258759898 14.0666338021469,46.2925576078631 14.0669666643026,46.2925227163537 14.0672384525346,46.2924920041821 14.0676059530654,46.2924197849657 14.0680013736389,46.2923007366369 14.0683491654637,46.2921812988329 14.0686225434568,46.2920566652004 14.0689024018093,46.2919554764976 14.0692436790641,46.2918219472275 14.0695368715063,46.2917303126167 14.0698979642697,46.2916297825617 14.0703676753225,46.2915301346057 14.0707348774253,46.2914672600232 14.0710882629816,46.2914231661981 14.0714616269229,46.2914026263488 14.0718417387594,46.2913821400613 14.0721608558845,46.2913612474997 14.0725815858936,46.2913410883794 14.0728601924265,46.2913057395875 14.073159728257,46.2912376299061 14.0734189618765,46.2911503885987 14.0736715534009,46.2910490572001 14.073890194845,46.2909521288033 14.0741633981719,46.2908367476439 14.0745112958282,46.2907173819065 14.0746817369944,46.2906617190075 14.0747382355816,46.2907286658304 14.0749167591844,46.290663171032 14.0751066208574,46.2905948885608 14.0752841865575,46.2905091416579 14.0753990171621,46.2904184785033 14.0755145970723,46.2902755473491 14.0756049114184,46.2901454577901 14.0756707996482,46.2899628967359 14.0757433226496,46.2897716619549 14.0758335058419,46.2896415711448 14.0759807633192,46.2894901682379 14.076172011183,46.2893391206054 14.0763382298471,46.2891791431227 14.0764538618585,46.2890405300871 14.0765955632572,46.2888411262133 14.0767303757907,46.288680894487 14.0769085916986,46.2885559223288 14.0770990298934,46.2884527318986 14.0772698614642,46.2883887008448 14.0774342433847,46.2883377534599 14.0776242403959,46.2882607405577 14.0777952730038,46.2881923916645 14.0779603860014,46.2880978128086 14.0781004705294,46.2879943045759 14.0782219590517,46.2878775102721 14.0783182713484,46.2877606028512 14.0784268066885,46.2876654772218 14.0785854681252,46.2875839814226 14.0787630925795,46.2874938209076 14.0789083637564,46.2874600820803 14.0791225225116,46.2874356252735 14.0793870127383,46.2874203006826 14.0796448521193,46.2874223765864 14.0798645658925,46.2874459183972 14.0801222232026,46.2874588784193 14.0801703668791,46.2874591757934 14.0802669107496,46.2874599524891 14.0804367871441,46.2874525916244 14.0806450808437,46.2874063114714 14.0808472193065,46.287355572806 14.080950717603,46.28732851339 14.0811202609543,46.2872789517762 14.0812699040826,46.2872397567692 14.0814579552554,46.2872009601216 14.0816607845353,46.2871709192197 14.0816649489674,46.2871702328908 14.0816689896505,46.2871691856781 14.0816729020743,46.2871680474626 14.0816751230735,46.2871671655782 14.081860866086,46.287095599773 14.0818636106385,46.2870944521722 14.0818662269315,46.287093213569 14.0818688462306,46.287091795045 14.0820485058667,46.2869881499048 14.0820506031016,46.2869869071298 14.0820525720771,46.2869855733526 14.0820544127931,46.2869841485731 14.0822080350664,46.2868620297265 14.0822085616269,46.2868615840915 14.0822090881873,46.2868611384565 14.0822097460122,46.2868606039028 14.0823613584466,46.2867266823282 14.0825146729,46.2866229149661 14.0826996052768,46.2865453131364 14.0828859387573,46.2864848170044 14.0830445731898,46.2864510001685 14.0831782466646,46.2864353373223 14.0833039076937,46.2864487611378 14.0835933968893,46.286513792674 14.0838012016468,46.2865743000991 14.0838026230215,46.2865746713791 14.0838040443962,46.2865750426592 14.0838054672708,46.2865753239788 14.0839761418504,46.2866133103461 14.0839774364652,46.2866135006636 14.0839785998189,46.2866137799018 14.0839798944337,46.2866139702192 14.0841244570813,46.2866379813715 14.0841275638596,46.2866384561214 14.0841306736367,46.2866387509505 14.0841337849132,46.286638955819 14.0842918876966,46.2866448108266 14.084293574596,46.2866448243376 14.0842951317339,46.2866448368093 14.0842968201324,46.2866447603598 14.0845407933576,46.2866376269502 14.0845436511076,46.2866374698879 14.0845463805949,46.2866372218261 14.0845491115809,46.2866368838039 14.0848183980763,46.2865981922255 14.0851996697198,46.2865603061378 14.085200320024,46.2865602213687 14.0852009703283,46.2865601365997 14.0852017503939,46.2865600528689 14.0855714972091,46.2865128061674 14.0855756615445,46.2865121196952 14.0855798288739,46.2865112533019 14.0855837411716,46.2865101149516 14.0855847852494,46.2865097634125 14.0858100447213,46.2864339186429 14.0858138317377,46.2864325093656 14.0858173622251,46.2864309180922 14.0858207659445,46.2864291458602 14.085960458911,46.286348027978 14.0859615074724,46.2863474065541 14.0859625560339,46.2863467851303 14.0859636060917,46.286346073746 14.0860810931062,46.2862657678785 14.0861206627371,46.2862353136157 14.0861324079202,46.2861845730856 14.0861847631913,46.2861422546678 14.0863707436781,46.2859933971213 14.0865505034619,46.2858829977631 14.0868029212912,46.285750145555 14.0870214170916,46.2856593089453 14.087183987267,46.2855757630434 14.0873581656989,46.2854730554753 14.0876680383553,46.2852326930626 14.0879943261842,46.2850039772179 14.0882925894403,46.284798159874 14.0885672521846,46.2846615223522 14.0889530523871,46.28453737628 14.0893772679679,46.2844443054596 14.0898284826531,46.284397783812 14.0901392601682,46.2844231104807 14.0903278685929,46.2844516030501 14.0905399127763,46.2844911684006 14.0907211927595,46.2845233808665 14.0908972486662,46.2846046764532 14.091010337488,46.284734686076 14.0910316614463,46.2847871295948 14.0910650475079,46.2848164561186 14.0911227911309,46.2848560531811 14.0911938954077,46.2848960263364 14.0912952749865,46.2849337208554 14.0913877806027,46.2849744038227 14.0915378780454,46.2850168039686 14.0919373435757,46.284921457623 14.0924302549004,46.2847941017476 14.0926692609418,46.284757130689 14.0928379571741,46.2847341768024 14.0929853920591,46.2847256295284 14.0931819873576,46.2847028064914 14.0933509236602,46.2846652782185 14.0935408803796,46.284627916358 14.0936606383192,46.2845899977061 14.093858163641,46.2845185957666 14.0940496833603,46.2844099872824 14.0940834438048,46.2843930700622 14.094417514046,46.2842256687653 14.094865950844,46.2840322702172 14.095242415161,46.2838907542973 14.0958427805092,46.2836754311966 14.0965381295924,46.2834445705542 14.0968787709027,46.2832950285166 14.0969866088079,46.2832477450523 14.0973688339914,46.2830471557198 14.0978651824396,46.282811386719 14.0981424011867,46.2826592710725 14.0983626260555,46.2825165122895 14.0986294006915,46.2824234249949 14.0987677242144,46.2823686425589 14.098848924169,46.2823233066867 14.0989401562947,46.2822517778652 14.0990512787061,46.2821147258168 14.0992434049909,46.2819521298999 14.0995067425252,46.2817834366002 14.0997650948901,46.2816179424454 14.1000131343968,46.2815115684074 14.1002367529045,46.2814542165819 14.1005265962922,46.2813941463484 14.1007640341561,46.2813566061843 14.1009730565585,46.2813188420849 14.1010968333021,46.2812804073961 14.1011592160868,46.2812349219263 14.1012030096465,46.2811596893401 14.1012087769136,46.2811006227633 14.1011909060492,46.2810348923358 14.1011312630361,46.2809128706124 14.1010234237055,46.2808496717852 14.1009338624632,46.2808193665763 14.1007971789242,46.2807822126681 14.1006221569757,46.280764460983 14.1004800297027,46.2807665818456 14.1003425941356,46.2807753974145 14.1002429697517,46.2807811814135 14.1001388894533,46.2807737942717 14.1000302457836,46.2807598031221 14.0999642670978,46.2807395797599 14.0999133458896,46.280663601993 14.0998859520856,46.2806010353923 14.0998681374725,46.2805319762121 14.0998551250321,46.2804628648649 14.0998706111623,46.2803809318826 14.0999714722914,46.2802995810538 14.1001336696579,46.2802286998682 14.1003097365775,46.2801745725077 14.1004902211385,46.2800249288461 14.1007501036647,46.2798841868976 14.1011122906726,46.2797798778611 14.1014058408694,46.279675028228 14.1016138866802,46.2795457532438 14.1017886520358,46.2793566546228 14.1019824869798,46.2790486718925 14.1020886150251,46.2788590336509 14.1021410961104,46.2787998840133 14.1023483596811,46.2787181969916 14.1024361933442,46.278599852953 14.1024385261317,46.2784569949152 14.1024575956324,46.2783381109848 14.1024933376122,46.2782550770233 14.102648897107,46.2781848599209 14.1028743852851,46.278043753172 14.1030477806649,46.2779380463618 14.1031873780797,46.2777962651097 14.1032238964664,46.2776655515645 14.1031579818289,46.2774984053978 14.1031440274101,46.2772959477109 14.1032501479893,46.2771063082802 14.1033035961587,46.276987693832 14.1035275240163,46.2769418544498 14.103837015507,46.2769085617286 14.1042501015004,46.2768403607729 14.10462996915,46.2767004599805 14.1048544763548,46.2766189034368 14.1050290278442,46.2764416744813 14.1051347521659,46.2762758729012 14.1052564400082,46.2761815443827 14.1054807509355,46.2761118614439 14.1058415477369,46.2760909310527 14.1061337147055,46.2760693729923 14.1064079810721,46.2760953597248 14.1068391508334,46.2759677289248 14.1070642319534,46.2758504534161 14.1072383867243,46.2756970606977 14.1074634658873,46.2755797843834 14.1076369091925,46.2754621046024 14.107861870306,46.2752720387795 14.108071870409,46.2751083077242 14.1084874457132,46.2748854480325 14.1089728061928,46.2745916025338 14.1096323046524,46.2741443584329 14.1102418292747,46.2736015305969 14.1106909947969,46.2734264297863 14.1112413019174,46.2733592708555 14.112203825044,46.2732834346511 14.1130289621674,46.2732064345899 14.1142873516988,46.273079252179 14.1146796107466,46.2730287567091 14.1153507439723,46.2729267944593 14.116039060327,46.2728130847458 14.1168299367448,46.2727357923461 14.1175075582999,46.272762618328 14.1177005485607,46.2727185817254 14.1179969982866,46.2723720454019 14.1188337796983,46.271996204312 14.1206601950105,46.2711359128791 14.1210464242966,46.270812102359 14.1218541021665,46.2704198202624 14.1226356177204,46.2702272508358 14.1232988980861,46.2699637707533 14.1237592011256,46.2698749876832 14.1241535062605,46.2697022025783 14.1243357437226,46.2695665702209 14.1245038808362,46.2694445954058 14.1248878812431,46.2689244344716 14.1252869597422,46.2688016167881 14.1255839859048,46.2686102678203 14.125877246693,46.268418979259 14.1263329317279,46.2680563637347 14.1264677247558,46.2680074589011 14.127172620314,46.2678247097823 14.1275412344497,46.2676505471614 14.1279889923028,46.2673940322422 14.1286928173434,46.2672698377747 14.1290080640965,46.2671636428992 14.130002638578,46.2666525232783 14.1305228041842,46.2661556925376 14.1308060350642,46.2658829796882 14.1311505213279,46.2656250373232 14.1316544291902,46.2648255896097 14.1319680997709,46.2645303419292 14.1322972558396,46.2643304919987 14.132471808181,46.2641533108244 14.1326637273524,46.2639524183663 14.1329252002429,46.2636924911777 14.1331009319571,46.2634320032369 14.1333446586125,46.2632195360708 14.1335713179544,46.2629951526072 14.1348130639102,46.261516677478 14.1349368567612,46.2612914227632 14.1352511065417,46.2609486646884 14.1356532734586,46.26047557012 14.1359161539833,46.2601323318179 14.1361448472238,46.2597769581698 14.1365328658867,46.2591133711193 14.1367768030405,46.2588771452733 14.1370716676032,46.2586770225061 14.1374178334671,46.2584891624598 14.1376151776445,46.2584362177127 14.1378921979022,46.2582404568509 14.1381116610645,46.2582410319037 14.1382555376759,46.2581482748669 14.1384082529652,46.2580708796341 14.1385379837168,46.2580199429527 14.1389839162549,46.2578634206167 14.1392689167731,46.257563348059 14.1393750845178,46.2573851014526 14.1397668437038,46.257175444163 14.140428640881,46.2568918791198 14.1406559825901,46.2568195405789 14.1410830719549,46.2566975079239 14.1414801781123,46.2566681004593 14.1417685776913,46.256373355541 14.1422277635154,46.2562804408195 14.1425173336027,46.2564094747481 14.1427395384074,46.2564084419731 14.1430420050632,46.2561843380033 14.1438856539551,46.2563237285193 14.1444210835181,46.2562320956921 14.1448220637693,46.2563703249632 14.1454211521345,46.2560549513637 14.1458134569903,46.2560837053687 14.1461449842539,46.2563178619124 14.1468592719819,46.2560508467527 14.1473713261741,46.256069332339 14.1479162539731,46.2559584997956 14.1485739677072,46.2556753069992 14.1492228677079,46.255374500119 14.1501451833696,46.2550229083078 14.1505033914137,46.2546387773552 14.1505126237926,46.254628858972 14.1506609953959,46.254469809702 14.1510551384814,46.2543200532796 14.1519308119874,46.2537276932127 14.1523707120108,46.2535538890181 14.152961256388,46.2532747614782 14.1529478006375,46.2532557674838 14.153370581345,46.2530982976222 14.153680933701,46.252779122497 14.1537020327628,46.2525626240381 14.153861950374,46.2525036158874 14.1542961870487,46.2521993916566 14.1543423267051,46.2519990034905 14.1546072855062,46.2519069414354 14.1549375652505,46.251893817968 14.1551526254791,46.2517994063937 14.1553398244499,46.2516865240766 14.1555186873882,46.2515590042697 14.1556423727833,46.2513337260175 14.1559009373256,46.2512523205035 14.1559897060056,46.2510625932638 14.1562842769849,46.2508742949894 14.1564414633139,46.2506968587403 14.1566327004217,46.250531639862 14.1568579358368,46.2503905142197 14.1570469832973,46.2503680654755 14.1572873296738,46.2503579609627 14.1574430523801,46.2502757938303 14.1576537192954,46.2499678394673 14.157862432494,46.2497789044595 14.158018334421,46.2496848614338 14.1581566254427,46.2496144413613 14.158551231695,46.2496173464294 14.1588100951483,46.2495240600949 14.1591396100281,46.2492884158654 14.1593822636056,46.2491354469394 14.1595731236996,46.2489939731826 14.1597983453039,46.2488528416159 14.1600414106604,46.2486641550599 14.1601623969037,46.2486055718067 14.1603352287434,46.2485234364269 14.1605595392836,46.2484417687599 14.1608692000078,46.2483845699741 14.161177902226,46.248398711842 14.1614349943683,46.2484124743278 14.1618304981469,46.2483559025649 14.162406252592,46.2482832854097 14.1625595942347,46.2482459003555 14.1626431679664,46.24819117917 14.1628214674869,46.2480988231624 14.1629614916856,46.2480587308308 14.1629823273114,46.2480445776853 14.1632251344261,46.2478804450598 14.1634727515829,46.2478092891447 14.1640078015902,46.2477350164776 14.164076032867,46.2477168910026 14.1641460565811,46.2476832132755 14.1642522563321,46.247368184699 14.1644187572666,46.2470532368679 14.1646479848268,46.2469544122713 14.1647434920331,46.2467454731436 14.1647722463919,46.2466880105657 14.1647915156712,46.2466317383068 14.1649600430079,46.2465760165125 14.1652612354721,46.2464434366099 14.1653105712105,46.2464226531844 14.1654377558091,46.2463223621386 14.1654547628256,46.2463040418344 14.1654717971171,46.2462839222678 14.1654819385324,46.2462736494077 14.1655142054063,46.2462410448129 14.165571540484,46.2461887391587 14.1655903720934,46.24614416005 14.1656415564732,46.246078403498 14.1658000519628,46.2458288055047 14.1661202406608,46.2454007107933 14.166131968371,46.245063217775 14.1661322447673,46.2450278604151 14.1662705262678,46.2449052460919 14.1664645318634,46.2447251852795 14.166520632307,46.2445316125673 14.1663478429081,46.2443898149179 14.1663014981419,46.2442732318722 14.1662925002995,46.2442508529566 14.1662478951043,46.2441564159253 14.1662800987017,46.2438710765335 14.1664054482471,46.2437801281795 14.1665641153326,46.2434414570247 14.1667153978315,46.2431450191141 14.1667564048658,46.242963212656 14.1666836090285,46.2428293420742 14.1667415210916,46.2426529672409 14.1670131724936,46.2424313639729 14.1673819102508,46.2423579329388 14.1674511234006,46.2423429616433 14.1678145802672,46.2420698406468 14.1680617327286,46.2419243536476 14.1681420176469,46.2418545789646 14.1681796254845,46.2416399070736 14.1681142011833,46.2415158080952 14.1680329590237,46.2414430585333 14.1677019817965,46.2413180161836 14.1676348020066,46.2410700112862 14.1676431010048,46.2409756900038 14.1676775628987,46.2407890669255 14.1677524079552,46.2406930707459 14.1678166708136,46.2406108533329 14.1678545257899,46.240602851364 14.1682486744152,46.2405202452841 14.168375191533,46.2404628631611 14.1683767876546,46.2404516281424 14.1684691094544,46.2403917478346 14.1684689183534,46.2404129800812 14.1685495337747,46.2403468963939 14.1687220075323,46.2402000550201 14.1688150972369,46.2400463381329 14.1689895011878,46.239908957552 14.1692584748683,46.2397859398506 14.169499256858,46.2396664056126 14.1696363112056,46.239580757125 14.169691026117,46.2395466948485 14.1698180783268,46.2394707805592 14.1701039549535,46.2391294290332 14.1700962239529,46.2390745793211 14.1700166597666,46.2388648143523 14.1700093387323,46.2387397886213 14.1700671412697,46.2386642709956 14.1702316001501,46.2386184088717 14.1705177645396,46.2385758589021 14.1706537844871,46.2385327589348 14.1707578721894,46.2384403018945 14.1708073427611,46.2383238756827 14.1707696795765,46.2381901724417 14.1706669053948,46.2379803295122 14.1706295592531,46.2379116790488 14.1702597184567,46.23757024674 14.1701679709086,46.2374548651297 14.1699387120398,46.2371721248605 14.1699239992524,46.2371589719365 14.1698202156131,46.2369734136098 14.1697844007588,46.2368549288855 14.1697524192139,46.2367487983001 14.169558711641,46.2366624567594 14.1694907701022,46.2366795979332 14.1694156708076,46.2366984865253 14.1693058920094,46.2366697972353 14.1692851308937,46.2366880008882 14.1692006441658,46.2366415906326 14.1691211730535,46.2365979159599 14.1691393073148,46.2365819425726 14.1689903978633,46.2364827895657 14.1689718322592,46.2364414469317 14.168955152971,46.2364039868498 14.1689365154356,46.2363674122607 14.168954006735,46.2360676590683 14.1690954653031,46.2358786640991 14.1693322785933,46.2355742065586 14.1694659301273,46.2353696790142 14.1695129502137,46.2352437883215 14.1694825976254,46.235098531158 14.1694611698547,46.2350836198971 14.169127500407,46.2350791259385 14.169072952008,46.2350766600935 14.1689627580236,46.2350155771234 14.1687141758321,46.2347771405243 14.1687115736303,46.2347004645009 14.1687211955191,46.2345183388865 14.1688003393702,46.2342829148306 14.1688633006477,46.2341231304401 14.1689988342629,46.2339655830519 14.1691280218843,46.2336872454253 14.1693052960903,46.2334613515131 14.1693299816837,46.2333204529942 14.1693265303053,46.2333171888828 14.1690959723777,46.2330961588509 14.1690061060185,46.2329512786928 14.1690213773187,46.2328414425064 14.1690298060644,46.2327812217604 14.1691932445186,46.2325870779163 14.1692393689179,46.2323915415426 14.1692053832199,46.2322981723454 14.1688589912016,46.2319953240948 14.1685434533595,46.2316928791299 14.168506974531,46.2315329114322 14.1685098965173,46.2313737701386 14.1684577599173,46.2311346021068 14.1683926031116,46.2308733858717 14.1683761014146,46.230807135541 14.1683431099215,46.2304936089016 14.1683137414887,46.2303522273124 14.1682743259019,46.2301636266617 14.1682366355991,46.2299123272246 14.1682175584911,46.2297848763455 14.1682189356263,46.2296336414127 14.1682038389927,46.2295516559549 14.1681825181167,46.2294354353871 14.1681615615871,46.2289775891826 14.1681510910644,46.228512171516 14.1681567631853,46.2284199002639 14.1681638242977,46.2283043360519 14.1681296452721,46.2282154637212 14.1681007030848,46.2280545609321 14.1681475981503,46.2279023975516 14.1682858595112,46.227614859374 14.1685518603239,46.2273585711163 14.1686839201933,46.2271209224781 14.168712249014,46.227021977964 14.1687508468488,46.2269641359098 14.1687848818477,46.2269251550474 14.1688196687387,46.2268878891329 14.1688581345488,46.2268559583762 14.1688690073548,46.2268484796718 14.1689633102692,46.226810386767 14.1690674881598,46.2267793834739 14.1691527728366,46.2267547208503 14.1692491147488,46.2267103444008 14.1692781313025,46.2266946299926 14.1693008003811,46.2266785995339 14.1693769757897,46.2266218400739 14.1694412128929,46.22657444102 14.1694613443291,46.2265461557306 14.169512544283,46.2264864255579 14.1695919559334,46.226369767277 14.1696552969684,46.2262699971586 14.1696591645314,46.2262628273896 14.1696982533871,46.2261895131754 14.1697059925587,46.226174903744 14.1697432373344,46.2260949180989 14.1698113956649,46.2260109281956 14.1698925860914,46.2259481765968 14.1700053111559,46.2259004095093 14.1702240130652,46.2258827428623 14.1704700087243,46.2259292448367 14.1707209357958,46.2259495998359 14.170814301549,46.2259391203918 14.170877106842,46.2259178023863 14.1710483455063,46.2259012294894 14.1710805877324,46.2258950751773 14.1710900582103,46.2258946040067 14.1712282101183,46.2258972251539 14.1713080483618,46.2259069811931 14.1713838399455,46.2259185972839 14.1714677083735,46.2259362100965 14.1715704328651,46.2259499106949 14.171598269289,46.2259436343364 14.1716558071777,46.2259191286695 14.1716823346891,46.2258878302407 14.1716915283964,46.2258454294765 14.1716770155375,46.2257846823455 14.1716340776628,46.225691788739 14.1715947846348,46.2255461971948 14.1716079547208,46.2253859602722 14.1716089620372,46.2253448497889 14.1716228169016,46.2252942052617 14.1716555900358,46.2252268728119 14.1716601486652,46.225216828837 14.1717043966737,46.2251622657477 14.1717405673215,46.2251189807516 14.1717484865604,46.2251095909338 14.1717634028109,46.2250917943211 14.1717682880283,46.2250858914782 14.1717821724546,46.2250763649284 14.1718466229839,46.22503175523 14.1719035154121,46.2249725150766 14.1719719050565,46.2248986925269 14.1720705148676,46.2248669263733 14.1722450210907,46.2249259528964 14.1725474745946,46.2250281927515 14.1727383035578,46.2250535067137 14.1730435000316,46.2249386596026 14.1730784201851,46.2249440406764 14.1730883944179,46.2249013755198 14.1731251860094,46.2248943538046 14.1731618304132,46.2248885006655 14.1732359860921,46.2248622249512 14.1733229752913,46.2248445894532 14.1735751081125,46.2247152313854 14.1739059613658,46.2246008373586 14.1739622790647,46.2245883781281 14.1741482713567,46.2245471645397 14.1743907164619,46.2245276820278 14.1748149124651,46.2245423513119 14.1751066696749,46.2245020794973 14.175160693222,46.224495631332 14.1751681124455,46.2244936154776 14.175319841471,46.2244203921966 14.175356019108,46.2244023885943 14.175392586922,46.2243842978217 14.1755660661864,46.2243302154609 14.1757947247763,46.2242530476482 14.1759766129548,46.2241567378469 14.175988064821,46.2241191215874 14.1759942524287,46.2239654918209 14.1760075072975,46.2237640472012 14.1760744344393,46.2237181933366 14.1762108500724,46.223689215328 14.1763048954426,46.2236243024558 14.1764017516487,46.2234580998309 14.1764044360868,46.2232612576062 14.1765005143727,46.2231816935674 14.1767184342191,46.2230767347627 14.176869886228,46.2229869523279 14.1771697666625,46.2230009876299 14.1774526268002,46.2230089614447 14.177804409127,46.2229935873514 14.1781735662116,46.2229605223688 14.1784741567827,46.2229269634795 14.1787663695202,46.2228814671411 14.1788867465863,46.2228585788773 14.1790327411282,46.2228476609597 14.1791960203502,46.2228250804575 14.1794114255862,46.2227492498102 14.1797733074796,46.2226387504013 14.1800833365185,46.2225456926739 14.1801956010745,46.2224929636835 14.1805152445884,46.2223286248997 14.1807313069883,46.2222170770691 14.1810506824436,46.2220705495759 14.1812059351141,46.2220121892977 14.1814383081331,46.2219542910668 14.1816961661109,46.2219085412392 14.1818508884354,46.2218858057188 14.181953622795,46.2218985073624 14.182073114642,46.2219349917912 14.1823543795019,46.2220501002764 14.1826437580682,46.2221950472421 14.182779829987,46.2222673688736 14.182847777317,46.2223095122194 14.182916206721,46.2223279060181 14.1831125545543,46.2223828433368 14.1835825878396,46.2224874210322 14.1838986476579,46.2225729930263 14.1841891804574,46.2226404772945 14.1845738542645,46.2227146605686 14.1849844115914,46.2227829988697 14.1854976191621,46.2228699717875 14.1862594715469,46.2229646507912 14.1866102828935,46.2230148332147 14.1869952269637,46.2230711055708 14.1871408687313,46.2230840177104 14.1872780015929,46.2230849926993 14.187544095825,46.2230960613851 14.1877375683185,46.2230564083892 14.1877374652402,46.2230546081911 14.1877459782929,46.2230662752317 14.1877225144984,46.2223280575982 14.1877785350036,46.2220189474749 14.1878336779588,46.2217693034297 14.1879399246665,46.2215438652986 14.1880159906458,46.2213256804824 14.1881191202687,46.2210214034023 14.1882311987347,46.2203913063751 14.1882211084759,46.2199150058815 14.1881932529329,46.2194743885837 14.18821592943,46.2191054789525 14.1881704400197,46.2187004557887 14.1881253026251,46.2182715921376 14.1880486284599,46.2176520308283 14.188035029809,46.2174138646998 14.1880729297396,46.2171640978719 14.1881468809023,46.2168075187257 14.1880831054421,46.2164737143999 14.1880342852642,46.2162948604509 14.1879177855875,46.2160559633336 14.1877163256323,46.2157687765353 14.1874437223119,46.2156478044284 14.1872574406017,46.215491725961 14.1872584944567,46.2154202945698 14.1874315306063,46.2153144562806 14.1878801984647,46.2151152043436 14.1882597338306,46.2149631456796 14.1886220308765,46.2148109634041 14.1888643205798,46.2146579285367 14.1890898533139,46.2144809313328 14.1896288510032,46.2139728946226 14.1897863474875,46.2137597842365 14.1900127941888,46.2135113527604 14.1901880948945,46.2132506820328 14.1904345706392,46.2128120077804 14.1906473566295,46.2123372850186 14.190736512173,46.2120998464382 14.1907898817494,46.2119693128564 14.1907746998946,46.2118382040356 14.1907419313381,46.2117309036546 14.1906409622189,46.2115991874871 14.1905230611193,46.21145556481 14.1904744130352,46.2112647464981 14.1904946208811,46.2110625392648 14.19036123659,46.2107996818871 14.1902271078471,46.2105963815102 14.1901092112649,46.2104526684382 14.1900935064047,46.2103572752586 14.1900947309516,46.2102739684897 14.1902168251237,46.2101320455081 14.1903733047831,46.2099783994521 14.1905644735796,46.2098011558292 14.1907728757655,46.2096240338746 14.1909647408195,46.2093991985224 14.1909675372378,46.2092087444197 14.190952878726,46.2090420097575 14.1908864275365,46.2088986615268 14.1908719885188,46.2087081753931 14.1908240417199,46.2084696761425 14.190741185845,46.208278615705 14.190572198366,46.2081107883549 14.1904196172153,46.2079906729298 14.1902153728963,46.2078940343269 14.1899093397873,46.207713268635 14.1897736446231,46.207617114981 14.1897919739227,46.2075339294054 14.1899314725215,46.2073801635362 14.1901217596165,46.2072623868339 14.1902609512011,46.2071205848609 14.1903294978194,46.2071210703764 14.1905707007968,46.2070393730254 14.1906926120622,46.2069093246727 14.1907979430671,46.2067434393294 14.1908678881388,46.2066486524451 14.1909562883928,46.2064707706047 14.1909594345682,46.2062564758924 14.1908935097014,46.2060775017955 14.1907250542409,46.2058738688969 14.1903853463355,46.2056572364866 14.1901993103782,46.2054773212789 14.1900988324447,46.2053218549434 14.1900155036955,46.2051546335162 14.1899839212525,46.2049758122117 14.1899171718944,46.2048444276847 14.1897485478488,46.2046527585898 14.1895626455796,46.2044729332328 14.1894445889631,46.2043410946929 14.1893616143274,46.2041500322715 14.1893139807058,46.203899747876 14.1892144294149,46.2036728482625 14.1891064147391,46.2034399502619 14.1889716530295,46.203272363168 14.188768568829,46.2030982628559 14.1885904383398,46.2029720253069 14.1884040661511,46.2028159477033 14.1883213143708,46.2026189477976 14.1883774848604,46.2022979608934 14.1884414177913,46.2020305633516 14.1883771726085,46.2017384127818 14.1882020990509,46.2013258102635 14.1881841466294,46.2013218139094 14.1880782803854,46.2010756139983 14.1878517027422,46.2007466804495 14.1876421424389,46.2004238056228 14.1875092778506,46.2001371050917 14.1874092140526,46.1999459196457 14.1872405246542,46.1997602744459 14.1870630240439,46.1995922911405 14.1864252834891,46.1992485534825 14.1857527794086,46.1989342559407 14.1853529728731,46.1987290567164 14.1845501483421,46.1980108311937 14.1840701328702,46.1976579482847 14.1839967715466,46.1975721295871 14.1839788145891,46.1975510375365 14.1839063457812,46.1974662148607 14.1836718175692,46.1971956089662 14.1833301734847,46.1967915261832 14.181996762662,46.1963924063226 14.181403720519,46.1964198318851 14.1812129981135,46.1964286330091 14.1810390456483,46.19640750274 14.1807685928477,46.1963933284455 14.1803895342659,46.1962504322703 14.1800264135962,46.1959769173524 14.1796975453558,46.1958745971228 14.1795117759686,46.195768354567 14.1791835829789,46.1955164114038 14.1788933290661,46.1952488144544 14.1788003352442,46.1949596007069 14.1782568181038,46.1949336513857 14.1776189843655,46.1949682031389 14.1774392908046,46.1949328102312 14.1770607264962,46.1947406908938 14.1767331691567,46.1947770210703 14.1763297359213,46.1946193600904 14.1762148753393,46.1946152933708 14.1761233473144,46.1946191324403 14.175833857091,46.1946310815843 14.1754834001486,46.1945006117146 14.1753497505733,46.1944101237861 14.1753264515264,46.1943913311422 14.1752959826342,46.194366818422 14.1752802353927,46.1943541984643 14.1751693154709,46.19423400302 14.1749097544395,46.1938218495766 14.1747814621445,46.1933043841919 14.1744789222142,46.1930288595028 14.1742591448036,46.1930060383537 14.1739917995348,46.192759738134 14.1737726911045,46.1926145565541 14.1734765679199,46.1922918393201 14.1732180509109,46.1921484411173 14.1727869411697,46.1920240376159 14.1719863810596,46.1918452220969 14.1718673302211,46.1915771375607 14.1718050359991,46.1912134620622 14.1716836813182,46.1910557584633 14.1716323435713,46.190989075769 14.1712877393005,46.1908248051965 14.171062346196,46.1907367061685 14.170739327956,46.1906103794598 14.1702425278615,46.1901346818784 14.1701542796211,46.1900501856889 14.17001300789,46.1899165386496 14.1697297014522,46.1896484287307 14.1696811646344,46.1896024594643 14.1695814320231,46.1895924677047 14.1692102365081,46.1894486016535 14.1691431957164,46.1894012380409 14.1688790045352,46.1892147812078 14.1683476083713,46.1891708780661 14.1677169894848,46.1893236526626 14.1673202534583,46.1892244014738 14.1670231473739,46.1889875851527 14.166835859948,46.1887534579593 14.1661115556823,46.1886935624889 14.1658107636907,46.1885467799181 14.1654645592971,46.1886016563052 14.1650051552014,46.1887318227044 14.1646158859491,46.188713233215 14.1640353472877,46.1884847744228 14.1636234805113,46.1884273275412 14.1627933169194,46.1882497604319 14.1626188086509,46.1883185718586 14.1624810402755,46.1883651587393 14.1619187560514,46.188146810014 14.1616441228888,46.1881805158361 14.1614878594256,46.1883102816635 14.1613114180855,46.1886423403883 14.1610359284634,46.1887236346273 14.1607284156149,46.1886618146322 14.1605423002903,46.1885056930287 14.1606153521519,46.188208685944 14.1608801341144,46.1876986786644 14.1612153710777,46.1870702422719 14.1614103531037,46.1866431272641 14.161483399057,46.1863460295163 14.1615918535792,46.1859778421215 14.1615121956266,46.1854574786962 14.1615657969161,46.1851611379457 14.1615713060607,46.1851140320304 14.161636599266,46.184789885074 14.1614184900385,46.1842765136703 14.1614541609468,46.1838644248921 14.1615268460043,46.1838378759076 14.1616223360218,46.1833848377963 14.1617426852881,46.182813126303 14.1617317560212,46.1823987161773 14.1615869920975,46.182344030037</coordinates></LinearRing></outerBoundaryIs></Polygon></MultiGeometry>
  </Placemark>
</Folder>
</Document></kml>
