{"type":"FeatureCollection","features":[{"type":"Feature","geometry":{"type":"Polygon","coordinates":[[[14.0546824007547,46.0620569179054],[14.0547903832142,46.0620686980917],[14.055039638292,46.0620955925918],[14.0552525057918,46.0621719424324],[14.0554478353934,46.0622232236109],[14.0557134440538,46.0623371685052],[14.0559798178908,46.0624138690816],[14.056211029255,46.0624530286551],[14.056406701511,46.0624918943481],[14.0566557463351,46.0625312902319],[14.0569768939288,46.062533940537],[14.0572622451506,46.0625362046955],[14.0576910326814,46.0625024908162],[14.0580122621286,46.0624927222142],[14.0581911570741,46.0624693632072],[14.0584051691638,46.0624711265898],[14.0586007138483,46.0625099874738],[14.0587609303015,46.0625361404073],[14.0588842925769,46.0626241629815],[14.058918484663,46.0627113612338],[14.0590057583272,46.062823829874],[14.0590756196968,46.0629113217516],[14.0591811487883,46.0629991971799],[14.0593054870172,46.0630374706659],[14.0593940271011,46.0630754494016],[14.0595362817919,46.0631014534169],[14.0596789581994,46.0631026273831],[14.0599644402771,46.0631049758443],[14.0601606203764,46.0631065892672],[14.0602854622664,46.0631076158156],[14.0603746350492,46.0631083489809],[14.0605342223097,46.0631717442628],[14.0606223423054,46.0632345519329],[14.0608170476215,46.0633231587743],[14.0609062207649,46.0633238915276],[14.0611377792606,46.0633506273044],[14.0612794042087,46.0634138739842],[14.061438022568,46.06352692672],[14.0615967692876,46.0636400702629],[14.0617188780484,46.0638024895027],[14.0617709086008,46.0638899233037],[14.0617513911324,46.0639890964283],[14.0616590600746,46.0641746784104],[14.0616032413182,46.0643108034622],[14.061618760735,46.0644476042079],[14.0616353335596,46.0645222402843],[14.0616873661622,46.0646095841533],[14.0617572340025,46.0646970744141],[14.0618449356423,46.0647848009982],[14.0619325580247,46.0648848535537],[14.0619661253908,46.0650092957287],[14.0619451342419,46.0651954634108],[14.0618523811162,46.0654058753786],[14.0618878414131,46.0654185831146],[14.0620284210785,46.065543903587],[14.0621339598495,46.0656317763227],[14.0622040399074,46.0657068513706],[14.0622927964774,46.0657324129509],[14.0625594060909,46.0657966834005],[14.0628074213062,46.0658980507453],[14.0629835929381,46.0660361685239],[14.0631768416769,46.066211675999],[14.0633698831719,46.0663995081304],[14.0635271723544,46.0665995536247],[14.0636142515033,46.0667244337304],[14.0637902985192,46.0668625492221],[14.0640021488356,46.0670008676859],[14.0641794580816,46.0670644029618],[14.064357606821,46.0670782781876],[14.064482457814,46.0670793002194],[14.0646609456326,46.067080761086],[14.0648928117984,46.0670826584213],[14.0651067617687,46.0670968253945],[14.0654273883074,46.0671242809937],[14.0656948462362,46.0671388843981],[14.0659445485976,46.0671409254061],[14.0661592073158,46.0671054295552],[14.0664105039776,46.0670205659414],[14.066643416295,46.0669603849622],[14.0668402395812,46.0669246522003],[14.0671074863023,46.0669517572122],[14.067338306582,46.0670157243563],[14.0676049283918,46.0670799831126],[14.0679958549392,46.0671700883058],[14.0683877474966,46.0672105333903],[14.0687981029098,46.0672138775789],[14.0691718225304,46.0672665885653],[14.0703312090291,46.0672884418823],[14.0707772371599,46.0672920691296],[14.0709545552712,46.0673555939569],[14.0712912762213,46.0674950038432],[14.0716275840955,46.0676591527209],[14.0718924186806,46.0678228101945],[14.0720864569277,46.0679609689881],[14.0722799493836,46.068124046311],[14.0724732365239,46.0682994483171],[14.0725959310393,46.0684371171945],[14.072858901323,46.0687125071905],[14.0731234597006,46.0689009028737],[14.0733883046433,46.0690645569239],[14.0736002660158,46.0691904417674],[14.0738664889388,46.0692796059345],[14.0741508368062,46.069343993021],[14.0745064537136,46.0694213731931],[14.0747548440449,46.0695103009051],[14.0749852677043,46.0695991726389],[14.075143724493,46.0697246215516],[14.0751955758999,46.0698243743655],[14.0752830215543,46.0699369217797],[14.0753896279109,46.0699626175814],[14.0755852113416,46.0700014496429],[14.0758340204689,46.0700655450775],[14.0760646568607,46.0701419097147],[14.0763658116993,46.0702686003868],[14.0767023585963,46.0704203195121],[14.0768436040872,46.0705084670213],[14.0769482718096,46.0706583122331],[14.0769105263402,46.0707822638815],[14.0768189344831,46.0709181072617],[14.0766920040644,46.0710412484341],[14.0766718879431,46.0711777590661],[14.0767758046275,46.0713649382797],[14.076879438771,46.0715768584359],[14.0770179969149,46.0718264004574],[14.0772803068067,46.0721514413618],[14.0774391883118,46.0722521471362],[14.0775443521778,46.0723647458131],[14.0776675609572,46.0724650733664],[14.0779655531824,46.0727904006099],[14.0782105261462,46.0730780495127],[14.0785612106968,46.0734535566915],[14.0787530886148,46.0737159430293],[14.0787870347556,46.0738279664583],[14.0790666602974,46.0741779759955],[14.0791894613545,46.0743032218524],[14.0793818888212,46.0745406882569],[14.0795752192403,46.0747161683567],[14.0798566342857,46.0749668571706],[14.0801379226081,46.0752175442594],[14.0803836654582,46.0754679446425],[14.0805402953512,46.0757051210033],[14.0808391462817,46.075980780899],[14.081051149555,46.0761067420613],[14.081245316398,46.0762324694717],[14.0813869206758,46.0763081075337],[14.0816520314025,46.0764593276869],[14.0819174802434,46.0765980433214],[14.0821290766322,46.0767488324775],[14.0822875699775,46.0768742716037],[14.0824113382008,46.0769497651696],[14.0825708600646,46.0770132189398],[14.0827664735567,46.0770520388879],[14.0829087754869,46.0770780140977],[14.0830497672574,46.0771908950847],[14.0831738192151,46.0772415568206],[14.0833148867771,46.0773421114229],[14.0834916349231,46.0774428620013],[14.0836158171241,46.0774935242991],[14.0836867633334,46.0775189263915],[14.0839180580796,46.0775580304248],[14.0842027935777,46.0776100688229],[14.0844162497222,46.0776490289088],[14.0847005770897,46.0777258060932],[14.0851272861132,46.0778161390129],[14.0855360812722,46.0779187436439],[14.0856962262408,46.0779448581393],[14.0859108391212,46.077921741504],[14.0863450940433,46.0777352752293],[14.0865777310152,46.0776148578216],[14.0869895299941,46.0774335181829],[14.0871692807089,46.0773604541381],[14.0874204633972,46.0772755435518],[14.0877250876795,46.0772034756307],[14.0879401827716,46.0771430191446],[14.0881731151155,46.0770827945365],[14.0883528631506,46.0770097286056],[14.0885505264964,46.0769242986491],[14.0886776488165,46.0767887293281],[14.0887859096353,46.076715092679],[14.0889660657992,46.0766171057816],[14.0891276387022,46.0765563103888],[14.0892715764904,46.0764829576059],[14.0896124860439,46.0763738338863],[14.0898107561039,46.0762512466344],[14.0899918001304,46.0760911819883],[14.0902083152649,46.0759439060308],[14.090552484518,46.0756360492315],[14.0908963153099,46.0753406953059],[14.0909645320158,46.0752016856489],[14.0912006078123,46.0749965290663],[14.0911010362772,46.0747618005445],[14.0910892914899,46.0746897266102],[14.0916943862582,46.0740557097749],[14.0921555095443,46.0735285169902],[14.092633436602,46.0738764692544],[14.0928778806973,46.074201332346],[14.0933784245932,46.0746687686885],[14.0942691184165,46.0756280430414],[14.094702712871,46.076103670519],[14.0947864231429,46.0764397627363],[14.095067131068,46.0770389739685],[14.0950018760909,46.0773373563098],[14.095168049672,46.0772874758664],[14.0954818293813,46.0772004338256],[14.0956855495915,46.0770997436137],[14.0958704939984,46.0770245475636],[14.0960187268304,46.0769489708781],[14.0961668299897,46.0768733929741],[14.0962602019074,46.0767846055764],[14.0962987927918,46.0766698318851],[14.0964406110897,46.0764247798081],[14.0968450692714,46.0758429549988],[14.0977776808441,46.0749807961473],[14.0980811530219,46.0748350014463],[14.0991539035413,46.0748524594289],[14.1004170435684,46.0750873476105],[14.1023686425141,46.0751296844965],[14.103412690998,46.0745170474869],[14.1045220605604,46.073868832453],[14.1049397735965,46.0736201725941],[14.1056497060809,46.0728879295635],[14.1057383874076,46.0730561581919],[14.1058383937307,46.0731795774846],[14.1061311378395,46.0733440035587],[14.1064150849577,46.0734448372737],[14.1066017170421,46.0734396380929],[14.1068291139931,46.0733917488123],[14.1069844970363,46.0734243645066],[14.1071284549683,46.0734920712225],[14.107400366351,46.0735457511835],[14.1076068853465,46.0735659888358],[14.1078978817458,46.0735665510295],[14.1080822683645,46.0736365515635],[14.1084480413665,46.0734973338317],[14.1123152508722,46.0741192050632],[14.1124238159692,46.074338779035],[14.1125635467317,46.0745497772749],[14.11267334614,46.0747892451944],[14.1125569166661,46.0748827256699],[14.1124839865305,46.0750772265652],[14.1127717369723,46.0756518856856],[14.1131118214874,46.0758089233682],[14.1137142958032,46.0758081083522],[14.113883509309,46.0757527357518],[14.1182511120495,46.0761977931336],[14.1187551501719,46.076354729119],[14.1205692030188,46.0759279112683],[14.1207385507854,46.0758880953378],[14.1213564472914,46.0759094027015],[14.1237820590982,46.0748727000949],[14.1251211730727,46.0743970900437],[14.127127943859,46.0737112535075],[14.1286899333791,46.0731908760568],[14.1298124339318,46.0732987610689],[14.1300264921139,46.0733003906415],[14.13027694105,46.0732650468176],[14.1305625467957,46.0732548031736],[14.1308476969882,46.0732818052727],[14.1310788139252,46.0733332291595],[14.1313641595832,46.073347814815],[14.1316319273924,46.0733374329266],[14.1319705932075,46.0733648388097],[14.1322026845853,46.0733541846228],[14.132451835898,46.0733933260209],[14.1327546315472,46.0734328739381],[14.1330033947714,46.0734968444672],[14.1331454525454,46.0735475885543],[14.1332875742722,46.0735860062854],[14.1334836011526,46.0735999092831],[14.1336799516732,46.0736013977582],[14.134053584984,46.073666312426],[14.1342842534388,46.0737549763431],[14.1346037912009,46.073856729363],[14.1347635605263,46.0739076055404],[14.1349230700107,46.0739834027796],[14.135064031724,46.0740962193707],[14.1351520603558,46.0741713853417],[14.1352051879471,46.0741966206194],[14.1352587034351,46.0741970255313],[14.135294962175,46.0741600499463],[14.1353135763048,46.0741105242217],[14.1353685782654,46.0740240238611],[14.1354058076696,46.0739248824154],[14.1354614555384,46.073788720339],[14.1355880701298,46.0736778382884],[14.1356945124024,46.0736086422254],[14.1361579500231,46.0734031324734],[14.1366288545804,46.0731911090198],[14.1369352346447,46.0729676741048],[14.1373408814766,46.0727700908601],[14.1373954939421,46.0726834066152],[14.1380566748712,46.0722476040957],[14.1384771959615,46.0720572370498],[14.139187910565,46.0716023665696],[14.1395068757459,46.0714745736632],[14.1398988332304,46.0713247452926],[14.1405425263427,46.0710888126434],[14.1414106041151,46.0707795224896],[14.1418409694847,46.0705280335137],[14.1420700206907,46.0703873215909],[14.1428046242754,46.0701061709484],[14.1428879907294,46.0700735951382],[14.143673390324,46.0696920470413],[14.1441584195214,46.0694571544794],[14.1442904419696,46.069421162999],[14.1444878958214,46.0693419329671],[14.1446670340973,46.069293517168],[14.1449170998973,46.0692058624964],[14.1451162501305,46.069092003421],[14.1451259633,46.0687726623031],[14.145606562828,46.0679275150969],[14.146086486045,46.067644978962],[14.1466600082412,46.067285850524],[14.1475200759686,46.0665755220981],[14.1487697458976,46.0649463777985],[14.1489816675759,46.0646896355345],[14.149463994343,46.064112972158],[14.149633975095,46.063893526404],[14.1498387804738,46.0636367295603],[14.1498470035319,46.0635388970696],[14.1498778390545,46.0632225915992],[14.1499914871479,46.0629509001943],[14.1500995076146,46.0627089488063],[14.1501907329543,46.0624917057504],[14.1502096884487,46.0624440695392],[14.1502241956558,46.0623830838313],[14.150279689697,46.0621948171564],[14.1503718829748,46.0618553939783],[14.1504520919637,46.061564108665],[14.1504687855244,46.0615122267266],[14.1505291506038,46.0612927744991],[14.1505692184918,46.0611494708818],[14.1505869374096,46.0610981363981],[14.1505513948261,46.0608536778408],[14.1505220506646,46.0606264507168],[14.1504921534864,46.060384733356],[14.1504795150114,46.0603070802426],[14.1503069689693,46.059675246868],[14.1502576396188,46.0592175328613],[14.150158827871,46.0590198410083],[14.1501727029891,46.0585787925266],[14.1502733904392,46.0579885796456],[14.1504775569316,46.0574684172563],[14.1508632252267,46.0567508463517],[14.1512081400808,46.0563559848957],[14.1513900832854,46.0561213291893],[14.1514278421228,46.0559849361464],[14.1516675943324,46.0554774523456],[14.1518705977486,46.0550317786828],[14.1520185794111,46.0546851197999],[14.152236558017,46.0544258966882],[14.1525242830171,46.0542789404577],[14.1529048345356,46.0538843379721],[14.1531403874304,46.0536500767199],[14.1534105243061,46.0534781545566],[14.1535964331104,46.0529826843335],[14.1537065871742,46.052784833157],[14.1538147164002,46.0527110437176],[14.1539763388868,46.052637740145],[14.1542627822777,46.0525653600796],[14.15462105941,46.0524686772951],[14.1548541971602,46.0523833947835],[14.1550159465444,46.052310090676],[14.1552676703376,46.0521753679769],[14.1556096268462,46.0519791380204],[14.1558977684519,46.0517949262732],[14.1563106661788,46.0516241414768],[14.1566686155327,46.051539866526],[14.1571154716523,46.0514810795428],[14.1575985556737,46.0513853077935],[14.1580276378273,46.0513139695496],[14.1584041101694,46.0511924855893],[14.1588883203562,46.0510222165707],[14.1593546978626,46.0508517243556],[14.1597327295249,46.0506184973134],[14.1600222971419,46.0503473688168],[14.1603466404761,46.0501262517902],[14.1605827690537,46.0498423125511],[14.1608366684226,46.0495708300055],[14.1612323264143,46.0493502340418],[14.1616463180628,46.0491048478341],[14.1620068732178,46.0488466516337],[14.1623853845938,46.0485885858867],[14.1627104015596,46.0483301269852],[14.1628721871556,46.0482443952927],[14.1630696327349,46.0481589245111],[14.1632498112806,46.0480359869233],[14.163449822698,46.0477890273106],[14.1636132934617,46.0475914666992],[14.1636859253353,46.0475050813682],[14.163795741841,46.0473778490156],[14.164083380967,46.0471550131144],[14.1647107396264,46.046682726952],[14.1654033651443,46.0461659259212],[14.1656639325349,46.0460238667495],[14.1666448378187,46.0452391441482],[14.1675580077213,46.0446609546257],[14.1676087179642,46.0446741905493],[14.1679018233569,46.0446791141883],[14.1680806167416,46.0446555823905],[14.1682243678791,46.0445821284969],[14.1683502895456,46.0445085446824],[14.1685655438306,46.0444231039727],[14.1688875271541,46.0443633624172],[14.1693525141997,46.0442798259966],[14.1696914516467,46.0442698721879],[14.1700132469721,46.0442225427921],[14.1707638664578,46.0441162411957],[14.1713356367717,46.0440458881332],[14.1719261621376,46.0439135846088],[14.1723372834934,46.0438544791429],[14.1728025026758,46.0437460969652],[14.173267664053,46.0436501291732],[14.1736425690902,46.0436280071219],[14.1742132209573,46.0436321317656],[14.1748011458691,46.0436737183495],[14.1751386005769,46.0437630712675],[14.1753701357782,46.0437895755012],[14.1754769230803,46.043802852631],[14.1757441718851,46.0438171970548],[14.176012103801,46.043794295684],[14.1764947753984,46.0437108576996],[14.1767812730448,46.0436384215056],[14.1770321687982,46.043553221562],[14.1772297052559,46.0434677269185],[14.1776616505183,46.0431975783476],[14.1779139612465,46.0430254697476],[14.1784177661532,46.0427185850703],[14.1789040501483,46.0423991555813],[14.1792282172553,46.0421904001556],[14.1793715810513,46.0421416728633],[14.1797856759354,46.0418714780153],[14.1799664773896,46.0417112683289],[14.1802721295785,46.0415395372042],[14.1805598960456,46.0413801836987],[14.1807571066541,46.0413070972988],[14.1810254470031,46.0412468470129],[14.1813830550407,46.0411873255085],[14.1816510262006,46.0411519944912],[14.1821339789596,46.041056117975],[14.1826171131654,46.040947824011],[14.1829561575741,46.0409378316293],[14.1831526316118,46.0409144026406],[14.1833321921496,46.0408287689386],[14.1835650531,46.0407559324289],[14.1837441931675,46.040707545186],[14.1840305381464,46.0406349997253],[14.1842627943613,46.0406119142674],[14.1845842446877,46.0405769580677],[14.1848532544058,46.0404794534524],[14.1851043048351,46.0403819101273],[14.1852663978398,46.0402713154231],[14.1854839284591,46.04003685857],[14.185772456287,46.03981532383],[14.1860970015929,46.0395692114461],[14.1863487216509,46.0394344200245],[14.1866004948123,46.0392871217411],[14.1871201703634,46.0391169852452],[14.1874613881968,46.0389579044962],[14.1883230512284,46.0385666026781],[14.1892174944898,46.0382210548286],[14.1895445293363,46.0379443583667],[14.1899609345966,46.0377403653253],[14.1900649368459,46.0376961143367],[14.1901450742949,46.037516729909],[14.190989132733,46.0368239529753],[14.191352680218,46.0365051309589],[14.1915084421412,46.0363752276403],[14.1916465005556,46.0362810094108],[14.1917835183562,46.036258134764],[14.1919375422747,46.0362473470263],[14.1871451885895,46.0334636897855],[14.1861160978253,46.0329184879559],[14.1855995180891,46.0320725404233],[14.1849781176242,46.0313808720535],[14.1845011092762,46.0312192010915],[14.1818516632244,46.0312350859431],[14.1807007201876,46.0305763124226],[14.1785420907824,46.0298222019238],[14.1769338256203,46.0293885520739],[14.1758543558064,46.0290290555067],[14.1755825403176,46.0286402869186],[14.1749629691878,46.0278973802702],[14.1743179694824,46.0271543764249],[14.1733681512876,46.0265672529197],[14.1736248427458,46.0262702978449],[14.1742898454639,46.0256599360825],[14.1747330177614,46.0246963411053],[14.1751190090095,46.0241894115728],[14.1759057078868,46.0238787300861],[14.1762932500341,46.0232662654007],[14.1764576596428,46.0223885608],[14.1770985762358,46.0216901017964],[14.177155329803,46.0212686110056],[14.1770099740323,46.0208632103079],[14.1765349066238,46.0205784319635],[14.1756507950359,46.0206598751948],[14.1747870240193,46.0210754509649],[14.1740053336855,46.0210520786174],[14.1736620814984,46.0203816122087],[14.1726309421216,46.0201806125707],[14.1711477288149,46.0198356926509],[14.1692352703118,46.0195227247796],[14.1684570291317,46.0192708893064],[14.1677311342444,46.0188963419347],[14.1670769631794,46.0187860337135],[14.1662902883337,46.0190966548548],[14.1656334749313,46.0191620431329],[14.1647786526044,46.0189798950748],[14.1627820977541,46.0192287373768],[14.1617434530693,46.0195198456794],[14.1609601950885,46.0196019149641],[14.1602003825639,46.0198072389623],[14.159609202155,46.0196569514324],[14.1591758286279,46.0193972409045],[14.1584668337276,46.0190875420557],[14.1579209561429,46.0186507343429],[14.1573455531149,46.0184322591653],[14.1570482031306,46.0180784382223],[14.1564986591327,46.0177227553826],[14.1566250239867,46.0173196935126],[14.1567387682635,46.0168631822861],[14.1556853905553,46.0164685059386],[14.1543242571534,46.0164055357682],[14.1528131288336,46.0162535305097],[14.1515198778541,46.0167008370625],[14.1505360201045,46.0167109837965],[14.1498359991939,46.0163014239796],[14.1488894643629,46.0155207605525],[14.1486531931358,46.0144817511481],[14.148748008819,46.0132343925865],[14.1490671178901,46.0121644282242],[14.1487313628201,46.0110368604294],[14.1489021015011,46.0097724310966],[14.149091538429,46.0089301308914],[14.1487947354889,46.0086651888357],[14.1484258548423,46.0085451111866],[14.1480391753858,46.0084826646618],[14.1469961469599,46.0084958488251],[14.145695348256,46.0083769906006],[14.1447866258077,46.0084228302829],[14.1442104532907,46.0081723410324],[14.1430019425665,46.0080400168483],[14.1423731269067,46.0079297570444],[14.1418986204524,46.0076272926883],[14.1418319321317,46.0070467123731],[14.1415082059004,46.0067805593643],[14.1412672117434,46.0060579455728],[14.1412721989118,46.0055020170827],[14.140253924005,46.0045876658878],[14.140110413047,46.0046582975961],[14.1392971164705,46.0047988372548],[14.1381206039413,46.0048979424508],[14.1373973472078,46.004910480916],[14.1373170443376,46.0042620424393],[14.1366704170031,46.0043291407601],[14.1360778097384,46.0042436833862],[14.1356018158515,46.0041321120153],[14.1347371185117,46.0041075730416],[14.1343839148549,46.0044018214486],[14.1340608796636,46.0044173695344],[14.1338272326826,46.0044965779413],[14.1339232200543,46.0041373985445],[14.1337744772363,46.0037403736233],[14.1334953730424,46.0034233391886],[14.1331595739068,46.0034297902737],[14.1322228822018,46.0038816527993],[14.1313904435941,46.0042712263725],[14.1312060398443,46.0045037641124],[14.1303359818409,46.0048210626032],[14.1300310716943,46.0045038233765],[14.1299562903858,46.0043322983119],[14.1285781541412,46.0041148515655],[14.1275344293352,46.0039719230736],[14.1274887562263,46.0044214580044],[14.1268689271155,46.0044257217529],[14.1258734392794,46.0044991807389],[14.1254073971144,46.0045765941327],[14.1239539295658,46.0050423381563],[14.123641383268,46.0052108976041],[14.1232644253705,46.0053699643928],[14.1229460739398,46.005088593839],[14.122770022707,46.0047903194306],[14.1219125819558,46.0043068578207],[14.1217989534921,46.0041440265812],[14.1218264819495,46.0040362660444],[14.1216978085893,46.004008284186],[14.1211989642761,46.0045263142878],[14.1210773584755,46.0048672906441],[14.1211234713313,46.0052167549444],[14.1213530770824,46.0053207340321],[14.1210787274539,46.0055961125572],[14.1213838768571,46.0058953821346],[14.1213817402571,46.0060303307619],[14.1213242577469,46.0063987932763],[14.1213785414577,46.0070560404764],[14.1212529418664,46.0076489208687],[14.1212356143282,46.0079277153219],[14.1212807046691,46.0083419547106],[14.1204033238743,46.0082992144557],[14.1201303376017,46.0084140826966],[14.1200283331471,46.0083323183076],[14.119770110867,46.0083304196798],[14.1194725858733,46.0083641183433],[14.118855569976,46.0081884069804],[14.1182445761324,46.0076258390336],[14.1181055591016,46.0074358153159],[14.1177974155882,46.0073254649854],[14.1174198544105,46.0075204984666],[14.1172138533869,46.0074829166948],[14.1172018013027,46.0074288375863],[14.117021908708,46.0073734618089],[14.1167591102245,46.0076593564237],[14.1164980279194,46.0078372916768],[14.1161249011014,46.0077534274486],[14.1160548879594,46.0072850071824],[14.1149766955081,46.0068807650651],[14.1149449910978,46.0072494239668],[14.1149907513874,46.0076186827572],[14.1147813072669,46.0077970139713],[14.1144205199672,46.0077492304282],[14.1143363058282,46.0081714681986],[14.1145425944949,46.0081910620474],[14.1152151137465,46.0081242894188],[14.11554692748,46.0083697948967],[14.1159516240286,46.0089037885449],[14.115294445823,46.0088177239405],[14.1145903536908,46.0092441590639],[14.1141136434274,46.0091774810546],[14.1140631309986,46.0099148980398],[14.1132752473014,46.0099268728029],[14.1130144307994,46.0100868067715],[14.1129319281531,46.0104010846601],[14.1128260468637,46.0105622207028],[14.1124511805839,46.0105863029876],[14.1122530452218,46.0108636916117],[14.1123926114009,46.0110267336194],[14.1124035081484,46.0111527855348],[14.1120129903143,46.0113477004137],[14.1120231663261,46.011518735071],[14.1119416638239,46.0117700363084],[14.1122491002554,46.0119253851561],[14.1120402068744,46.0120677248586],[14.1119100799871,46.0121296973458],[14.1116136825548,46.0120914030068],[14.1114208687458,46.0120359180154],[14.1109947769048,46.012032604231],[14.1106590682343,46.0120299922518],[14.1102989936914,46.0119282153172],[14.1100018769342,46.0119348995048],[14.1091119708949,46.01186498207],[14.1089451285477,46.0118006976925],[14.1078207885159,46.0118549093574],[14.1076014322836,46.0118441990135],[14.1072407700048,46.0117873961578],[14.106272673392,46.0117619240527],[14.1059374017095,46.0117323086299],[14.105705086335,46.0116684070511],[14.1060766772899,46.0119043537251],[14.1057601233522,46.0123157696348],[14.1052231911356,46.0119786534725],[14.1047326728835,46.0127109105993],[14.1054500941732,46.01312313279],[14.1059571549758,46.0137119486037],[14.1057560756362,46.0141692559848],[14.1056423343846,46.0148161973238],[14.1061134288159,46.0152337753074],[14.107130179918,46.0154575773065],[14.1076697620347,46.0156327471602],[14.1082308344133,46.0160780118311],[14.1088374972804,46.0169015307228],[14.108884380064,46.0171988188857],[14.1086507883697,46.0172689784611],[14.1082861850389,46.0174550848905],[14.1078578815813,46.0175867069793],[14.1075211263677,46.0176470612047],[14.1064870731004,46.0185028458707],[14.1055042083068,46.0193859247094],[14.1046918050329,46.0201083728217],[14.1040630800875,46.0206523921898],[14.103982254246,46.020858704443],[14.1036660689243,46.0212431238997],[14.1027455372707,46.0214608416033],[14.1027530663655,46.0217938136768],[14.1026709239444,46.0220810934518],[14.1028083228951,46.0223700968876],[14.1028155613383,46.0227210619149],[14.1028657470148,46.0228204299905],[14.1028637096268,46.0229463810362],[14.1027567559065,46.0231704825274],[14.1029270805935,46.0238196500399],[14.10271666126,46.0240520268807],[14.1023518477481,46.0242471101848],[14.1023574815605,46.0246970365988],[14.1024713850632,46.0248418934796],[14.1025993686664,46.0249148796657],[14.1028698526787,46.0249619914962],[14.1032314686175,46.0249648296067],[14.103644453219,46.0249860647645],[14.1038227897845,46.0251404232751],[14.1038843114256,46.0253298561709],[14.1037918713663,46.0254550982849],[14.1035837775797,46.0255434426565],[14.1032304173919,46.0258285949672],[14.1034324038839,46.0261181042494],[14.104290597071,46.0265657179721],[14.1044830180099,46.0266482046755],[14.1045428001987,46.0269455952078],[14.1045143383707,46.0271163273399],[14.1044213154982,46.027277555914],[14.1043161032196,46.0273937006839],[14.1040930525597,46.0276078956716],[14.1039609903371,46.0277868130882],[14.1034635098173,46.0281968028882],[14.1033712094086,46.0283130480616],[14.1033267887516,46.02866360739],[14.1032339052749,46.028815838415],[14.1030636706278,46.0289585546554],[14.1027647151077,46.0290731772563],[14.1021563609971,46.0291493782534],[14.1020874112861,46.0294187656262],[14.1018909042941,46.0295881766178],[14.1016393797143,46.0299641004083],[14.1014557854604,46.03013361214],[14.100895872815,46.0304081352276],[14.1005330540572,46.0304772613538],[14.0999223449171,46.030697394057],[14.0995834561792,46.0308836748682],[14.099179543889,46.0310965250343],[14.0990354182552,46.0312213557782],[14.0989944763889,46.0313559975019],[14.0990187009045,46.0314551624429],[14.0991829592728,46.0316813980911],[14.0992826366761,46.0319071245293],[14.0994074883086,46.0320225583342],[14.0999497651778,46.0321913070147],[14.100272094402,46.0322298355805],[14.1010732115938,46.0322181444241],[14.1013306674161,46.0322741549766],[14.1015490839497,46.0323477633347],[14.1018303336196,46.0325299266454],[14.1019317706016,46.032647782971],[14.1019683346809,46.0327830347488],[14.1019388581246,46.0330077438817],[14.1021793224218,46.0333155526258],[14.1022784321942,46.0335772624372],[14.1020251430789,46.0340611445103],[14.1021435142826,46.0347368966231],[14.1011975177642,46.0349094132752],[14.1003834445202,46.0349210033334],[14.1000840131032,46.0350626079587],[14.1000359143598,46.0356380773139],[14.0999827844353,46.0357276351821],[14.0994094503449,46.0360291279133],[14.098386486951,46.0361740218579],[14.0979339370669,46.0361974436234],[14.0973177082484,46.0359586397548],[14.0971910250424,46.035804679438],[14.0964435779343,46.0356908009628],[14.0955047230408,46.0354314408603],[14.0951863433491,46.03514999421],[14.0941060031639,46.0348535118266],[14.0930792741572,46.0344314778556],[14.0918508825296,46.0337109105414],[14.0915036017962,46.0336181741057],[14.0910167449352,46.0333713668437],[14.0908388607961,46.0331899992665],[14.0895939161159,46.0326942166181],[14.0889254690222,46.0316991501751],[14.0887291576181,46.0310677506568],[14.0885141666065,46.0307871095157],[14.0874292417719,46.0315613356295],[14.0864091671645,46.0323179845434],[14.0856117642348,46.0328874558044],[14.0853176500799,46.0327051495978],[14.0843520357311,46.0317256728557],[14.0842430695426,46.0312839157043],[14.0837623612038,46.0306682236386],[14.0838490937888,46.030102067903],[14.0841362298307,46.0291416221933],[14.0839793245036,46.028474449463],[14.0836466409567,46.0282828320122],[14.0833668115034,46.0280196564063],[14.0833307420207,46.0278574095884],[14.08255049043,46.0273922689124],[14.0819042748115,46.0274141622973],[14.0809492846307,46.0273614982387],[14.0803954373158,46.0272580689146],[14.0797375031961,46.0272077846465],[14.0791439973313,46.027167013386],[14.0787620346529,46.0267786560357],[14.0781997819554,46.0264665829541],[14.0772925804305,46.0266482124606],[14.0768123233743,46.0267882962155],[14.0765391568503,46.0269030585883],[14.0766893459629,46.0271921966067],[14.0771235245529,46.0274926257029],[14.0772391638815,46.0275295500281],[14.0773273259887,46.0276652264481],[14.0776475172331,46.02782976859],[14.078327399649,46.0281141805305],[14.0787633879404,46.0283066462629],[14.0789686918058,46.0283892797715],[14.0792656004704,46.0284006698503],[14.079247137325,46.028742431379],[14.0792826475376,46.0290776995458],[14.0797138178532,46.0294210131826],[14.0800056570449,46.0297382801789],[14.080240761732,46.0303610094615],[14.0803486482316,46.0308658352529],[14.081445181197,46.0309555425594],[14.0815455300279,46.03113630176],[14.0821742547289,46.0313932865726],[14.0822751826174,46.0315470568655],[14.0824797593407,46.031674666341],[14.0829493310969,46.0321823027417],[14.083088734101,46.0323453786535],[14.0834359924234,46.032438140516],[14.0835902472199,46.0324843656963],[14.0837424207629,46.0326565408345],[14.0838702486097,46.0327385442873],[14.0841584135494,46.0332807118067],[14.084089371108,46.0335500874346],[14.0842271461879,46.0338121228045],[14.084378879552,46.0340112864161],[14.0845191826751,46.0341203819592],[14.0845962385587,46.0341479920783],[14.0847399585579,46.0340501692294],[14.0847460418329,46.0344641988893],[14.084845219554,46.0347169267277],[14.0848591535057,46.0354458462055],[14.0852793359204,46.035818112772],[14.0851645654434,46.0365100113688],[14.0856080702318,46.0370354229746],[14.0860769738555,46.0375880287934],[14.0848578057399,46.0378751944253],[14.0837556294459,46.0381182969214],[14.0830035650157,46.038283309877],[14.0819990989442,46.0380862958179],[14.0809046631344,46.0378615565367],[14.0806081510704,46.0378231810797],[14.0804391753631,46.0378848049714],[14.0800763031474,46.0379448680404],[14.0796754033835,46.0379686332359],[14.0793641808415,46.0380381075824],[14.0790416838814,46.0380085163602],[14.078343673617,46.038029882267],[14.0785441132466,46.0391921919686],[14.0786051965358,46.0395435917215],[14.0790267611044,46.0395442903895],[14.0800274533612,46.0393391064396],[14.0804938489524,46.0392618812513],[14.0811149620611,46.0392038934726],[14.0810114094867,46.039994851556],[14.0809647486718,46.0404713502438],[14.0809595276309,46.0407862249655],[14.0809148049834,46.0411457701037],[14.0806465835955,46.0417375455927],[14.0800535188784,46.0416607923159],[14.0793045354652,46.0416367656907],[14.0790970896039,46.0416800824035],[14.0789142846836,46.0417955782839],[14.0788211623822,46.0419567848631],[14.0786609032937,46.0422704096532],[14.0785559076096,46.0423685369604],[14.0789732584666,46.0429117581617],[14.0789675771381,46.0432536218066],[14.0790625576468,46.0437582537047],[14.0789584568958,46.0438024028767],[14.0791349697215,46.0440737537234],[14.0790302704131,46.0441538885957],[14.079066187654,46.0443251327073],[14.0794097776914,46.0446428173768],[14.0790549734906,46.0449999533793],[14.0787943415496,46.0451328170638],[14.0780919012291,46.0454150765319],[14.0775701783673,46.0457077880302],[14.0766936233713,46.0463575355334],[14.0756366195153,46.0469788240762],[14.0762746656481,46.0474608562185],[14.0766595673816,46.0476259235145],[14.0771080556045,46.048628370599],[14.0773490468283,46.0489002446334],[14.0772512633351,46.0493403379428],[14.0771292854118,46.0496812620974],[14.0768866739336,46.0502821423667],[14.0766142905702,46.0503429252125],[14.076286774266,46.0506102067421],[14.0760133384495,46.0507339628828],[14.0754382195563,46.0511252063589],[14.0750756833074,46.0511673509468],[14.0741070699803,46.0511325150941],[14.0735899352292,46.0511463196067],[14.0729814511578,46.0512133664843],[14.0725152459154,46.0512725672484],[14.0722288776194,46.0513962093732],[14.0719692540509,46.0514660823266],[14.0715407812534,46.0515174876563],[14.0707732873893,46.0518882496638],[14.0701757502287,46.0520723394501],[14.069826881803,46.0520695005886],[14.0692302449266,46.0521996971109],[14.0686326993898,46.052383778755],[14.0682690924996,46.0524887862669],[14.0670485970338,46.0528297361777],[14.0662035624426,46.053128753374],[14.0659687042302,46.053261798241],[14.0659533561065,46.0534056344371],[14.0658860189915,46.053567040919],[14.0655319807078,46.0538701551197],[14.0652677835721,46.0542099034597],[14.0647834601541,46.0545748428952],[14.0647041078271,46.0546821647305],[14.0645838635062,46.0549151182231],[14.0646808576485,46.0552938112247],[14.0643394211188,46.0556149300024],[14.0639230333481,46.055782474711],[14.0638170735744,46.0559345659698],[14.0638126644895,46.0561954601938],[14.0636810116132,46.0563383432521],[14.0632760172052,46.0565959548998],[14.0628878981634,46.0566197659521],[14.0627705323864,46.0566818767023],[14.0626262579995,46.0568066598376],[14.0624400189096,46.0571200480691],[14.0623452995983,46.0573712036998],[14.0620435176495,46.0576386552743],[14.0618346273609,46.0577629070763],[14.0613926760144,46.0579122374779],[14.0609656273595,46.0579447198764],[14.0606297978224,46.0579329624948],[14.0603341090999,46.0578405558068],[14.0601402736655,46.0578389619513],[14.0599716722851,46.0578735657034],[14.0598392420467,46.0580614258847],[14.0597344883522,46.0581415424681],[14.0597848037491,46.0582229347634],[14.0599643439876,46.0583053899967],[14.0600789670022,46.0584053062683],[14.0601500908558,46.0587837901407],[14.0602378015396,46.0589464680853],[14.0601475683024,46.059077180933],[14.059976295619,46.0591242693743],[14.0595269047753,46.0589496179722],[14.0593209052722,46.0589030246375],[14.059101220965,46.0589012162638],[14.058841240263,46.0589890515767],[14.0586607821869,46.0589605725931],[14.0586233903954,46.0588792862628],[14.0584298572753,46.0588596968101],[14.0580932579428,46.0588929136074],[14.0578770931311,46.0586841872169],[14.0576974017885,46.0586107250572],[14.0573866486449,46.0586441528712],[14.0569309900883,46.0588383409234],[14.0564765543132,46.0589605564958],[14.0562025976708,46.0591022559901],[14.0559122953001,46.0594597620483],[14.055794150488,46.0595667571661],[14.0557649309918,46.0597644628123],[14.0554141745046,46.059869535495],[14.0552709493955,46.0599313348126],[14.0552303394736,46.0600389702297],[14.0552254289504,46.0603268525936],[14.0550845046148,46.0602537068098],[14.0548825234146,46.0607289990431],[14.0548397628428,46.0609625828013],[14.0546563830432,46.0611050275756],[14.0545266912959,46.0611309475264],[14.0542777727442,46.0613268350359],[14.0546462484779,46.0616987847254],[14.0546180985769,46.0618335157273],[14.0545248712795,46.0619947011433],[14.0546824007547,46.0620569179054]]]},"properties":{"fill-opacity":0,"stroke-opacity":1,"stroke":"#ff0000","lov":"0241","lov_naziv":"ŽIRI","luo":"02","luo_naziv":"Gorenjsko","povrsina":4526.65},"id":"pregledovalniklovisca.1"}]}