<?xml version="1.0" encoding="utf-8" ?>
<kml xmlns="http://www.opengis.net/kml/2.2">
<Document id="root_doc">
<Schema name="pregledovalniklovisca" id="pregledovalniklovisca">
	<SimpleField name="lov" type="string"></SimpleField>
	<SimpleField name="lov_naziv" type="string"></SimpleField>
	<SimpleField name="luo" type="string"></SimpleField>
	<SimpleField name="luo_naziv" type="string"></SimpleField>
	<SimpleField name="povrsina" type="float"></SimpleField>
</Schema>
<Folder><name>pregledovalniklovisca</name>
  <Placemark id="pregledovalniklovisca.1">
	<Style><LineStyle><color>ff0000ff</color></LineStyle><PolyStyle><fill>0</fill></PolyStyle></Style>
	<ExtendedData><SchemaData schemaUrl="#pregledovalniklovisca">
		<SimpleData name="lov">0921</SimpleData>
		<SimpleData name="lov_naziv">BOJANSKO ŠTORE</SimpleData>
		<SimpleData name="luo">09</SimpleData>
		<SimpleData name="luo_naziv">Savinjsko Kozjansko</SimpleData>
		<SimpleData name="povrsina">4018.93</SimpleData>
	</SchemaData></ExtendedData>
      <MultiGeometry><Polygon><outerBoundaryIs><LinearRing><coordinates>15.3790316390343,46.1790806644757 15.3786735180693,46.1788753616843 15.3779219795369,46.1776598746846 15.3770822142248,46.176568567372 15.3763647429528,46.1759514626048 15.3758829882299,46.1750654566933 15.3731071798384,46.1732987379174 15.3713451484896,46.1720243282408 15.36928708556,46.1708951658208 15.3681510705071,46.1698871643241 15.3680246343593,46.1687936695318 15.3687037296844,46.1681724611681 15.3691122267886,46.1670773306433 15.3691334763018,46.1658594655323 15.3689458010079,46.1644977765388 15.368428835371,46.1627655563072 15.3688967386964,46.1616908380663 15.3690066513166,46.1603902695149 15.368551631986,46.1590293512772 15.3678320173865,46.1580612994064 15.3621121030369,46.1556422549355 15.3614776174655,46.1562820890417 15.3607188528885,46.1561338693092 15.3603398977474,46.156134884532 15.3599116955026,46.1568633136917 15.3595754279706,46.1572766329087 15.3588859974843,46.1574385933011 15.3584294633939,46.158015589446 15.3574657171354,46.1584661379019 15.3557615308471,46.1583430613638 15.355763385791,46.1586308824259 15.3554894825811,46.1589835328573 15.3547996075042,46.1590814984217 15.3540632257427,46.1591155423919 15.3539735540328,46.1594676183937 15.3541591061203,46.1596909889312 15.3542989008456,46.1599465317224 15.3531022140957,46.1599819052328 15.350660985552,46.1597966955328 15.349834763374,46.1601828760305 15.3496067061668,46.1605033412162 15.3504832946217,46.160788843613 15.3511308967499,46.1612668673433 15.3522390769502,46.1617435590863 15.3529332103919,46.1622854006187 15.3531219671407,46.1629885938303 15.3524342841354,46.1634383363192 15.3517451632746,46.1636642239495 15.3511055191576,46.1644017270748 15.3511085716939,46.1648815485298 15.3508828693563,46.1655538966555 15.3511632733697,46.1661928399265 15.3504339595401,46.1673144428849 15.3477148649568,46.1669381076373 15.3456447608502,46.1672315821131 15.3441684458098,46.1667877865679 15.341035566487,46.1664764189004 15.3399312597018,46.166607290968 15.3378601469729,46.1667407439237 15.3350963601281,46.1665561548587 15.3326989411573,46.1660506661559 15.3307656165815,46.1661197080429 15.3288771739797,46.1660286145717 15.326573167331,46.1657146428752 15.3250562922332,46.1661343755459 15.3230729801991,46.1655636252349 15.3210472757015,46.1656007331088 15.3200811053634,46.1657310254012 15.3190671121443,46.1655416758574 15.3180088702592,46.165672297554 15.316992917948,46.1651629879398 15.3157959621375,46.165197881618 15.3152428783669,46.1651033160611 15.3144146875143,46.1652013291348 15.3139552586043,46.1653623854402 15.3135403425867,46.1652674321033 15.3125709058188,46.1648459500346 15.312803080935,46.1651652621013 15.3134504093782,46.1656434996206 15.314189765813,46.1660895398175 15.3143301208205,46.1664730724572 15.3139632967235,46.1667297862207 15.3132737943305,46.1669234121138 15.3119385761903,46.1669267034779 15.3099129925248,46.1669955544131 15.3090400470688,46.1673175947392 15.3078817420466,46.1660727828224 15.3040517899383,46.1646105212345 15.3040025200566,46.1640348193572 15.3028477329985,46.1633978101442 15.3026186883045,46.1635903310461 15.301974627592,46.1636877664369 15.301696378613,46.1633365232029 15.3017865196322,46.1629844872823 15.301139891794,46.1626341245848 15.300540717194,46.162507578554 15.2992515712483,46.1625106006185 15.2983313269063,46.1626087381543 15.2976883050317,46.1628980610613 15.2973214274226,46.1631548116856 15.2974148279693,46.1633785137781 15.2981528586665,46.1636327469635 15.2988459667893,46.1640789171672 15.2991720332267,46.1647498993268 15.298898560003,46.165230355428 15.2982548196945,46.1653918303885 15.2981655165637,46.1659038347206 15.2975183170777,46.1654255103592 15.2964573184503,46.1650761090405 15.295674849842,46.1651098963318 15.2951692679553,46.1652709964918 15.2946175842949,46.1654322132346 15.2941094804773,46.1651455152313 15.2928185746769,46.1648285221514 15.2912047501515,46.1644164253666 15.2900527144791,46.1642270800267 15.2892682799814,46.16390894057 15.2882532928756,46.1635274058558 15.2875599806559,46.1630491412036 15.2869140700409,46.1627946084434 15.2863590678242,46.1623160792036 15.2854841083946,46.1622860569581 15.2841509752423,46.1626728472951 15.2830473926458,46.1629311110188 15.2824023570107,46.1628685549229 15.2811355973577,46.1627433744826 15.2810908522802,46.162983444929 15.2805666569788,46.1639961292641 15.2802941626143,46.1647004834787 15.2797451643986,46.1653733932575 15.2796782530768,46.1657894161827 15.279084641346,46.1667343327687 15.2775708018256,46.1678091570795 15.2771126084073,46.1682419631132 15.2768616064346,46.168674355644 15.2769807943986,46.1694578287756 15.2767521152042,46.1697462088082 15.2767307483575,46.1700821327138 15.2774470582834,46.1705764219748 15.2774251010869,46.1707683893444 15.2769652269771,46.1708972672146 15.2767362209329,46.1711216765784 15.2774344559148,46.1725516467346 15.2774260620081,46.173483705152 15.2773179108409,46.1739972677249 15.2763601524224,46.1745381698279 15.2753271426402,46.1748227300506 15.2744047306085,46.17505564051 15.274184279771,46.1752870420063 15.2739295913074,46.176057467591 15.2733778094506,46.1765206234171 15.2727154036596,46.1770352355223 15.2722016541155,46.1777291672979 15.2720552635527,46.1780117631725 15.2723580614101,46.1793969963675 15.2726198919019,46.1800379742968 15.2731762954461,46.180447375696 15.2742872097072,46.1809326426233 15.275953041185,46.1815194003953 15.2768777449461,46.1816970217723 15.2783559366681,46.1817451668942 15.2801303688426,46.1818953172308 15.2819440863191,46.1824816251396 15.2838351071306,46.1837093139528 15.2848388705744,46.1848362556203 15.2857162895293,46.1886725169373 15.2874600482598,46.188930778171 15.288215782842,46.1890702237301 15.2888811672746,46.1886050007956 15.2891267926521,46.1886057294509 15.2900432042301,46.1887031886976 15.2909731820574,46.1888422637999 15.2919318623625,46.1889207058765 15.2926022647139,46.1893829852732 15.2937677844324,46.1901062621843 15.2949009502577,46.1902246289358 15.2951619496068,46.1901434290968 15.2944355168106,46.1953275026636 15.294963605641,46.1962942550557 15.2962734617543,46.1968155027468 15.2991296113282,46.1986035735859 15.2999460983912,46.1991864409806 15.3008832508716,46.2005554418197 15.3008631809659,46.2021485620263 15.3005016526257,46.2029323704781 15.2974866462729,46.2060685359622 15.2985098272937,46.2072558547569 15.2979066498109,46.2084672078256 15.2968114050192,46.2100224538711 15.2971798238332,46.2097771296417 15.2980748353749,46.2096121280931 15.2991628656267,46.2096244016024 15.3000174899065,46.2098741768871 15.3008095238577,46.2103609198557 15.3012609078527,46.2109522045472 15.3012420015927,46.2113816962263 15.3012650048654,46.2116778272119 15.3002637921132,46.2119318461675 15.2999230696377,46.2120511451934 15.2996921973275,46.2127328472596 15.2997630689018,46.2131814473978 15.2999982126324,46.21366488597 15.3016901949503,46.2148909057021 15.3041600488693,46.2149656970297 15.3053520539745,46.2151040471703 15.3066338546787,46.2157260193332 15.307277603704,46.2165109255163 15.3067039838512,46.2178230134247 15.3065587554094,46.2228897831369 15.3075507065133,46.2235931368311 15.309962657444,46.2236275606607 15.3104318377829,46.2243725233309 15.3120580493809,46.2241870705164 15.3140036691444,46.2239805637928 15.3157746935276,46.2237341984356 15.3175703071124,46.2227416814578 15.320675021458,46.2220079228751 15.3205170245708,46.2247506520057 15.320693503329,46.2250930439927 15.3217154187428,46.2259172040943 15.3222154787398,46.2269241223446 15.3217280588768,46.2280142571395 15.3217879160587,46.2282964236162 15.322196609835,46.228618005314 15.3218586407568,46.230393402246 15.3250847786816,46.2304657897958 15.3257515416041,46.2302019809467 15.3260671709054,46.2295356418671 15.3266490718734,46.2296551742324 15.3277842105503,46.2299345301264 15.3285403683544,46.2300333991977 15.3293238802471,46.2298498496207 15.3310725388201,46.2306720096721 15.3315415793979,46.2313362696022 15.3320384639295,46.2317785736531 15.3316221777441,46.2349454753682 15.3323901143807,46.2369397411493 15.3323746086079,46.2391175764215 15.3336560570922,46.2387042879851 15.3351422721082,46.2378513181063 15.3371698151953,46.2379785162641 15.3377787896575,46.2375258652625 15.3404139287783,46.2369615679933 15.3409499473087,46.2370662285671 15.3416793566162,46.2375153543435 15.3425601266596,46.2376986923818 15.343202918217,46.2373744821927 15.3439859446964,46.2372703697558 15.344472987283,46.2368612367498 15.34446958576,46.236317631533 15.3444642237863,46.2355021344203 15.3454892379138,46.2349556058645 15.3466626264266,46.2346465963204 15.3475902295608,46.234202283354 15.3486203521834,46.2344712246028 15.3495521653155,46.2346725277143 15.3505805754097,46.2346696486939 15.3515085813969,46.2342933221366 15.3532219319748,46.2341865521612 15.3549840653737,46.234045685296 15.3545633015164,46.2333757037875 15.3547552422087,46.2327805679177 15.35521844888,46.2324734019692 15.3557037391944,46.2317924182205 15.3558472052825,46.2312823655327 15.3557465591933,46.2308749217532 15.3564033068213,46.2302274109408 15.3568624995675,46.2293256199161 15.357421559053,46.2287124177107 15.3579841591292,46.2286258130184 15.3580980125597,46.2273343452119 15.3590607203402,46.2248510417078 15.3597147868028,46.2238297718556 15.3598546430569,46.2227760180072 15.3592145077161,46.222234144362 15.3588448482298,46.2218614674183 15.3598633236731,46.2204143791033 15.3604158864491,46.2188667216582 15.3602905101907,46.2184253491346 15.3598135403955,46.2166427751984 15.3573438599534,46.2170576495494 15.3567304222519,46.2168214965452 15.3566268073365,46.2159722938849 15.3560603519629,46.2155831263754 15.3551284323314,46.2151780869514 15.354166515549,46.2140764709605 15.3529880346666,46.2135360482005 15.3526675537082,46.213197208732 15.3523950878829,46.2127052660041 15.3517561197448,46.2123163004527 15.3509699993737,46.211876768371 15.3501850791969,46.2116241014405 15.3484235312408,46.2111927539175 15.3478845116513,46.2105956239385 15.3479377423814,46.209646064882 15.3485282745975,46.2090045566535 15.3495368725639,46.2086302479169 15.3514862574521,46.2066433306193 15.3525216966246,46.2058560255979 15.3539816070032,46.2018168423948 15.3544122252312,46.1995039132344 15.3533630498913,46.1982065960003 15.3520222335623,46.1977355831366 15.351004656017,46.1967064472583 15.3508725855186,46.1947047642598 15.3514012210691,46.1937125329933 15.3539226790718,46.1929417797788 15.355730209833,46.1920698150659 15.3567383198227,46.1916954431163 15.3581654793262,46.1917532423734 15.3622386438915,46.1918860756249 15.3628947982242,46.1922143772352 15.363903399913,46.1919018422921 15.3644659435302,46.191590631414 15.364818912291,46.1910322997422 15.3652638751373,46.1909071653502 15.3687408292124,46.1907937933495 15.3694559197999,46.1910393615596 15.3703806006753,46.1915113395257 15.3705892151637,46.1915932591155 15.3719718492255,46.1895045324626 15.3724978439835,46.1882232162174 15.3724919986108,46.1873770340469 15.3729919169773,46.1866118884083 15.3743234137585,46.1857616047995 15.3745283681496,46.1853069268109 15.3767478854493,46.1839586672102 15.3789445551803,46.1835804455541 15.3803384607605,46.1831634674116 15.3812842165739,46.1824174946672 15.3813958729389,46.1814058184464 15.3807035492623,46.1801695487045 15.3790316390343,46.1790806644757</coordinates></LinearRing></outerBoundaryIs></Polygon></MultiGeometry>
  </Placemark>
</Folder>
</Document></kml>
