{"type":"FeatureCollection","features":[{"type":"Feature","geometry":{"type":"Polygon","coordinates":[[[15.2343163104197,46.3879122071232],[15.233853353167,46.3858809042794],[15.2330945468184,46.3852888288885],[15.23324337073,46.3847300792397],[15.2335402271576,46.3833681311981],[15.2340928939035,46.3829133703606],[15.2356044317473,46.382631447872],[15.2365091284372,46.381966588279],[15.2366569827994,46.3811634761194],[15.2373585010819,46.3801499445141],[15.2386677105719,46.3797286770087],[15.2407348002209,46.3797248840535],[15.2416401325759,46.3791996163626],[15.243702362833,46.3780788863286],[15.2453135237619,46.3775871715426],[15.2460606748428,46.3769969792321],[15.2468655667379,46.3766178181715],[15.2470766964707,46.3760755596695],[15.2470033713595,46.3755830394028],[15.2472861732672,46.3751392333069],[15.247236560955,46.3746302871878],[15.2468778873733,46.3739577223835],[15.2503876817388,46.3727509635097],[15.2519026793293,46.3722829381977],[15.2532892160249,46.3722052898996],[15.2549170213672,46.3713236497065],[15.2559030871338,46.3706939022944],[15.2569077246117,46.3705093692271],[15.2585071671471,46.370608961076],[15.2593623032234,46.370173456331],[15.2601683782193,46.3695364325795],[15.2619637765457,46.3688427087646],[15.2625464638687,46.3683314187725],[15.2646029613272,46.3678922104289],[15.265035084617,46.3676176089175],[15.2650344161063,46.367452514278],[15.264405586121,46.3673638193432],[15.2655081438465,46.3668065055119],[15.268082259878,46.3658710126998],[15.2693579909719,46.3653133454556],[15.2708952321255,46.3650550970682],[15.2716523539967,46.3647834788158],[15.2724104568364,46.3647368699788],[15.2739504623472,46.3650637434763],[15.2757464655216,46.3645797928836],[15.2768728501588,46.364502395531],[15.2776089153024,46.3643658348533],[15.2792522066792,46.3636871431928],[15.2795100896442,46.3632365694578],[15.2792042228455,46.3627121573889],[15.2785304717271,46.362293547013],[15.2784637182478,46.3619186214643],[15.2782669385937,46.3615551687078],[15.2767208830871,46.3599382766564],[15.2765209411286,46.3589184913683],[15.2757564652047,46.3576298858842],[15.2757116845529,46.3573299411198],[15.2754489115164,46.3567304688509],[15.2747950620794,46.3559066493321],[15.2744454109597,46.3552623079453],[15.2745513758015,46.3547819689871],[15.2750918079588,46.3545258726301],[15.2754585428103,46.3542250268669],[15.2754128412597,46.353715001986],[15.2745611033192,46.3522615908279],[15.2747317265696,46.3517211755456],[15.2754881174822,46.3513444469254],[15.276437630891,46.3505923376538],[15.2778202703039,46.3498092985565],[15.2773838112659,46.3491351260338],[15.275930741641,46.3487781278721],[15.2749968150056,46.3482550371028],[15.274648262443,46.3478206851327],[15.2747754572785,46.3472503233469],[15.2754429248611,46.3464088381891],[15.2758492562325,46.3453127314461],[15.2758417231817,46.3437375366205],[15.2745542369467,46.3417299616728],[15.2736862948463,46.3413867332872],[15.2734032923,46.3410872667177],[15.2730299482065,46.339992850542],[15.2726159360699,46.3394686769213],[15.2726329678617,46.3384784140788],[15.2731722966686,46.3380572316164],[15.273946812373,46.3369754549849],[15.2759696797673,46.3342857608175],[15.2761153834088,46.3330402074909],[15.2760251806679,46.3323052703592],[15.2762177965682,46.3318398338787],[15.2762153583476,46.3313297028044],[15.2754312442001,46.3303712410129],[15.2758586581747,46.3291776414468],[15.2758786884921,46.3288475784442],[15.2763085569025,46.3281714858909],[15.2761767192272,46.3277817787921],[15.2759370001489,46.327452162824],[15.2760863525922,46.3269868305597],[15.276968912074,46.3259197056357],[15.2771830884677,46.3254092291044],[15.2782369190105,46.3239367176765],[15.2782129278347,46.3234566888163],[15.2779292340668,46.3230072519118],[15.2778409224484,46.3226473110766],[15.2785098946384,46.3221958266686],[15.2791763914189,46.3212342964515],[15.2800400216082,46.3207373418362],[15.280513784446,46.3202111973209],[15.2804019889191,46.3194763149515],[15.2810480399044,46.3187698025829],[15.2810022645322,46.3182748021767],[15.2813456088274,46.3176439777101],[15.2812795309589,46.3174191216319],[15.2809973789719,46.3172696529724],[15.2796110482565,46.3171075938904],[15.2791119880222,46.3168686793031],[15.2788069187716,46.3164492567427],[15.2789743720536,46.3152637437864],[15.279293800805,46.3141678307477],[15.2786827047836,46.3131340193767],[15.2785915881328,46.3122190508595],[15.2788922207102,46.3116933339573],[15.2788899343743,46.3112432117991],[15.2782388056204,46.3108845519217],[15.2782596292092,46.3106894428747],[15.2787339548577,46.3103133760243],[15.278991593336,46.3098627997876],[15.2789243148354,46.3093978107886],[15.2783817902651,46.3090989876662],[15.2776790384374,46.3088214245889],[15.2769795137698,46.3093366791308],[15.2763146503736,46.3093893016326],[15.274911305763,46.3094947120571],[15.2737297664541,46.3096636342546],[15.2719775624453,46.3102435436743],[15.2707997796193,46.3112318877056],[15.2667777115889,46.3123541106498],[15.2650468692834,46.3135996530448],[15.2650858395771,46.3140604868139],[15.2649075430346,46.3154820899532],[15.2647615016411,46.3158664265348],[15.2632486696146,46.3163304834951],[15.2625674055566,46.3168567635625],[15.2622360261967,46.3171007169123],[15.2616268659424,46.3172299617873],[15.2606872176279,46.3178208811488],[15.2602992846904,46.3178344508914],[15.2598725948418,46.3174511533249],[15.2592093093423,46.3178622089471],[15.2589688527878,46.3177858281928],[15.2588006524421,46.3173637030298],[15.2583015386274,46.3172878160322],[15.2580073667896,46.317634150541],[15.2570860010617,46.3181737152765],[15.2562549205622,46.3182521465152],[15.2554416808369,46.3182025024853],[15.2544828085902,46.3186141006036],[15.2517693250949,46.319195474815],[15.2508489708078,46.3200039114836],[15.249853243288,46.3204923870699],[15.2487644861598,46.3208017433575],[15.2459930458234,46.3208324813345],[15.2446464222266,46.3213599936629],[15.2443712819322,46.3218341914196],[15.244002496858,46.3220142019723],[15.2429871137549,46.3222208691539],[15.2421943013682,46.3226321008716],[15.2410157157681,46.3236200475435],[15.2382291698575,46.3244828641488],[15.2370842609618,46.3246641067601],[15.2357721043576,46.3246408181302],[15.234867931982,46.3249368851668],[15.2336299577022,46.3249518373208],[15.2323748211496,46.3252997048857],[15.231228688771,46.3251991910851],[15.2299709782705,46.3249068014529],[15.2290473667364,46.3249723549809],[15.2270587360604,46.3253923485635],[15.2257611535603,46.3258212019632],[15.2250464566313,46.3262284714158],[15.223842196873,46.3263657921618],[15.2228660771807,46.3265253285634],[15.2216625343736,46.3268431073858],[15.2208819098737,46.3270474132891],[15.2192550862768,46.3273658936303],[15.2175315216309,46.327955258489],[15.2142454276521,46.3286598197515],[15.2129105127684,46.3286844460478],[15.2114456777286,46.32879944829],[15.2100472008985,46.3292528717597],[15.2090727926071,46.3299537341923],[15.2085542874584,46.3306313547948],[15.208001372869,46.3308352470442],[15.207545658202,46.3308810607134],[15.2069915501962,46.3307014028563],[15.2065994622781,46.3303635501587],[15.2060721213707,46.3285593183959],[15.2053203831619,46.3277933056461],[15.2042427006037,46.3268923737373],[15.20284092301,46.3264206302277],[15.2013426656949,46.3262648387209],[15.1993890965701,46.326290214899],[15.1981509176476,46.3260437765154],[15.1965209378358,46.3254368538874],[15.1954465606838,46.3254834110597],[15.1944381758301,46.3257555839721],[15.1928755873084,46.3258705145671],[15.191735317524,46.325646424309],[15.1906280730597,46.3255802572535],[15.1897804127911,46.3252429252404],[15.1865855776088,46.3240062188278],[15.1842069332498,46.3234226525617],[15.1838677273278,46.3245085227804],[15.1824537156123,46.3264187194832],[15.1817758323703,46.3271001620536],[15.1805687376442,46.3276776208993],[15.1776253116913,46.3287806903223],[15.1759423312498,46.3302311995952],[15.1753388523077,46.3305810350094],[15.1751135828931,46.3310524695722],[15.1758504767189,46.3331806873236],[15.175599401888,46.3337485214482],[15.176859913009,46.3341308457025],[15.1789297317585,46.335489609161],[15.1801079056792,46.3361344721542],[15.1805139390132,46.33683929562],[15.181111404846,46.3370573406246],[15.1821591390053,46.3370911249958],[15.1822929860853,46.3387096720813],[15.1821547445769,46.3393666814214],[15.1814898603559,46.3400607859408],[15.1814559038178,46.340437908636],[15.1813869928211,46.3408515250327],[15.1822486831536,46.3412881340957],[15.183030443248,46.341592877054],[15.1834094436658,46.341882336485],[15.1835862931731,46.3422835035356],[15.1832881278673,46.3423933866418],[15.1827434106182,46.3422359993796],[15.1826038208867,46.3425280884567],[15.1821655112911,46.3426868666742],[15.1819202459407,46.3428453362542],[15.1818519804355,46.3434534691036],[15.1820465637607,46.3439154306332],[15.1821014802191,46.3446085698948],[15.1800210357255,46.3473844101195],[15.1805698312776,46.3488066154874],[15.1806252951816,46.349670068976],[15.1800329043554,46.3511181854389],[15.1801752371905,46.3516896364004],[15.1806690214545,46.3523334987891],[15.1813392037715,46.3532325966757],[15.1815509962225,46.3535849464478],[15.1853445772909,46.3537255131659],[15.18762793041,46.3538316438882],[15.1915072989344,46.3533758983056],[15.1937543189076,46.3531657199061],[15.1945492426798,46.3545144731369],[15.1973621752117,46.3554223171918],[15.1969944667291,46.3582857328767],[15.1966195925816,46.3587998413924],[15.1963338035439,46.3588273236612],[15.1963340935665,46.3589082968759],[15.1961785097876,46.3590075317631],[15.1961138577248,46.3590977034184],[15.1960754842448,46.3592686237461],[15.1959071615995,46.359439946697],[15.1956478401617,46.359602248102],[15.1954011921377,46.3596747364224],[15.1949085333263,46.3599994719867],[15.1946358919982,46.3600719129813],[15.1942851540274,46.3600725094195],[15.1941164087893,46.3601267784546],[15.1939352384466,46.3603790040047],[15.1935995274543,46.3609553857359],[15.1937818408867,46.3610990301469],[15.1937692935509,46.3611890221641],[15.1936527169535,46.3612972745161],[15.1935884072706,46.3614863219814],[15.1930934941467,46.3616214850731],[15.1924059978042,46.3619086608872],[15.1924950712872,46.3620718978486],[15.1927717991078,46.362418718737],[15.1928812652019,46.3627999200851],[15.1927548241281,46.3632087803201],[15.1927554705789,46.3633925894135],[15.1929042544237,46.3637192021411],[15.1931614313374,46.3641205772162],[15.1938315672433,46.3644667302156],[15.1939761967711,46.3645716607263],[15.1940808696395,46.3647334303845],[15.1941084553718,46.3651832370388],[15.1940192651578,46.3656873142196],[15.193812372127,46.3659845683051],[15.193657145245,46.3661917638418],[15.1932298132104,46.3666333430143],[15.1930230390988,46.3669665836857],[15.1928422244632,46.3672907831238],[15.1926869303796,46.3674439950151],[15.1924532045414,46.3675433563225],[15.1920636137433,46.3676340719435],[15.1918177788383,46.3679133935844],[15.1917011797306,46.3680575421419],[15.1915981515663,46.3682916384827],[15.191650580334,46.3684175095253],[15.1914826242206,46.3687056969244],[15.1912364317937,46.3689220384186],[15.1911980052365,46.369084049808],[15.1912510304845,46.3693808642084],[15.1913561401244,46.3697045826114],[15.1914347217112,46.3698753952647],[15.1915782597114,46.3700371019954],[15.1919041733549,46.3703154644295],[15.1924377079948,46.3704585208146],[15.1924771712237,46.3706293985515],[15.1925818794341,46.3708361546526],[15.1926876676071,46.3713128206206],[15.1924937443639,46.3716101401387],[15.1924551616543,46.3717271668436],[15.1924689180382,46.3719430730983],[15.1923521893979,46.3720152459685],[15.1921709124374,46.3722134860216],[15.1918336577274,46.3724119875417],[15.1915349859472,46.3724934616967],[15.1911073367407,46.3728630565155],[15.1906141271775,46.3730708119912],[15.1906535287624,46.3731877080429],[15.1904592747888,46.373394964031],[15.1900059893178,46.3738726520004],[15.1893963404245,46.3742425425807],[15.1891763915851,46.3745398094462],[15.1896589626924,46.3749708687135],[15.1898159439565,46.375258513962],[15.1898839935704,46.3761401121296],[15.1896253853841,46.3765364115078],[15.1889906375993,46.3771763428436],[15.1889521055864,46.3773113622666],[15.1882775695296,46.3777263390937],[15.1879795492069,46.3779697496902],[15.1875514636871,46.3782313669837],[15.1870979214811,46.3786910493368],[15.1869430396642,46.3789792081496],[15.186801087256,46.3792853397119],[15.1867240706471,46.3795733709793],[15.1866472984913,46.3799333781472],[15.1866767703482,46.3809140079376],[15.1867297827574,46.3812108238373],[15.1869777065865,46.3814803300485],[15.1873814820287,46.3817045952303],[15.187498946222,46.3818393583406],[15.1875383475283,46.3819562552862],[15.1883860967162,46.3827106134219],[15.1889459555035,46.3829526098872],[15.1890241761016,46.3830154599085],[15.1890765199788,46.3831143408254],[15.1890508604338,46.3832133506945],[15.1888697207333,46.3834655671322],[15.1884292462263,46.3839162357161],[15.1884051079247,46.3844201096733],[15.1883407222881,46.3846001565006],[15.1883807153935,46.3848879958481],[15.1884606719185,46.3854546774696],[15.1881114646154,46.3859860775823],[15.1878786765663,46.3863463416997],[15.1877007104372,46.3865807368011],[15.187956495839,46.3867457721618],[15.1881984245279,46.3868128520416],[15.1881989448953,46.3868129411556],[15.1885258678797,46.3868694438759],[15.1891957850176,46.387042430145],[15.1898775082243,46.3872443633336],[15.1904272623697,46.3873694976681],[15.1908294201584,46.3874488109315],[15.1909150863139,46.3874445293137],[15.1916188754455,46.3874097033091],[15.191960780837,46.3873986933448],[15.192423979229,46.3873841494284],[15.1927225972401,46.3873755492436],[15.1929798748704,46.3873683676033],[15.193311126677,46.3873597108077],[15.1935240744826,46.3873542223353],[15.1936600189625,46.3873760349358],[15.1943062188717,46.3873808768516],[15.1945406614606,46.3873872260476],[15.1947946090476,46.3873942613032],[15.195440435229,46.3873671579753],[15.1956408108387,46.3873727533986],[15.1958965800014,46.3873801429723],[15.1962785287446,46.3874414776222],[15.1963197799423,46.3874514834919],[15.1966961184941,46.3875433263224],[15.1972205907092,46.3876831366425],[15.1975811457882,46.3877598887594],[15.1977833490901,46.387803084871],[15.1984213647433,46.3879159720602],[15.1987526162864,46.3879423879346],[15.1990257496615,46.3879329158773],[15.1992861166755,46.3879524358628],[15.1994532913353,46.3879803051304],[15.1995111853995,46.3879901908498],[15.1996739559972,46.3880581942461],[15.1997087241371,46.3880727986988],[15.1997091145176,46.3880728879874],[15.1997093748807,46.388072977503],[15.1999899127023,46.3881327673674],[15.2001419157879,46.3881359203176],[15.2002641438666,46.3881388553002],[15.2010106328146,46.3882595453892],[15.2014848779608,46.3882776945576],[15.2016163231225,46.3882766531609],[15.2016485672409,46.3882765063392],[15.202373492067,46.3882602907119],[15.2025297962067,46.3882661319867],[15.2030463040643,46.3882859092611],[15.2034888333844,46.3883061757442],[15.2037966760528,46.3883298295776],[15.2039852585311,46.3883446083688],[15.2043538670215,46.3884155666593],[15.2044463775149,46.3884334853462],[15.2047188707444,46.3885306156739],[15.2047929508804,46.3885571142524],[15.2048800077058,46.3885768417608],[15.2052251128207,46.3886551269419],[15.2053887750236,46.3886811044565],[15.2055484057809,46.3887068190721],[15.2059909376495,46.3887611746198],[15.206012010553,46.3887637457993],[15.2060122709296,46.3887638353006],[15.2060177330843,46.3887641853419],[15.2064935993817,46.3887968860101],[15.2070216307323,46.3888709665949],[15.2074429771347,46.3888923357645],[15.2076881131004,46.3889049365314],[15.2081124114819,46.3889160412567],[15.2084755942454,46.3888913576793],[15.2084759843034,46.3888913569683],[15.2084761143228,46.3888913567312],[15.2084767640769,46.3888912655764],[15.208617267002,46.3888784135083],[15.2089444051413,46.3889825417188],[15.2091813427062,46.3889930849463],[15.209181732765,46.3889930842328],[15.2091819928041,46.3889930837572],[15.2095592902115,46.3889533458761],[15.2101085993905,46.388946309955],[15.2107693004501,46.388930069117],[15.211075627618,46.388963602883],[15.2112184511447,46.3889794438682],[15.2113215628836,46.3889808728427],[15.2116110065312,46.388985555899],[15.2122006043251,46.388940377926],[15.21264465212,46.3889476504342],[15.2128636202525,46.3889512017594],[15.2133783116053,46.3890026952722],[15.2138078410619,46.3890210567015],[15.2139706544404,46.3890281297532],[15.2147398780349,46.3890337056025],[15.2152155722287,46.389053774455],[15.2159829437674,46.388952280746],[15.216177608443,46.3889254616545],[15.216661932507,46.3888593166076],[15.2168531630189,46.388917614798],[15.2169090709778,46.3889174187987],[15.2173996299962,46.3889154976121],[15.217920344411,46.3889765860579],[15.2179556015319,46.3889820070569],[15.2182008427715,46.3890203166006],[15.2185675119399,46.3890556944954],[15.2188156879415,46.3890798717708],[15.219004642557,46.3890885070995],[15.2190985401346,46.3891266545981],[15.2192513044655,46.3891890711307],[15.2192519545653,46.3891890698843],[15.2192520845853,46.389189069635],[15.2192993941956,46.3891845703765],[15.2200896236384,46.3891104462245],[15.2209234104568,46.3890047428601],[15.220934869235,46.3890089493282],[15.221305583861,46.389144087715],[15.2214543830742,46.3892220738434],[15.2215614892398,46.3892786376554],[15.2221188867212,46.3892778262963],[15.2223623519791,46.389261968232],[15.2226983686959,46.3892403512961],[15.223020737506,46.3892517790967],[15.2235270261271,46.3892484513947],[15.2236913692833,46.3892475902287],[15.2239642150314,46.3892626210707],[15.2242816688861,46.3892802628943],[15.2247965925436,46.3893532974371],[15.2250411209315,46.3893747692623],[15.225351679878,46.3893912520692],[15.2254778289215,46.3893981110704],[15.2261441280275,46.3896981959692],[15.2266222635373,46.3897716549107],[15.226974590143,46.3898261979446],[15.2271256855357,46.3898911264336],[15.2273215913015,46.3899758490962],[15.2275543460444,46.3900104746137],[15.2277026648487,46.3900327619373],[15.228007628346,46.390078309081],[15.2283040063875,46.3901227929076],[15.2295521807359,46.390111297242],[15.2300852333622,46.3901012289783],[15.2313082761425,46.3902966064418],[15.2318287088956,46.3903765258816],[15.2318289689409,46.3903765253545],[15.2318290989636,46.3903765250909],[15.2329336414728,46.3903742806299],[15.2339880814755,46.3904531912694],[15.2343163104197,46.3879122071232]]]},"properties":{"fill-opacity":0,"stroke-opacity":1,"stroke":"#ff0000","lov":"0906","lov_naziv":"DOBRNA","luo":"09","luo_naziv":"Savinjsko Kozjansko","povrsina":4508.7},"id":"pregledovalniklovisca.1"}]}