{"type":"FeatureCollection","features":[{"type":"Feature","geometry":{"type":"Polygon","coordinates":[[[15.4022905521446,46.2533245516759],[15.3956851492778,46.2560030514669],[15.3951209722564,46.2561355526835],[15.3944937031784,46.2562246321719],[15.3895774312415,46.2580915935031],[15.3890784855396,46.2585940791593],[15.3890502013571,46.2590515952782],[15.3887069376684,46.259357589418],[15.3877966497303,46.2593821840022],[15.3869468429254,46.2590798767703],[15.3866626502083,46.25884124165],[15.385999797049,46.2583205616289],[15.385277076215,46.2582138627681],[15.3846445664541,46.2575405692732],[15.3834809166993,46.2572392016467],[15.3824675170907,46.2559354761685],[15.3820225951327,46.2551091268342],[15.381613519929,46.2549797629367],[15.3794271776073,46.2566635867538],[15.3773354869265,46.2584559225355],[15.3765524264388,46.2587414675302],[15.3759584224624,46.2591135689099],[15.3747360502277,46.2594439118755],[15.3729236328675,46.2607562372805],[15.3715609419793,46.2615224701549],[15.3707333211652,46.2622709378389],[15.3705652693924,46.2630894214346],[15.3699801264838,46.2637889620924],[15.3689081242563,46.2642976207664],[15.3683683709205,46.2652130301175],[15.3643809098969,46.2652682746198],[15.3627837753948,46.2659480559459],[15.3605233102085,46.2659981229043],[15.3553597811871,46.264566993469],[15.3549423918802,46.2667284352991],[15.3546152320712,46.2673957852749],[15.3547162361557,46.2676482940803],[15.3541891337404,46.2681323595364],[15.3531958639645,46.2682500568896],[15.351909940476,46.2692648604627],[15.3518795401613,46.269724622268],[15.3513853117335,46.2701625976161],[15.3510607638275,46.2712895970889],[15.3508761663548,46.2736112667088],[15.3507119473532,46.2738414695422],[15.3507197677981,46.2751284075285],[15.3502759468006,46.2784160003975],[15.3496535802545,46.2796127348768],[15.3484343792413,46.2807652203849],[15.3469145911852,46.2815277664446],[15.3464037796876,46.2825901756542],[15.3473637021451,46.2834152760432],[15.349142388793,46.2853639606875],[15.3518312080318,46.2877570707228],[15.3518437275855,46.2897934572979],[15.3513792631378,46.2919304590142],[15.3520084788482,46.2932862893913],[15.3545146218101,46.2945260963657],[15.3551244057273,46.2951483388341],[15.35642554604,46.2970154345229],[15.3584368591555,46.2978540723894],[15.3593567844808,46.299838211942],[15.3609409079932,46.3010918373501],[15.3610150241494,46.302117821156],[15.3629567952629,46.3026092175161],[15.3625908069029,46.3051598172458],[15.362026520811,46.3065853172104],[15.3602214604572,46.3082129372229],[15.3593243728575,46.3099042575157],[15.3570921046373,46.3120132572439],[15.3570075668792,46.3137684167305],[15.3564429628182,46.3151606884258],[15.3568040396688,46.3167552972072],[15.3589240212423,46.3169234768929],[15.3610416903804,46.3167183327761],[15.3629766041394,46.3160158273207],[15.3649156400572,46.3159604410961],[15.3667465678823,46.3158555245585],[15.3676069400256,46.3156040804375],[15.3687170099951,46.3151030536052],[15.3704747551696,46.3147992062765],[15.3728427864224,46.3144436792519],[15.3747802265209,46.3141641017305],[15.3773411031989,46.3137831070584],[15.3787017720209,46.3138845951454],[15.3819760167671,46.3128960728815],[15.3832156030898,46.3126916484192],[15.3845220945625,46.3123456401624],[15.3853719646664,46.3123192064207],[15.3857967516621,46.3122942014016],[15.3861523920733,46.3120928141008],[15.3865080653407,46.3119149081627],[15.3867970777056,46.311913930858],[15.3871890902495,46.3120657357498],[15.3874627936858,46.3123239267988],[15.3876673476157,46.312405647441],[15.3885339759119,46.3123438645133],[15.3901126807408,46.3120322258805],[15.3910284793932,46.3117110480794],[15.3918233608813,46.3111311590939],[15.3927213228574,46.310715828509],[15.3932127376774,46.310478593919],[15.3933804083566,46.3101599674831],[15.3934292827986,46.3098417496003],[15.3949071127058,46.3097070959538],[15.3968782812648,46.3096059807803],[15.3978321073547,46.3098853569834],[15.3995172319002,46.3102093174953],[15.4009291330291,46.3103457209513],[15.4023568833891,46.3103407057674],[15.403426819722,46.3101955903342],[15.4045465155746,46.3098971571124],[15.4052751527067,46.3095647407941],[15.4066095320113,46.3088056810692],[15.40889932946,46.3082095505756],[15.4119840564121,46.3089170812891],[15.4125495505984,46.3088932692173],[15.4132385862901,46.3085858671022],[15.4135510926617,46.3083452326746],[15.4145570878894,46.3084069091895],[15.4157813266791,46.3082281889005],[15.416375222897,46.307790564851],[15.4178143585085,46.3069360724088],[15.41874995338,46.3059744511939],[15.4194078345056,46.3057107620966],[15.4199420423579,46.3057088013486],[15.420126838648,46.305207249938],[15.4208789146374,46.3049214330353],[15.4226678063968,46.3046453689427],[15.4234801354656,46.3040108516004],[15.4245443091732,46.3034624862487],[15.425360892961,46.3034159050399],[15.4260478909511,46.3028471549821],[15.4270222146703,46.3028870666965],[15.4282778741056,46.3027299581693],[15.4290236711825,46.3031291560814],[15.4295091338203,46.3034874904578],[15.4312126852397,46.3043738681871],[15.4321592217979,46.3048710772851],[15.4340147353626,46.3050817807642],[15.4353336012301,46.3049679012023],[15.4360550858008,46.3048127398679],[15.4365975123332,46.3044903705621],[15.4376796802748,46.3036088287898],[15.4384621873423,46.3032138238187],[15.4397816961449,46.3031869830966],[15.4408556980836,46.3039014516063],[15.4413908069173,46.3040300261494],[15.4420181913846,46.3038969635346],[15.4431146454083,46.3034789394754],[15.4441517754017,46.3034966886388],[15.4453742178832,46.3031217897125],[15.4463805049488,46.303226731464],[15.447193294505,46.3027009094463],[15.4493077680856,46.3038467778529],[15.4496522646136,46.3037146946434],[15.4502522837736,46.3038094129738],[15.4514153105087,46.3038701467548],[15.4527333421202,46.3036472039018],[15.4533583571066,46.3032309472679],[15.4539219738045,46.3029892062783],[15.4544846335963,46.3026167373055],[15.4555850813829,46.3027103371586],[15.456307201709,46.3026421380915],[15.4563349470915,46.3021847907488],[15.4571818998218,46.3020180186165],[15.4577122071691,46.3015368871366],[15.4585576005994,46.3011850390302],[15.457827050116,46.3002080835437],[15.4575056134653,46.2993165797125],[15.4561144722979,46.2982551615461],[15.4546020638665,46.2977167650638],[15.453560675218,46.2971547078669],[15.4515116503482,46.2962917999074],[15.4494627380118,46.295450627873],[15.4491777305069,46.2951686963013],[15.44942664759,46.2948628034004],[15.4498304726576,46.2942951121591],[15.4499507127264,46.2936195797707],[15.4496642375759,46.293141606273],[15.4479368830869,46.2932137061105],[15.4459236138259,46.2928732043681],[15.4446315356469,46.2923773624785],[15.4436847236085,46.2918654112802],[15.4428628383446,46.2912149514168],[15.4423844824053,46.2903018783537],[15.4414964514103,46.2892160200756],[15.4402337195234,46.2884147399139],[15.4390063460958,46.2881359573238],[15.4380938705632,46.2879431382923],[15.437045774123,46.2864440768999],[15.436254588648,46.2856844954797],[15.435745850667,46.2848804658826],[15.4356767404225,46.2840530763002],[15.436428100963,46.283723702162],[15.4375254119343,46.2834584094537],[15.4383662292316,46.2825188494012],[15.4401560860175,46.2818008336222],[15.4409629790468,46.2812027389678],[15.4413365691852,46.2807658324887],[15.4414288510542,46.2805258804894],[15.4412399154996,46.2804612900174],[15.4409860792023,46.2801354905738],[15.4409204351505,46.2797654184531],[15.4410121482113,46.2794383759127],[15.4412920924889,46.2790889236464],[15.4410398345003,46.2789590774909],[15.4404709509732,46.2785037621202],[15.4377020889591,46.2778602079362],[15.4365078780314,46.2777555472118],[15.4354350893091,46.2771059000944],[15.4351139788439,46.2761922854484],[15.4346997154115,46.2754096635957],[15.4344733388173,46.2745610064956],[15.434625769857,46.2739505954723],[15.4348106716583,46.273492563628],[15.4344932501287,46.2730581247865],[15.4345218508161,46.2726876903633],[15.4350527660427,46.2722938422909],[15.4350478975934,46.2716621656325],[15.4344798276061,46.2712939099658],[15.4346940095576,46.2705526240833],[15.4340902167328,46.2696182166671],[15.4333015468445,46.2691417459391],[15.4328868488107,46.2682937983293],[15.4316562891262,46.2675139822115],[15.4305559859578,46.2673435847168],[15.4299936920038,46.267737620241],[15.4285525419294,46.2681782272151],[15.4265814464166,46.26914344352],[15.4252992318891,46.2698447857379],[15.4252276047181,46.2686689343782],[15.4239009069085,46.2676061595422],[15.4219157300071,46.2666764407852],[15.4208807981607,46.2668541717406],[15.4198147984308,46.2670756439769],[15.4188402824999,46.2669264450931],[15.4154066600863,46.2654133111397],[15.4119995611489,46.2632248254586],[15.4112762380643,46.2630529732303],[15.4096931353917,46.261228618484],[15.409813278945,46.2604658516337],[15.410810977514,46.2594824713716],[15.4082916556545,46.2540454617779],[15.4022905521446,46.2533245516759]]]},"properties":{"fill-opacity":0,"stroke-opacity":1,"stroke":"#ff0000","lov":"0912","lov_naziv":"DRAMLJE","luo":"09","luo_naziv":"Savinjsko Kozjansko","povrsina":3620.16},"id":"pregledovalniklovisca.1"}]}