{"type":"FeatureCollection","features":[{"type":"Feature","geometry":{"type":"Polygon","coordinates":[[[15.1883712790107,46.2382542002085],[15.1898408711348,46.2413315339532],[15.1898419746677,46.2416890834057],[15.1896999130535,46.2420071925366],[15.1896449325396,46.2427224761831],[15.1893314581681,46.2431599927456],[15.1889313832106,46.2433791080801],[15.1887605236004,46.2436971735605],[15.1885328085557,46.2440749843729],[15.1884188539145,46.2442737417591],[15.1881905291472,46.2445125451972],[15.188221300237,46.2451680348373],[15.1889444024897,46.2475113472677],[15.189405924877,46.2486331710004],[15.1896658818073,46.2493282276718],[15.1898703187061,46.2506192637793],[15.1911344553236,46.2519684542627],[15.1919425250085,46.2539937302423],[15.1931507264517,46.2557403097591],[15.1937291394333,46.2574877649027],[15.1923032855245,46.259317510995],[15.1904226301349,46.2622207371094],[15.1903668068081,46.2626579155657],[15.1906553124052,46.2633329468997],[15.1905425728414,46.263929111317],[15.189174059888,46.2658382561816],[15.1893487001928,46.2667121374976],[15.1899806004427,46.2673072453369],[15.190899801142,46.2681800644121],[15.1910186599204,46.2695308886308],[15.1906210941193,46.2705645228937],[15.1925597205465,46.2721715063426],[15.1932641238129,46.2730640112428],[15.1944107825925,46.2733838076647],[15.1944141764048,46.2744169518966],[15.1955086658198,46.2761835774378],[15.1953145844846,46.2780910473629],[15.1947414242982,46.2780123097661],[15.1945708322454,46.2783900330078],[15.1949735461724,46.2788861726948],[15.1951176578294,46.2791641204431],[15.1952342932113,46.2797797799935],[15.1960097959656,46.280374787825],[15.1962692780239,46.2808710782608],[15.1970721319109,46.2810885092395],[15.1974168053566,46.2813463142779],[15.1973321977099,46.2817437767401],[15.1976769476803,46.2820213746746],[15.1979072734427,46.2823787049188],[15.1982513137431,46.2824576441502],[15.1985668918924,46.2825962832122],[15.1988258190199,46.2828940004383],[15.1991986291523,46.2830325382099],[15.1998865783125,46.2831507304318],[15.2005743130576,46.2832093574332],[15.2009184353819,46.283308262266],[15.2011780484466,46.2838244248913],[15.2017823807267,46.2845983785376],[15.2025581686269,46.2852330186005],[15.2029615917102,46.285888018776],[15.2029922702275,46.2864640546538],[15.2032216940075,46.2865630661032],[15.2034513956161,46.2867018441908],[15.2043800843796,46.2853048130519],[15.2052365929812,46.2844691487743],[15.2068957842425,46.2837912787174],[15.2083256325472,46.2831137126209],[15.2088953491599,46.2821990075281],[15.2094923081013,46.280946584535],[15.2098621296194,46.2802308086378],[15.2103471283174,46.2796738002257],[15.2112323111553,46.2789175727249],[15.2137774670675,46.2777614698001],[15.2150058774622,46.2768655636864],[15.2167203731344,46.2757901292739],[15.2180331396874,46.2744967134775],[15.2193989906689,46.272150326257],[15.2205969674372,46.2708372165332],[15.2241116842379,46.2687456353181],[15.226339309331,46.2671526974086],[15.2276826039094,46.266474968494],[15.2297985102178,46.2656370523537],[15.2305961182656,46.264562976889],[15.2312256917403,46.2644426720557],[15.2314617543714,46.2661905357077],[15.2318668428542,46.2672229563062],[15.232614396455,46.2679368971226],[15.2338200235371,46.2686103093244],[15.2355406114411,46.2691636157906],[15.2361168485793,46.2699970094752],[15.2367480118439,46.2702343105856],[15.23749326703,46.2703919258211],[15.2379532663149,46.2708282342751],[15.2385925060025,46.2730124162268],[15.2385452852636,46.275436184238],[15.2391788119738,46.2762297643533],[15.2384420873119,46.2781779393049],[15.2385592919097,46.2788134374808],[15.239250773821,46.2797657864442],[15.2402867171892,46.2808764782432],[15.2413173810458,46.2807455576151],[15.241946766313,46.2805457492024],[15.2431784741622,46.2805435860387],[15.2439228713733,46.2804429411761],[15.2446659390632,46.2800442169193],[15.2454665280368,46.279685221948],[15.2466677076291,46.2792460024669],[15.2468404904635,46.2794641717143],[15.2470137618429,46.2797618749335],[15.2472720031313,46.2798806196807],[15.247816171653,46.2798398538335],[15.2486458234269,46.2795999865656],[15.2493893862147,46.2793204434505],[15.2496473091814,46.2793398543817],[15.2496499764428,46.279955707286],[15.2495368908239,46.2803135030698],[15.2495955592195,46.2806312462434],[15.250024972173,46.2805509526984],[15.2518259796116,46.2797331130348],[15.2531984001538,46.279154440815],[15.2554814201063,46.2772031761956],[15.2563079787415,46.2762877495414],[15.2569066338361,46.2756708167468],[15.2579032354575,46.274337795291],[15.2582439881899,46.2736815790614],[15.2581844379068,46.2731850672405],[15.2577247809009,46.2728879365289],[15.2574371322357,46.2726103006418],[15.2574915951801,46.2719944084355],[15.257374744296,46.2714780512524],[15.2577429473628,46.2705634642022],[15.2575932743771,46.2691334232549],[15.2560317123279,46.2657789863911],[15.2556560513298,46.265004895723],[15.2567123512434,46.2642678151492],[15.25728508341,46.2642667077148],[15.2573931949839,46.2628360845499],[15.2578205023561,46.262338654472],[15.2589625952177,46.2616013592554],[15.2593331995299,46.261243059111],[15.259648996712,46.2614212973804],[15.2593653909306,46.2620178279147],[15.2603698556862,46.2624926681692],[15.2623283838547,46.2631722508753],[15.2635586410935,46.2625155926547],[15.2643529382942,46.2617088663733],[15.2650745712912,46.2609023029453],[15.2684140751394,46.261499215945],[15.2692788398742,46.2602394589132],[15.26978604888,46.2601377640682],[15.2705741738801,46.2580226302178],[15.270064824123,46.2576840087029],[15.2704582471018,46.2573437027856],[15.2706534351365,46.2563106273948],[15.2712507018405,46.255514935277],[15.2721897624326,46.254361146093],[15.272131845614,46.2542421604189],[15.2721296532325,46.2538251432497],[15.2723005218851,46.253626167179],[15.2725284569779,46.2534271448056],[15.2727570120972,46.2533273601365],[15.2747328031395,46.2533429632844],[15.276821490436,46.2530604500827],[15.2776510122651,46.2528998171352],[15.2779936474176,46.2527401831019],[15.2783373437671,46.2527394368731],[15.2789108612282,46.2529169945046],[15.279340389304,46.2529359197631],[15.2797407781945,46.252835701161],[15.2801121999131,46.2526760803111],[15.2808274599971,46.2525950599259],[15.2809992063608,46.2525748439965],[15.2808838735178,46.2524162359722],[15.280479310217,46.2517220116472],[15.2801870513344,46.2505906940544],[15.2798004832189,46.2478708709608],[15.2784425226568,46.2455106063944],[15.277026392754,46.2429319221575],[15.2752406336632,46.2408306949835],[15.2726458734331,46.237231705977],[15.27109188324,46.2356264186925],[15.2704022317014,46.2350717503015],[15.2692822736827,46.2343591101309],[15.2677862835434,46.2328329965263],[15.2677509009815,46.2315024714914],[15.2677460397169,46.2305294267267],[15.2674784330835,46.2285241083735],[15.2671582057008,46.2274523804304],[15.2665159620776,46.2249314890184],[15.2671086361457,46.2242886888344],[15.2669845492612,46.2221432137431],[15.2659812644155,46.221020170294],[15.2648318924281,46.2200494207274],[15.2639909220199,46.2178069887563],[15.2636968942765,46.2164678786788],[15.2615066528672,46.2129358876895],[15.2587130910417,46.2092779074632],[15.257564463549,46.2083864375637],[15.2561873861485,46.2075749144839],[15.2546974827741,46.2071012055918],[15.2528976952935,46.2069530564206],[15.2446588939509,46.2070483617372],[15.2425420949723,46.2070921005217],[15.2408244651415,46.2068171746061],[15.2396213178713,46.2064220211518],[15.2387576318443,46.2059791805519],[15.2381223050692,46.2046695957207],[15.2377194104277,46.2029536546098],[15.2375446365252,46.2021790781236],[15.2378549254389,46.2010857974042],[15.2387667194997,46.2002099860606],[15.2398201913865,46.1989961103298],[15.2402174036854,46.1981808377729],[15.2402132474436,46.1971675666653],[15.2390932449286,46.1960570339896],[15.2370020832796,46.1952463194982],[15.2339122724538,46.1950333281715],[15.2302681987638,46.1951874727913],[15.2287090885413,46.1956672815102],[15.2265262353186,46.1963071095495],[15.223196873347,46.1964863170142],[15.2211584964013,46.1968293880673],[15.2195970429878,46.1966874509952],[15.2179959774156,46.19710934118],[15.2156868109326,46.1974022656421],[15.2140625109646,46.1971591515264],[15.2124807446918,46.1971905339437],[15.2110674627207,46.1977421692991],[15.2046642206097,46.1985211945167],[15.2043091522957,46.1961666873695],[15.2037084450672,46.1942262238198],[15.2013519691722,46.1927986517398],[15.1996899360062,46.1936721496608],[15.1986076824321,46.1936592793167],[15.1968146096463,46.1926499995212],[15.1947757749043,46.1928697874702],[15.1942152863447,46.1933043228906],[15.1940093995595,46.1939985473379],[15.1929251408942,46.1955245313336],[15.1948660582555,46.1983263385276],[15.1947976962972,46.2010907048689],[15.1946116212421,46.2032917678458],[15.1950017260842,46.2044451898432],[15.1952347875488,46.2047937982202],[15.1945458243536,46.2068612974066],[15.1949369979129,46.2083100090344],[15.1950966897189,46.2098931742063],[15.1943663616695,46.2111288495887],[15.1930163512799,46.2119895703161],[15.1912422805903,46.2131998108024],[15.1905462299241,46.2130666432074],[15.1896964146185,46.2132556503364],[15.1889633263935,46.2136592240207],[15.18869390507,46.2140084946507],[15.1878063612641,46.2144660296084],[15.1869193101736,46.21511133061],[15.1861103411842,46.2159712632349],[15.1861517893406,46.2168837023127],[15.186889104705,46.2178220876877],[15.1870076368188,46.2186806862426],[15.1874360839546,46.2197268204104],[15.1874781965035,46.2208271208832],[15.1869767052506,46.2211766773723],[15.1858638729897,46.2238620249327],[15.1857888895184,46.2246136005989],[15.1866836982438,46.2264374231],[15.1875782007794,46.2281539009103],[15.18831547027,46.229065373449],[15.1894006735597,46.2299227313872],[15.1900990287126,46.2307000171715],[15.1906061067888,46.232094921001],[15.1906475495724,46.232980543999],[15.1904554102402,46.2333565905469],[15.1901861435432,46.2338132007268],[15.1894915521806,46.2342167122606],[15.1885257719461,46.2344864277028],[15.1880245301111,46.2349434149841],[15.1879881993754,46.2356949270584],[15.1883712790107,46.2382542002085]]]},"properties":{"fill-opacity":0,"stroke-opacity":1,"stroke":"#ff0000","lov":"0915","lov_naziv":"HUM CELJE","luo":"09","luo_naziv":"Savinjsko Kozjansko","povrsina":5007.09},"id":"pregledovalniklovisca.1"}]}