<?xml version="1.0" encoding="utf-8" ?>
<kml xmlns="http://www.opengis.net/kml/2.2">
<Document id="root_doc">
<Schema name="pregledovalniklovisca" id="pregledovalniklovisca">
	<SimpleField name="lov" type="string"></SimpleField>
	<SimpleField name="lov_naziv" type="string"></SimpleField>
	<SimpleField name="luo" type="string"></SimpleField>
	<SimpleField name="luo_naziv" type="string"></SimpleField>
	<SimpleField name="povrsina" type="float"></SimpleField>
</Schema>
<Folder><name>pregledovalniklovisca</name>
  <Placemark id="pregledovalniklovisca.1">
	<Style><LineStyle><color>ff0000ff</color></LineStyle><PolyStyle><fill>0</fill></PolyStyle></Style>
	<ExtendedData><SchemaData schemaUrl="#pregledovalniklovisca">
		<SimpleData name="lov">0930</SimpleData>
		<SimpleData name="lov_naziv">KOZJE</SimpleData>
		<SimpleData name="luo">09</SimpleData>
		<SimpleData name="luo_naziv">Savinjsko Kozjansko</SimpleData>
		<SimpleData name="povrsina">6915.65</SimpleData>
	</SchemaData></ExtendedData>
      <MultiGeometry><Polygon><outerBoundaryIs><LinearRing><coordinates>15.4714970762849,46.0725675970748 15.4704555459507,46.0736528531682 15.4691372143788,46.0744211730773 15.4683398591664,46.0746707955869 15.4676370506909,46.0752936034375 15.4668065745739,46.0770298333467 15.4665277019183,46.079177243081 15.4663114402476,46.0806249281666 15.4662631865418,46.0820184819451 15.4665269141165,46.0824279628829 15.466724269433,46.0832000445009 15.4672147509905,46.0837414910475 15.467803814071,46.0841962457794 15.4684233886372,46.0845118607005 15.4689976014976,46.0848752552702 15.4700574636307,46.0859203722816 15.4701309909516,46.0865083276604 15.469682666895,46.0875276100664 15.4691854461185,46.0881655965966 15.4683899787302,46.0886615630143 15.4679810621099,46.0889334333293 15.4667943075625,46.0890970921955 15.46604498372,46.0896406305432 15.4650185670844,46.0898513039006 15.4637435582441,46.0903968745663 15.4613948302358,46.0909624258799 15.4580334581856,46.0933999639677 15.4592086583263,46.0945878680779 15.4589608152747,46.0950180444961 15.459444301065,46.0954454630216 15.4600856580247,46.0956338102856 15.4601142322715,46.0960994060316 15.4599978479128,46.0963809564479 15.4600849085239,46.0968188743737 15.4600267301031,46.0969924903905 15.459708201543,46.0972747638698 15.4592933008237,46.097383861944 15.4591553764269,46.0979382122161 15.4596567378565,46.0982255567349 15.4598342773312,46.0984076718279 15.4598861239808,46.0986545345625 15.4602574197509,46.0990085312574 15.4605461440085,46.0991380119772 15.4609619198197,46.0993188952243 15.4610325839514,46.09955713389 15.4607835414618,46.0998442585227 15.4608550034452,46.1001937930919 15.461313933158,46.1004146298619 15.4613385493577,46.1006212029931 15.4610450400034,46.1010515677787 15.4608332340417,46.1013222567772 15.4607758819785,46.1024648097945 15.4611860318297,46.1029451513535 15.461785573092,46.1032418973927 15.4618133862513,46.1037070453007 15.4621499529978,46.1039550054686 15.462179168094,46.1046029765534 15.4618729002324,46.1051026754126 15.4612793068742,46.1055370418452 15.4592915577376,46.1106626351193 15.4583402255279,46.1124747669465 15.4572065663329,46.1141643542954 15.4565368454147,46.11468645529 15.4554332814682,46.1156283042719 15.4550612869589,46.1168968096724 15.4551833369295,46.1184421788161 15.4523017137884,46.1225205612723 15.4516794972455,46.1249310115868 15.4517837050232,46.1252052921282 15.4521172004794,46.1263326144109 15.451901432345,46.1274967484583 15.4521640107815,46.1291278478522 15.4527184506832,46.129750796167 15.4535265313759,46.1308762328779 15.4548056670699,46.1321374513497 15.4551919769777,46.1328608378434 15.4558564178668,46.1331294629825 15.4556882187065,46.1315341667088 15.4563232051178,46.1308391900266 15.4573114346257,46.1297964852295 15.4574519374927,46.1295733261239 15.4581967883852,46.1292736069528 15.4592127934998,46.128777909122 15.4594485374866,46.1287580671704 15.4596520386365,46.1287980074943 15.4598709281264,46.1294896608894 15.4598037425173,46.1299846109619 15.4600916007034,46.1303792504872 15.4606623034069,46.1305501528723 15.4645681267352,46.1294958600354 15.4654175341372,46.1289236758584 15.46745149913,46.1290542969051 15.4685219754879,46.1290562125007 15.469546258975,46.1289826392605 15.4705731928846,46.1292054219831 15.4705831108148,46.1293063325564 15.4714179039114,46.1293343839129 15.4729364287867,46.1297633179767 15.4740803594662,46.1298784254141 15.4758864822711,46.1299781700577 15.4773545697763,46.1298206216079 15.4779169629464,46.1298182716504 15.4793646803881,46.1294021957915 15.4800542877869,46.129430792837 15.4808532391345,46.1295031932639 15.4814781571289,46.1293996113409 15.4826293566307,46.1292938051515 15.4841980051659,46.1292303973392 15.4857348525774,46.1292595069689 15.4888028551182,46.1288638570806 15.4905087336252,46.1289258300607 15.4914706985851,46.1289784720292 15.4923410546253,46.1289305490924 15.4928301679049,46.1288527727805 15.4954430482407,46.1288982515848 15.497284057034,46.1288618253354 15.4983524235561,46.1286300767963 15.4983257601125,46.1276967071497 15.50091229423,46.1271396161743 15.500964985451,46.1266569416449 15.5013855082273,46.1267102522912 15.5015809188436,46.1266546904577 15.5022674918221,46.126266494565 15.502729049536,46.1261509176258 15.5031637771352,46.1260733362231 15.5036347907662,46.1260018015419 15.5040618248378,46.1260882742782 15.5045097079831,46.1262471729093 15.5049667212907,46.1263428672969 15.5075852902521,46.1260473996352 15.5082195374163,46.1259689128508 15.5086277656834,46.1259796935435 15.5090365013911,46.1260314989283 15.5091397644265,46.1259333266292 15.5094155095763,46.1258342957146 15.5098761760745,46.1256241305791 15.5098377213061,46.1253972062353 15.5100179963788,46.1252734067509 15.5099982232426,46.1250938157045 15.5100739607336,46.1249578860441 15.5100413569379,46.124860229137 15.5105346888381,46.1242651841254 15.5106743621322,46.124173056029 15.5107428292674,46.1237407819945 15.5108689440853,46.123651863344 15.5108495762963,46.1235163581473 15.5109486068752,46.1234370977548 15.5110336428631,46.1233137223009 15.5110191244984,46.1232129256507 15.511248299701,46.1229911031284 15.5113593970111,46.122747764644 15.5116255859992,46.1226109817384 15.5116883271684,46.1225255848894 15.5117692406164,46.1224464048705 15.5120042233409,46.1223632956987 15.5121526673198,46.1222270389013 15.5121109926356,46.1221421096045 15.5121647608971,46.1221078582853 15.5124948254824,46.1219669182076 15.5125756493505,46.1218782906729 15.5129150014952,46.1218042488683 15.513150783226,46.1217937432873 15.5135621030076,46.1216530651363 15.5138925851951,46.1213767972485 15.5141254071598,46.1212847859208 15.5142969539727,46.1211988082068 15.5144422993695,46.1212171388163 15.5145555810501,46.1212103307024 15.5146361961375,46.1212526157699 15.5147280670247,46.1212252996828 15.5148194992478,46.1213037057235 15.5149283992941,46.1213126625399 15.5150910182812,46.1212268138267 15.5152854292844,46.1211786109267 15.5154021510948,46.1210550893276 15.5154973773637,46.1210546599162 15.5155799997301,46.1209653023328 15.5157589607322,46.1209115898819 15.5158388589252,46.1209324633677 15.5161392758475,46.120846800993 15.5164411206033,46.1208586639166 15.5167554255627,46.1207777958053 15.5170622400192,46.1206155336344 15.5176768392778,46.1203951930868 15.5180668909073,46.1199203390637 15.5183951561893,46.1196319215281 15.518783006999,46.1194063048766 15.519272086659,46.1193378627425 15.5195118402694,46.1192831484132 15.5198229000576,46.1190925174598 15.5202057379943,46.1188164429456 15.5204947345051,46.1186878131513 15.5205744084769,46.1189598037476 15.5208359199819,46.1190449881763 15.5213018806696,46.1191598311761 15.5217107412595,46.119228955834 15.5218708575787,46.119386850311 15.5224631144651,46.1199409081665 15.5239579228291,46.1199963284841 15.5261547065516,46.1209269229737 15.5266015173878,46.1211475527225 15.5274837775969,46.1222817542193 15.5275564745869,46.1224422034243 15.5289436640479,46.1223990830662 15.5300256274568,46.1220603552478 15.5315144439544,46.1214724756739 15.5334266419389,46.1223917466933 15.5358994687687,46.1223932264536 15.5376268919625,46.1225834188868 15.5381639769398,46.1229398003793 15.5394415352868,46.1225877358719 15.5418257152947,46.1226265752949 15.541936340005,46.1230218493545 15.5434755800671,46.1239797892552 15.5462872985847,46.1240660780944 15.5478818815247,46.1233909243588 15.5485560887741,46.1232146695744 15.5490876032718,46.1229896102845 15.5506896324543,46.1230813254414 15.551930543347,46.1226303257484 15.5515369263846,46.1224094484044 15.5513517475744,46.1216682306951 15.5517380793903,46.1211469427593 15.5527673073964,46.1208948097213 15.5539655125737,46.119726625965 15.5551367731468,46.1194491300149 15.5554189224981,46.1192005088649 15.5546951864101,46.1179668708064 15.5547254327075,46.1174224668321 15.555288468537,46.11680142655 15.554674973672,46.1159137450941 15.5542061540609,46.1152726995128 15.554727273595,46.1140086351996 15.5557485277638,46.1129649152987 15.5553367183839,46.1108887681524 15.555858766517,46.1097236655316 15.5564918619629,46.1090033953484 15.5581114236535,46.1085769358281 15.5586883627569,46.1081026489338 15.559290584093,46.1078524528235 15.5597455058686,46.1071082029586 15.5600997164546,46.1069581891833 15.5607415030487,46.1071035911227 15.5620184218479,46.1067513662282 15.5625845390645,46.1064518440029 15.562652538421,46.1061299389295 15.5637523263869,46.1058527057173 15.5644639887489,46.1058741165753 15.5650723494225,46.1062423472266 15.5656036334622,46.1060172115261 15.5670302561455,46.1064063028832 15.5687357453348,46.1062250777741 15.5692653616084,46.1058268215774 15.5695144795147,46.1058503237245 15.5698734985254,46.1061702846972 15.5710088208098,46.1058928044833 15.5719010231894,46.1061854411566 15.5727204291613,46.1063052338949 15.5735056771585,46.1065735607979 15.5747107179078,46.1061473253414 15.5774839331634,46.1060350954428 15.5789134875267,46.1066961978457 15.5794810674175,46.1065450431185 15.5799372619033,46.1059490748367 15.5804347294945,46.1058972434899 15.5809350541498,46.1061174796656 15.5821762482356,46.1057651210399 15.5825001600421,46.1061346174265 15.5839930790224,46.1060284770311 15.5842334480848,46.1052109060175 15.5846226260641,46.1050111512078 15.5857247663525,46.1049562924819 15.5865053362295,46.1047793580436 15.5868922692254,46.1043569189697 15.5876019504087,46.1042049941209 15.5873091194664,46.1034148093192 15.5876266107952,46.1031659262871 15.5876941974914,46.1028192650767 15.5887146219778,46.1017752525551 15.5888916698143,46.1017001111476 15.5890371681319,46.1020024872339 15.5896063887133,46.1020244755043 15.5897461520109,46.1017764131831 15.5901027547194,46.1018735452267 15.5903857125218,46.1017237152715 15.5912756982937,46.1017936142104 15.5918065671701,46.1015436155004 15.5915902514818,46.1012725608666 15.5918700260885,46.1008259160967 15.5924016779661,46.1006501399195 15.5925703664942,46.0997834357649 15.5926027529584,46.0994864401925 15.5936359027839,46.0996545509847 15.5941654116297,46.0992808325854 15.5946326945392,46.0997486121775 15.5949519936851,46.0996728112005 15.59519829599,46.0994241875026 15.5958380913069,46.0993962909382 15.5960140563821,46.0992222615236 15.596045753576,46.0988510391118 15.597353010771,46.0980529739809 15.5975280271379,46.0977799745676 15.5979891739022,46.0976786803082 15.5979122910364,46.097134823244 15.5984433527638,46.0969095356182 15.5992272508682,46.0970540675376 15.5992296629396,46.0972767432296 15.5999052641232,46.0972733793059 15.5998301116246,46.0969027164562 15.5998992233487,46.0967044085478 15.6007170755781,46.0967003831159 15.6010317798963,46.0962040456414 15.6019890481432,46.0959271032319 15.6026585646268,46.0953548424406 15.6032927730672,46.0948074172153 15.6032167921138,46.0943625313157 15.6037117029061,46.0940879235387 15.6037507745385,46.0944092882931 15.6042506870765,46.0946046818562 15.6051370565065,46.094352830934 15.6056377859164,46.0946224435911 15.6068796493271,46.0943688749137 15.6072381346473,46.0946391457446 15.607668423478,46.0949586100198 15.607780690599,46.0954775294581 15.6082766765986,46.0953018688784 15.6089853647164,46.0950755867573 15.6096271398122,46.0952208045267 15.6100492629894,46.09479809857 15.6105133648611,46.0949689127013 15.611088258628,46.0955102800454 15.6109837532805,46.0957086940003 15.6115172089157,46.0957060211662 15.6116909242725,46.0953340342521 15.6124053501546,46.095627306544 15.6125513092384,46.0959728386428 15.6128686439,46.0957238859512 15.6130427536935,46.0953766380238 15.6128619219652,46.095105433008 15.613145331533,46.0950050303926 15.6138936767693,46.0951496524833 15.6141387759728,46.0948021115261 15.614886845999,46.0949219854368 15.6152400011342,46.0946974865918 15.6157373329773,46.0946455021683 15.6157281020232,46.0938044642689 15.6162263973572,46.0938513552042 15.6163736083668,46.0942959384173 15.6165172374684,46.0944188796135 15.616836070132,46.0943182767585 15.6171211242607,46.094366314375 15.6173364328658,46.0945383538383 15.6177266663918,46.0944621060054 15.618008406449,46.0942133313282 15.618078278861,46.0940892376911 15.6183984895031,46.0941123388446 15.6191383839878,46.0934901141394 15.6188523550056,46.0933431141535 15.6190929864552,46.0925997858812 15.619839226088,46.092546435129 15.6198345150678,46.0921259167133 15.61983091277,46.0921044366123 15.6193106180433,46.0921129209115 15.6192163487957,46.092159678892 15.6190745726669,46.0921330044432 15.6187874959207,46.0918801091516 15.618734310811,46.0917729667021 15.6187472614013,46.0916821116371 15.618865601974,46.0915560455473 15.6190343576853,46.0914745139439 15.6193343486858,46.0913793146387 15.6194520973271,46.0913738178959 15.6195100060965,46.0913945582365 15.6196283478226,46.0914882107546 15.6198292873126,46.0916130865296 15.6200389685678,46.0916870785493 15.6201771030839,46.091711972059 15.6203351706126,46.0917038263044 15.6207168619572,46.0915829868832 15.6207556898199,46.0914936106076 15.6207941615139,46.0914531827544 15.6207916130384,46.0914104583813 15.6208304396525,46.0913209921091 15.6207584898834,46.0911092213859 15.6205851277183,46.0908258411606 15.6205028772936,46.0906063883181 15.6204919217589,46.0904366645848 15.6205424289467,46.0903855543975 15.620612683752,46.0903541315108 15.6206647420673,46.0903375633256 15.6207731204327,46.0903385043412 15.6208416137045,46.0903690837972 15.6209862344599,46.0904882351161 15.6211646326194,46.0907708675802 15.6213802123049,46.0908980904113 15.6214880167681,46.0908478379816 15.6216162183842,46.0907369212129 15.6216188157787,46.0905767512286 15.6214019614127,46.0901862683166 15.6212901082237,46.0899218993689 15.621038615672,46.0894980432437 15.6209993321263,46.0893853377805 15.6210760528728,46.0893310257663 15.6212110755305,46.0893671818462 15.6216163307816,46.0895382708617 15.6221141259038,46.0894631324723 15.6224504923121,46.0892117998951 15.6229569984531,46.0889688965665 15.6238141990255,46.0883704748489 15.6240268528543,46.0882500068766 15.6241199719845,46.0882054105783 15.6242031844582,46.0881882207792 15.624327936235,46.0881966269243 15.624414669184,46.0882163975658 15.6249621959247,46.088412700281 15.6250673869502,46.0884065466071 15.6251444367269,46.088381831905 15.6252437064742,46.088297971847 15.6253207560202,46.0882732570268 15.6255835843187,46.0880617266225 15.6257080363154,46.0879978827805 15.6257898158098,46.0879340924924 15.6264467426484,46.0873308088658 15.6265492906688,46.0871942041883 15.6267125647757,46.0869048483707 15.6267437586862,46.0864394152226 15.6267836158219,46.0863507509724 15.626942309534,46.0861139654615 15.6270046940411,46.0860506405649 15.6271220123091,46.0859968215474 15.6272620759463,46.0859533147187 15.6282415898071,46.0859317394812 15.6291866082978,46.0858673375581 15.6299619592912,46.0859379262439 15.6302122883288,46.0859144123523 15.6304831443254,46.0857745366208 15.630476359606,46.0853605977532 15.6306078490183,46.0851664255 15.6311077444891,46.0849057971893 15.6316409694157,46.0847108444171 15.6321236101274,46.084310125465 15.6322676632543,46.0837676773188 15.6323100762784,46.0837452187905 15.6316130909452,46.0834123848188 15.6305474005886,46.0834925884758 15.6296222398323,46.0834234589103 15.6280198418515,46.0832095857085 15.6266586245803,46.0823011980408 15.6242267650448,46.0810273179768 15.621755145625,46.0793576205955 15.6203289945005,46.0789941312336 15.6181414434025,46.0772732366589 15.612702201659,46.0728789711388 15.6088426101261,46.0728278853293 15.606590608618,46.0723314977889 15.6048867658731,46.0723554635683 15.6038908844554,46.072360459749 15.6031238950944,46.0722774133244 15.6025396900716,46.0722050951249 15.6019772385118,46.0721477752505 15.6015849703277,46.0718339366565 15.6013237005302,46.0716547307163 15.6001541696394,46.071404897457 15.5988088940613,46.070885236834 15.5980172818989,46.0703510579886 15.5977226110828,46.0693871621289 15.5979659538779,46.0688660107138 15.5972534242109,46.0687212766215 15.5963333473677,46.0690974097565 15.5952681439231,46.0692020254622 15.594772087191,46.0693532474593 15.5938050210249,46.0686651043225 15.5923091580221,46.0683759467527 15.5922335653919,46.0679555228869 15.590793895841,46.0662548776967 15.5893983703908,46.0656695935011 15.5841385581911,46.0620069667636 15.5794637661497,46.0601744755703 15.5754882106245,46.058837998991 15.5734771797102,46.0551550544773 15.5652187982505,46.0537609899111 15.5605460857393,46.0555667813858 15.5518292756426,46.0589036592561 15.5480285787642,46.0583653567596 15.5477115154112,46.0584275201866 15.5474520882139,46.058489136755 15.5468753996539,46.0586193030583 15.5465574736949,46.0586074174401 15.546432309666,46.0586147640768 15.5460101967357,46.0587978123903 15.5458575361393,46.0589527598484 15.545858990158,46.0591003129746 15.5458514118165,46.0593149410921 15.5456891192034,46.0594631861374 15.5454609478094,46.0597727117885 15.5452414112404,46.0599749448161 15.5450307109421,46.0601033552575 15.5447903978761,46.0601514682437 15.5444044099989,46.0600930237277 15.5441824967582,46.0600538614033 15.5439908502059,46.0601486182937 15.5438475470866,46.0602834539243 15.5435612625775,46.0605597813026 15.5431883189884,46.0608431780238 15.5428059389848,46.061140024695 15.542613960521,46.0612147162704 15.5425176744078,46.0612151733433 15.5423245139696,46.0611692127403 15.5420921145805,46.0610361615732 15.5417153571643,46.0609306969303 15.5413782954788,46.06094579031 15.5412050463325,46.0609532689933 15.5408774157366,46.0609415035032 15.5405491952341,46.0608692762469 15.5403183080438,46.0609039288746 15.5401269806275,46.0610456450328 15.540013333154,46.061240619346 15.5399570661935,46.0614085097443 15.5398239644779,46.0615835111996 15.5394506688357,46.061833426403 15.5392293397653,46.0618546253459 15.5387072909988,46.0617344503408 15.5383996526135,46.0616124533744 15.538236380529,46.0615296350223 15.5375592679106,46.0616656256349 15.5371853245699,46.0617166004171 15.5368265172127,46.0618757435372 15.5366367184198,46.0619897341597 15.5363968198717,46.062015513581 15.5361278200615,46.0619725076971 15.5358739890272,46.0620277733945 15.5354594222048,46.0622757096125 15.535121659166,46.0624199027977 15.5347541178741,46.0624118156533 15.5343149650578,46.0622959114563 15.5339325779824,46.0622091624242 15.5334592942736,46.0622262183543 15.5330995254406,46.0622869209426 15.5329656649965,46.0623318132076 15.5328887456293,46.0624109005026 15.5328685897226,46.0625191451362 15.532890401595,46.0625830160884 15.532897759197,46.0626223011171 15.5328556502265,46.0626520094325 15.5327780681814,46.0626622684129 15.5326435437919,46.0626382420914 15.5323959170336,46.0626000764812 15.5321701617453,46.0626454857997 15.5319113406111,46.0629221058632 15.5317014056216,46.0631346152588 15.5314125755529,46.063234301827 15.5307991918942,46.0633749046728 15.5303549555487,46.0634704514923 15.530001260896,46.0634377214792 15.5298094081684,46.063325511655 15.5296813811558,46.0632375690714 15.5292008722468,46.0632299875358 15.5289330937957,46.0633149043433 15.5286815964842,46.0636160464925 15.5282675483677,46.0639229781133 15.5280297581331,46.06418473612 15.5275426474604,46.064231253423 15.5269929394927,46.0643961951965 15.5267828388094,46.0645938502923 15.5267356279892,46.0648351123808 15.526626273849,46.0652290793598 15.5265882854687,46.0657063047078 15.5265461237142,46.0657310622695 15.5262443516043,46.065953881877 15.5256102399303,46.0661486275218 15.525216747127,46.0663914808162 15.524754540695,46.0668313347281 15.5244276715539,46.0674083183564 15.5241679317536,46.0678264563191 15.5240613818171,46.0679182700434 15.5236278492956,46.0681529336432 15.5234259320911,46.0682618291007 15.5226286039497,46.068506432067 15.5214507376721,46.0689189509165 15.5205340317089,46.0691724515227 15.5192799010862,46.0690785533526 15.5183832589733,46.0689082510045 15.5181687369125,46.0689424246972 15.5173692287015,46.068971059664 15.5167003259171,46.0689076835996 15.515757054068,46.0688788329438 15.5148743523505,46.0688994581115 15.5144932081868,46.0689759440357 15.5141843936518,46.0691435184108 15.5136370352629,46.0693204419209 15.5132548331893,46.0692972356373 15.5123443378813,46.0689273825195 15.5111133182881,46.0687583415641 15.5107323224801,46.068851369772 15.5101245479776,46.0689537767947 15.5094069086058,46.0687907927472 15.5089288816943,46.0687347081054 15.5085834597037,46.0688027375129 15.5077976441864,46.0690138948148 15.5073318674343,46.0689827622529 15.506855311759,46.0687484209866 15.5065094940567,46.0684766984613 15.5061522074547,46.0683075077474 15.5057481679717,46.0683690399945 15.5053077049833,46.0684905655427 15.50478052702,46.0685013526684 15.5042892043499,46.0684181347426 15.5040300070972,46.0682314092327 15.5035865132028,46.0680199422368 15.5025908784914,46.0677596166996 15.5024304428559,46.0676578399696 15.5021826831777,46.0673771255499 15.5017120911875,46.066883967029 15.501550010959,46.0665858697052 15.5013029824016,46.0663991745337 15.5012031768467,46.0662117433564 15.501066586166,46.0660159256796 15.5004739463809,46.0655745829802 15.4998425167833,46.0652740385755 15.4992920808058,46.0650674312476 15.4990996051636,46.0649658797321 15.499002726374,46.0648439360008 15.4989642035314,46.0647143594524 15.4989843944532,46.0645882155747 15.4991053932592,46.064432029579 15.4991100864073,46.064350401266 15.4990719309385,46.0642615820614 15.4989914530809,46.0641952615552 15.4989115087194,46.0641881425737 15.4988160344075,46.0642219402119 15.4986996669776,46.06430396585 15.4985826369955,46.0643267903499 15.4983856572468,46.0643275594637 15.4980554159753,46.064314153021 15.4977090151027,46.0642860600031 15.4966530462637,46.064090367802 15.4962050414008,46.0640033278165 15.4954747221214,46.0639138212523 15.4951180570495,46.0639227448266 15.4945484200917,46.0639362779865 15.4943513099134,46.0639222847218 15.4941694032231,46.0638303965339 15.4939271615919,46.0635385731971 15.4937501230735,46.0633835904329 15.4936061341929,46.0633546104001 15.4933772550838,46.0633434519156 15.4930699312069,46.0635079037909 15.4928450815244,46.0637317430047 15.4927969840002,46.0641368403595 15.4928156424942,46.064766588696 15.4928702259663,46.0650902652548 15.492639090893,46.0652622152236 15.4918267908729,46.0654906522948 15.491116611249,46.0655746839988 15.4899933721286,46.0657234656883 15.4896320157867,46.065787997118 15.4888742269126,46.0662927643716 15.4885564507586,46.0666091273773 15.4882850400173,46.0668334264288 15.4882669775885,46.0669252786015 15.4882690599521,46.0671614553877 15.4880559813138,46.0675954174879 15.4876279214568,46.0682337310946 15.487356845062,46.068497345731 15.4865296246954,46.0687568501602 15.486042574448,46.0691133357064 15.4859792272502,46.0694219509756 15.4859335431035,46.0695927386777 15.4858811560984,46.070001449946 15.4856988473558,46.0701002080601 15.4854121949927,46.0700784820639 15.4848604553801,46.0698256535371 15.4844110887564,46.0694679270058 15.4837796466279,46.0692350456513 15.4832060230443,46.0691686409147 15.4826952608014,46.0692546562028 15.4825404587193,46.0692913000318 15.4814055239513,46.0695930048472 15.4809154124247,46.0697356097286 15.4804642394575,46.0698668918724 15.4798711819231,46.0700493342118 15.479201025285,46.0702707861756 15.4781301956915,46.0705155050959 15.4772271938974,46.070735219998 15.47642759862,46.0709544967743 15.4756792402842,46.0711195694667 15.4746601860069,46.0713757371488 15.4731757545378,46.0716338232598 15.4727111556897,46.0717258110679 15.4715618092464,46.071273393604 15.4714970762849,46.0725675970748</coordinates></LinearRing></outerBoundaryIs></Polygon></MultiGeometry>
  </Placemark>
</Folder>
</Document></kml>
