{"type":"FeatureCollection","features":[{"type":"Feature","geometry":{"type":"Polygon","coordinates":[[[15.3608701532927,46.1378417297713],[15.3591182510853,46.1377877739418],[15.3580160688593,46.1377320281357],[15.3562935276304,46.1378547366104],[15.3552771307582,46.1379557921555],[15.3543161559318,46.1378799573131],[15.3539192426727,46.1376846829597],[15.3529432008082,46.1378425465531],[15.3507993510078,46.1379645828148],[15.3479458970333,46.1379527898014],[15.3470825119741,46.1376900802803],[15.3467286319847,46.1375830950538],[15.3458373508862,46.1373694967356],[15.3453866270144,46.1375670934887],[15.3444271412215,46.1377268137744],[15.3422530995018,46.1379290378123],[15.3402181906745,46.1377970917265],[15.3396849627538,46.1383679450183],[15.3373990873554,46.1387668228892],[15.3347804196409,46.1376294190262],[15.336638416016,46.1364502472528],[15.337128142533,46.1359596134607],[15.3372637661855,46.135151963461],[15.3372582602496,46.1342712205922],[15.3370252353833,46.1332202872462],[15.3365992569863,46.1328483285859],[15.3365087401743,46.1319256376213],[15.3371836055218,46.1314329284612],[15.3370389345582,46.1308834314165],[15.3381972632106,46.1309196889685],[15.3391289200801,46.1308386510085],[15.3392380276527,46.1302295602191],[15.337878125805,46.1295851420971],[15.3356426092191,46.1291624599063],[15.3346191710243,46.1287002924505],[15.3338081194266,46.1284333701999],[15.3334888281005,46.1280182601993],[15.3337671769404,46.1275037834972],[15.3349605317257,46.1270113714667],[15.3358358865721,46.1262996240689],[15.335873647526,46.1252310658033],[15.3353620211021,46.1247218725787],[15.3342286969097,46.1241553832356],[15.3332916866843,46.1233526670389],[15.3326952319124,46.1228240045963],[15.3314782953818,46.1224148267212],[15.3308838941125,46.1220732958945],[15.3298603812425,46.1208977670386],[15.3286958712181,46.1197422487778],[15.328239294521,46.1189185835704],[15.326936249617,46.1182151173692],[15.3254613240027,46.1170996819963],[15.3244999450419,46.116886206165],[15.323621030569,46.116260134965],[15.3232245102366,46.1160647522332],[15.3239004801515,46.1157291227821],[15.3243209552474,46.1151780953448],[15.3239200964472,46.1141971583411],[15.3230701226372,46.1136888674594],[15.3226992038838,46.1130221229617],[15.3218782611371,46.1126511325457],[15.3213686078346,46.1124168328],[15.3209703301954,46.1118680263558],[15.320432259116,46.1115945732165],[15.3199231609922,46.1114534792518],[15.3197387573275,46.1112870920871],[15.3197500060571,46.1107715053736],[15.3193236527843,46.1102620005629],[15.3186726734466,46.1099888544312],[15.3167447443949,46.1085602851981],[15.3165597804461,46.10831525642],[15.3159807566194,46.1082677322772],[15.3151773524483,46.1085251188087],[15.3140755178826,46.1084200019202],[15.3130434454104,46.1081379729094],[15.3116879535312,46.1081021781561],[15.3115883505013,46.1079649682414],[15.3117426558687,46.1077780297841],[15.3120665630422,46.107639664468],[15.3125030816077,46.1074225323967],[15.3127417208264,46.1071666212347],[15.3126264254454,46.1067249804086],[15.312299807733,46.1063821694835],[15.311691280286,46.1060989701995],[15.3106731224789,46.105797177254],[15.3095003599152,46.105603853707],[15.3089623510951,46.1053204488983],[15.3086082786631,46.105105375834],[15.3079015080228,46.1049205840583],[15.3072944521182,46.10494183217],[15.3068300068395,46.1052081456661],[15.3062405803041,46.1058675322532],[15.3057494768907,46.106438297507],[15.305426211296,46.1066944202518],[15.3050316987723,46.1068623769674],[15.3045664693142,46.1069912017762],[15.3040458112262,46.1072969726066],[15.3036790794352,46.1073665982657],[15.3030570557331,46.1072110631577],[15.3010243851933,46.1072652905803],[15.3003599108675,46.1070803408472],[15.2987459685077,46.1062006579488],[15.2974319330638,46.1059976825092],[15.2969935445178,46.1058514436478],[15.2953837331493,46.105776887028],[15.2940861166646,46.106005889733],[15.2935634290218,46.1059384925564],[15.2920924853873,46.1054117693142],[15.291626176224,46.1053147074512],[15.290651548841,46.1051992328599],[15.2893659190713,46.1050256041772],[15.2889291495783,46.1051837150941],[15.2887466786262,46.1053903984632],[15.2887777727609,46.1059696677308],[15.2885390275447,46.1062255291632],[15.2868448469144,46.1062198059803],[15.2859258261861,46.1059273510612],[15.2851916757175,46.1059389023962],[15.2846991692962,46.1062543221524],[15.2841067215556,46.1063539587232],[15.2829209648629,46.1063861415773],[15.2824130379555,46.106446241149],[15.2816924587322,46.1063301522105],[15.2801527572229,46.1061520971696],[15.2795872895474,46.1059863984682],[15.2792475745191,46.1058006211439],[15.2790637273215,46.1057421366331],[15.2786968068268,46.1057528390906],[15.2775416917901,46.1062955884189],[15.2771480135999,46.1066205428601],[15.2769233603717,46.1068861530754],[15.2766437982119,46.1074759849101],[15.2768433396652,46.1078781389353],[15.2767608900357,46.1083595236679],[15.2766067103095,46.1085955407771],[15.2756768208591,46.1090002443102],[15.2755094149488,46.1094130022205],[15.2756538440547,46.1101000610643],[15.275866588926,46.1102959626774],[15.2763193522685,46.1105011811512],[15.2768999892619,46.1108729912527],[15.2770576052954,46.1113734086403],[15.2768483608481,46.111904136614],[15.2765394411998,46.1122682022637],[15.2752971001827,46.1122906356103],[15.2735201362864,46.1127169727653],[15.2723338983582,46.1126803961899],[15.2711320048278,46.1123001410839],[15.2704968282738,46.1123310676638],[15.2699188840316,46.1125581803785],[15.2695805971216,46.1126669483296],[15.2693835453169,46.1127950869786],[15.2692023288191,46.1133061202721],[15.2688508080509,46.1136211391883],[15.2684845618872,46.1138085175258],[15.268032956402,46.1138684208037],[15.2673711848327,46.1142627100949],[15.2658049815354,46.1145018265123],[15.2644494559809,46.1144851761255],[15.2631648594637,46.1145567015112],[15.2620076294118,46.1146967512064],[15.2604401320198,46.1146412200173],[15.2589143904494,46.1144677059497],[15.257839272005,46.1140183733022],[15.2572999747347,46.1133910254104],[15.2565357774677,46.1129999135524],[15.2559704465674,46.1128636096089],[15.2552575276072,46.1112743611259],[15.255140863402,46.1104104143846],[15.2552794983971,46.1098406547705],[15.2558366818473,46.1081111740343],[15.256230033946,46.1076586196299],[15.2568496898763,46.1073038080051],[15.2570461582888,46.1070481079137],[15.2569036634684,46.1067537608412],[15.2562823233482,46.1067158366369],[15.255605363841,46.1068743584252],[15.2552112350943,46.107130497534],[15.2547044985168,46.1074851387022],[15.2540281565681,46.1077811312],[15.2534351862709,46.1077823574731],[15.2515700682645,46.1074327866922],[15.2508627888262,46.1071003547426],[15.2497022172012,46.106415398576],[15.248740165955,46.1059460282148],[15.2483446422919,46.1058683402272],[15.2479506218335,46.1061833875969],[15.2476412767118,46.1064589311918],[15.246963857006,46.1065192403094],[15.2461995653673,46.1060691256163],[15.2458308461616,46.1056770892249],[15.2452100476854,46.1057568806786],[15.2445338496413,46.10609213576],[15.2439425869631,46.1065057535798],[15.2425062389266,46.1073923622308],[15.2415183045001,46.1074729119137],[15.2399913292848,46.106926022291],[15.2397197061593,46.1062153415756],[15.2396154695771,46.1060713305385],[15.2394391076518,46.1058500022086],[15.2392794483989,46.1058114674263],[15.2391840254003,46.10585053625],[15.2390649740964,46.1059894364614],[15.2388027812388,46.1062007054876],[15.2383575315234,46.1064677802401],[15.2376649763663,46.1067409461459],[15.2371871958152,46.106875101223],[15.2366771403647,46.1069038706905],[15.2361338211566,46.1066555842774],[15.2359421991603,46.1065839101681],[15.2356947916036,46.1065345745498],[15.2354240078145,46.1065849786054],[15.2351616333009,46.1067574604984],[15.2349233995004,46.1069797381992],[15.2344700108568,46.1072246807012],[15.2341592521148,46.1072752537199],[15.2339118898482,46.1072369810528],[15.2335521685629,46.1070270856581],[15.2327282473103,46.1063689810624],[15.2325923819132,46.1062971878],[15.2323213510393,46.1063199627504],[15.2320110735221,46.1064536656616],[15.2317328115604,46.1066649510641],[15.2313592793204,46.106954076884],[15.230874262118,46.1072490051342],[15.2306437840732,46.1074435459992],[15.2306924553394,46.1076375233559],[15.2311485196194,46.1079969509482],[15.2312850926259,46.1082683084875],[15.2312461082703,46.1084735298022],[15.2309363255915,46.1087292345037],[15.2303152229186,46.1089357200443],[15.2296301338305,46.1090923947797],[15.2287613247949,46.1091496512416],[15.2280699039891,46.1092156347522],[15.2272392767872,46.109373125289],[15.226824334723,46.1094482685653],[15.2263340718151,46.1094209882992],[15.2256786584541,46.1092459336906],[15.2253272268487,46.1090024355423],[15.2250146813376,46.1089045288762],[15.2246621958427,46.1089416619787],[15.2240137488033,46.1093339648451],[15.2238724564273,46.1095183299681],[15.2239203653624,46.1096891881215],[15.2241480771085,46.1097933824332],[15.2247290711924,46.1098637715758],[15.2250863198434,46.1101690727089],[15.2253157313127,46.1104353957889],[15.2254475336524,46.1108430812814],[15.2253380215455,46.1110482596158],[15.2248509600776,46.1112071243585],[15.2237961902348,46.1114182955271],[15.2229878607818,46.1114061091283],[15.2220528955192,46.1111395346652],[15.22126983847,46.110879136767],[15.2196801248549,46.1119017963557],[15.2175079972713,46.1125140891394],[15.21483149113,46.1142467544367],[15.2137359088258,46.1158393800273],[15.2145038005017,46.1173505949564],[15.2139136363492,46.1181371791847],[15.2114605066168,46.1192408731512],[15.2110686006298,46.1202234899645],[15.2108178436778,46.1212059350055],[15.2096047644866,46.1216006347941],[15.2060184918562,46.1217827848811],[15.2049476229464,46.1224717554139],[15.2027161092869,46.1223964670147],[15.2013317111157,46.122280597226],[15.2000058655081,46.1227539413776],[15.1986264402923,46.1241307972379],[15.1983194310897,46.1250094813329],[15.1979740411408,46.1270610480545],[15.1973407178323,46.1308224442046],[15.1964332057839,46.1330211815405],[15.1951101246172,46.1352782944173],[15.1961545605126,46.13680912937],[15.199321073156,46.1387416979547],[15.203360246814,46.1404414852477],[15.2063624691283,46.1428655888869],[15.2069916990298,46.1444258633755],[15.2072053579651,46.1461025047921],[15.2090782815023,46.1465333098136],[15.2121111454866,46.1456610914208],[15.2172249687865,46.1452768357512],[15.2249230564774,46.1465070105616],[15.2308254464212,46.1457160683772],[15.2346906934372,46.145130833899],[15.2383092821923,46.1452688356917],[15.24022459849,46.1458435406226],[15.2401859308952,46.1465663843014],[15.2375306825042,46.1481615955979],[15.2349648918108,46.1513756446534],[15.2331176168731,46.1575664007242],[15.2327292832091,46.1646508389205],[15.2347527938247,46.1690848407017],[15.2361518325103,46.1713928457323],[15.2379069979675,46.1741167604498],[15.2388704094098,46.1765012138577],[15.2391826383393,46.1795686627358],[15.2395205893926,46.1822573563955],[15.2396371798789,46.1841084083599],[15.2394557631626,46.1858237743004],[15.2425770688402,46.1863591043409],[15.2441339678218,46.1870758482263],[15.2450576822261,46.1873244481109],[15.2474109205782,46.188176916952],[15.2499354962522,46.1878864793268],[15.2509883603784,46.1868438088926],[15.2517534638491,46.1871891544175],[15.2522838650659,46.1875961949762],[15.2539002370667,46.1878583082768],[15.2568663861984,46.1877912199053],[15.2595380834973,46.1875614215144],[15.2599806040771,46.1870933634907],[15.2599503507437,46.186831249444],[15.2609341201826,46.1861235257833],[15.2614554423806,46.1858603317381],[15.2623216369547,46.1848705278392],[15.2620297773273,46.1845686161024],[15.2623772712536,46.1843662783101],[15.2633932887373,46.1843239036731],[15.2642049037917,46.1840399636885],[15.2646690296653,46.1839582737805],[15.2656232836066,46.1831699613903],[15.2655346515966,46.1828676760987],[15.2650969985141,46.1824450961504],[15.2652685671503,46.1819204220061],[15.266197200879,46.1818176729205],[15.2665184734605,46.1822002119154],[15.2678864427411,46.1828628191035],[15.2686157127594,46.1835267324382],[15.2691401537014,46.1838886323105],[15.271119838273,46.1849129821005],[15.2711819970183,46.1856992934812],[15.2720552360578,46.1861209041123],[15.2729885491388,46.1869255618688],[15.2737458511423,46.187367590361],[15.2739814568534,46.1880123159936],[15.2743890712733,46.1882333030149],[15.2758400751041,46.1880689384993],[15.2765961005574,46.1882487683163],[15.2790043188626,46.1878805929669],[15.2794082469485,46.1873958188424],[15.2803933405212,46.1869701714793],[15.2804476566755,46.1862642858474],[15.2809671402143,46.1856582081129],[15.2818391136377,46.1858176542001],[15.2827117119677,46.1860980165295],[15.2831521171765,46.1870246436842],[15.2837959218607,46.1879508542157],[15.2847286039331,46.1885940949807],[15.2857162895293,46.1886725169373],[15.2848388705744,46.1848362556203],[15.2838351071306,46.1837093139528],[15.2819440863191,46.1824816251396],[15.2801303688426,46.1818953172308],[15.2783559366681,46.1817451668942],[15.2768777449461,46.1816970217723],[15.275953041185,46.1815194003953],[15.2742872097072,46.1809326426233],[15.2731762954461,46.180447375696],[15.2726198919019,46.1800379742968],[15.2723580614101,46.1793969963675],[15.2720552635527,46.1780117631725],[15.2722016541155,46.1777291672979],[15.2727154036596,46.1770352355223],[15.2733778094506,46.1765206234171],[15.2739295913074,46.176057467591],[15.274184279771,46.1752870420063],[15.2744047306085,46.17505564051],[15.2753271426402,46.1748227300506],[15.2763601524224,46.1745381698279],[15.2773179108409,46.1739972677249],[15.2774260620081,46.173483705152],[15.2774344559148,46.1725516467346],[15.2767362209329,46.1711216765784],[15.2769652269771,46.1708972672146],[15.2774251010869,46.1707683893444],[15.2774470582834,46.1705764219748],[15.2767307483575,46.1700821327138],[15.2767521152042,46.1697462088082],[15.2769807943986,46.1694578287756],[15.2768616064346,46.168674355644],[15.2771126084073,46.1682419631132],[15.2775708018256,46.1678091570795],[15.279084641346,46.1667343327687],[15.2796782530768,46.1657894161827],[15.2797451643986,46.1653733932575],[15.2802941626143,46.1647004834787],[15.2805666569788,46.1639961292641],[15.2810908522802,46.162983444929],[15.2811355973577,46.1627433744826],[15.2824023570107,46.1628685549229],[15.2830473926458,46.1629311110188],[15.2841509752423,46.1626728472951],[15.2854841083946,46.1622860569581],[15.2863590678242,46.1623160792036],[15.2869140700409,46.1627946084434],[15.2875599806559,46.1630491412036],[15.2882532928756,46.1635274058558],[15.2892682799814,46.16390894057],[15.2900527144791,46.1642270800267],[15.2912047501515,46.1644164253666],[15.2928185746769,46.1648285221514],[15.2941094804773,46.1651455152313],[15.2946175842949,46.1654322132346],[15.2951692679553,46.1652709964918],[15.295674849842,46.1651098963318],[15.2964573184503,46.1650761090405],[15.2975183170777,46.1654255103592],[15.2981655165637,46.1659038347206],[15.2982548196945,46.1653918303885],[15.298898560003,46.165230355428],[15.2991720332267,46.1647498993268],[15.2988459667893,46.1640789171672],[15.2981528586665,46.1636327469635],[15.2974148279693,46.1633785137781],[15.2973214274226,46.1631548116856],[15.2976883050317,46.1628980610613],[15.2983313269063,46.1626087381543],[15.2992515712483,46.1625106006185],[15.300540717194,46.162507578554],[15.301139891794,46.1626341245848],[15.3017865196322,46.1629844872823],[15.301696378613,46.1633365232029],[15.301974627592,46.1636877664369],[15.3026186883045,46.1635903310461],[15.3028477329985,46.1633978101442],[15.3040025200566,46.1640348193572],[15.3040517899383,46.1646105212345],[15.3078817420466,46.1660727828224],[15.3090400470688,46.1673175947392],[15.3099129925248,46.1669955544131],[15.3119385761903,46.1669267034779],[15.3132737943305,46.1669234121138],[15.3139632967235,46.1667297862207],[15.3143301208205,46.1664730724572],[15.314189765813,46.1660895398175],[15.3134504093782,46.1656434996206],[15.312803080935,46.1651652621013],[15.3125709058188,46.1648459500346],[15.3135403425867,46.1652674321033],[15.3139552586043,46.1653623854402],[15.3144146875143,46.1652013291348],[15.3152428783669,46.1651033160611],[15.3157959621375,46.165197881618],[15.316992917948,46.1651629879398],[15.3180088702592,46.165672297554],[15.3190671121443,46.1655416758574],[15.3200811053634,46.1657310254012],[15.3210472757015,46.1656007331088],[15.3230729801991,46.1655636252349],[15.3250562922332,46.1661343755459],[15.326573167331,46.1657146428752],[15.3288771739797,46.1660286145717],[15.3307656165815,46.1661197080429],[15.3326989411573,46.1660506661559],[15.3350963601281,46.1665561548587],[15.3378601469729,46.1667407439237],[15.3399312597018,46.166607290968],[15.341035566487,46.1664764189004],[15.3441684458098,46.1667877865679],[15.3456447608502,46.1672315821131],[15.3477148649568,46.1669381076373],[15.3504339595401,46.1673144428849],[15.3511632733697,46.1661928399265],[15.3508828693563,46.1655538966555],[15.3511085716939,46.1648815485298],[15.3511055191576,46.1644017270748],[15.3517451632746,46.1636642239495],[15.3524342841354,46.1634383363192],[15.3531219671407,46.1629885938303],[15.3529332103919,46.1622854006187],[15.3522390769502,46.1617435590863],[15.3511308967499,46.1612668673433],[15.3504832946217,46.160788843613],[15.3496067061668,46.1605033412162],[15.349834763374,46.1601828760305],[15.350660985552,46.1597966955328],[15.3531022140957,46.1599819052328],[15.3542989008456,46.1599465317224],[15.3541591061203,46.1596909889312],[15.3539735540328,46.1594676183937],[15.3540632257427,46.1591155423919],[15.3547996075042,46.1590814984217],[15.3554894825811,46.1589835328573],[15.355763385791,46.1586308824259],[15.3557615308471,46.1583430613638],[15.3574657171354,46.1584661379019],[15.3584294633939,46.158015589446],[15.3588859974843,46.1574385933011],[15.3595754279706,46.1572766329087],[15.3579988872523,46.1563676248631],[15.3561326130076,46.1561961154492],[15.3544602631408,46.1554546186535],[15.3542848610595,46.1545714372129],[15.3544771329337,46.153726524476],[15.3541604909026,46.1528633948181],[15.352541707868,46.1516308048591],[15.3514624730415,46.1508090654875],[15.3510599834551,46.1497497771857],[15.3510819574404,46.1487875261806],[15.3523489152778,46.1480966753105],[15.3533632427261,46.147642233883],[15.354292131394,46.1471094108164],[15.3551357131637,46.1464786833618],[15.3554670161086,46.1453191458049],[15.3567915497093,46.1447851611791],[15.3573246593696,46.1442338434553],[15.3574066475862,46.1438016208561],[15.3568936351559,46.1431354348817],[15.3569171549901,46.1424284337608],[15.3577316529337,46.1416995255142],[15.3582933239356,46.1411873423656],[15.3599835233624,46.1404363253063],[15.3605870806912,46.1400406055391],[15.3614085356054,46.1396755948834],[15.3617621244588,46.1391783581008],[15.3623615358733,46.1384703411336],[15.3626054800281,46.1379924337351],[15.3608701532927,46.1378417297713]]]},"properties":{"fill-opacity":0,"stroke-opacity":1,"stroke":"#ff0000","lov":"0920","lov_naziv":"LAŠKO","luo":"09","luo_naziv":"Savinjsko Kozjansko","povrsina":6927},"id":"pregledovalniklovisca.1"}]}