<?xml version="1.0" encoding="utf-8" ?>
<kml xmlns="http://www.opengis.net/kml/2.2">
<Document id="root_doc">
<Schema name="pregledovalniklovisca" id="pregledovalniklovisca">
	<SimpleField name="lov" type="string"></SimpleField>
	<SimpleField name="lov_naziv" type="string"></SimpleField>
	<SimpleField name="luo" type="string"></SimpleField>
	<SimpleField name="luo_naziv" type="string"></SimpleField>
	<SimpleField name="povrsina" type="float"></SimpleField>
</Schema>
<Folder><name>pregledovalniklovisca</name>
  <Placemark id="pregledovalniklovisca.1">
	<Style><LineStyle><color>ff0000ff</color></LineStyle><PolyStyle><fill>0</fill></PolyStyle></Style>
	<ExtendedData><SchemaData schemaUrl="#pregledovalniklovisca">
		<SimpleData name="lov">0911</SimpleData>
		<SimpleData name="lov_naziv">PONIKVA</SimpleData>
		<SimpleData name="luo">09</SimpleData>
		<SimpleData name="luo_naziv">Savinjsko Kozjansko</SimpleData>
		<SimpleData name="povrsina">3577.69</SimpleData>
	</SchemaData></ExtendedData>
      <MultiGeometry><Polygon><outerBoundaryIs><LinearRing><coordinates>15.4893794315457,46.2549555252986 15.4886177991409,46.2537857206435 15.4888938075044,46.2531002993085 15.489689114775,46.2527059648138 15.4898250002845,46.2521189413832 15.4891210297364,46.2511441330196 15.4882399270173,46.2517481063621 15.4875437459668,46.2517804083168 15.486549149535,46.2514772089369 15.4851471099248,46.2504143823222 15.4847269661457,46.249272972199 15.4838786813828,46.2489505946936 15.4823723648,46.2485984190102 15.4805376055331,46.2482801745141 15.4794967544342,46.2474047019869 15.4790646994617,46.2466367070663 15.4772729103217,46.2454914710371 15.4771705258665,46.2444817749147 15.4780583922725,46.2439242837607 15.4841184468907,46.2439645534046 15.4837177904884,46.2410337677086 15.483796185906,46.2404078553286 15.4823726450832,46.2392500724671 15.4819220971819,46.2383663702858 15.4809030643708,46.2376094013048 15.479302337413,46.2371429562966 15.4787440393085,46.2377719562029 15.4775535964194,46.2381448337847 15.4754005149193,46.2383835976226 15.4734124592905,46.2385296854685 15.4717895897592,46.238743241457 15.470629125482,46.2387479344217 15.4695641834407,46.2382462163129 15.4689955877403,46.2376505009941 15.4682642371802,46.2374004052952 15.4678637108896,46.2370800323716 15.4672654674757,46.2368983946216 15.466406043572,46.2372007936306 15.4669293181535,46.2363247516771 15.4669869207706,46.2352434927612 15.4675125768767,46.2346664179083 15.4676381754173,46.2337919078488 15.4617675503198,46.2334472412588 15.4571517567375,46.2324762696525 15.4560847725793,46.2316984868092 15.4548850031725,46.2308980992815 15.4533539070426,46.2300990133992 15.452884377662,46.229410871966 15.452912965457,46.2288357416898 15.4536648939955,46.2274988214201 15.454420702987,46.2266679784595 15.4545482607404,46.2260234447861 15.4539104311673,46.2250139627503 15.4529081150496,46.224005831537 15.4520706810193,46.222882053967 15.4516470963874,46.2238037023287 15.4502952294404,46.2247288290374 15.4492240122853,46.224752567387 15.4476351035375,46.224353201425 15.4459612789851,46.2237418982906 15.4453773357529,46.2231376665256 15.4449094513128,46.2226333900251 15.443979994379,46.222452918517 15.4431482432777,46.2220420896721 15.4431090286692,46.2212602859158 15.4426106415444,46.2211011647527 15.4420124695915,46.2208963610484 15.4414735908515,46.219759924049 15.4408507933913,46.2193910984163 15.4359319123365,46.2251796612236 15.4351225109651,46.2268076565994 15.4350358235449,46.2284044665174 15.4348503731311,46.2299559453797 15.4340706992558,46.2311904573704 15.4330258648273,46.2321294178036 15.4322457607017,46.2333182122757 15.4320234283092,46.2343453729545 15.4324628298229,46.2359630426753 15.4328397478302,46.2379914026962 15.4325839367702,46.2389503110627 15.4320036818778,46.2405032755569 15.4314470172912,46.2408018378154 15.4300997179185,46.2408979666632 15.4283014202502,46.2422273167428 15.4285417677732,46.2436176640422 15.4298330258739,46.2448216897067 15.4284901132003,46.2455108828337 15.4283267465922,46.2456482534411 15.4283299900373,46.24608163959 15.4276093469038,46.246449176283 15.4246582881652,46.2475773658614 15.4239678585421,46.2475798382876 15.4224901533,46.2478589152585 15.4220625426431,46.2478376415891 15.4216000256635,46.2475427983124 15.4207742172884,46.2470212101391 15.4187911343294,46.2456142113518 15.4171116331913,46.2452553319815 15.4123527957996,46.2437737400096 15.4114901716556,46.2433558657923 15.4108067815644,46.2468308183199 15.409303866233,46.2488354002801 15.4082916556545,46.2540454617779 15.410810977514,46.2594824713716 15.409813278945,46.2604658516337 15.4096931353917,46.261228618484 15.4112762380643,46.2630529732303 15.4119995611489,46.2632248254586 15.4154066600863,46.2654133111397 15.4188402824999,46.2669264450931 15.4198147984308,46.2670756439769 15.4208807981607,46.2668541717406 15.4219157300071,46.2666764407852 15.4239009069085,46.2676061595422 15.4252276047181,46.2686689343782 15.4252992318891,46.2698447857379 15.4265814464166,46.26914344352 15.4285525419294,46.2681782272151 15.4299936920038,46.267737620241 15.4305559859578,46.2673435847168 15.4316562891262,46.2675139822115 15.4328868488107,46.2682937983293 15.4333015468445,46.2691417459391 15.4340902167328,46.2696182166671 15.4346940095576,46.2705526240833 15.4344798276061,46.2712939099658 15.4350478975934,46.2716621656325 15.4350527660427,46.2722938422909 15.4345218508161,46.2726876903633 15.4344932501287,46.2730581247865 15.4348106716583,46.273492563628 15.434625769857,46.2739505954723 15.4344733388173,46.2745610064956 15.4346997154115,46.2754096635957 15.4351139788439,46.2761922854484 15.4354350893091,46.2771059000944 15.4365078780314,46.2777555472118 15.4377020889591,46.2778602079362 15.4404709509732,46.2785037621202 15.4410398345003,46.2789590774909 15.4412920924889,46.2790889236464 15.4410121482113,46.2794383759127 15.4409204351505,46.2797654184531 15.4409860792023,46.2801354905738 15.4412399154996,46.2804612900174 15.4414288510542,46.2805258804894 15.4413365691852,46.2807658324887 15.4409629790468,46.2812027389678 15.4401560860175,46.2818008336222 15.4383662292316,46.2825188494012 15.4375254119343,46.2834584094537 15.436428100963,46.283723702162 15.4356767404225,46.2840530763002 15.435745850667,46.2848804658826 15.436254588648,46.2856844954797 15.437045774123,46.2864440768999 15.4380938705632,46.2879431382923 15.4390063460958,46.2881359573238 15.4402337195234,46.2884147399139 15.4414964514103,46.2892160200756 15.4423844824053,46.2903018783537 15.4428628383446,46.2912149514168 15.4436847236085,46.2918654112802 15.4446315356469,46.2923773624785 15.4459236138259,46.2928732043681 15.4479368830869,46.2932137061105 15.4496642375759,46.293141606273 15.4525135850178,46.2931244268257 15.4540226799757,46.291379196707 15.4546605782261,46.290028252013 15.4557045760658,46.2901218053799 15.4577934931507,46.2903870654715 15.4586384379683,46.2902663558357 15.4592591252917,46.290303002217 15.4604725023564,46.2903958315763 15.4612654526275,46.2903436006423 15.4619652724509,46.2901747769533 15.4632013425558,46.2896030425545 15.4639574519529,46.2889551476223 15.4668046274615,46.2888458493043 15.4681584248589,46.2888793619848 15.4697082819134,46.2887557719965 15.4705999117106,46.2890004283501 15.4717424362413,46.2892164214496 15.4743335276972,46.2888343870628 15.4754056570409,46.2889080299513 15.4770078404707,46.2882955753856 15.4785597020868,46.2884063241046 15.48073297574,46.2886512881392 15.4817508834822,46.2889791804574 15.4822867825537,46.2889964451544 15.4827928037494,46.2888185042657 15.483069746119,46.2882114629554 15.4839103868063,46.2875826025818 15.4849549026642,46.287734458498 15.4857717574942,46.2876332812922 15.4866751264473,46.2877466732221 15.4878596797763,46.2877807628581 15.4889325012797,46.2879324616556 15.4898654812113,46.2882215970636 15.4905145007738,46.2882774763172 15.4916392019046,46.2879013311511 15.492652339591,46.2876625031196 15.4934413680756,46.2876004388701 15.4941778548579,46.2879880965746 15.4956252117183,46.2890566375696 15.4966086482083,46.2886615318976 15.4969994971643,46.2882103333696 15.4976429427923,46.2876212768341 15.498599596703,46.287382641907 15.4993299832283,46.2870667116572 15.503360095439,46.2868340970799 15.5048490814115,46.2862021363866 15.5063059633911,46.285160025695 15.5088248440441,46.283038278167 15.5108740327246,46.2820324290991 15.5145866642056,46.2810190685593 15.5168585630318,46.2797189798943 15.5185106865954,46.2784803200016 15.5196933941562,46.2783381925256 15.5226507062269,46.2778176288244 15.5217331417057,46.27770305624 15.5204017327389,46.2768426915531 15.5191809012769,46.2759945852362 15.5170239659881,46.2740027466828 15.516530272825,46.2728564820365 15.5159092261828,46.2709809344112 15.5150214191744,46.2701235420611 15.5142764495341,46.2698038047754 15.5133286625469,46.2699516598871 15.5126402472011,46.270158176069 15.5102244514998,46.2701809486801 15.5086009471874,46.2700326200836 15.5070957153813,46.2695966422284 15.5057950981171,46.2690191127615 15.5055030264774,46.2690294916848 15.5050903517006,46.2691867877067 15.5048413422244,46.2690548184043 15.5045196420019,46.2690458016405 15.5040033093023,46.2692036410762 15.5035196196807,46.2691579069757 15.5023946998545,46.268791989592 15.5018572538652,46.268314257521 15.5014359402574,46.2676954767987 15.500923652487,46.266345797648 15.500681053692,46.2642650790566 15.5003768254011,46.2630221823423 15.5002669319478,46.2622928068543 15.499826427933,46.2612538422145 15.4998400044034,46.260835051035 15.4992321973665,46.2603830757922 15.4988851043544,46.2601573203989 15.4972459719878,46.2601524946723 15.495573285044,46.2602674542785 15.4954876119265,46.2599007379141 15.494912524872,46.2593030223653 15.4939989705075,46.258640816971 15.4930660659802,46.2581472061562 15.4922712961621,46.2575060679051 15.491820210282,46.2572208169837 15.4893794315457,46.2549555252986</coordinates></LinearRing></outerBoundaryIs></Polygon></MultiGeometry>
  </Placemark>
</Folder>
</Document></kml>
