{"type":"FeatureCollection","features":[{"type":"Feature","geometry":{"type":"Polygon","coordinates":[[[15.0701037418072,46.3290155631856],[15.0703596626449,46.3287589879532],[15.0708835428037,46.3287231257593],[15.0712136573964,46.3285966909847],[15.0720386546589,46.3281148280098],[15.073114244842,46.3276919102057],[15.0734958071796,46.327683838096],[15.0738374445169,46.3276362031446],[15.0742638805594,46.3271980368247],[15.0745762813408,46.3267598533389],[15.0754697289051,46.3263252456838],[15.076181627334,46.3263760572426],[15.0772125294719,46.3265450516159],[15.07848772326,46.3262561853517],[15.079449559193,46.3259910954835],[15.080132245909,46.3256040124551],[15.0809063528268,46.325394374055],[15.0810656636025,46.3252798177275],[15.0814525638672,46.3251177743771],[15.0818169525469,46.3251017692531],[15.0820108876556,46.3253028061603],[15.0819379348335,46.3258473647551],[15.0818762671447,46.3264707300164],[15.0822009464627,46.3267299742509],[15.0824520451777,46.3267662318354],[15.0827079878337,46.3266555622647],[15.083134548475,46.3263514199105],[15.0834302364469,46.3260750826688],[15.0836625924064,46.3254041768918],[15.0839972545735,46.3247174504768],[15.084281652516,46.3245397278078],[15.0848112643961,46.3245471637236],[15.0850274099025,46.3244089872052],[15.0849555992379,46.3241611695977],[15.0848274537964,46.3240145215078],[15.0848872819587,46.3235686691862],[15.0848545063709,46.3232846540172],[15.0850589312328,46.322960965206],[15.0851551472148,46.3226176529222],[15.0855076292487,46.3223057291328],[15.0857795209811,46.3215322216836],[15.0862623950238,46.3209045780511],[15.0865011854091,46.3207267941669],[15.0872643091898,46.3207735392698],[15.0879143156888,46.3206509502059],[15.0882317869929,46.3204690534666],[15.0884078543216,46.3202952727087],[15.0885322988747,46.3198375819572],[15.0890387871809,46.3197069101126],[15.0894315774668,46.3196119536748],[15.0898698157142,46.3195168702039],[15.0902510914819,46.3194495412154],[15.0905071531609,46.3193625164258],[15.0906491553762,46.3191691453754],[15.0908934677561,46.3188887804849],[15.091240598018,46.3187503979155],[15.0915477316566,46.318612046318],[15.091797697833,46.3183001849461],[15.0923381694599,46.3180827387172],[15.0931181516279,46.3180584437087],[15.0936591696234,46.3180895818133],[15.0938867533529,46.3180617739497],[15.0938869709166,46.3181130574791],[15.0941382624107,46.3185073755227],[15.0943896254356,46.3189411903744],[15.0943448138557,46.3193120894725],[15.0943059796625,46.3198368346781],[15.0945235711716,46.3204875979832],[15.0947865783861,46.3210398045116],[15.0953398629036,46.3215364363335],[15.0956308073413,46.3217926117581],[15.0957098205056,46.3214532636439],[15.0958062357675,46.3212637931761],[15.0958829748954,46.3211848239635],[15.0959341107507,46.3210939999609],[15.0960677865012,46.3210485421604],[15.0962471290359,46.3210523500852],[15.0964494273714,46.3211133601598],[15.0966916832128,46.3212255298033],[15.0970049282556,46.3213120868618],[15.0973268048722,46.3213591382848],[15.0975518345715,46.3214221064256],[15.0977427360532,46.3214988689195],[15.0981613885484,46.3215615802154],[15.1012837496037,46.3215572376794],[15.1044069212193,46.3216379220528],[15.1072017985607,46.3223094013641],[15.1087207264009,46.3226660532221],[15.1096661518333,46.3225465681627],[15.1132441127298,46.3220945734663],[15.113664435894,46.3222007724779],[15.1139334878593,46.3216269372951],[15.1139834124529,46.3212171579323],[15.1139323784051,46.3210298883964],[15.1143536073009,46.3205144717481],[15.1147753989346,46.320209855899],[15.1152167692085,46.3198314422095],[15.1162508576126,46.3192988445521],[15.1164294053634,46.3191748622401],[15.1171436167282,46.3188747979144],[15.1177916933795,46.3189231665588],[15.1194775547282,46.3183089820528],[15.1206729806031,46.3171865028053],[15.1207654353961,46.3170690824437],[15.1206223437174,46.3169522706109],[15.1205182271469,46.3168444146681],[15.1204529669566,46.3166915319817],[15.1204654073826,46.3165025788423],[15.1205688711178,46.3163135297537],[15.1208280520986,46.3160793303986],[15.1209576021133,46.3159442362489],[15.1209702894367,46.315809265643],[15.1209179544109,46.3156293780815],[15.12085259553,46.3154315099635],[15.1207482043573,46.3151976944397],[15.1206570556034,46.3150808277487],[15.1205529425212,46.3149729717986],[15.1204227030695,46.3147931660919],[15.1203030784322,46.3146574350868],[15.1199564963748,46.3142288151944],[15.1200851185154,46.3137298782691],[15.1202286847644,46.3134155469535],[15.1204289291503,46.3128368194872],[15.1202405970955,46.312333267213],[15.1190443087405,46.3116360700454],[15.1185820540716,46.3107784918909],[15.1180908623055,46.309861110548],[15.1178024387778,46.3094074115972],[15.1181445191417,46.3078260782224],[15.1184590613565,46.3067883803451],[15.1186596883974,46.3063892382345],[15.118946688468,46.3059500585297],[15.1191184449992,46.3055309718846],[15.1191178824396,46.3052117531566],[15.1183373758752,46.3034566771066],[15.1182787925127,46.3029579348617],[15.1181056646898,46.3027385829647],[15.1180180522148,46.3020802607577],[15.1176431579701,46.301721390186],[15.1175268199221,46.301103044467],[15.1178999118132,46.3005640898178],[15.1183304598559,46.2999452695497],[15.1187032339452,46.2993265975564],[15.1187305854528,46.2985883511704],[15.1182405742606,46.2981697706132],[15.1172040034058,46.2978911157028],[15.1169443238105,46.2974922669379],[15.1170869578237,46.2968737451238],[15.117547066855,46.2967337268445],[15.1187557375629,46.2967129540236],[15.1191864192003,46.2962338561262],[15.1181491089985,46.2955363018839],[15.1174853460881,46.2945790562382],[15.118461172972,46.2933215032198],[15.119525132211,46.2929217308513],[15.1217102391665,46.2920622641962],[15.1225731654716,46.2919219760207],[15.1252743505822,46.2902640162795],[15.1266243260462,46.2891655921905],[15.1265621666651,46.2869710665174],[15.1264458515435,46.2863925858019],[15.1269325227148,46.2852150337475],[15.1271888746904,46.2840577095878],[15.1272456619569,46.2836985683015],[15.1273019862689,46.2831398696443],[15.1273590491438,46.2829003906688],[15.1280489459085,46.282640500823],[15.1280197094636,46.2824011181117],[15.1277310404332,46.2819823514317],[15.1278164909395,46.281563346327],[15.1282472542688,46.2812038756843],[15.1287354040971,46.2808044811963],[15.1289358045529,46.2803255142929],[15.1291076862559,46.2800260733941],[15.1295668128098,46.2794869814767],[15.1303433726916,46.2794065635688],[15.1304579970026,46.279206964839],[15.1306012375331,46.2789275281039],[15.1303995071067,46.27872820036],[15.1303700854152,46.278468844501],[15.1307141869786,46.2779698265159],[15.1307132254414,46.2775108801367],[15.1317150877487,46.2752955174705],[15.1319153943292,46.2747965711774],[15.1322312303674,46.2745369067293],[15.1322877305039,46.273968307575],[15.1343589292712,46.2740861851565],[15.1359088164055,46.2725284652919],[15.139643909302,46.2706894321582],[15.1433058599978,46.2621865730042],[15.1404711932902,46.2549670194309],[15.1388421478691,46.2465491139817],[15.1382085098564,46.2460310099624],[15.1378602166789,46.2445948383816],[15.1383181690607,46.2436367969361],[15.1382594485858,46.2430781380874],[15.1377507214443,46.2424002686724],[15.1377913384045,46.2394075496697],[15.1270979126447,46.2399936930261],[15.1221113478983,46.2406728429164],[15.1174418595842,46.2413022349273],[15.1144206009143,46.2425255072115],[15.1071254804647,46.250828224162],[15.1043986939881,46.2529585053742],[15.1009257628486,46.2545894950691],[15.0974068779965,46.2558759136357],[15.0933572742801,46.2574406728284],[15.0886319968462,46.2590682547341],[15.0848894429277,46.2617100730869],[15.0823524115547,46.2632814053126],[15.0808078327772,46.2640098432851],[15.0795394177305,46.2649295294751],[15.0771693721789,46.2678410356392],[15.0759560753807,46.2687606442343],[15.0714901953571,46.2736642171873],[15.0687326997195,46.2763841450441],[15.0679058650804,46.2776098786722],[15.064100073543,46.281593787499],[15.0620043470475,46.2841218959831],[15.0611767346037,46.2848880930174],[15.0602945325443,46.2861903654732],[15.0588600610682,46.2877225247344],[15.0569284972987,46.2890633640465],[15.0556044611029,46.2907486487019],[15.054777843137,46.2927018862909],[15.0518523064323,46.2948853364347],[15.0477128875887,46.2988687484614],[15.0468298817084,46.3000177823152],[15.0467761160762,46.3019707296901],[15.0468322014256,46.3030429889744],[15.0468931775737,46.3043671665943],[15.0504355355816,46.3047483982668],[15.0581368943147,46.3091589280741],[15.0588216318721,46.309408158965],[15.0595244765733,46.3097074005003],[15.0600410252149,46.3098943612171],[15.06088765132,46.3099978306581],[15.0613006268019,46.3102087732103],[15.0617902330807,46.3103269122244],[15.0621726245992,46.3103536064341],[15.0625534408792,46.3104788190581],[15.0628606029518,46.3106827960171],[15.0632031247944,46.3110362852826],[15.0631472646747,46.3112353331577],[15.0629726440419,46.3113564411569],[15.0625297685336,46.311581613002],[15.0624488221376,46.3117589910975],[15.0625617576255,46.3118526796797],[15.0631699643357,46.3120064664905],[15.0635461993412,46.3124244455855],[15.063819057391,46.3125931701314],[15.063935324747,46.3127571232248],[15.0638357243533,46.3129690617489],[15.0635556058771,46.313596319079],[15.0634650931874,46.3149329855866],[15.0636912151153,46.315881698844],[15.0640530563786,46.3172917090487],[15.0645559679468,46.3178442106481],[15.0649691291779,46.3182600044676],[15.0654764173273,46.3190916806967],[15.0659234834183,46.3197205038113],[15.0662312018209,46.3199017982778],[15.0664140073208,46.3203040442723],[15.0664827519972,46.3206669488585],[15.0663009417623,46.3209825840221],[15.0664151241474,46.3212270599351],[15.0667684091903,46.3214950588258],[15.0669852138694,46.3217632266171],[15.0670049861389,46.3224288230918],[15.0671915681532,46.3228280963981],[15.0674311509665,46.3232382246606],[15.0677161093274,46.3233722035197],[15.0678294655401,46.3235695334316],[15.0680810678073,46.3238216635054],[15.0681189113025,46.3245963839894],[15.0681393326842,46.324831466856],[15.0677076285754,46.3250244418336],[15.0677866690375,46.3251945307403],[15.0682310494266,46.3252731712725],[15.0684817347269,46.325407168622],[15.0686641687577,46.3255884413544],[15.0686202852471,46.3259101150737],[15.0693712797829,46.3262823230082],[15.0695207150458,46.3264501186687],[15.0696678379609,46.3266371693918],[15.0696454509411,46.3270079546623],[15.0698850696261,46.327315510216],[15.0698102230741,46.3275911379266],[15.0697608438254,46.3280808816368],[15.0695455203123,46.3289093781034],[15.0695650602428,46.3291602060408],[15.0701037418072,46.3290155631856]]]},"properties":{"fill-opacity":0,"stroke-opacity":1,"stroke":"#ff0000","lov":"0904","lov_naziv":"POLZELA","luo":"09","luo_naziv":"Savinjsko Kozjansko","povrsina":3970.53},"id":"pregledovalniklovisca.1"}]}