{"type":"FeatureCollection","features":[{"type":"Feature","geometry":{"type":"GeometryCollection","geometries":[{"type":"Polygon","coordinates":[[[15.6359911713195,46.1857917126629],[15.636515169517,46.1858595155669],[15.6359689859745,46.1857887769813],[15.6359911713195,46.1857917126629]]]},{"type":"Polygon","coordinates":[[[15.6360100736402,46.1853639623701],[15.6361906870622,46.1850637946967],[15.6361455842186,46.18487087208],[15.6363310976096,46.1845128237729],[15.6366331638019,46.1841972235343],[15.6369176858628,46.1836638937634],[15.6370026665793,46.1836082663405],[15.6374548771117,46.1836644084721],[15.6376140345748,46.1835263108703],[15.6379137722756,46.1834472612022],[15.6381259448028,46.1834467068355],[15.6381894178057,46.1834579591171],[15.6382560625985,46.1834298751202],[15.6382691088239,46.1833035690875],[15.6382632362135,46.1832214558285],[15.638229662083,46.1831297800639],[15.6377588893558,46.1826891066805],[15.6377005760761,46.1825974787945],[15.6377262210945,46.1824852284068],[15.6377533188172,46.1824874165526],[15.6377776944412,46.1824894399314],[15.6378352596217,46.182493977338],[15.6379342942791,46.1823881553987],[15.6379935493854,46.1822476455614],[15.6379715968165,46.1820855453467],[15.6378582335362,46.1818707807078],[15.6372092311516,46.1814292998467],[15.6370146095062,46.1812889457268],[15.6369613558717,46.1812426360414],[15.6369813946845,46.1812168818516],[15.6369964184972,46.1811943046863],[15.6369592502503,46.1811724682123],[15.6369282647734,46.1812149285428],[15.6365838126287,46.1810550743184],[15.6361187247018,46.1807789244654],[15.6360133928028,46.1806756807792],[15.6360110571367,46.1802147579551],[15.636215212153,46.1800479801294],[15.6361027055576,46.1797043664019],[15.6359220649074,46.1797086104893],[15.6355413253089,46.1798382207746],[15.6353785803358,46.1797543701153],[15.6354240409209,46.1796304034277],[15.6357194616386,46.1795379773491],[15.6358205768579,46.1794442021084],[15.6357431421329,46.1793561885065],[15.6356458702928,46.1793451228039],[15.6352535256688,46.1795128555956],[15.6352053005252,46.1794642677898],[15.6351216913445,46.1793798870297],[15.6352139712296,46.1791486814041],[15.6351563290489,46.1790808915028],[15.6351687907328,46.1790270179124],[15.6351086204942,46.1789871339199],[15.634803040065,46.1791082265254],[15.634730633916,46.1793219565252],[15.6347073335641,46.1793907359256],[15.6345904247403,46.1793953438249],[15.6344432219948,46.1792773954427],[15.6343517355238,46.179127376942],[15.6343971547888,46.1790447088669],[15.6345876219835,46.1789715826593],[15.6347145428106,46.178891611076],[15.6345982628549,46.1786468080266],[15.6346395406019,46.1784181353003],[15.6342521893729,46.1779722153678],[15.6340260337185,46.1780164774244],[15.6338674953941,46.1781515076216],[15.6340324592463,46.1784515552825],[15.6338243837028,46.1785026446403],[15.6336494941509,46.1783306844762],[15.6335878294471,46.1781943560055],[15.6335361558215,46.1781723288821],[15.6333703348581,46.1781921422562],[15.6332199523448,46.1785075239068],[15.6330575199416,46.1787211216948],[15.6328592201707,46.1787777335328],[15.6324344397682,46.1787490434067],[15.6322538748778,46.1786692457203],[15.6321585371053,46.1785329227751],[15.6320761122781,46.178212261927],[15.6319192237091,46.1781186567663],[15.6317546051189,46.1781077800699],[15.6316632789109,46.177993568095],[15.6317682195705,46.1778489400548],[15.632266010765,46.1777617924182],[15.6323713409919,46.1777756056102],[15.6326233412454,46.1778277457413],[15.6326885823184,46.1777340817946],[15.6326022529117,46.1775361672253],[15.6327291222744,46.1774630361241],[15.6329394765368,46.1775317813042],[15.6332389881945,46.1775481173362],[15.6334290869509,46.1769243550745],[15.6332244115435,46.1767070324835],[15.6329032833611,46.1767140293523],[15.6326674126924,46.1767691393828],[15.6325441742178,46.1767182663508],[15.6325223564957,46.1765889146829],[15.6324289800207,46.1765104342599],[15.6321432188611,46.1764954596491],[15.6315129866104,46.1763377098463],[15.6308283953353,46.1761603723266],[15.6307368696038,46.1760282558753],[15.6308068251469,46.1756898380162],[15.630368085046,46.175355396015],[15.6302389859788,46.1752218668043],[15.6295802606587,46.1752099311263],[15.6294298164676,46.1754302958693],[15.6292730086744,46.1754221617802],[15.6291579021461,46.1752320507251],[15.6287057045978,46.1753066077025],[15.6283069111318,46.1753054712624],[15.6280390430082,46.1752574576026],[15.6278028770926,46.1751157863469],[15.6275827322544,46.1751641414676],[15.6273574779049,46.1750707253622],[15.6271649531176,46.1749511267975],[15.6269623664519,46.1747666219431],[15.6269602428604,46.174648137975],[15.6269978331179,46.1745710940985],[15.6270116301879,46.1744403763273],[15.6269766686153,46.1743726377945],[15.6269479063719,46.1742805722981],[15.6267403305979,46.1740670328224],[15.6267609375117,46.1739998892836],[15.6272032619897,46.1737980810748],[15.6272860604651,46.1736876786419],[15.6272272206138,46.1735701356847],[15.6270334503501,46.1734886026677],[15.6261520531273,46.1734483569788],[15.6259870932198,46.1734859697809],[15.6255204322018,46.1734262623388],[15.6254062402523,46.1733038927988],[15.625112389769,46.1732705901884],[15.624953327569,46.1733258041354],[15.6246528761772,46.1734987566337],[15.6243591301821,46.1735205155489],[15.6241723771339,46.1734750188937],[15.624159851018,46.1731806026764],[15.6239453244881,46.1729695253376],[15.6233887538334,46.1728378708944],[15.6227941921695,46.1728741321095],[15.6225902265421,46.1727949864212],[15.6221472814639,46.1724257157213],[15.6219652520674,46.1723966549734],[15.6218651076843,46.1725430475311],[15.6215851824112,46.1726416518399],[15.6213743030291,46.1726153562649],[15.6212739752533,46.1725386139741],[15.6213256616833,46.1722866759918],[15.6213290983501,46.1720858355072],[15.6211248724174,46.1718220621033],[15.6206823594811,46.1716277826304],[15.6198908460343,46.171642604482],[15.6198080137015,46.1718202123035],[15.619514880357,46.1719766464308],[15.6192313718534,46.1719984266689],[15.6190896810029,46.1719168679686],[15.6191309293231,46.1716456430889],[15.6190626336309,46.1715954476122],[15.6189665670891,46.1715979472449],[15.6185916085084,46.1716410949837],[15.6174680651632,46.1714617330801],[15.6173471785964,46.1715145708713],[15.617454610044,46.1718217014897],[15.6170918904168,46.1720330294432],[15.6168263631249,46.1719604139718],[15.6164147507564,46.1717254629782],[15.6163214121198,46.1715432291947],[15.6165526044001,46.1711974722843],[15.6169016397204,46.1711061551239],[15.6169187690864,46.1709934153074],[15.6166906519723,46.1709767413516],[15.6163795257742,46.1709720312216],[15.6160548151242,46.1710729328881],[15.6156952841591,46.1711522474851],[15.6159445912359,46.1715241163288],[15.6158168167327,46.1716561666742],[15.6154261166284,46.1716467540775],[15.6150942459535,46.1715124996909],[15.6147208501157,46.1713590332772],[15.6144823264197,46.1715127315338],[15.6142991005448,46.1715151558841],[15.6141540484962,46.1714217325655],[15.6140964705994,46.1713101143152],[15.6141932058745,46.1712164715843],[15.6144973077055,46.1710554934301],[15.6143518861708,46.1707892323972],[15.6132134053432,46.1701952190029],[15.6131681623601,46.1700512334436],[15.6133200982211,46.1698207148579],[15.6132715458927,46.1696935722164],[15.613136722848,46.1696576760379],[15.6126009128923,46.169384328615],[15.6119382236445,46.1690900641942],[15.6105719670585,46.1685738112922],[15.610470661209,46.1685353936128],[15.609717043675,46.1681319235479],[15.6092227497129,46.168038556679],[15.6089807756111,46.1679618385614],[15.6090704795741,46.1678057956233],[15.6090152934568,46.167721873994],[15.6083699759257,46.167544331051],[15.6082882084784,46.167890757601],[15.6079996975729,46.1681622144256],[15.6074437431581,46.1683845266029],[15.6068863555521,46.1684887078461],[15.6058174848445,46.1684437221157],[15.6054535372741,46.1684625654314],[15.6052842535984,46.1685309423887],[15.6051887985985,46.1686832338711],[15.6052877688812,46.1688514110605],[15.605338735214,46.1690704977141],[15.6052193045431,46.1692566564025],[15.6050507580399,46.169392509571],[15.6048313762249,46.1693093649289],[15.6045385347545,46.169175953034],[15.6043686381906,46.1691768513949],[15.6043693772461,46.1692443279593],[15.6045657073813,46.169445731213],[15.604616485102,46.1696478140851],[15.6045694029391,46.1697830240303],[15.6042543764653,46.1698353450126],[15.603792982603,46.1698377829838],[15.6035265150862,46.169889755491],[15.6032865315327,46.1701609440975],[15.6029255753055,46.1704665105267],[15.6026360485764,46.1706367383531],[15.6019810832593,46.170690844637],[15.6019085439579,46.170724966836],[15.601792777908,46.1712485048321],[15.6017049056298,46.1721092980358],[15.6016388030043,46.1727338849465],[15.6012523164215,46.1729214445766],[15.6012563608288,46.1732925656396],[15.6010412491554,46.1736141838676],[15.6005352987582,46.1739879852244],[15.6000293415078,46.1743617843505],[15.5998410417949,46.1749109833883],[15.5977058061476,46.1750740435414],[15.5958520603833,46.174307696389],[15.5955572111158,46.1739887459226],[15.5950642342876,46.1732996839124],[15.593892158914,46.1726984553609],[15.5931398509885,46.1727361015389],[15.5920199926318,46.1724720749164],[15.5911900138537,46.1722952528034],[15.5906583600902,46.172293502389],[15.5896816873445,46.1717925314032],[15.5884154051957,46.1714447391544],[15.5877574108544,46.171228857758],[15.5865345157839,46.1703916333106],[15.5860963871835,46.1702927497722],[15.5851529007519,46.1706180703551],[15.5813971146001,46.171379518717],[15.5796834068668,46.1723835130648],[15.5768251346629,46.1707110507243],[15.5739208018897,46.1692749293542],[15.5717839127838,46.1668901711014],[15.5709933161939,46.1655615181167],[15.5646889502208,46.1663856853124],[15.5630979310022,46.1675238766174],[15.5626024925986,46.1665478491011],[15.56200480301,46.1650662182957],[15.5606841629599,46.1641279763355],[15.5599515398338,46.1637098591494],[15.5591531658828,46.1639836891777],[15.5568463407306,46.1639612093016],[15.5549891205941,46.1627555918689],[15.553824344436,46.1628287214494],[15.5526838684763,46.1628848965304],[15.5521484102311,46.1627525230832],[15.5506352891848,46.1619668804898],[15.5500275826331,46.1618855004697],[15.549012004615,46.1623120908394],[15.5467009570501,46.1621695811016],[15.5472099043175,46.1630647268551],[15.546595822417,46.1641969286311],[15.5449796893021,46.1651312870429],[15.5442004428964,46.1664089409499],[15.5424326587544,46.1689075519491],[15.5408590201151,46.1699573560625],[15.5402485465832,46.171465866018],[15.5399818465269,46.171620081733],[15.5392406394198,46.1706888417693],[15.5386138500974,46.1705180571218],[15.5380725913982,46.1705785492746],[15.5374086202299,46.1708712086292],[15.5362340998178,46.1700949409602],[15.5355642231221,46.1697795736665],[15.5355148563198,46.1689762478827],[15.5350154472177,46.1690510153258],[15.5348276567925,46.1690229224688],[15.5347635671585,46.1688639684538],[15.5347594979974,46.1684440791653],[15.5345505814462,46.1683872030444],[15.5340293464718,46.1683606676263],[15.5335282602503,46.1682616067784],[15.5330695732525,46.1682348650158],[15.5328382721848,46.1680187463048],[15.5324210039326,46.1679627472897],[15.5319418895663,46.1679794635789],[15.5315229499593,46.16774981936],[15.5310835829567,46.1675636359427],[15.5308096216834,46.1672464006247],[15.5307865452164,46.1670148248552],[15.5305344013472,46.1667844023847],[15.530676726882,46.1664217765245],[15.5306336295141,46.1662627226732],[15.5285629724012,46.1654615602816],[15.5281259883582,46.1655214332369],[15.5279397376398,46.1656526658447],[15.5276901113937,46.1656971858857],[15.5271081599655,46.1658591247096],[15.5267530425491,46.1657594509394],[15.5265636184884,46.1655720980945],[15.5263311029115,46.165211203595],[15.5260161764638,46.164966574335],[15.5254118558793,46.1649548677195],[15.5249308372069,46.1647688520102],[15.5245133341743,46.1646983393753],[15.523684231069,46.1651654166287],[15.522397138303,46.1656780391157],[15.5211942325395,46.1662770881213],[15.520635698315,46.1667139375734],[15.5202247369718,46.1673383382623],[15.5210855569581,46.1680293762503],[15.5215288618603,46.1686353984377],[15.5214495710522,46.1690700642546],[15.5220153884093,46.1694149611036],[15.5219745126026,46.1695020625508],[15.5213344706357,46.1701419985028],[15.5208831523936,46.1708968674086],[15.5201053207364,46.1724060318003],[15.519565522093,46.1726256833746],[15.5191329732467,46.1731777486418],[15.51835030201,46.1741802798131],[15.5175864095879,46.1749510378355],[15.5172563145609,46.1753144066228],[15.516449745062,46.1759984352909],[15.5151864348838,46.1768728326254],[15.5140865278955,46.1773844266546],[15.5131322972608,46.17786647466],[15.5128009444332,46.1780995540122],[15.5126993739227,46.1783895451713],[15.5122646953314,46.1787244867336],[15.5122556268429,46.179170617244],[15.512048064072,46.1797219165589],[15.5115131496643,46.1803956053538],[15.5111696003471,46.1808803909496],[15.5111738302246,46.1813368087161],[15.511742998364,46.1822874437037],[15.5118910530157,46.1836829925696],[15.5120881760205,46.1840982379733],[15.5119754809151,46.1844612466584],[15.5114949398388,46.1847452852691],[15.5106850159854,46.1849636734072],[15.5105698298432,46.1850448043133],[15.5112874740663,46.1853100782715],[15.5115801117047,46.1856041525662],[15.5118167136403,46.1861132440786],[15.5126117062523,46.1863915694263],[15.5131544102804,46.1865502773805],[15.5134859211043,46.1868575783071],[15.5138803383296,46.1877149641436],[15.5145452602358,46.1885443191388],[15.5150721960315,46.189092404676],[15.5154257950409,46.1896948936487],[15.5159007430364,46.1908876003868],[15.5157693847339,46.1913178168867],[15.5153500961203,46.1919775044929],[15.5159189828427,46.1949552216884],[15.5153398357314,46.1950518562097],[15.514859466299,46.1953761257938],[15.5141834116398,46.1954462887733],[15.5128887196316,46.1955058188696],[15.5125052328264,46.1958565459009],[15.5123529098726,46.1961123035153],[15.5124702390324,46.1962595140735],[15.5142960877856,46.197177591527],[15.5164503217035,46.1980674345338],[15.5173043118575,46.1984260764053],[15.5188066553723,46.1998825963719],[15.5182358189738,46.2008819110802],[15.5193426242864,46.201387037589],[15.5205243961197,46.201636737438],[15.5218784181634,46.2016842783875],[15.5238511493888,46.20174237589],[15.5254537299374,46.2015067585943],[15.5280875072989,46.2019510576148],[15.5291155217945,46.2022819049939],[15.5298534313409,46.2026275840739],[15.5306646994646,46.202529798919],[15.531572109477,46.2023913428902],[15.5318794596922,46.2021751468386],[15.5333839273526,46.2017922284502],[15.5349851639425,46.2014088374182],[15.5356640050697,46.2016339211689],[15.5363812016815,46.2018185128395],[15.5371906141285,46.2015327355957],[15.5375945988022,46.2013294760481],[15.5386398654813,46.2014453901555],[15.5395330556557,46.2018304931964],[15.5407019434656,46.2027378408221],[15.5414777504919,46.2029892434201],[15.5420798057445,46.2032548708023],[15.54429741467,46.2046270448296],[15.545038367355,46.2052544978521],[15.5498751905257,46.2035666479006],[15.5551428707679,46.2004937895492],[15.5589358210579,46.2027574837815],[15.5593481281359,46.2014532818815],[15.5606016982595,46.2011383526665],[15.5618217123065,46.2013337239836],[15.5630391219957,46.2012606143809],[15.5648617073137,46.2017617727355],[15.5657623952027,46.2028715496535],[15.567623809847,46.2033858777257],[15.5685894645682,46.2032736507099],[15.5700766272336,46.2031185980145],[15.5712291105144,46.2033922125708],[15.5717805813181,46.2033517568149],[15.5724735920984,46.2030529058556],[15.5726119367611,46.2033475956959],[15.5751934447562,46.204301130424],[15.5739412957495,46.2047638586799],[15.5738928907078,46.2056904675996],[15.5735925431211,46.2065779426881],[15.5737403363562,46.2077787051516],[15.5722448029424,46.2109074652233],[15.5721377571913,46.2117939679114],[15.571717032051,46.2122525071231],[15.57172009699,46.2125478740266],[15.5704495338265,46.2131180834397],[15.5706122075462,46.2138958101159],[15.5704624693691,46.2143798936359],[15.5706997400853,46.2148888576308],[15.5705083194103,46.2150777671159],[15.5697333310192,46.2149473919132],[15.5684147803398,46.2146048593001],[15.5674911431988,46.2150658821112],[15.5674936324975,46.2153075378215],[15.5694916205276,46.2177945385972],[15.5698439171095,46.2181955030471],[15.5700386857202,46.2183288619989],[15.5702351214672,46.2186231742992],[15.5706229944142,46.2187286669133],[15.570818878122,46.2189692669695],[15.5704317082884,46.2189443874695],[15.5701245470216,46.2191606856219],[15.5699728459029,46.2194568239232],[15.5703241933751,46.2197772655464],[15.5706723366426,46.2197755282287],[15.5709826895969,46.2198545045682],[15.5710224282535,46.219961734026],[15.5705974594657,46.2200174798744],[15.5702123575934,46.2201805432103],[15.5703297528943,46.2203141975413],[15.5704463148398,46.2203673299473],[15.5709486658674,46.220311108258],[15.5710273081694,46.220444955403],[15.5709524326046,46.2206869972184],[15.5704899451204,46.2208503579491],[15.5700268999464,46.2209600955981],[15.570421610222,46.2217367542716],[15.5698803409143,46.2217662656705],[15.5698051811929,46.2219814961046],[15.570309641693,46.2221400325543],[15.570041367451,46.2223830383181],[15.568920189164,46.2224423372067],[15.5686916425932,46.2227924799897],[15.5688540453983,46.2235434872003],[15.56831262781,46.2235729918976],[15.5678915051944,46.2240047060401],[15.5671183314237,46.2240621680455],[15.566696090334,46.2243864554404],[15.5667762393116,46.2246545377677],[15.5662378464665,46.2249793992133],[15.565464236248,46.2249832282309],[15.5653129159934,46.2253330720649],[15.5656257747952,46.2256537181185],[15.5661277729482,46.2255706174889],[15.566361593392,46.2257306011215],[15.5662084731752,46.2258924113405],[15.565938507621,46.2259743639231],[15.5657082732512,46.2261634571176],[15.5659041623204,46.2264040652595],[15.5659449999334,46.2266187187282],[15.5656747531797,46.2266736801566],[15.5652066897642,46.2263001777785],[15.5649756244889,46.226408657748],[15.5645357306283,46.2270751917038],[15.5660245965369,46.2268330903104],[15.5668345048293,46.2265874099656],[15.5676809512955,46.2261267767815],[15.5684876455495,46.2255589071366],[15.5688519417237,46.2252349015265],[15.570028054641,46.2248666318702],[15.5713965675015,46.2243899607659],[15.5740348635377,46.2232490212706],[15.5745337363037,46.2228572016615],[15.5753212899156,46.2223296875686],[15.5758980893552,46.2219911837021],[15.5763967971943,46.2215859507024],[15.5771848766809,46.2211120449757],[15.5779371349187,46.2209068846834],[15.5791342409807,46.2207128727955],[15.5798284186374,46.2205079942468],[15.5793342644506,46.2213428409462],[15.5792890552983,46.2225781310665],[15.5795106722898,46.2234361610699],[15.581033126294,46.2228914740613],[15.5819039698362,46.2229407587416],[15.5823307928329,46.2230593293307],[15.5830694421321,46.223404660114],[15.5849441688003,46.2232608434323],[15.5858384750614,46.2236992017246],[15.5869917696473,46.223867293937],[15.5875452790956,46.2241334701632],[15.5877232456799,46.2245084629648],[15.5879436985311,46.2252322425454],[15.588355985152,46.2258073887188],[15.5885167998658,46.2263838281562],[15.5888084884841,46.2265299720142],[15.5907615579346,46.2264661824129],[15.5914611131664,46.2267713528908],[15.5935365723665,46.2272975557108],[15.5944857399385,46.2274134577702],[15.5953287557242,46.2270993837365],[15.5962931783773,46.2263972462968],[15.5977412333403,46.2261480166614],[15.5985885798934,46.225794577627],[15.5997407856033,46.2250099119281],[15.6010648447439,46.2240228813151],[15.600693263815,46.223649016669],[15.6006511226357,46.2233270443741],[15.6008784418398,46.2228828221876],[15.6012959251993,46.2221422176919],[15.6015198632438,46.2213893140669],[15.6021549983007,46.2210905886362],[15.6023426607518,46.2205660462521],[15.6022599799627,46.2200698299969],[15.6017719728435,46.2196561839375],[15.601130388585,46.219350771385],[15.6009340781543,46.219083323493],[15.6010846000127,46.2188013659816],[15.6014703025951,46.218583851598],[15.6016390907332,46.2180996274583],[15.6014230306041,46.2177919762892],[15.6007185581975,46.2170304580717],[15.6005406916636,46.2166823864542],[15.6005337969832,46.2160380344517],[15.5995341956813,46.2148082183821],[15.5990654054701,46.2143677375813],[15.598789709114,46.2139127476195],[15.5985694359832,46.2132023925676],[15.5981779060034,46.2127614134901],[15.5980777294181,46.2124397432986],[15.5986591382318,46.2107586082049],[15.5984197333774,46.2100752546884],[15.598414468473,46.2095785395294],[15.5986018202171,46.2090136958075],[15.5990228800544,46.208608769622],[15.5995037576031,46.2083780764774],[15.6003086932726,46.2077025613228],[15.6020606998824,46.2069952445734],[15.6029267395258,46.2066148615592],[15.6038341589097,46.2064758319236],[15.6049169456384,46.2064701075533],[15.6056335646999,46.2065870576377],[15.6061388541078,46.206812642105],[15.6066409140955,46.2067562649123],[15.607447958699,46.2062821384712],[15.608908047793,46.2054151249449],[15.6096973991191,46.2051022191057],[15.6113930671248,46.2045561117894],[15.6120097114222,46.2043648577793],[15.6127554908358,46.2036091348531],[15.6128986890906,46.2025612563381],[15.6132040753897,46.2021971156348],[15.612964229603,46.2014868918029],[15.6139038703321,46.2007837455502],[15.6138784353553,46.2002335143619],[15.6142794120351,46.1997749249566],[15.6153680593718,46.2003060318127],[15.6160461593881,46.2004366200821],[15.6175341373771,46.2003614716912],[15.6181289994769,46.1999555354464],[15.6183750873978,46.1994843629758],[15.6189927052817,46.1993869981628],[15.6206753216271,46.1994315892075],[15.6224223959591,46.20006648056],[15.6232290536949,46.1995787481356],[15.624481905213,46.1992363099385],[15.6252359701921,46.1992321882539],[15.6255617804876,46.1989753309515],[15.6261909078655,46.1981932557442],[15.6267112343976,46.1980427578556],[15.6277350198495,46.1979566143986],[15.6284397444336,46.1970129689034],[15.6287122311564,46.1971726132532],[15.6299472231364,46.1969644537271],[15.6309558506761,46.1972541844206],[15.6315596775242,46.1976535716815],[15.6318252529455,46.1972091644413],[15.6323455535306,46.1970585510394],[15.6327463530717,46.196599897508],[15.6333594164419,46.1960998485321],[15.6335548040616,46.1952658805271],[15.6334795071758,46.1947566874516],[15.6330483248029,46.1942489257603],[15.6317241943234,46.1934104988463],[15.6322197448849,46.1927767744156],[15.632399612188,46.1915944258749],[15.6323704323702,46.1907220229496],[15.6327315277588,46.1901829721791],[15.6335722352983,46.1893191573618],[15.6341643646631,46.1886848887191],[15.6346800988887,46.1881450636061],[15.634940940449,46.187284366348],[15.6351476088526,46.1867596612833],[15.6362810098065,46.1861333495409],[15.6360217150429,46.1858566837063],[15.6359911713195,46.1857917126629],[15.6359689859745,46.1857887769813],[15.6359206583215,46.1856644322207],[15.6360100736402,46.1853639623701]]]}]},"properties":{"fill-opacity":0,"stroke-opacity":1,"stroke":"#ff0000","lov":"0925","lov_naziv":"PRISTAVA","luo":"09","luo_naziv":"Savinjsko Kozjansko","povrsina":3914.46},"id":"pregledovalniklovisca.1"}]}