{"type":"FeatureCollection","features":[{"type":"Feature","geometry":{"type":"Polygon","coordinates":[[[15.1009257628486,46.2545894950691],[15.1043986939881,46.2529585053742],[15.1071254804647,46.250828224162],[15.1144206009143,46.2425255072115],[15.1174418595842,46.2413022349273],[15.1221113478983,46.2406728429164],[15.1216355633397,46.2397806414433],[15.121474553464,46.238387315922],[15.1216087465906,46.2378548048884],[15.1216344672599,46.2377002044455],[15.1215903780816,46.2376984518893],[15.1215858395016,46.2376982767706],[15.1215740104217,46.2376847934461],[15.1215728404803,46.2376834450998],[15.1215478827367,46.237655130238],[15.1212691883903,46.237338362412],[15.1216738005722,46.2366648467379],[15.1208825628013,46.2359920603623],[15.1207891258108,46.2345360404575],[15.119360928782,46.2314054984793],[15.118635412436,46.2297775659418],[15.1187198385129,46.2270845013046],[15.118579574571,46.2247985260436],[15.1184182151447,46.2231859289216],[15.1175558661463,46.2207283083009],[15.1171682461583,46.2187556888521],[15.1179100945589,46.2175652131808],[15.1187640660381,46.2160928204925],[15.1202499896289,46.2148705129886],[15.1204499446052,46.2134925449846],[15.1185956832179,46.2112078174218],[15.1188145984156,46.2080918204778],[15.1170966079195,46.2061513421285],[15.117252880786,46.2054153811685],[15.1193478143762,46.2026190949148],[15.121707954981,46.2009029759871],[15.1213839558498,46.1970514733685],[15.1208265781115,46.1957598666516],[15.119543207287,46.1920369475817],[15.1194127838254,46.1905592703922],[15.11706564458,46.1866303073408],[15.1148856676711,46.1850588821902],[15.1115684906618,46.1840609422075],[15.1116033708804,46.1817736004242],[15.1075247743729,46.1844723072144],[15.108123283611,46.1859494677942],[15.1075946316722,46.1875453765771],[15.0986029385626,46.1911698785814],[15.0935996557506,46.1887640558339],[15.0902572381019,46.1871255374193],[15.086256387005,46.186033828631],[15.0771963093886,46.183741122214],[15.0767264473592,46.1836222235889],[15.0759362646735,46.1834222001663],[15.0713230677279,46.1853737280759],[15.0643037770224,46.1854343052237],[15.0631552838935,46.1855527207929],[15.0587544079076,46.187607092765],[15.0577971393584,46.1875481082705],[15.0537140205534,46.1886123264305],[15.052246321029,46.1886863349815],[15.046099911052,46.1901936047049],[15.0443985348909,46.1906959699746],[15.0397629353378,46.1934365567304],[15.0407420367885,46.1941753432899],[15.0418916334073,46.1952095315283],[15.0437127969998,46.1973721686405],[15.0442283147585,46.1979777607052],[15.0438432066997,46.1985936863586],[15.0438435947018,46.199081521434],[15.043883398947,46.1996020916206],[15.044384119367,46.1998254819324],[15.0444618852308,46.200655635135],[15.0460439943462,46.2018874625997],[15.0461601339118,46.2023962144732],[15.0478196317962,46.2037083318053],[15.0483226541319,46.2056096140424],[15.0486328080025,46.2074305396327],[15.0488156469434,46.2087307537091],[15.0489244834164,46.2106025081298],[15.0466628024237,46.2126848012603],[15.0450977593882,46.2151236092945],[15.0453136406039,46.2188467870997],[15.0447612510371,46.2201764453358],[15.044038732391,46.2216243906937],[15.0443393801621,46.2249042370074],[15.0456183310926,46.2270908843182],[15.0466409610947,46.2280659572793],[15.048174263077,46.2287159150207],[15.0485159507935,46.2299865465915],[15.0487295591833,46.2308138456124],[15.0482617941329,46.2315526306392],[15.0480497111945,46.2324686428112],[15.0487320436554,46.2336209950091],[15.0497555979051,46.2354234278009],[15.0501825236624,46.2366644147508],[15.0512901131432,46.2372553137659],[15.0544444809378,46.2406236013799],[15.055510319369,46.2418645311879],[15.0550426812474,46.2426033424616],[15.0547878287112,46.2433420499566],[15.0548312869582,46.2441399060441],[15.0544911206211,46.2446422056391],[15.0551310442132,46.2457650263986],[15.0562393229343,46.2467990809535],[15.056154370846,46.2469173466271],[15.0609243851163,46.2484072786303],[15.0643096999745,46.2484688551923],[15.0667471920723,46.2486872610136],[15.0710811444762,46.2494059582868],[15.079298506288,46.2511563672858],[15.0948762415772,46.2542488211521],[15.0974068779965,46.2558759136357],[15.1009257628486,46.2545894950691]]]},"properties":{"fill-opacity":0,"stroke-opacity":1,"stroke":"#ff0000","lov":"0917","lov_naziv":"PREBOLD","luo":"09","luo_naziv":"Savinjsko Kozjansko","povrsina":3887.83},"id":"pregledovalniklovisca.1"}]}