{"type":"FeatureCollection","features":[{"type":"Feature","geometry":{"type":"Polygon","coordinates":[[[15.549012004615,46.1623120908394],[15.5500275826331,46.1618855004697],[15.5506352891848,46.1619668804898],[15.5521484102311,46.1627525230832],[15.5526838684763,46.1628848965304],[15.553824344436,46.1628287214494],[15.5549891205941,46.1627555918689],[15.5568463407306,46.1639612093016],[15.5591531658828,46.1639836891777],[15.5599515398338,46.1637098591494],[15.5606841629599,46.1641279763355],[15.56200480301,46.1650662182957],[15.5626024925986,46.1665478491011],[15.5630979310022,46.1675238766174],[15.5646889502208,46.1663856853124],[15.5709933161939,46.1655615181167],[15.5717839127838,46.1668901711014],[15.5739208018897,46.1692749293542],[15.5768251346629,46.1707110507243],[15.5796834068668,46.1723835130648],[15.5813971146001,46.171379518717],[15.5851529007519,46.1706180703551],[15.5860963871835,46.1702927497722],[15.5865345157839,46.1703916333106],[15.5877574108544,46.171228857758],[15.5884154051957,46.1714447391544],[15.5896816873445,46.1717925314032],[15.5906583600902,46.172293502389],[15.5911900138537,46.1722952528034],[15.5920199926318,46.1724720749164],[15.5931398509885,46.1727361015389],[15.593892158914,46.1726984553609],[15.5950642342876,46.1732996839124],[15.5955572111158,46.1739887459226],[15.5958520603833,46.174307696389],[15.5977058061476,46.1750740435414],[15.5998410417949,46.1749109833883],[15.6000293415078,46.1743617843505],[15.6005352987582,46.1739879852244],[15.6010412491554,46.1736141838676],[15.6012563608288,46.1732925656396],[15.6012523164215,46.1729214445766],[15.6016388030043,46.1727338849465],[15.6017049056298,46.1721092980358],[15.601792777908,46.1712485048321],[15.6019085439579,46.170724966836],[15.6019810832593,46.170690844637],[15.6026360485764,46.1706367383531],[15.6029255753055,46.1704665105267],[15.6032865315327,46.1701609440975],[15.6035265150862,46.169889755491],[15.603792982603,46.1698377829838],[15.6042543764653,46.1698353450126],[15.6045694029391,46.1697830240303],[15.604616485102,46.1696478140851],[15.6045657073813,46.169445731213],[15.6043693772461,46.1692443279593],[15.6043686381906,46.1691768513949],[15.6045385347545,46.169175953034],[15.6048313762249,46.1693093649289],[15.6050507580399,46.169392509571],[15.6052193045431,46.1692566564025],[15.605338735214,46.1690704977141],[15.6052877688812,46.1688514110605],[15.6051887985985,46.1686832338711],[15.6052842535984,46.1685309423887],[15.6054535372741,46.1684625654314],[15.6058174848445,46.1684437221157],[15.6068863555521,46.1684887078461],[15.6074437431581,46.1683845266029],[15.6079996975729,46.1681622144256],[15.6082882084784,46.167890757601],[15.6083699759257,46.167544331051],[15.6081734615744,46.167490264099],[15.6082043331189,46.1675888912927],[15.6080781612266,46.1675381873745],[15.6080216387482,46.1673680772857],[15.6077873634465,46.167143398436],[15.6074335954966,46.1669685698963],[15.6073956282715,46.1669074993456],[15.60750403256,46.1666501374904],[15.6078593183813,46.1663516045058],[15.6085507486989,46.1661804840912],[15.6093557528309,46.1656233954043],[15.6093498625752,46.16544176925],[15.609028273807,46.1653778919813],[15.6086844275802,46.1651627060368],[15.6083209973,46.1648387546911],[15.6071166448444,46.1647608517143],[15.6066964889276,46.1645645996802],[15.6061395149954,46.1640546123773],[15.6055714819644,46.1634916861889],[15.6051022454518,46.1632463824699],[15.6045093267389,46.1629868852229],[15.6042965621508,46.1628434218575],[15.6041652601684,46.1626657872997],[15.6041649398074,46.162518231525],[15.6043874316439,46.1621548197843],[15.6044305343585,46.1619996565294],[15.6044357077482,46.1618217504253],[15.6043645546151,46.1616856359543],[15.6040428998673,46.1616368606233],[15.6036989905777,46.1617316206024],[15.6034582125007,46.1617610538209],[15.6032497401481,46.1618082208936],[15.603205235074,46.1618353579971],[15.6030718012679,46.161722784663],[15.6032854872332,46.1614062979729],[15.6033096141293,46.1609245393492],[15.6035673878641,46.1608274461587],[15.6042719981738,46.1609073095713],[15.6047798183088,46.1607764109356],[15.6050251441351,46.1606071311105],[15.6056909479142,46.16027753909],[15.606221129961,46.1601675694848],[15.6067309059639,46.1601214073957],[15.6073480042023,46.1598501874683],[15.6075366954412,46.1597360873204],[15.6076623067201,46.1597610622818],[15.6081276956543,46.1596588061088],[15.6083369401413,46.1595770759477],[15.6083803580537,46.159533927227],[15.6087104262799,46.1593836228177],[15.6092372016056,46.1591774750046],[15.6095521841454,46.1589864003006],[15.6097852826407,46.1588023296663],[15.6100151884584,46.1585755378749],[15.6102150627696,46.1583378391104],[15.6104768856295,46.1582227138418],[15.610724861399,46.1580848984942],[15.6109685088415,46.1578602806904],[15.6110265183451,46.15776711731],[15.6111145319327,46.1574603748177],[15.611227999691,46.1571957839918],[15.6112167798383,46.1571530162866],[15.6112431139119,46.1570640709843],[15.6113144598499,46.1569243194911],[15.6115756783663,46.1560776149562],[15.6118268251071,46.15575974187],[15.6120765616156,46.1555951917697],[15.6125395548567,46.1551525580288],[15.6127651571327,46.1549603337018],[15.61282720047,46.1548578803928],[15.6129629790071,46.1548082064334],[15.6131350996625,46.1544869752117],[15.6132034534475,46.1541251821916],[15.6132423657594,46.1540734182259],[15.613261179638,46.1539605796137],[15.6133213340997,46.1538397814129],[15.6134464316552,46.1537728891282],[15.6134876722124,46.153686022639],[15.6137652757246,46.1536071546217],[15.6141425749333,46.1535523133089],[15.6142074912128,46.1534873630365],[15.6142984990115,46.1534751773533],[15.6143203978502,46.1533838258133],[15.6143074320067,46.1532773660198],[15.6142887441534,46.1532384176367],[15.6142069041997,46.1531785746777],[15.6140667226,46.153122913973],[15.6139848840584,46.1530631608207],[15.6138513786783,46.153002425435],[15.61334514792,46.1528251943489],[15.6123466104929,46.1525580158254],[15.6117428649692,46.1524357343756],[15.6115498087647,46.1524215617275],[15.6111096333262,46.1523511266279],[15.6099542738348,46.1519258709648],[15.609816570109,46.1519180581106],[15.6095668131705,46.1519860611377],[15.6094788123338,46.1519890496527],[15.6093869174732,46.1520380356929],[15.6092809675971,46.1521507983305],[15.609163214,46.1521794078903],[15.6090982148694,46.1522372477882],[15.6089678866634,46.1522995745109],[15.6088405970367,46.1522970134809],[15.6085806590635,46.1522990274893],[15.6084682097249,46.152092415453],[15.6084770313837,46.1520118415565],[15.6084485826527,46.1519443323621],[15.6084989755158,46.1516183573806],[15.6084406901973,46.1514865854458],[15.6083074020447,46.1513036573924],[15.6080981109533,46.1510962106515],[15.6079637185203,46.1510361928855],[15.6078616084717,46.151062738475],[15.6076461088755,46.151020246714],[15.6075734003929,46.1509657489004],[15.6071742993522,46.1508970597447],[15.606959318058,46.1508898338413],[15.6068984015526,46.1508598359548],[15.6066282187168,46.1508125040543],[15.6062349914154,46.1508069423715],[15.6058923224814,46.1508784892217],[15.6054015304227,46.1510543799783],[15.6053411587739,46.1510385943084],[15.6052282622388,46.1510732923477],[15.6051281311617,46.1510560975329],[15.6050822032669,46.1510234100797],[15.6050558815131,46.1508896677252],[15.6051039633057,46.1507290790983],[15.605091266802,46.1505864471417],[15.6050315437791,46.1504643982785],[15.6049637094085,46.1504054642641],[15.6047274074431,46.1503071130996],[15.6045031761311,46.1502824765052],[15.6043709981702,46.1502468258224],[15.6042643259842,46.1502350632881],[15.6034654157466,46.1499600035827],[15.6032513732593,46.1499198351694],[15.6024815139447,46.1498029699686],[15.6020316328172,46.1498248646404],[15.6019213873602,46.1498058308231],[15.6015029231131,46.1497883291987],[15.6013953345996,46.1497636125143],[15.6009944347342,46.1497422377001],[15.6004596448027,46.1496107165753],[15.6000420264403,46.1494564442729],[15.5998790500351,46.1493261171768],[15.5996197853955,46.1490431587589],[15.5993848662598,46.1488680412205],[15.599358292338,46.1488051085893],[15.5991127616449,46.1486062929138],[15.5990485214294,46.1485795473286],[15.5989060772956,46.1485515019584],[15.5987478949924,46.1484688344834],[15.5985007427675,46.1484186634952],[15.598364096864,46.1483761012309],[15.5976405104272,46.1480822516768],[15.5975565200383,46.1480725236747],[15.5967169594564,46.1477193515816],[15.5964972276792,46.1475826577906],[15.5962259292032,46.1473337646791],[15.5961008919393,46.1471190183146],[15.595984475358,46.1468033656619],[15.5959906941942,46.1463480632243],[15.5960946647501,46.1461703616633],[15.5962015807212,46.1461696241248],[15.5962909801787,46.1461291192391],[15.5965365375252,46.1459369125271],[15.5966114562842,46.1458501461811],[15.5966329737729,46.1456851109374],[15.5970037499931,46.1454853215385],[15.5971486575108,46.1454546931599],[15.5972007195522,46.1453492411853],[15.5971886518662,46.1452747155106],[15.5971378667153,46.1451750193337],[15.597132144765,46.145052864078],[15.5973049214041,46.1448344034432],[15.5976195237377,46.1446717050343],[15.5979335844096,46.144542838941],[15.5979333876981,46.1444290224237],[15.5978261145185,46.1443605731795],[15.5975740298241,46.1442954002393],[15.5974038290732,46.144225210137],[15.5971827644612,46.1441317122394],[15.5971081040742,46.1440026291711],[15.5970613190617,46.1439136189914],[15.5974937790577,46.1434462818856],[15.5978105774911,46.1433198310976],[15.598299905488,46.1431921166302],[15.5989842545787,46.1428097405612],[15.5991791089092,46.1427424982095],[15.599486907616,46.1428847534089],[15.5996217120975,46.1429019512536],[15.6000915852919,46.1426165161021],[15.6002449918416,46.142582690058],[15.6003902596088,46.1425860659733],[15.6016086366198,46.1422975004742],[15.6018372860084,46.1422674150827],[15.6019742968548,46.1422258452661],[15.6020689158817,46.1421901669585],[15.6021294492705,46.1421386526858],[15.6024999858974,46.1417666355993],[15.6027017896206,46.1413761625744],[15.6028979171762,46.1412129944407],[15.6032515809505,46.1411103572335],[15.603606905557,46.1411124403637],[15.6037088699125,46.1410858992922],[15.6038223845885,46.1410858395654],[15.6039627424212,46.1411258564573],[15.6040273347975,46.1410906950638],[15.6041149290533,46.141004756483],[15.6039994622939,46.1408973074024],[15.6034993411678,46.1407093831302],[15.6034044765405,46.1405563875946],[15.6034452578086,46.140296596135],[15.603675046913,46.1400400354307],[15.6035715543137,46.1398436279359],[15.6035480623554,46.1397666438966],[15.6035485681641,46.1396589418415],[15.6036643311001,46.1394977262039],[15.6037907600298,46.1394242691478],[15.6038887981238,46.1393940596942],[15.6042708774657,46.1393582101483],[15.6045976667912,46.1393676389926],[15.6048719942575,46.1393968689727],[15.605107460962,46.1395413813093],[15.6052999932899,46.1395592565775],[15.605411656629,46.1394968527965],[15.6054891198887,46.1392900411596],[15.6055606223233,46.1392361276026],[15.6055933942999,46.1391794500409],[15.6057577565874,46.1390599928429],[15.6060831964596,46.138993756091],[15.6063791928509,46.1390279961031],[15.6064363621627,46.1391658935495],[15.606559875051,46.1391926804142],[15.6068158056457,46.1392202938347],[15.6072054898391,46.1391583015196],[15.6073440208699,46.1391618843301],[15.6074749212386,46.139189530699],[15.6076024927786,46.1392440069934],[15.6076368305698,46.1393416266742],[15.6077963487827,46.1394880667413],[15.6078976619636,46.1395439419631],[15.6084015065682,46.1395994748301],[15.6085489184072,46.1395396669146],[15.6085715852557,46.1392591859118],[15.6085220841643,46.1389836777982],[15.6085520502368,46.1389310631715],[15.6085503717261,46.1388491953679],[15.6086400673527,46.1387552343691],[15.6088396271157,46.1386945185709],[15.6089464995804,46.1387146434066],[15.6090562242549,46.1386882361586],[15.6091897592545,46.1385909820006],[15.6092259727882,46.1384242463006],[15.6091839607331,46.1383351255779],[15.608945855577,46.1382100701437],[15.6088148759814,46.1381868346253],[15.6086980224576,46.1382474698971],[15.60849566881,46.1385244089211],[15.6084150112959,46.1385928589369],[15.6083002559694,46.1386560918882],[15.6079384483761,46.1388161917759],[15.6077168592448,46.1388628971329],[15.6075531876207,46.1388799625729],[15.6070164809816,46.1388367470256],[15.6063603293952,46.1385829926179],[15.6062911735709,46.1383434875737],[15.6066158931586,46.1380235251677],[15.6065978354075,46.1378523996126],[15.6066490049613,46.1377740302327],[15.6066279705158,46.1375793471646],[15.6066858270705,46.1374617134118],[15.606726141769,46.1374202911324],[15.6068602361145,46.1373385123136],[15.6070372014134,46.1372477781527],[15.6071594036251,46.1372145583699],[15.6075190165774,46.137220475454],[15.6077943879709,46.1375218656273],[15.6078345068015,46.1375921023032],[15.6078351005882,46.1376813538083],[15.6078995028284,46.1378176825288],[15.608031705003,46.137869794394],[15.6081300021093,46.1378870864269],[15.6084043483013,46.137753993917],[15.6087259959179,46.1376499805328],[15.6090699574569,46.1374921325941],[15.6093556297511,46.1374123322968],[15.6095181015213,46.1374042681139],[15.6097294903014,46.1374894262484],[15.6098937526107,46.1376669692929],[15.6101377250961,46.1377021969373],[15.6102457967376,46.137666979868],[15.6104294263752,46.1375238397434],[15.6108339273371,46.1372816270297],[15.611118862873,46.1369600648599],[15.6115078321348,46.1366365958443],[15.6115690042512,46.1365038261465],[15.6115105708955,46.136428020353],[15.6114695839583,46.136303085111],[15.6112383426184,46.1360962108868],[15.6111130690826,46.1358396436389],[15.6111407566336,46.1356399321927],[15.6112186649394,46.1354991554231],[15.6114634147793,46.1351376785356],[15.6116355655555,46.1349523997675],[15.611694291584,46.1346807224143],[15.6115383458943,46.1345293199555],[15.6114156691888,46.134437032536],[15.611369149173,46.1343499161063],[15.6113159924642,46.1343062928394],[15.6111173067789,46.1339295522502],[15.6111000300269,46.1337365592956],[15.6111172319395,46.1336770841463],[15.6112063366127,46.1335191523168],[15.6113094091405,46.1334890894912],[15.611381029809,46.1334353515503],[15.6116087293766,46.1334401617455],[15.611758116063,46.1334786812102],[15.6122465516054,46.1335147551606],[15.6131509344823,46.1334338790876],[15.6132336826035,46.1334383837897],[15.6133455332153,46.1334180792575],[15.6134281519169,46.1334225845132],[15.6135401318336,46.1334022790966],[15.6137133361236,46.1333246010218],[15.6137859360063,46.133254390975],[15.6137655460825,46.1331897187972],[15.6135939399459,46.133050009905],[15.6132161414557,46.1329190549231],[15.6131305435711,46.1328675987865],[15.6130412182088,46.1327951085346],[15.6129730857447,46.1326731085448],[15.6130071205084,46.132521318927],[15.6131166430852,46.1324429935198],[15.6131692981937,46.1323831479295],[15.6135651209261,46.1320864472899],[15.6136458914952,46.1320529030745],[15.6139161511851,46.131881939835],[15.6138642680903,46.1317316010738],[15.6136820554823,46.1316269493423],[15.6134985263833,46.131718358942],[15.6131531161713,46.1319628736486],[15.6130880741785,46.1319910246581],[15.6128783760349,46.1319868406907],[15.6127297165864,46.1319202467234],[15.6125129843154,46.1317017804074],[15.612254840916,46.1315416590524],[15.6121102122646,46.131429875457],[15.6116549044461,46.1312750371873],[15.6114709058065,46.1311955843591],[15.6113779390869,46.1311093461591],[15.6111714364379,46.1308438558338],[15.611105410381,46.1305957890576],[15.6111159003597,46.1305145759125],[15.6111968220983,46.1302139880733],[15.6112690747704,46.1301241669854],[15.6113174743501,46.1300773912949],[15.6114523306038,46.1300432894272],[15.6117137658105,46.1301158497525],[15.6119087030188,46.1301316316208],[15.6121393062612,46.1300493298199],[15.612222905758,46.129897544848],[15.6122070661791,46.1296592870106],[15.6121287337423,46.1296089608537],[15.6120358569117,46.129413853432],[15.6119891436204,46.1293674067297],[15.6119562054116,46.1293028013689],[15.6119103819044,46.1292315168825],[15.6118739168472,46.1291288711235],[15.6117889884844,46.1290086697764],[15.6117008992013,46.1288951433996],[15.6116614467549,46.1288148272543],[15.6116156001384,46.1287413833772],[15.6115440081402,46.1286568303978],[15.6115013032633,46.1285983054484],[15.6112765185405,46.1283521675681],[15.6105697725478,46.1277495159887],[15.6102531203109,46.1273863598866],[15.6101390432757,46.1273563774897],[15.6100307070351,46.1273071997471],[15.6097828623038,46.127256966724],[15.6095888659156,46.1271964588217],[15.6094397904457,46.1271844773414],[15.6092567367727,46.127118781978],[15.6092043744933,46.1270642665137],[15.6091717862209,46.1269018560428],[15.6092053315242,46.1268224096175],[15.6091586788385,46.126569739563],[15.6091775156756,46.1264942404339],[15.6092562795422,46.1263730746861],[15.6094180809299,46.1263071604994],[15.6095115647225,46.1263122404825],[15.6098015440028,46.126416953906],[15.6102309112634,46.126547015187],[15.6106377803257,46.1267136347692],[15.6110735090373,46.1268568851664],[15.6111208962947,46.126894331196],[15.6113391718329,46.1268685109586],[15.6114352195784,46.126730965867],[15.6114193009624,46.1266372074755],[15.6113713792274,46.1265748414532],[15.6113554607673,46.1264810830494],[15.6113074098473,46.1264187176896],[15.6113083136954,46.1263483526902],[15.6114895205401,46.1257793735386],[15.6115002447953,46.1256025159855],[15.6114843969626,46.1254449651787],[15.6114682368504,46.1253878277486],[15.6114077084537,46.1253087039058],[15.6112253687585,46.1251083157975],[15.6106613740049,46.1248672290047],[15.6102196247131,46.1247162713135],[15.6100898449534,46.1246582106143],[15.6099337737093,46.1245158938266],[15.609908949267,46.124388712135],[15.6099761874127,46.1241733138896],[15.6100750340933,46.1240198294229],[15.6101393709674,46.1239753984338],[15.6101705796659,46.1239189976726],[15.6102976891065,46.1238408508872],[15.6105346865413,46.123613298954],[15.6105593913003,46.1235655703912],[15.6105589296645,46.1234886445051],[15.6105249350192,46.1234684918036],[15.6105244734336,46.1233915659159],[15.6102193612987,46.1233446988118],[15.6101095417228,46.1233479842719],[15.6095932294233,46.1232984636548],[15.6094224496089,46.1232533972373],[15.6093711394169,46.1232118325596],[15.6091521559929,46.1228904405157],[15.6089450347245,46.1226589595358],[15.608758619854,46.1227565853027],[15.6086047486919,46.1229542692969],[15.6086174441923,46.12303787816],[15.6085605499353,46.1231001736379],[15.6085731160181,46.1231837831929],[15.6086181879067,46.1232699189133],[15.6085733222153,46.1233552738416],[15.6086183932561,46.1234413195892],[15.6085272060325,46.1235033477602],[15.6084882115999,46.1235813834456],[15.6083970239997,46.1236434115132],[15.6083071043079,46.1236678233448],[15.6082159153713,46.1237297612992],[15.6080208096788,46.1237788457617],[15.6076675260486,46.1237522024536],[15.6075750559498,46.1237329895496],[15.6073958601332,46.1236756383107],[15.606974523351,46.123378710628],[15.6069237036076,46.1232873862498],[15.6069771342603,46.1230273456249],[15.6071600138929,46.1227371057382],[15.6073826790748,46.1225468859521],[15.607892610279,46.1222288138844],[15.6080990698296,46.1221419698244],[15.6085527128686,46.1219888479331],[15.609073210818,46.1218792756766],[15.609251955159,46.1218725647184],[15.6093687663147,46.1219286261133],[15.6096740881681,46.1221243125367],[15.6097667131093,46.1221577389239],[15.6099829923521,46.1220816360389],[15.6100509608859,46.1217099476973],[15.610007326108,46.1213555002573],[15.6098578090251,46.1211848062747],[15.6096030420106,46.1210792753],[15.60944070774,46.1209781096034],[15.6092878238911,46.1206191157187],[15.6093777785637,46.120445794741],[15.6094351882742,46.1203953727422],[15.609586638241,46.1201902325478],[15.6096321088839,46.1199841278531],[15.6095568083876,46.119808358901],[15.6091544959282,46.1195219546279],[15.6087356177693,46.1194109979273],[15.6082379117506,46.119367490361],[15.608135322097,46.1192392823548],[15.6081399380515,46.1191531519638],[15.6082372016469,46.1190677882589],[15.6082673584401,46.118962897176],[15.6083314239286,46.1189059621176],[15.6083614510814,46.1188010716968],[15.6083389442295,46.1186840443528],[15.6084977471557,46.1182183894757],[15.6085442614063,46.1181421131737],[15.6086317767278,46.1180764155142],[15.6087103253196,46.1179484130252],[15.6089626182343,46.1178073383852],[15.6088651954204,46.1176665070052],[15.6087668118297,46.1176263624263],[15.6086606467699,46.1176315165087],[15.6084326534931,46.117441264009],[15.6080835324419,46.1174600370767],[15.6079911533819,46.1174246285487],[15.6079331671126,46.117351877449],[15.6078670658308,46.117317678679],[15.6077034353153,46.1171561442717],[15.60758256643,46.1171182776071],[15.6075428928487,46.1170636038692],[15.60710438078,46.1169299818869],[15.6070436231828,46.11687568988],[15.6069428444774,46.1168292582117],[15.6068833660489,46.1167736097049],[15.6067827180225,46.1167272671756],[15.6060242813939,46.1164778318403],[15.605347411134,46.1161149511837],[15.6052995780801,46.116141927008],[15.6051308768683,46.1160362001135],[15.6050730346697,46.1159761332307],[15.6049089259213,46.1156870130567],[15.6049784348542,46.115619164087],[15.6051054933016,46.1154428607186],[15.6051730105857,46.1153822201551],[15.605337553452,46.1152974023848],[15.6054682973011,46.1152097042711],[15.6057792597089,46.1151219507882],[15.6058894290686,46.115093024803],[15.6059998471851,46.1150631976446],[15.6062014661894,46.114950019938],[15.6061005458209,46.1148076751133],[15.6060429146261,46.114648815242],[15.6062586914615,46.1140335928253],[15.6063038373059,46.1137853827393],[15.6064360048044,46.1134505150742],[15.6064642592741,46.113325480094],[15.6064657364396,46.1132006771555],[15.606424551676,46.1130550464473],[15.6061445181444,46.1128710936386],[15.6054298017785,46.1126868340724],[15.6049424057805,46.1126221134304],[15.6047829322182,46.1125192163203],[15.6045425641446,46.1122470542889],[15.6047051354549,46.1120891882246],[15.6047709589268,46.1119922969554],[15.6052042336475,46.1118051953493],[15.6053514967139,46.1117618574288],[15.6060559226163,46.1117755797369],[15.6061411866548,46.1117647805116],[15.6063733083331,46.1116619677342],[15.6064032331597,46.1113826169723],[15.6066407489116,46.1108755179239],[15.6068368364843,46.1106723934861],[15.6070254548049,46.1105785378775],[15.6072203411154,46.1105254072797],[15.6072585720994,46.1103313982776],[15.6073089957308,46.1102463740385],[15.6073311305663,46.1101416156371],[15.6074277866946,46.1100022707756],[15.6074497918565,46.1098975130358],[15.6077054713227,46.1095143904929],[15.6078046697875,46.1093005325623],[15.6077947534924,46.1090927432659],[15.6078402221182,46.1088866388965],[15.6080834628047,46.1087846632085],[15.6083162451342,46.108543461496],[15.6084176942191,46.1084874969948],[15.6084978023162,46.1084083425119],[15.6088212831709,46.1082513232772],[15.608941865737,46.1082061433587],[15.6094901137683,46.1080910225553],[15.609782480414,46.1078930479538],[15.6099309243617,46.107852487021],[15.6102927425906,46.1078528051217],[15.6104958891322,46.107822568411],[15.6106313671171,46.1077441963745],[15.6107049865688,46.1076635454227],[15.6107716755807,46.1075176096554],[15.6107965822436,46.1073834139161],[15.6105691370484,46.1070638684395],[15.6103825137541,46.1069735406091],[15.6097877365948,46.10676257485],[15.6097502573691,46.1067069903259],[15.610050888337,46.1063911936944],[15.6103319892961,46.1062634582125],[15.6107120533432,46.1063004773093],[15.6111460934257,46.1065864371639],[15.61137504423,46.1066676298427],[15.611687935794,46.1068764072284],[15.6119214836272,46.1069870859887],[15.6120093452662,46.1070130682175],[15.6121035517001,46.107004556],[15.6121914144471,46.1070306280579],[15.6124157156836,46.1070888099652],[15.6124285074415,46.107227662732],[15.6124434339495,46.1072672617022],[15.6126649573739,46.1074248803048],[15.6127290693409,46.1074437912807],[15.6128128472617,46.1074980469102],[15.61294831633,46.107465919285],[15.613057388655,46.1074214265642],[15.6138223215464,46.1072505977598],[15.6142301164542,46.1070465933219],[15.6142434161063,46.1069978454094],[15.6142260592539,46.1068676549646],[15.6140566465133,46.1065686787174],[15.613933036358,46.1061773218495],[15.6137972154229,46.1060259036322],[15.6136148679426,46.1057498497864],[15.613496843891,46.1056283872977],[15.6129873241267,46.1052784190569],[15.6128591640765,46.1050358139734],[15.6128926826002,46.1049322530079],[15.6129449510909,46.1048398383573],[15.6132313167518,46.1045816037553],[15.6134836491707,46.1045088995533],[15.6135564855434,46.1044400376416],[15.6135746586915,46.1043991814229],[15.613543881662,46.1042716721301],[15.6134576780028,46.1042082525781],[15.6133721257384,46.1040985823223],[15.6130035724585,46.1037801585407],[15.6130108857963,46.103529718914],[15.6129086622623,46.1032811263362],[15.6128592100174,46.1032073420737],[15.6127644963291,46.1031461270166],[15.6127150443985,46.1030723426885],[15.6126203311013,46.1030111275085],[15.6125202450207,46.1028618555121],[15.6126847114627,46.1025643264522],[15.6127563636615,46.1023653675069],[15.6129349987229,46.1021094205361],[15.6129988190391,46.101927508699],[15.6131722791718,46.1016016784959],[15.6132978074864,46.1012692671016],[15.6135765964189,46.1007379079091],[15.6136203784905,46.1006154867721],[15.6138215325482,46.1003033629867],[15.6139352955454,46.1002283426363],[15.6140678369184,46.1001671674213],[15.6142510249365,46.100240862412],[15.6143143574805,46.1003300472188],[15.6143742170702,46.1006189052762],[15.6143488062539,46.1009279261652],[15.6144490647816,46.1011740987947],[15.6145416242089,46.1012394629101],[15.6146312965878,46.1012661532111],[15.6147391513006,46.1012878870028],[15.6149441760711,46.1013010002045],[15.6153807463004,46.1011765544963],[15.6158645185241,46.1010631896534],[15.6159395781677,46.1009971934009],[15.615946557841,46.1009154584557],[15.6159203885454,46.1008768202323],[15.6158456829819,46.1008352044207],[15.6157090204538,46.100804989251],[15.6152809766861,46.1006375112985],[15.6151792897769,46.1005306284306],[15.6151306582956,46.1004492827943],[15.6151109547718,46.1003523057567],[15.6150621942175,46.1002709607835],[15.6150688929829,46.1001638544299],[15.6150491886737,46.1000667874061],[15.6150810831819,46.0997014970138],[15.6152027704284,46.0993972662753],[15.6153245715361,46.099254540018],[15.6155164647451,46.0991808069747],[15.6157514821273,46.0991352734226],[15.6160494516391,46.099098217667],[15.6163768618143,46.0990916838748],[15.6164969983097,46.0991248665919],[15.617196333848,46.099148624871],[15.6174018478761,46.0991830551147],[15.6178080674674,46.0992150507068],[15.6181409359997,46.0993034060517],[15.618383093585,46.0993876624913],[15.6184700646619,46.0994620511859],[15.6186562705111,46.0995277150167],[15.6190114103564,46.0996180167033],[15.6195337554954,46.0997055216475],[15.620129029723,46.0997566385347],[15.6211004820604,46.0996056042957],[15.6215770848514,46.0994550045138],[15.6223298815485,46.0989878066004],[15.6224936871314,46.0990165164162],[15.6231197327369,46.0993541107117],[15.6238195407577,46.0997059649479],[15.6244670028783,46.0998426106135],[15.6247446074413,46.0999150531241],[15.6248095001366,46.0999233360222],[15.6249421226818,46.0998933690904],[15.6250226682992,46.0998103315735],[15.625155290456,46.0997803643957],[15.6251869116445,46.0997057820673],[15.6252674576395,46.0996228343479],[15.6253616788195,46.0993881137905],[15.6254509428883,46.0990696534792],[15.6254413228588,46.0989623658571],[15.6253235744758,46.098717558095],[15.6251106474683,46.0984852374582],[15.6250630918236,46.0983514346574],[15.6249906644781,46.0982828198197],[15.624495163274,46.0981668509817],[15.624248582028,46.0980920790165],[15.6241896279963,46.0980367963721],[15.6241514214351,46.0979518885758],[15.6240924666358,46.0978965159092],[15.6240018921499,46.0977324459767],[15.6239925603665,46.0976504396366],[15.6239401924368,46.0975712775043],[15.6238993388529,46.0968043727985],[15.6240912465656,46.0960687683082],[15.6240315264638,46.0959224349252],[15.6238410636778,46.0959375107304],[15.6235276406246,46.0959325627748],[15.6233598519134,46.0959054057287],[15.623259251629,46.0958037425901],[15.6232269865145,46.0956834418318],[15.6232750602438,46.0954735376558],[15.623261340971,46.0954152186078],[15.6231275139263,46.0952110748965],[15.6230634451509,46.0950113194653],[15.6229327677934,46.0945354334221],[15.6228663174091,46.0943767195029],[15.6227287734492,46.0937156117543],[15.6227042348076,46.0936496137042],[15.6225286932778,46.0934844757767],[15.6221782414149,46.0932560475471],[15.6220102494598,46.0931640175252],[15.6217197877445,46.0930373832143],[15.6206029752701,46.092405528567],[15.6198478500758,46.0921041603807],[15.61983091277,46.0921044366123],[15.6198345150678,46.0921259167133],[15.619839226088,46.092546435129],[15.6190929864552,46.0925997858812],[15.6188523550056,46.0933431141535],[15.6191383839878,46.0934901141394],[15.6183984895031,46.0941123388446],[15.618078278861,46.0940892376911],[15.618008406449,46.0942133313282],[15.6177266663918,46.0944621060054],[15.6173364328658,46.0945383538383],[15.6171211242607,46.094366314375],[15.616836070132,46.0943182767585],[15.6165172374684,46.0944188796135],[15.6163736083668,46.0942959384173],[15.6162263973572,46.0938513552042],[15.6157281020232,46.0938044642689],[15.6157373329773,46.0946455021683],[15.6152400011342,46.0946974865918],[15.614886845999,46.0949219854368],[15.6141387759728,46.0948021115261],[15.6138936767693,46.0951496524833],[15.613145331533,46.0950050303926],[15.6128619219652,46.095105433008],[15.6130427536935,46.0953766380238],[15.6128686439,46.0957238859512],[15.6125513092384,46.0959728386428],[15.6124053501546,46.095627306544],[15.6116909242725,46.0953340342521],[15.6115172089157,46.0957060211662],[15.6109837532805,46.0957086940003],[15.611088258628,46.0955102800454],[15.6105133648611,46.0949689127013],[15.6100492629894,46.09479809857],[15.6096271398122,46.0952208045267],[15.6089853647164,46.0950755867573],[15.6082766765986,46.0953018688784],[15.607780690599,46.0954775294581],[15.607668423478,46.0949586100198],[15.6072381346473,46.0946391457446],[15.6068796493271,46.0943688749137],[15.6056377859164,46.0946224435911],[15.6051370565065,46.094352830934],[15.6042506870765,46.0946046818562],[15.6037507745385,46.0944092882931],[15.6037117029061,46.0940879235387],[15.6032167921138,46.0943625313157],[15.6032927730672,46.0948074172153],[15.6026585646268,46.0953548424406],[15.6019890481432,46.0959271032319],[15.6010317798963,46.0962040456414],[15.6007170755781,46.0967003831159],[15.5998992233487,46.0967044085478],[15.5998301116246,46.0969027164562],[15.5999052641232,46.0972733793059],[15.5992296629396,46.0972767432296],[15.5992272508682,46.0970540675376],[15.5984433527638,46.0969095356182],[15.5979122910364,46.097134823244],[15.5979891739022,46.0976786803082],[15.5975280271379,46.0977799745676],[15.597353010771,46.0980529739809],[15.596045753576,46.0988510391118],[15.5960140563821,46.0992222615236],[15.5958380913069,46.0993962909382],[15.59519829599,46.0994241875026],[15.5949519936851,46.0996728112005],[15.5946326945392,46.0997486121775],[15.5941654116297,46.0992808325854],[15.5936359027839,46.0996545509847],[15.5926027529584,46.0994864401925],[15.5925703664942,46.0997834357649],[15.5924016779661,46.1006501399195],[15.5918700260885,46.1008259160967],[15.5915902514818,46.1012725608666],[15.5918065671701,46.1015436155004],[15.5912756982937,46.1017936142104],[15.5903857125218,46.1017237152715],[15.5901027547194,46.1018735452267],[15.5897461520109,46.1017764131831],[15.5896063887133,46.1020244755043],[15.5890371681319,46.1020024872339],[15.5888916698143,46.1017001111476],[15.5887146219778,46.1017752525551],[15.5876941974914,46.1028192650767],[15.5876266107952,46.1031659262871],[15.5873091194664,46.1034148093192],[15.5876019504087,46.1042049941209],[15.5868922692254,46.1043569189697],[15.5865053362295,46.1047793580436],[15.5857247663525,46.1049562924819],[15.5846226260641,46.1050111512078],[15.5842334480848,46.1052109060175],[15.5839930790224,46.1060284770311],[15.5825001600421,46.1061346174265],[15.5821762482356,46.1057651210399],[15.5809350541498,46.1061174796656],[15.5804347294945,46.1058972434899],[15.5799372619033,46.1059490748367],[15.5794810674175,46.1065450431185],[15.5789134875267,46.1066961978457],[15.5774839331634,46.1060350954428],[15.5747107179078,46.1061473253414],[15.5735056771585,46.1065735607979],[15.5727204291613,46.1063052338949],[15.5719010231894,46.1061854411566],[15.5710088208098,46.1058928044833],[15.5698734985254,46.1061702846972],[15.5695144795147,46.1058503237245],[15.5692653616084,46.1058268215774],[15.5687357453348,46.1062250777741],[15.5670302561455,46.1064063028832],[15.5656036334622,46.1060172115261],[15.5650723494225,46.1062423472266],[15.5644639887489,46.1058741165753],[15.5637523263869,46.1058527057173],[15.562652538421,46.1061299389295],[15.5625845390645,46.1064518440029],[15.5620184218479,46.1067513662282],[15.5607415030487,46.1071035911227],[15.5600997164546,46.1069581891833],[15.5597455058686,46.1071082029586],[15.559290584093,46.1078524528235],[15.5586883627569,46.1081026489338],[15.5581114236535,46.1085769358281],[15.5564918619629,46.1090033953484],[15.555858766517,46.1097236655316],[15.5553367183839,46.1108887681524],[15.5557485277638,46.1129649152987],[15.554727273595,46.1140086351996],[15.5542061540609,46.1152726995128],[15.554674973672,46.1159137450941],[15.555288468537,46.11680142655],[15.5547254327075,46.1174224668321],[15.5546951864101,46.1179668708064],[15.5554189224981,46.1192005088649],[15.5551367731468,46.1194491300149],[15.5539655125737,46.119726625965],[15.5527673073964,46.1208948097213],[15.5517380793903,46.1211469427593],[15.5513517475744,46.1216682306951],[15.5515369263846,46.1224094484044],[15.551930543347,46.1226303257484],[15.5506896324543,46.1230813254414],[15.5520707903548,46.1236910794348],[15.5532037445186,46.1245542170705],[15.5539994842681,46.1250136425423],[15.5542519541355,46.1252730751158],[15.5541697864218,46.1253892708373],[15.5538375993039,46.1254777063389],[15.5536304373537,46.1255945971966],[15.5535492668918,46.1257976131348],[15.5538007379295,46.1259701360363],[15.5536805138544,46.1264339976822],[15.5539745248674,46.1266932295808],[15.5534360318827,46.1269853763044],[15.5529415172502,46.1275089923015],[15.5524426507294,46.1275982298757],[15.5521846724882,46.1278237830167],[15.5519226178777,46.1282762711209],[15.5523197,46.1285805366067],[15.5527505786021,46.1287959223561],[15.5519667125894,46.1292187217074],[15.5510724008561,46.1301817154777],[15.5504434634406,46.1310387841116],[15.5497431703468,46.1317108448457],[15.5492033786527,46.1322049703678],[15.5489407177497,46.1326009502007],[15.5485629818259,46.1330861965559],[15.5480913511691,46.133434950702],[15.5475264761842,46.1337518487111],[15.546925366917,46.1338997652635],[15.5454893994342,46.1340113571621],[15.5444121220225,46.134064809258],[15.5435587005521,46.134495889488],[15.5431328302577,46.1348040069302],[15.5425836751436,46.1355398167656],[15.5420086230747,46.1359856690582],[15.5412816047055,46.1363114024524],[15.5407152925714,46.1364752269096],[15.5381543226421,46.1365114255695],[15.5374718823676,46.1366596751863],[15.5365353147821,46.1368816332039],[15.535980813466,46.1370775895872],[15.5353719700357,46.1376363047295],[15.5344131727697,46.1379711773345],[15.5334885557536,46.1382413707089],[15.532702697665,46.1384867069139],[15.5321564520384,46.1383200993502],[15.5319014875309,46.1383212860341],[15.5316588167135,46.1384029420604],[15.5313711294813,46.1386218378489],[15.5307379719779,46.1390679032487],[15.5301154727072,46.1394252909079],[15.5295037892403,46.1397101057022],[15.5289857477333,46.1400831086589],[15.528549236711,46.1404960408015],[15.5280381890411,46.1408303180943],[15.5276735770172,46.1410478502805],[15.5273851678233,46.1411942199291],[15.5276046308212,46.1418924878334],[15.5276148870337,46.1429796903633],[15.5272310616723,46.1437489422809],[15.5274687056678,46.1445473576542],[15.5276575251597,46.1450580800753],[15.5284208418671,46.1455022661158],[15.529944880448,46.1461028971061],[15.5313116156207,46.1470878892519],[15.5316906630378,46.1478292242259],[15.5328562509366,46.1485004931264],[15.5341126569985,46.148961955719],[15.5350675693352,46.1494087107186],[15.5353964732727,46.1498583014805],[15.5355412859377,46.1504538822792],[15.5353839526912,46.1509702614672],[15.5349450085838,46.1517238709416],[15.5349164886773,46.1530027175043],[15.5345485550238,46.1533105307764],[15.5342282385229,46.1537632486445],[15.5339324920318,46.1543607991779],[15.5338514918728,46.1552626284462],[15.5342486604998,46.1559003990369],[15.5348548427938,46.1567290152334],[15.5355135192651,46.1582289488607],[15.5366428103794,46.158415477707],[15.5379772380601,46.1583932799899],[15.5395169416223,46.1581781833003],[15.5410761116268,46.1579689120098],[15.5423382415987,46.1592079924421],[15.5435655555364,46.1614946122111],[15.5467009570501,46.1621695811016],[15.549012004615,46.1623120908394]]]},"properties":{"fill-opacity":0,"stroke-opacity":1,"stroke":"#ff0000","lov":"0931","lov_naziv":"PODČETRTEK","luo":"09","luo_naziv":"Savinjsko Kozjansko","povrsina":3622.31},"id":"pregledovalniklovisca.1"}]}