{"type":"FeatureCollection","features":[{"type":"Feature","geometry":{"type":"Polygon","coordinates":[[[15.2396371798789,46.1841084083599],[15.2395205893926,46.1822573563955],[15.2391826383393,46.1795686627358],[15.2388704094098,46.1765012138577],[15.2379069979675,46.1741167604498],[15.2361518325103,46.1713928457323],[15.2347527938247,46.1690848407017],[15.2327292832091,46.1646508389205],[15.2331176168731,46.1575664007242],[15.2349648918108,46.1513756446534],[15.2375306825042,46.1481615955979],[15.2401859308952,46.1465663843014],[15.24022459849,46.1458435406226],[15.2383092821923,46.1452688356917],[15.2346906934372,46.145130833899],[15.2308254464212,46.1457160683772],[15.2249230564774,46.1465070105616],[15.2172249687865,46.1452768357512],[15.2121111454866,46.1456610914208],[15.2090782815023,46.1465333098136],[15.2072053579651,46.1461025047921],[15.2069916990298,46.1444258633755],[15.2063624691283,46.1428655888869],[15.203360246814,46.1404414852477],[15.199321073156,46.1387416979547],[15.1961545605126,46.13680912937],[15.1951101246172,46.1352782944173],[15.1964332057839,46.1330211815405],[15.1973407178323,46.1308224442046],[15.1979740411408,46.1270610480545],[15.1972649843108,46.1270083791793],[15.196583518365,46.1272906333416],[15.1958020449654,46.1278366798883],[15.1951442489244,46.1276443596891],[15.1946138070528,46.1277506240739],[15.1942868017435,46.1281554354845],[15.194339191466,46.128665051577],[15.1922173806719,46.1290198093601],[15.1910809362625,46.1292851597866],[15.1902731687996,46.1295851322749],[15.1897186797976,46.1300077639438],[15.1892153747106,46.1306412981369],[15.1887120673607,46.1312396500615],[15.1883600525607,46.1317674805201],[15.1877040861685,46.1321199094614],[15.1866432746551,46.1323500013938],[15.1839395747812,46.1326351039575],[15.1833330635971,46.1326535333226],[15.1825484666754,46.1323558941405],[15.1814109259094,46.1323223451493],[15.1802982063376,46.1322009307087],[15.1794392947471,46.1323250972225],[15.1787063473645,46.1323437004435],[15.1779472416896,46.132116259795],[15.177314128247,46.1317480787613],[15.1767576457695,46.1316257656802],[15.1762015582543,46.1316265342267],[15.1753425171647,46.1317507601444],[15.1746609543953,46.1320153385047],[15.1742326858955,46.1324553369049],[15.1737043864904,46.1332293805386],[15.1733512780481,46.1334583614398],[15.1727452486778,46.1336349087916],[15.1717089265013,46.1336539251925],[15.1709515379782,46.1339361402132],[15.1699926166557,46.134464639903],[15.1696397548282,46.1347815138367],[15.1694639152055,46.1351332143535],[15.1694908457271,46.1356429688983],[15.1697214154908,46.1365917657309],[15.1696980347709,46.1371542297426],[15.1694971656787,46.1375763272053],[15.16904333749,46.1379811636794],[15.1684372984843,46.1381753230166],[15.1677298815626,46.1383168130348],[15.1668208238782,46.1386344028273],[15.1660132867266,46.1390571978363],[15.1654078567439,46.1394622398358],[15.1647765773189,46.1397091411398],[15.1638920930616,46.1398156825358],[15.1633866347905,46.1398514960615],[15.1613652302367,46.1401879918733],[15.1601276252011,46.1405586265643],[15.1588216376299,46.140920885282],[15.1577347942611,46.140974935086],[15.157332247871,46.1415649109528],[15.157188342432,46.1422571005764],[15.1568496367316,46.1426795448255],[15.1561470291687,46.1432710973273],[15.1563217477839,46.1451825398024],[15.1569111178828,46.1477814450739],[15.1571089735233,46.14916542495],[15.1574521898261,46.1504478932178],[15.1583281883338,46.1511558589116],[15.1586702169464,46.151965781023],[15.1580904121524,46.1531142932195],[15.1570731210889,46.1541281732562],[15.1559093071164,46.1548469493068],[15.1541135226386,46.1553805909035],[15.1518816575518,46.1562945646473],[15.1503277379127,46.1564355384869],[15.1491146118531,46.1568756605067],[15.1477062629761,46.1569446994626],[15.1470251440592,46.1564727642668],[15.1465869229126,46.1560005137632],[15.145711937573,46.1556976103079],[15.1446920644627,46.1557323760676],[15.1434767990014,46.1552610044979],[15.1425043056437,46.154789317591],[15.1413377158205,46.1543516027716],[15.1396848775839,46.1537117597463],[15.1385183328346,46.153274016021],[15.1367284932585,46.1565167644424],[15.1371215888934,46.1586094478025],[15.1362548280246,46.1620538759396],[15.1365972690762,46.1631338736225],[15.1376669120496,46.1635801205166],[15.1395664811937,46.1658740397067],[15.14109851822,46.1666827331848],[15.1422409772862,46.1670529991913],[15.1444786230553,46.168367409502],[15.1408894089675,46.1709029414655],[15.1392631499036,46.171444776633],[15.1383407463188,46.171732552925],[15.1375646611212,46.1722735118024],[15.1368367080159,46.1726455270822],[15.1361092403861,46.1732708131271],[15.1347517324132,46.1745549964528],[15.1336604139105,46.1754506160439],[15.1325218618082,46.1769709669418],[15.1313337511255,46.1781029468671],[15.1289805732565,46.1797593412201],[15.1273783522635,46.1803852845797],[15.126625614312,46.1805885614182],[15.1258484946034,46.1807241999947],[15.1254108852875,46.1806401956954],[15.1247789237774,46.1804719168131],[15.1241709372988,46.1801348179202],[15.1233931384229,46.1799666896752],[15.1228095751904,46.1797139523938],[15.1220798155695,46.1792419226937],[15.1138064513055,46.180650807484],[15.1210333621917,46.1821256093486],[15.1241160574176,46.183203336393],[15.1289197977955,46.185178517607],[15.1306201762119,46.1854721504454],[15.1311989719349,46.1850959381821],[15.1330152328518,46.1854163044336],[15.1338265383033,46.1854156274955],[15.1362591307492,46.1849302259447],[15.138229614237,46.185062550696],[15.139852220611,46.1851146513034],[15.1450669522514,46.1849215478908],[15.1456471685479,46.1852699074324],[15.1465741364978,46.1852152784171],[15.1474622706824,46.1850264514817],[15.1497444625524,46.186258641346],[15.1552708554252,46.1871383176886],[15.1581665562521,46.1864641354419],[15.1613737073265,46.1867556660698],[15.1646924609931,46.1867975394462],[15.1674017982963,46.1872920573948],[15.1705312563298,46.1873955801717],[15.1724625488068,46.1872857944462],[15.1742825079643,46.1887595892512],[15.1774538191246,46.1899632341576],[15.1785779922011,46.1912231812626],[15.1800492013129,46.1922947964847],[15.18511175956,46.19269060183],[15.187043897636,46.1928221471386],[15.1892872491619,46.193597354503],[15.1911055766902,46.194373049082],[15.1929251408942,46.1955245313336],[15.1940093995595,46.1939985473379],[15.1942152863447,46.1933043228906],[15.1947757749043,46.1928697874702],[15.1968146096463,46.1926499995212],[15.1986076824321,46.1936592793167],[15.1996899360062,46.1936721496608],[15.2013519691722,46.1927986517398],[15.2037084450672,46.1942262238198],[15.2043091522957,46.1961666873695],[15.2046642206097,46.1985211945167],[15.2110674627207,46.1977421692991],[15.2124807446918,46.1971905339437],[15.2140625109646,46.1971591515264],[15.2156868109326,46.1974022656421],[15.2179959774156,46.19710934118],[15.2195970429878,46.1966874509952],[15.2211584964013,46.1968293880673],[15.223196873347,46.1964863170142],[15.2265262353186,46.1963071095495],[15.2287090885413,46.1956672815102],[15.2302681987638,46.1951874727913],[15.2298610949664,46.1937847970687],[15.229858748612,46.1931598464719],[15.2307815485413,46.1920976505179],[15.2316239180779,46.1913575348944],[15.2326591519571,46.191166308549],[15.235030510117,46.19104845125],[15.2373728248971,46.1904760591618],[15.238185060317,46.1890541385154],[15.2388611725358,46.1877082539256],[15.2393746279771,46.1865898888654],[15.2394557631626,46.1858237743004],[15.2396371798789,46.1841084083599]]]},"properties":{"fill-opacity":0,"stroke-opacity":1,"stroke":"#ff0000","lov":"0919","lov_naziv":"REČICA PRI LAŠKEM","luo":"09","luo_naziv":"Savinjsko Kozjansko","povrsina":4237.42},"id":"pregledovalniklovisca.1"}]}