<?xml version="1.0" encoding="utf-8" ?>
<kml xmlns="http://www.opengis.net/kml/2.2">
<Document id="root_doc">
<Schema name="pregledovalniklovisca" id="pregledovalniklovisca">
	<SimpleField name="lov" type="string"></SimpleField>
	<SimpleField name="lov_naziv" type="string"></SimpleField>
	<SimpleField name="luo" type="string"></SimpleField>
	<SimpleField name="luo_naziv" type="string"></SimpleField>
	<SimpleField name="povrsina" type="float"></SimpleField>
</Schema>
<Folder><name>pregledovalniklovisca</name>
  <Placemark id="pregledovalniklovisca.1">
	<Style><LineStyle><color>ff0000ff</color></LineStyle><PolyStyle><fill>0</fill></PolyStyle></Style>
	<ExtendedData><SchemaData schemaUrl="#pregledovalniklovisca">
		<SimpleData name="lov">0901</SimpleData>
		<SimpleData name="lov_naziv">ŠKALE</SimpleData>
		<SimpleData name="luo">09</SimpleData>
		<SimpleData name="luo_naziv">Savinjsko Kozjansko</SimpleData>
		<SimpleData name="povrsina">2820.22</SimpleData>
	</SchemaData></ExtendedData>
      <MultiGeometry><Polygon><outerBoundaryIs><LinearRing><coordinates>15.1694302896666,46.3944909320453 15.1676215014041,46.3935919158996 15.1672203028481,46.3932769776158 15.1666957057954,46.3922344484725 15.1656777938382,46.3911861546244 15.1650145850823,46.3896071453119 15.1643307844777,46.3890821635617 15.1642719198183,46.3880968932408 15.1636568352957,46.3878466679517 15.1631338737205,46.3873128114482 15.1617554417034,46.3870056314036 15.1610259528891,46.3859987231017 15.1608297517795,46.3855965617856 15.158694903493,46.384459529667 15.15727829431,46.3837723135725 15.1562907661999,46.3834580513316 15.1534806894323,46.3836549337344 15.1522228846348,46.3831478323393 15.1503323210316,46.3827187452349 15.1480883581337,46.382309428667 15.1463480956321,46.3823502662906 15.1451555245913,46.3818944666357 15.1436076284238,46.3807757492945 15.1422371780851,46.3798822561688 15.1422766789902,46.3807258598635 15.1406036401365,46.3815135508966 15.1394874450203,46.3817209500797 15.1378410061557,46.3819997854327 15.1355527762299,46.3824596603026 15.1338222369664,46.3826547749671 15.1318934277603,46.3817167350415 15.1312684148966,46.3811377747552 15.1308213452256,46.380977239995 15.1314428151145,46.3801909055243 15.1314959566569,46.3790960839915 15.1304334981092,46.3784983673675 15.1305439667158,46.3779958461991 15.1295735635358,46.3769536521058 15.1295499703396,46.3750023984607 15.1284694866068,46.3745462972051 15.1283651565406,46.3737349700924 15.1272928938244,46.3728860369579 15.1245065933431,46.3711694970241 15.1238529170979,46.3701848489459 15.1229127751652,46.3699990843371 15.1223936188477,46.3707982201634 15.1230500527614,46.3729613079529 15.1234917875201,46.3732161682107 15.1238140801869,46.3733598625667 15.1239921979291,46.3739521256092 15.1225620012955,46.37512571346 15.1206381780488,46.3761258020293 15.1198123273289,46.3771248929141 15.1193008292264,46.3772541754356 15.1185008147794,46.3774159644339 15.1178320843056,46.3779382143081 15.1136040423921,46.3765062038278 15.102637413143,46.3741719408182 15.1021688380754,46.3725107843798 15.1027524109252,46.3711707796756 15.1021916976842,46.3699927573727 15.1011858447543,46.3704293794006 15.0979541345524,46.3710239298088 15.0964119795566,46.371115840753 15.0805112159307,46.3742788198055 15.0799004015532,46.3742703411276 15.0786596814558,46.374445564163 15.0808868739202,46.3836103802223 15.0808900607146,46.3847997862777 15.0810436425056,46.3855292471593 15.0810828859077,46.3856911659701 15.0811587624908,46.3859200866777 15.0810187816788,46.3862130393973 15.0809981085521,46.3866519293414 15.0810558710255,46.3870275145416 15.081742620726,46.3875543417844 15.0824385668265,46.3878764757665 15.0829718164621,46.3879930515246 15.0840018284533,46.3884225375907 15.0841163884844,46.3886004146448 15.0842026370685,46.3888837576178 15.0843184331152,46.3896943945947 15.0843290293795,46.3903272377309 15.084186810835,46.3906832649112 15.0842382139624,46.391303122181 15.0842907506014,46.3916449704463 15.0852796151798,46.3919860343003 15.0857328124192,46.3921847996058 15.0862194531468,46.392645801151 15.0867252060888,46.3931002182696 15.08682077935,46.3932648812431 15.0868496683479,46.3934428204173 15.0870506929263,46.3936042540987 15.0870249869967,46.3937932111293 15.0869603569893,46.3940361798827 15.0868702337711,46.3946030607141 15.0869746322926,46.394836903899 15.0872220269112,46.3950436469463 15.0872871590033,46.3951155734123 15.0873133238112,46.3952145206575 15.0872747875521,46.3954304785444 15.0871970814634,46.3956284722444 15.0872104290483,46.395844390522 15.087197769323,46.3960603286229 15.0870162179326,46.3963753625454 15.0871728077442,46.3967171299634 15.0873550628393,46.3968429491353 15.0873616098032,46.3972785796922 15.0876426613502,46.3977064426806 15.0882024899555,46.3981108779773 15.0882940272344,46.3984257028664 15.0883075830439,46.3987675789498 15.088320950309,46.3989924939778 15.0884771196463,46.3990644393429 15.088570401047,46.399169272316 15.0886039718933,46.3992615556698 15.0887898823363,46.3994689725771 15.0888550363659,46.3995498950906 15.0891024429979,46.3996666637644 15.0893336198571,46.399719025969 15.0898441314101,46.3999269968548 15.0894293524839,46.3999693380059 15.0890436605057,46.4000652772012 15.0885487502575,46.4003359317127 15.0880117088663,46.4006932577187 15.0874636317726,46.4009037584058 15.0870922770723,46.4010260412787 15.0869638995936,46.4011777385993 15.0867499493337,46.4014119133276 15.0865075162778,46.4017284318324 15.0862270174185,46.4019891070865 15.0862991846365,46.4023943678963 15.0860803060181,46.4025593580476 15.0859282569362,46.4027967234945 15.0857858048417,46.4030177069771 15.0855426624916,46.4029717344565 15.085428438142,46.4030312000882 15.0854097742155,46.4032387749863 15.085562734779,46.4034990340279 15.0856187819027,46.4035779857996 15.0859108322475,46.4037096628951 15.0862351635798,46.4038576894561 15.0865069176512,46.4039827225413 15.0868987106132,46.4040230919746 15.0870028255945,46.4041489708963 15.0871072727672,46.4043198344947 15.0870945391337,46.4044907872933 15.0869391409105,46.4049947377993 15.0869265938187,46.4052016784333 15.0870829363918,46.4053725025653 15.0874732722011,46.4054711717144 15.0881105634586,46.4054706824914 15.0883707113907,46.4054884757728 15.0886569879969,46.4055782242377 15.0888134379033,46.4057310519036 15.0888526312095,46.4058389854972 15.0888012494464,46.4062348935259 15.0889055469276,46.4063877615319 15.0891918437791,46.4064865056306 15.0893350880588,46.4065943578479 15.089439534762,46.4068371952563 15.0892582981449,46.4073591629127 15.089583929264,46.4076468123141 15.0896491237001,46.4077457282283 15.0896495216677,46.4079886469121 15.0899102999564,46.4083033371701 15.0900282032254,46.4088160733452 15.0904186432359,46.4089597172926 15.0904447906186,46.4090406695994 15.0903019831659,46.4092027284114 15.0902501932701,46.4093467212552 15.0903936999453,46.4096076108088 15.0905377993991,46.4101473166219 15.0904472854077,46.4104712800985 15.0903951714005,46.4104983122893 15.0900835004645,46.410723483102 15.0900187605416,46.4109034739826 15.090214358582,46.4112002206845 15.0900071297111,46.4117402036152 15.0900857520318,46.4120910244554 15.0900865371563,46.4125678644553 15.0900740035047,46.4128557780777 15.0899709744919,46.4134046756608 15.0896462532493,46.4137738972516 15.089594604655,46.4140078594738 15.0897119419633,46.4141697133106 15.0897383094272,46.4143046474706 15.0895437041716,46.4146196946351 15.089544322655,46.4149975676836 15.0893148035377,46.4152035082847 15.0888309046208,46.4158498688869 15.0887964570055,46.4169069515687 15.0889182915516,46.4171921513128 15.0889503776896,46.4177242080357 15.0890773989489,46.4179974375469 15.088763050472,46.4185262547307 15.0886658733101,46.4186871061956 15.0888612872898,46.4188578971969 15.0889657553851,46.4191007344999 15.0890188902493,46.4197754667703 15.089344785161,46.4201800767715 15.089618496767,46.4204137841011 15.0900869423455,46.4204763949228 15.0902952578918,46.42057519742 15.0905167326363,46.4207639589173 15.090490921863,46.420889937054 15.0904782099062,46.4210698866942 15.0906478423397,46.4213756496453 15.0906740705996,46.4215015865513 15.0906613549861,46.4216005633926 15.090544434764,46.4217805955789 15.0904406239813,46.4219426233186 15.0902717745478,46.4220328164647 15.0899856935069,46.4221949875084 15.0899733495992,46.4225998611802 15.0897787577453,46.4228609264164 15.0893885752744,46.4230141806397 15.0890649286008,46.4231219470037 15.0891158319729,46.4233022967112 15.0891811616285,46.4234731883179 15.0892856379016,46.4236350523525 15.0895854044727,46.4239587090216 15.0898469119338,46.4247502375738 15.0899125710258,46.4251190618612 15.0898350098207,46.4254250198713 15.0897441564674,46.4255600457801 15.0896404985229,46.4258211292222 15.0894457906323,46.4260192150364 15.0888873486091,46.4266494383719 15.088692593702,46.4269824774573 15.0885630357728,46.4272434899699 15.0883812435994,46.427468554826 15.0880704388912,46.4283774883697 15.0882140868417,46.4287013584491 15.0880851315994,46.429421215149 15.0878385463692,46.4298172712806 15.0875656169346,46.4300154138033 15.0875268264207,46.4301683918965 15.0875790033838,46.4302493246339 15.0876187020752,46.4306631545771 15.0876061802542,46.4309690609306 15.0876064685603,46.4311489999733 15.0876459809588,46.4313648968086 15.0876463270885,46.4315808236439 15.0876856809794,46.4317787266466 15.0877770985908,46.4319855866439 15.0878683433871,46.4320844831558 15.0880897694633,46.4322192672438 15.0885327560067,46.432569806668 15.0887545204277,46.4328306366123 15.0890592446422,46.4329733614277 15.0891191475327,46.433001205342 15.0894577667171,46.4331808801797 15.089627696606,46.4336485890295 15.0902662818851,46.4342329790879 15.0904227884756,46.4343677198591 15.090592133981,46.4344755493402 15.0908525851747,46.4345923031899 15.0916722299677,46.4344926826086 15.0924137187976,46.4343481345402 15.0925697658861,46.4342850296364 15.0928949023213,46.4341768025117 15.0932780621643,46.433756332684 15.0932975458558,46.4337356237859 15.0936875866003,46.4335373718397 15.0950404969421,46.4332302689787 15.0951596500289,46.4332061480176 15.0953053364991,46.4331750771656 15.0955608099679,46.4331218718961 15.0963671261514,46.4328602834902 15.0969522558504,46.432616871026 15.097186239102,46.4324817180212 15.0974462296654,46.4323374554472 15.0981744677946,46.4320849177221 15.0984605270995,46.4319677113068 15.098590487283,46.4318776297301 15.0991619480301,46.4312833361547 15.0995777938232,46.4309860750583 15.0996297925084,46.4309589489124 15.1005272709859,46.4306972516228 15.1011776514715,46.4305797175711 15.1012816634267,46.4305346406874 15.1021261093514,46.4298231295347 15.1027372211311,46.4295886611009 15.1034136578299,46.4294979918278 15.1045453618844,46.4293350175337 15.1049094626367,46.429217723564 15.1057287401493,46.4289830479794 15.1064565099412,46.4285325245162 15.1071982136543,46.428558732647 15.1076796895906,46.4285852712431 15.1080049221001,46.4285579736655 15.1090065508078,46.4284310658319 15.1090716257317,46.4284400007566 15.1098531410012,46.4288531132568 15.1103611522308,46.4291315301405 15.1105175301909,46.4291853609331 15.1109077290573,46.4291759862391 15.1111025553119,46.4290048547762 15.1115829905667,46.4285185508244 15.1119207715729,46.4282662157039 15.1122584757676,46.4279779817461 15.1126480915383,46.4276267168747 15.1128687620256,46.4273745841735 15.1141043512048,46.4271484338645 15.1144942317589,46.4269321169394 15.1150405247566,46.4268505060354 15.1161859147429,46.4270472815106 15.117175488089,46.4273881567688 15.1181512655343,46.4273601619637 15.1183278591071,46.427254714848 15.1183966655747,46.4265231899622 15.1185128539935,46.4261631907794 15.1186550168409,46.4257221917627 15.118731205957,46.4248583133413 15.1187307567105,46.4246513834158 15.1186393319552,46.4244895327631 15.1184827582098,46.4242827646735 15.118559422784,46.4236978818644 15.1181671320617,46.4227805963169 15.1179707587766,46.4222139894891 15.1179312440605,46.4219891057988 15.1178528165702,46.421818244061 15.117735055841,46.4215664499562 15.1174089041735,46.4211439272409 15.1179029027,46.4209724764246 15.118618899911,46.4211876635493 15.119477982333,46.4213306309917 15.1204017701556,46.4213746470784 15.1215206453083,46.4213914576414 15.1219092024365,46.420671285758 15.1219073777035,46.4198525624585 15.1224133729463,46.4192401372427 15.1227213925207,46.4188747995489 15.122760113913,46.4187963942703 15.1230224091392,46.4182318216176 15.1232684238046,46.4177187286089 15.1233066594008,46.4173678049744 15.1232925151,46.4168639890244 15.1232262964659,46.4163422351752 15.123747029179,46.415019835437 15.1238842166721,46.4140214708934 15.1246383476024,46.4138754400735 15.1250674034951,46.4137850017605 15.1251713841894,46.4137488100676 15.1253794140075,46.4136497052586 15.1256780721035,46.4134783446404 15.125924827451,46.4133071303679 15.1262625316867,46.4130908302226 15.1266134075039,46.4129464904293 15.1268343924798,46.4128832666157 15.1273022506128,46.412702806935 15.1277179912367,46.4124864155769 15.1278218628218,46.4124053265914 15.1278735356565,46.4122523199397 15.127951328408,46.4121442690087 15.1280422336144,46.4120811883117 15.1282111413436,46.4120000261338 15.1287181999652,46.4119003996547 15.1290301454856,46.4118010811961 15.1291210701091,46.4117469966099 15.1292768402595,46.4116118657182 15.1293804738535,46.4114318086315 15.1295229795821,46.4111887284613 15.1297693477776,46.4109185393104 15.129938078428,46.4107653987993 15.1301718224689,46.4106031870577 15.1307953697046,46.4102695867556 15.1311201367164,46.4100982719271 15.1313800179881,46.4099900097095 15.131835024506,46.4098905191286 15.132459228413,46.4098357259088 15.1329011810345,46.4097182522067 15.1338627036494,46.4093122658828 15.1341357369453,46.4092669609802 15.1347337850866,46.4091582939929 15.1354613860903,46.4088424495539 15.1358512120443,46.4087430201589 15.1362928752401,46.408463587679 15.1366691912597,46.4081122555897 15.1372537015071,46.4078506425708 15.1375786827341,46.4077782760764 15.1381248182142,46.4077236357691 15.138371843457,46.4076333671436 15.1387288290457,46.4076167400566 15.139417796191,46.4076223800682 15.1397242445388,46.4075776508583 15.140075010565,46.4074688978757 15.1406643469701,46.4072216566841 15.140942714081,46.4068800576775 15.14100038331,46.4066980672037 15.1409217443118,46.4059594202121 15.1410509216035,46.4055661818605 15.1411502624979,46.4053044264043 15.1415332381583,46.4050341329058 15.1421280493116,46.4045538548392 15.1430670395193,46.4045942501901 15.1441095189473,46.4045708086689 15.1449600228116,46.4044945188085 15.145488736102,46.4044081059495 15.1456829724298,46.4045776321868 15.1458251792805,46.4051348154341 15.1459541239397,46.4054973202038 15.1461902193821,46.4055599077072 15.1464911854875,46.4054170100349 15.1472764491801,46.4049205364034 15.1474099531913,46.4046063689021 15.1477164221998,46.4044334108868 15.1478567731092,46.4042961151409 15.148105419217,46.4039994320035 15.148405401846,46.4037866237811 15.1486617569253,46.4037923188229 15.1489172434683,46.4038611734113 15.1494745234926,46.4041435821975 15.1501851788506,46.404390338735 15.1506970039996,46.4044559733782 15.151251924964,46.4044910488906 15.1514839865924,46.4045522812605 15.1517600309656,46.4049500327851 15.1518946999031,46.4050648357276 15.1520358756649,46.4051340150433 15.1525402795307,46.4049135465275 15.1527572916876,46.4047540098649 15.153127918416,46.4046473495394 15.1534349213421,46.4046248054257 15.153716471156,46.4047085493425 15.1543121513756,46.4049907929266 15.1544725846215,46.4051542318642 15.1546262535509,46.4052248306268 15.1547919939496,46.4051948263276 15.1550478170883,46.4050561058402 15.1553540430536,46.4047593288996 15.1554557072072,46.4045159117084 15.1556151318694,46.4043696734753 15.1560240667215,46.4042453174898 15.1563998026709,46.4042460638396 15.1572219978451,46.4048717578867 15.1574080581184,46.4050794227432 15.1575811191403,46.4051985746719 15.1577619905066,46.4051844699173 15.1579581507187,46.4051052054425 15.157989736227,46.4049635489468 15.1580018818799,46.4047557013355 15.1582440892293,46.4044545065646 15.1584761316688,46.4042818925768 15.1591706986095,46.4042143501331 15.1599188345159,46.4041424999811 15.1601050453543,46.4041766979778 15.1605461060956,46.4043230007717 15.1614382115743,46.4047351573631 15.1618394722574,46.4047900117826 15.1621975192952,46.4047452392654 15.1625176193864,46.4048421324318 15.162799748322,46.4050717845925 15.1631166833235,46.4055893805357 15.163391245853,46.4060705982343 15.1638272231748,46.4065092982029 15.1647319406663,46.407029644823 15.1658704007312,46.4078072296139 15.1663577082389,46.4082624897976 15.1670955493459,46.4084673554614 15.1673451516107,46.4085112557378 15.1676841315837,46.4085196662447 15.1680677938623,46.4084659307895 15.168304139292,46.4083859597609 15.168514895552,46.4082749862996 15.1686294308872,46.40808893944 15.1690134585154,46.4081547704099 15.1694486850157,46.4082470653932 15.1699668877185,46.4083368962095 15.1706699447124,46.4085607741726 15.1709562593479,46.4086143285339 15.1713205581714,46.4086497713815 15.1720493832458,46.4087925392814 15.1725960331302,46.4089086765865 15.1728305114396,46.4089802984708 15.1730648318389,46.4090429231131 15.1733251663006,46.4091055078516 15.1735466236947,46.4092131359955 15.1737549736457,46.4093297806227 15.1739895124867,46.4094193940316 15.1742109438117,46.4095180239244 15.1744321751694,46.4095536747018 15.1747053768737,46.4095712516741 15.1749264937183,46.4095709136755 15.1751347764631,46.4096245768956 15.1753302256878,46.4097322414021 15.1754998638035,46.4099029241719 15.1755653027039,46.4100287817044 15.1756439510809,46.4102175978936 15.1757747893044,46.4103349876304 15.1759478073703,46.4104231620585 15.1762167169745,46.4105200955372 15.1765562547312,46.4106567760638 15.1770554647817,46.4107754844063 15.1774392917104,46.4107704810019 15.1778932714017,46.4106989693712 15.1781188184145,46.4106996079795 15.1782543548555,46.4107000265944 15.1784545078435,46.410492063756 15.1785708963224,46.4102849511423 15.1787134154444,46.4101137855633 15.1791287558199,46.4098432258244 15.1796480169804,46.409572501367 15.1799075446318,46.4093470784507 15.1801275530861,46.4090498311614 15.1802697976662,46.4087977810079 15.1803343563931,46.4086536372551 15.1803988968407,46.4084645984587 15.1803593614533,46.408347699808 15.1802811144945,46.4082848441773 15.1800856311235,46.4081681911568 15.1796556474385,46.4079349454057 15.1794728485193,46.4077193043867 15.1791593981405,46.4073239277759 15.1790283805641,46.4070722168817 15.1790277330239,46.4068742838333 15.1790788160971,46.4065863897222 15.1792080229894,46.4063251842509 15.1793116885434,46.4062080607075 15.1794672598056,46.4060548676079 15.17958407792,46.4059827081933 15.1795837826803,46.4058927386122 15.1795055991514,46.4058478763341 15.1791538484893,46.4056684878113 15.1789971297793,46.4054707990992 15.1789446060844,46.4053179322053 15.178865688772,46.4050481454915 15.1788259952226,46.4048412764277 15.1788643655623,46.4046432822831 15.1789548759108,46.4044811945688 15.1793308192164,46.4041477164135 15.1797594833192,46.4039491092616 15.1800061741761,46.4038227631288 15.1801357141919,46.4037055980568 15.1801744460109,46.403579578929 15.1801997640154,46.40340859588 15.1801732200783,46.4032466915471 15.1800687923357,46.4031298949065 15.1799646017076,46.4030850738673 15.179769492233,46.4030763837233 15.178805525955,46.403074386115 15.1768798566978,46.4007524631384 15.1769506580257,46.3996833284733 15.1766600455614,46.3990913243452 15.1736184363996,46.397041513652 15.1730586894058,46.3966945373276 15.1724338620178,46.3963670899523 15.171492864284,46.396104352426 15.1709993842627,46.3960664941575 15.170673190921,46.3959638755883 15.1694302896666,46.3944909320453</coordinates></LinearRing></outerBoundaryIs></Polygon></MultiGeometry>
  </Placemark>
</Folder>
</Document></kml>
