{"type":"FeatureCollection","features":[{"type":"Feature","geometry":{"type":"Polygon","coordinates":[[[15.3328391618699,46.3431329237036],[15.3335023363816,46.3431074190344],[15.3338907593771,46.3432546478466],[15.3339967497422,46.3432943754457],[15.3345945122153,46.3437049653677],[15.3352085817145,46.3439976422318],[15.336060209048,46.3441953281943],[15.3375922090137,46.3444145735952],[15.3381720316774,46.3446484045697],[15.3390100988322,46.3454232729721],[15.340935882602,46.3460535527493],[15.3419068429398,46.346274411666],[15.3437949237331,46.3462687506918],[15.3450912452743,46.3468654925589],[15.3473900810628,46.3500269508972],[15.347563532769,46.3505800152595],[15.3475267186973,46.3507780632881],[15.347500302854,46.3513457703941],[15.3476568885465,46.3519224581311],[15.3478463041768,46.3522869842159],[15.3481376445663,46.3526395034805],[15.3489067451207,46.3532142329859],[15.3494864293543,46.3534245242748],[15.3502362765309,46.3536459877878],[15.3507822831061,46.3538916442398],[15.3513625853575,46.3541961236536],[15.3522658181025,46.3544642471873],[15.3548407745331,46.3554220336179],[15.3556931082968,46.3556902879642],[15.3570377803935,46.3558156555106],[15.3587734262974,46.3558572779348],[15.3596591348433,46.3560194122767],[15.3601027118503,46.3562299876966],[15.3611303999577,46.3573103561108],[15.362105322764,46.3581081937524],[15.3626686315259,46.3584008832222],[15.3640492298542,46.3587968666068],[15.3645806682579,46.3589452448721],[15.3665063331429,46.3595591682626],[15.3674401866228,46.3597765099718],[15.368584084029,46.3596704418243],[15.370493974391,46.3593821212767],[15.3733891722801,46.358719515961],[15.373796899569,46.3586356806191],[15.374461045543,46.3587277071982],[15.3756018182845,46.358853523924],[15.3760780391138,46.3588283863659],[15.3769091816852,46.3584487619657],[15.3777414810085,46.3582575266733],[15.379289608814,46.3582288298494],[15.3819954373675,46.3583492910373],[15.3831545593355,46.3586634600898],[15.3837352554071,46.358991256102],[15.3839928151065,46.3593437070582],[15.3845093972662,46.3602371811313],[15.384869356904,46.3606246442112],[15.3857391066863,46.3609161881607],[15.3877151229965,46.3612746070975],[15.3888214292788,46.3613296916968],[15.3911493943692,46.3608859337407],[15.3941379189333,46.3600510894826],[15.3948506004238,46.3597659424472],[15.3952934527738,46.3598350395637],[15.3957877565877,46.3599746739831],[15.3975857586226,46.3592028747025],[15.398265946588,46.3591533630247],[15.3984364749134,46.3592116998938],[15.3987281346857,46.3595404264905],[15.3989551761035,46.3603641274805],[15.398991836292,46.3607408874273],[15.3990962487923,46.3610703561524],[15.3993895094926,46.3616347089663],[15.3994935824989,46.3619170337545],[15.3995314496429,46.3624587057109],[15.399566699935,46.3626234990411],[15.3998741617606,46.3627990369998],[15.4009818892479,46.363042487813],[15.4012550949063,46.3631710874345],[15.4015300708693,46.3635588860518],[15.4021143418068,46.3643695391279],[15.4022031380295,46.3648874585329],[15.4020697483978,46.3652530290064],[15.4019866540041,46.3655477954585],[15.4020556178978,46.3656653247371],[15.4021246685713,46.3657946398363],[15.4038681697423,46.3669074617392],[15.4040570557651,46.3671423378859],[15.4040578372233,46.3672483206557],[15.4036004039447,46.3675208379292],[15.4037215356687,46.3678030983806],[15.4044443094091,46.3689312963877],[15.4052328220601,46.3697176379361],[15.406205724959,46.3701264318814],[15.4068362738426,46.3702538380887],[15.4077716808753,46.370179789405],[15.4085872861877,46.370023748025],[15.4095573561327,46.3700320640033],[15.4112266666225,46.3702617064511],[15.4118571392841,46.3703772091162],[15.4125578077194,46.370786929145],[15.4128469519312,46.370762313306],[15.4130326940636,46.3705732439551],[15.4132345247085,46.370242682226],[15.4134380897776,46.3701595332739],[15.4137615500084,46.3701701495305],[15.4141200904632,46.3703337679635],[15.4144476090662,46.3708979572434],[15.4148926754438,46.3712614443799],[15.4153738557664,46.3718957902586],[15.415647228659,46.3720361408701],[15.4160048920787,46.3720818949588],[15.4164462590659,46.3719389445516],[15.4171397666161,46.3716570579435],[15.4174986484987,46.3718287618623],[15.4174871147414,46.3716968169911],[15.4174847717468,46.3716963756915],[15.4174701208404,46.3715306132208],[15.4174724569728,46.3715301548389],[15.4174717508837,46.371522779821],[15.4174797232642,46.3715285088394],[15.4174962027366,46.3715248498484],[15.4174540502198,46.3715196954656],[15.4176631547995,46.3714814141568],[15.4178568658261,46.3714699100071],[15.4181435915499,46.3714688619339],[15.4185236326222,46.3714835764072],[15.4187173441532,46.3714721607687],[15.419143252534,46.3714168879785],[15.4196385119822,46.3712863235791],[15.4201724943256,46.3711716295395],[15.4205364017128,46.3711166693213],[15.4207687202285,46.3710890034698],[15.4209623469237,46.3710667878565],[15.4211561387382,46.3710660743014],[15.4215205045412,46.3710540252798],[15.4218073579285,46.3710529675485],[15.422078986551,46.3711002795524],[15.4226693197384,46.3712483501625],[15.4228087883926,46.3712317298278],[15.4228848451338,46.371048988039],[15.4227824529383,46.37085080133],[15.4225868821103,46.3706207493872],[15.4224147029005,46.3704068054224],[15.4222881447144,46.3700745611969],[15.4223721240487,46.3699078952116],[15.4224461879431,46.3698038854029],[15.422433931792,46.3697988923193],[15.4224811634838,46.369754902096],[15.4225178091621,46.3697033934272],[15.4226948053333,46.3695310752019],[15.4229256660851,46.3693155514948],[15.4231578930505,46.3692771746012],[15.423398248794,46.3692815932],[15.423569863591,46.369287975377],[15.4235690761202,46.369286988616],[15.4237213128787,46.369291822868],[15.4237252265928,46.3692936977512],[15.4240650729681,46.3693059335882],[15.4243828141391,46.3692833418148],[15.4246847083087,46.3692285085241],[15.425109095211,46.3689801419676],[15.4252171616435,46.3689207193853],[15.425511129765,46.368849808621],[15.426014310516,46.3687567048538],[15.4261839948237,46.3686487375052],[15.4263368766596,46.3683691683922],[15.4264932340873,46.3682691676865],[15.4265606962176,46.3682199719795],[15.426567597104,46.3682215657108],[15.4266067825537,46.3681964076677],[15.4268310831917,46.3681258433505],[15.4269874571275,46.3680782048721],[15.4269867946727,46.3680765878724],[15.4271175049746,46.3680380421128],[15.4272177254507,46.3680063579213],[15.4274495248318,46.367914261366],[15.4274496576058,46.3679146207527],[15.4274677933031,46.3679069054475],[15.4275548671444,46.3678561063349],[15.4276278504566,46.3677817875139],[15.4277200906688,46.3676103181862],[15.4278723737444,46.3674385341628],[15.4280051689085,46.3673177463176],[15.4281716324309,46.3672477557016],[15.4283390567239,46.3672841066719],[15.4283403225682,46.3674460492794],[15.4282957766562,46.3677330428674],[15.4281507002305,46.3679787564123],[15.4278250259587,46.3682159685527],[15.4277641369864,46.3683245211027],[15.4277517442743,46.3683686531192],[15.4277437276139,46.3684072805507],[15.427769700733,46.3684545079994],[15.4278614475994,46.3685859718795],[15.4279632791833,46.3687937830896],[15.4280851478528,46.3689875737318],[15.4282132127486,46.3691259190711],[15.4283473638101,46.3691947840704],[15.4284148007265,46.3692089267593],[15.428445264323,46.3692152905181],[15.4284633596823,46.3692190014895],[15.4285214233451,46.3692311998794],[15.4285528833037,46.3692486262743],[15.4286493083311,46.3693463329538],[15.4286707719675,46.3694150800955],[15.4286742762398,46.3694144371641],[15.4287604480437,46.3696800675363],[15.4287933688311,46.3698176892579],[15.428941691528,46.369969813289],[15.4291161520088,46.3700570601348],[15.4295451222315,46.3702127183993],[15.4298865990062,46.3702993365837],[15.430234509059,46.3703443630786],[15.4305624760033,46.3703986406177],[15.4308368219458,46.3704438522675],[15.4311388163172,46.3705999828667],[15.4312934483971,46.3707104236082],[15.4314149697304,46.3708580569851],[15.431443091749,46.3710290751493],[15.4313508221162,46.3711960489563],[15.4312313394891,46.3713075234221],[15.4311049728094,46.3713866342659],[15.4308583426503,46.3714616096511],[15.4307250345898,46.3715176237597],[15.4307056365167,46.3715963312013],[15.4307996553237,46.3716514889598],[15.4309532706966,46.3716323761887],[15.4311062470099,46.3715485766979],[15.4312524475386,46.3714461786221],[15.4315119029283,46.3712833425991],[15.4316916876057,46.37120393969],[15.4318516755346,46.3711525021748],[15.4321050615906,46.3710774991141],[15.4322651580654,46.3710399160956],[15.4322914578643,46.3709796262831],[15.4322897107069,46.3709723452615],[15.4322826708179,46.3709696727533],[15.4322796233722,46.3709293774017],[15.4322758584696,46.3709134668206],[15.4322113534241,46.3708594583121],[15.4322118655124,46.3708584666989],[15.4321938127563,46.3708437797355],[15.4321162231177,46.3707952188663],[15.4319949192237,46.3706753863572],[15.431940333508,46.3705275907505],[15.4319722044887,46.3703331336429],[15.4320852534214,46.3702633391296],[15.4322524339905,46.3702672958217],[15.4324062806404,46.370294515132],[15.4325474178404,46.3703911497232],[15.432763069498,46.3706077030264],[15.4331133242632,46.3709488054555],[15.4332822628505,46.3711748016567],[15.4334573931227,46.3713453521859],[15.4336451429125,46.371418686245],[15.4338322132814,46.3714225652014],[15.4340798123317,46.3714540150476],[15.4342340127954,46.3715089415234],[15.4343247854277,46.3716460720071],[15.4343536908047,46.3716359754726],[15.4344182267242,46.3716115282113],[15.4344258952761,46.371611499079],[15.4346002074399,46.3715963514608],[15.4349480209008,46.3715458151066],[15.4349903013754,46.3715013887055],[15.4350319746643,46.3714132388433],[15.4350368329926,46.3714030536729],[15.4350400259328,46.3713959338415],[15.4350401559078,46.371395933347],[15.4350462932658,46.3713831341603],[15.4351586801824,46.3712302062201],[15.4353077078499,46.3711902318541],[15.4355635755004,46.3711990643686],[15.4356657831299,46.3711883283934],[15.435665650294,46.3711879690167],[15.435773167513,46.3711747835081],[15.4357778601867,46.3711764750687],[15.4358050026528,46.3711735825398],[15.4363092501425,46.3711323425358],[15.4365080056766,46.3711020736367],[15.4368273227677,46.3710319367497],[15.4370538357816,46.3709130296985],[15.437152284465,46.3707896634443],[15.4373577150011,46.3707002567975],[15.4374783818443,46.3706899884243],[15.4376845588889,46.3706941478638],[15.4378124525389,46.370693658284],[15.4380117558291,46.3707322122583],[15.4381611623151,46.3707562918576],[15.4384235469867,46.3706863686375],[15.4385652256528,46.3706218561941],[15.4387356321286,46.3706064473346],[15.4389489178118,46.370605628832],[15.4393325583912,46.3705992071873],[15.4395173012871,46.370588690472],[15.4397727724717,46.370548391087],[15.4398433931213,46.3704890087235],[15.439898729974,46.3703067851229],[15.4399907848092,46.3702621653773],[15.4401753284013,46.3702269963899],[15.4404094422309,46.3701818293978],[15.4405153863437,46.3701026969531],[15.440628162423,46.3699842208818],[15.4407764599596,46.369870556174],[15.4408830077918,46.3698504418478],[15.4411249805395,46.3698937742732],[15.4412243295894,46.3698835841774],[15.4414087913776,46.369838516733],[15.4414862306002,46.3697546349909],[15.441556650442,46.3696706903288],[15.4415908244434,46.3695082511843],[15.4416544632751,46.3694538430412],[15.4417393668865,46.3694092494995],[15.4418741286753,46.3693743600275],[15.4420019792578,46.3693689175373],[15.4422005661793,46.3693189357938],[15.4423495333766,46.3692888492473],[15.4423843396258,46.3692050418254],[15.4424964741016,46.3690078419835],[15.4425533213823,46.3689978151859],[15.4427165333674,46.3689774798401],[15.4428657378499,46.3689769021005],[15.4429722831655,46.3689567858334],[15.44307818192,46.3688727927513],[15.4431386318134,46.3687779093006],[15.4431379173324,46.3686895608064],[15.4431260394808,46.3686511893297],[15.4429533341903,46.3683813164298],[15.4428579060686,46.3680078575928],[15.4429409767452,46.3677369038382],[15.4430030508397,46.3675054385436],[15.4431934880457,46.3673325865742],[15.4431951812309,46.3673330298658],[15.4432165604309,46.3673088348416],[15.4432146029501,46.3673078527502],[15.4431864699274,46.3673326137739],[15.4433979406354,46.3671251311665],[15.4435814365892,46.3669621122661],[15.4438435971884,46.3668676154044],[15.4440946647521,46.3667675828331],[15.4441597849666,46.3667362900021],[15.4441681223337,46.3667386868293],[15.4444598804944,46.3666241000729],[15.4446435212333,46.3664955376953],[15.4446380679437,46.3664641591],[15.4446326000051,46.3664630107408],[15.4446228032613,46.3663928716295],[15.4446256558755,46.366392050801],[15.4446136621965,46.3663234497333],[15.444548443327,46.3661662544335],[15.4446113475795,46.3660381613986],[15.4448590965886,46.3659142078075],[15.4449929682042,46.3657709932754],[15.4453036968696,46.3655287519451],[15.4455016671199,46.3654049907836],[15.4458139821545,46.3653742632017],[15.4459566391697,46.3654327277894],[15.4460945440592,46.365546002947],[15.4463642903789,46.3657459450731],[15.4467074035493,46.3659856369775],[15.4468364495121,46.3661278264568],[15.4470365049395,46.366259841428],[15.4472708369344,46.3662441699114],[15.4474408349396,46.3661647804361],[15.4475379666759,46.3658840513821],[15.4474154151424,46.3656778680492],[15.447257908065,46.365535880504],[15.4471930841554,46.3654278991664],[15.4472770936696,46.3652750701116],[15.4474537451012,46.3651513889474],[15.4480835148939,46.3648290767788],[15.4484303565786,46.3646506546347],[15.4487346408368,46.3644969604716],[15.4488751135124,46.3643045014183],[15.4491082365306,46.3641265235312],[15.4493706963471,46.3640713300133],[15.4494764954387,46.3639775245003],[15.4498501224625,46.3636119434007],[15.4502319350245,46.3633891125268],[15.4504792954709,46.3632208825762],[15.4507406574386,46.3630328932844],[15.4509887431861,46.3629531906601],[15.4511444306032,46.3628738520659],[15.4513208633093,46.3627256036949],[15.4515332986834,46.3626410921864],[15.4516822017618,46.3626060452958],[15.4519236241388,46.3625854777964],[15.4522790795048,46.3626036861116],[15.4526136298239,46.3626712800863],[15.4529837796317,46.3627533973128],[15.4532537841099,46.3627474689965],[15.4534661023594,46.362633443926],[15.4537275331725,46.3624553443029],[15.4539809586256,46.3621738993574],[15.4542283833182,46.3620154678224],[15.4546026927025,46.3617532448528],[15.4547929173585,46.3615459153797],[15.4549819889655,46.3612155100333],[15.4551568123592,46.3608753542435],[15.4551259030581,46.3605803728192],[15.4552093518352,46.3603635707375],[15.4553991524239,46.3601216930739],[15.4557459331846,46.3599580040419],[15.4561784959002,46.3598430958798],[15.4563693967812,46.359734099191],[15.4564257816218,46.3596699948197],[15.4564321836805,46.3595961031681],[15.4563170064449,46.3594195001306],[15.4563361081045,46.3592788893722],[15.4563383153048,46.3592630456869],[15.4563418230779,46.3592317218179],[15.4563426042502,46.3592318986422],[15.4563571711989,46.359124145349],[15.4566036117721,46.3591152441396],[15.4566625912569,46.3591131192308],[15.4569747066571,46.3590479030615],[15.457301929551,46.3590958090117],[15.4576785517875,46.3590991606687],[15.4578057266913,46.3590003134036],[15.4578825912099,46.3588524533762],[15.457915723465,46.3585718814023],[15.4579493551329,46.3583355730918],[15.4580857032618,46.3582150957459],[15.4581083792922,46.3581917924095],[15.4583950705647,46.3581173172259],[15.4585229824209,46.3581069975686],[15.4585942860243,46.3581180479689],[15.4585972897676,46.3581198353408],[15.4588004327985,46.3581550988033],[15.4589707946213,46.3581396599187],[15.4591036520512,46.3580837045092],[15.4591634495923,46.3579932235884],[15.4592805521038,46.3577940075635],[15.4594208540298,46.3575721155057],[15.4594965568729,46.3572864235656],[15.4595585087553,46.3570500908941],[15.459742087432,46.3569066590758],[15.4599620468387,46.3568713156597],[15.4602043078007,46.3569540139031],[15.4602200816159,46.3571457684419],[15.4603345231414,46.3572338391914],[15.4605054605873,46.3572873134291],[15.4606703319135,46.3574539053006],[15.4607779176579,46.3575764620839],[15.4610206582886,46.3576693233704],[15.4611868628395,46.3576542578262],[15.4613114710473,46.3576530354351],[15.4615383307508,46.3575881506926],[15.4617790223486,46.3574838923495],[15.4622899380014,46.3574031034347],[15.4627080068699,46.3572685254696],[15.4627345485371,46.3570568964142],[15.4626540378858,46.3569402599713],[15.4625688927693,46.3568595406196],[15.4623766361373,46.3567435358977],[15.4621328802507,46.3564837854883],[15.4621593876147,46.3562524530402],[15.4621411959733,46.3557900758962],[15.4622896593491,46.3557058927792],[15.4624951166661,46.3556311958308],[15.4626437863426,46.3555715734875],[15.4627206384489,46.3554089549265],[15.4628474994235,46.3552903996145],[15.4632580721305,46.3551165326139],[15.4636065026868,46.3551544378242],[15.4638202268467,46.35521259208],[15.4640545484615,46.3552018345649],[15.4644232065777,46.3551118064615],[15.4646150798113,46.3551060786217],[15.4649635531751,46.3551489279263],[15.4652199397354,46.3552118544902],[15.4655184401364,46.3552303433289],[15.4658090878873,46.3551504351446],[15.4660644245869,46.3551050390531],[15.4663406224336,46.3549916292389],[15.4664024160607,46.3549390141147],[15.4665132555393,46.3548322162947],[15.4666924836027,46.3545317916569],[15.4664688861338,46.3540463208992],[15.4664227153251,46.353781634663],[15.4665894670342,46.3534812610198],[15.4667565876416,46.3532244315722],[15.4670873238415,46.3530319826915],[15.4675691288408,46.3528954170233],[15.4679505315068,46.3527634888759],[15.4682128619527,46.3526408642225],[15.4685072276894,46.3525875653312],[15.468813026003,46.3524125780099],[15.4690050229476,46.3521338702473],[15.4691394028884,46.3517120747159],[15.4692440478723,46.3514901366913],[15.469707292027,46.3513883669502],[15.4699635983435,46.3512917646184],[15.4701187813357,46.3511000282663],[15.4703669867682,46.3507863582289],[15.4705293913477,46.3507248696558],[15.4707364743264,46.3507370631544],[15.4709757821702,46.3508402642137],[15.4710717512937,46.3510613775806],[15.4711801191558,46.3512737125804],[15.4714954794387,46.3514721483699],[15.4719287722325,46.3515442271686],[15.472160822213,46.3515432692454],[15.4724742788398,46.3515202015328],[15.4727061417671,46.351497560259],[15.4728939013827,46.3514533279254],[15.4730502191687,46.3514093153296],[15.4731999417497,46.3513087380363],[15.4734189007429,46.3512514198975],[15.473644224889,46.3511939850027],[15.4738444937147,46.3511541078708],[15.4740631675063,46.3510489250894],[15.4741753799529,46.3509833208026],[15.4742922917381,46.3508151299337],[15.4742700533048,46.3507376671379],[15.474260768628,46.35070072755],[15.4740528589832,46.3505929946184],[15.4737829273956,46.3505550659131],[15.4735010678561,46.3505952808247],[15.4732812702955,46.3505701891282],[15.4732178791002,46.3504965852579],[15.4732982346857,46.3503529288211],[15.4735599036483,46.3501564283505],[15.4739839868955,46.3498854779114],[15.4744777679595,46.3496966501889],[15.4748783644469,46.3495951193893],[15.4751993099375,46.3495680543671],[15.4753170614127,46.3494075064572],[15.4753156236912,46.3494065227517],[15.4753648704165,46.3493021315502],[15.4753626491075,46.3490459032001],[15.4752674195751,46.3489117023283],[15.4750518116977,46.3486346776253],[15.4751510935458,46.3485169428479],[15.475388688966,46.3484377704635],[15.4757020140318,46.3484017385955],[15.4758402526192,46.348431573649],[15.4759228429787,46.348561508049],[15.4759972629104,46.3486033047484],[15.4759983007098,46.3486031204863],[15.4762434501834,46.3486907212476],[15.4763443244715,46.3487117141934],[15.4765949372544,46.3486803496873],[15.4768005031542,46.3485188043891],[15.476905413111,46.3483315869467],[15.4769532199035,46.3480621041154],[15.4770202048242,46.3478316786705],[15.4770669393644,46.3477676042317],[15.4770631286784,46.3477477365202],[15.4771583090422,46.3476221896063],[15.4771676318098,46.3476185518601],[15.4772573606327,46.3476727898434],[15.4772464605962,46.3476146240431],[15.4775178173145,46.3475192014831],[15.4781977852118,46.347469305046],[15.479095707545,46.3470415127032],[15.4791419278734,46.3464877268498],[15.4793930921748,46.346015495442],[15.4805633289052,46.3456219081294],[15.4819571433453,46.3455100559611],[15.4827533077677,46.3451297184748],[15.4843938505865,46.3440509544961],[15.4853092078684,46.3436819703141],[15.4855273919528,46.3433512098382],[15.4854579905962,46.3431865873622],[15.4853713384614,46.3430103418139],[15.4852843988652,46.3427868625515],[15.4855555097387,46.3426679393904],[15.485828080224,46.3427139265385],[15.4861855044918,46.3427476760904],[15.4862863575013,46.3426059025278],[15.4862825980209,46.3421818843683],[15.4862125698293,46.3419466376049],[15.4864831518484,46.3417687833476],[15.4867721092302,46.3417440711528],[15.4871445830497,46.3415422090765],[15.4875338375177,46.3413285779786],[15.4879567281702,46.3410557809099],[15.4880384606341,46.3406785427449],[15.4879005686496,46.3404671590333],[15.4873369649255,46.3402103554018],[15.4876533753574,46.3394316551428],[15.4875233173567,46.3381718927072],[15.4884198612228,46.3376144736432],[15.488501690518,46.3372490207387],[15.4886151617365,46.3366006528608],[15.4884601572519,46.3363775565626],[15.4883221688803,46.3361542974078],[15.4878420102043,46.3357087398417],[15.4869226720887,46.3355830997319],[15.4863787501468,46.335620773348],[15.4858364958573,46.3358468371485],[15.4847528315043,46.3344262011405],[15.4823094590831,46.3311031857927],[15.4809484472277,46.3290476744834],[15.4809642218182,46.3289062630908],[15.4809788599515,46.3286352077048],[15.4798575527896,46.3267553778834],[15.4795778882888,46.325873121776],[15.4800350350919,46.3256356583057],[15.4820654485741,46.3244845689047],[15.482199785305,46.324283726013],[15.4833491306853,46.3234897336219],[15.4836019975225,46.3232413328574],[15.4834810739192,46.3230179951933],[15.4832574864251,46.3227126774571],[15.4834085930552,46.3225000659099],[15.4840005128759,46.3221323676533],[15.4846939723276,46.3217053945715],[15.4846400272847,46.3213758776764],[15.4842586910927,46.3205294218658],[15.4835902885031,46.3199079383021],[15.4826856459618,46.3194877249079],[15.4815763758337,46.3190094349831],[15.4809436946512,46.3185763657099],[15.4804797564978,46.318001148674],[15.4799647985135,46.3174261438738],[15.479552320506,46.3168977620771],[15.4796004688508,46.3165678143152],[15.4797325311681,46.3161078654262],[15.479509274857,46.3158496837324],[15.4793534403696,46.3155205012898],[15.4795517141694,46.3148365155562],[15.4793145395607,46.3149317102908],[15.4789242828174,46.3150276357935],[15.4783126511809,46.3150654648568],[15.4746407539444,46.3150807660727],[15.4741480536536,46.3151181690754],[15.4733491423434,46.3151214791677],[15.4729930943735,46.3152407253834],[15.4725006957853,46.3153134788731],[15.4722284752367,46.3152910308993],[15.4717853090871,46.3151397286466],[15.4710674726096,46.3146950795496],[15.4707413289931,46.3143195316863],[15.4701781040311,46.3140509445601],[15.4691540240405,46.3135486108402],[15.4679404603333,46.3127644426434],[15.4674096771041,46.3123072184711],[15.4669488094935,46.3120853420293],[15.4664057354776,46.3121817588525],[15.4649122798447,46.3124823181429],[15.4638744927831,46.3123923327653],[15.4626154633709,46.3122560881708],[15.4614910210097,46.3119425822925],[15.4605189422442,46.3115578240495],[15.4595450043499,46.3109493054959],[15.4584697290778,46.310423509032],[15.4575333822999,46.3102388589672],[15.456749948115,46.310065286822],[15.4562552568276,46.3098435023188],[15.455453195651,46.309457932373],[15.4545161601499,46.309202542582],[15.4536467088678,46.3088762492137],[15.4532882597462,46.3086891801159],[15.4529106687681,46.3082430672456],[15.4526540422052,46.3080438964509],[15.4521779111088,46.308022207787],[15.4517694205636,46.3079531047393],[15.4513749706975,46.3075071433272],[15.450793549325,46.3070736141398],[15.4500756346397,46.3065699015526],[15.450604365018,46.3048868772718],[15.4496522646136,46.3037146946434],[15.4493077680856,46.3038467778529],[15.447193294505,46.3027009094463],[15.4463805049488,46.303226731464],[15.4453742178832,46.3031217897125],[15.4441517754017,46.3034966886388],[15.4431146454083,46.3034789394754],[15.4420181913846,46.3038969635346],[15.4413908069173,46.3040300261494],[15.4408556980836,46.3039014516063],[15.4397816961449,46.3031869830966],[15.4384621873423,46.3032138238187],[15.4376796802748,46.3036088287898],[15.4365975123332,46.3044903705621],[15.4360550858008,46.3048127398679],[15.4353336012301,46.3049679012023],[15.4340147353626,46.3050817807642],[15.4321592217979,46.3048710772851],[15.4312126852397,46.3043738681871],[15.4295091338203,46.3034874904578],[15.4290236711825,46.3031291560814],[15.4282778741056,46.3027299581693],[15.4270222146703,46.3028870666965],[15.4260478909511,46.3028471549821],[15.425360892961,46.3034159050399],[15.4245443091732,46.3034624862487],[15.4234801354656,46.3040108516004],[15.4226678063968,46.3046453689427],[15.4208789146374,46.3049214330353],[15.420126838648,46.305207249938],[15.4199420423579,46.3057088013486],[15.4194078345056,46.3057107620966],[15.41874995338,46.3059744511939],[15.4178143585085,46.3069360724088],[15.416375222897,46.307790564851],[15.4157813266791,46.3082281889005],[15.4145570878894,46.3084069091895],[15.4135510926617,46.3083452326746],[15.4132385862901,46.3085858671022],[15.4125495505984,46.3088932692173],[15.4119840564121,46.3089170812891],[15.40889932946,46.3082095505756],[15.4066095320113,46.3088056810692],[15.4052751527067,46.3095647407941],[15.4045465155746,46.3098971571124],[15.403426819722,46.3101955903342],[15.4023568833891,46.3103407057674],[15.4009291330291,46.3103457209513],[15.3995172319002,46.3102093174953],[15.3978321073547,46.3098853569834],[15.3968782812648,46.3096059807803],[15.3949071127058,46.3097070959538],[15.3934292827986,46.3098417496003],[15.3933804083566,46.3101599674831],[15.3932127376774,46.310478593919],[15.3927213228574,46.310715828509],[15.3918233608813,46.3111311590939],[15.3910284793932,46.3117110480794],[15.3901126807408,46.3120322258805],[15.3885339759119,46.3123438645133],[15.3876673476157,46.312405647441],[15.3874627936858,46.3123239267988],[15.3871890902495,46.3120657357498],[15.3867970777056,46.311913930858],[15.3865080653407,46.3119149081627],[15.3861523920733,46.3120928141008],[15.3857967516621,46.3122942014016],[15.3853719646664,46.3123192064207],[15.3845220945625,46.3123456401624],[15.3832156030898,46.3126916484192],[15.3819760167671,46.3128960728815],[15.3787017720209,46.3138845951454],[15.3773411031989,46.3137831070584],[15.3747802265209,46.3141641017305],[15.3728427864224,46.3144436792519],[15.3704747551696,46.3147992062765],[15.3687170099951,46.3151030536052],[15.3676069400256,46.3156040804375],[15.3667465678823,46.3158555245585],[15.3649156400572,46.3159604410961],[15.3629766041394,46.3160158273207],[15.3610416903804,46.3167183327761],[15.3589240212423,46.3169234768929],[15.3568040396688,46.3167552972072],[15.3566377645738,46.3178041638867],[15.3549611719594,46.3176519307623],[15.3537147059759,46.3174672131556],[15.3517700502145,46.3179120032544],[15.3484465299411,46.3187372311626],[15.346727159569,46.3190087733206],[15.3445519520049,46.3187793533684],[15.3447160550801,46.3197046651505],[15.3449288919489,46.3203043128535],[15.3445794238932,46.3215421139303],[15.3439363320326,46.3225333758465],[15.3431283464078,46.3230977647442],[15.3421914620027,46.3238198936591],[15.3421658869898,46.324966925399],[15.3423993475151,46.3260007173356],[15.3421452382354,46.3269459072412],[15.3418240621124,46.327509008742],[15.341109844436,46.3280046343341],[15.3398190092932,46.3294311042225],[15.3378550303039,46.3304527898826],[15.3368117148072,46.3312396975604],[15.335309057935,46.3323181907727],[15.3339753101239,46.3336285665145],[15.3320517961015,46.3344467885024],[15.330968644207,46.335611277129],[15.3291296688754,46.3365745083966],[15.3280576828119,46.3368648668837],[15.3271527885132,46.3370554991618],[15.3262528180128,46.3381406035768],[15.3255141202685,46.3396802257697],[15.326927871237,46.3415126830816],[15.3278171486926,46.3423699909636],[15.3286910479554,46.3434746665118],[15.3294078418527,46.343896637553],[15.3300208112958,46.3439891598009],[15.3305138135041,46.3439641634749],[15.3314129081226,46.343549313742],[15.3321262158726,46.3433705409693],[15.3324783463946,46.343253185057],[15.3328391618699,46.3431329237036]]]},"properties":{"fill-opacity":0,"stroke-opacity":1,"stroke":"#ff0000","lov":"0909","lov_naziv":"SLOVENSKE KONJICE","luo":"09","luo_naziv":"Savinjsko Kozjansko","povrsina":6154.84},"id":"pregledovalniklovisca.1"}]}