<?xml version="1.0" encoding="utf-8" ?>
<kml xmlns="http://www.opengis.net/kml/2.2">
<Document id="root_doc">
<Schema name="pregledovalniklovisca" id="pregledovalniklovisca">
	<SimpleField name="lov" type="string"></SimpleField>
	<SimpleField name="lov_naziv" type="string"></SimpleField>
	<SimpleField name="luo" type="string"></SimpleField>
	<SimpleField name="luo_naziv" type="string"></SimpleField>
	<SimpleField name="povrsina" type="float"></SimpleField>
</Schema>
<Folder><name>pregledovalniklovisca</name>
  <Placemark id="pregledovalniklovisca.1">
	<Style><LineStyle><color>ff0000ff</color></LineStyle><PolyStyle><fill>0</fill></PolyStyle></Style>
	<ExtendedData><SchemaData schemaUrl="#pregledovalniklovisca">
		<SimpleData name="lov">0922</SimpleData>
		<SimpleData name="lov_naziv">ŠENTJUR</SimpleData>
		<SimpleData name="luo">09</SimpleData>
		<SimpleData name="luo_naziv">Savinjsko Kozjansko</SimpleData>
		<SimpleData name="povrsina">4919.5</SimpleData>
	</SchemaData></ExtendedData>
      <MultiGeometry><Polygon><outerBoundaryIs><LinearRing><coordinates>15.4293355494064,46.1871583406646 15.4287991544872,46.1870643520805 15.4286425869562,46.1869208915348 15.4288831674498,46.1867400420388 15.4295574043149,46.1867855564459 15.4296903660628,46.1860771445176 15.4296017566279,46.1857774155773 15.429062936715,46.1853534141291 15.4286227829949,46.1853395898193 15.4281220820665,46.1855192538935 15.4273129323856,46.1850122208911 15.4264999675743,46.1850484570654 15.426035261288,46.1847401407692 15.4252267790382,46.1853741358752 15.4249555338869,46.1853419442349 15.4249736404342,46.1856407692484 15.4243673710764,46.1855875976805 15.4243558645388,46.1861965817214 15.4239424896179,46.1863641167233 15.4233677398368,46.186266555958 15.4229337633684,46.1857921120203 15.4225647979534,46.1854834274158 15.4220835084125,46.1855109378857 15.4220559094762,46.1856623753846 15.4216735117878,46.1856969867911 15.4210979272201,46.1854886601775 15.42072294152,46.1855608500693 15.4206722013548,46.1861434359041 15.4201507357804,46.1867985618758 15.4197057293503,46.1869993980357 15.4193366896566,46.1866796366017 15.4186028181244,46.1866269024609 15.4181879567609,46.1865840638365 15.4176945587408,46.1867076919017 15.4174212995816,46.1864097077739 15.4170696715101,46.1863002336741 15.4166227801481,46.1862353727155 15.4158270199338,46.185412672285 15.416171508262,46.1849890825947 15.4169033094315,46.1840514103143 15.4167218871651,46.1829962311971 15.4158038514061,46.1821850425763 15.4144494990696,46.181103888605 15.4138781372766,46.1801708621655 15.4125248704311,46.1792404770278 15.4110424767481,46.1784614260122 15.4092990856538,46.1776228281053 15.4075167808663,46.1774179372415 15.4053047039809,46.1778780093598 15.4038690195706,46.1775511774252 15.403170095781,46.1769804218927 15.401342909713,46.1765644246794 15.4002940399668,46.175632825164 15.4008095451921,46.1748166664182 15.4007640968994,46.1745151437182 15.4009795328932,46.1742730786 15.4018460921796,46.1739685336301 15.4019323337379,46.1738777168195 15.4018882887779,46.1737873580487 15.4008024830378,46.1737910801507 15.4001925971988,46.1735216759566 15.3988893919589,46.1734959095504 15.398283396909,46.173799614584 15.3974588151936,46.1738929081328 15.3966311073615,46.1735337284439 15.3953267363047,46.1733269881886 15.3949379098329,46.1736299242778 15.3953772933604,46.1743637611218 15.395077911477,46.1750585838646 15.3947339692228,46.1755725324306 15.3938653215703,46.1755754385803 15.3918671003574,46.1755518946243 15.3916108865369,46.1761862777411 15.3921349272064,46.1766068180705 15.3925749459026,46.177449981191 15.3915792696249,46.1779359251233 15.3904518682261,46.1782413732019 15.388754097114,46.177673846868 15.3879745268619,46.1780082283343 15.3880709727515,46.1794558476774 15.3875548122353,46.1802116681156 15.3874761999185,46.181448622604 15.386875720057,46.1825969205623 15.3857265724915,46.182644081051 15.3831313559807,46.1810752103352 15.3807035492623,46.1801695487045 15.3813958729389,46.1814058184464 15.3812842165739,46.1824174946672 15.3803384607605,46.1831634674116 15.3789445551803,46.1835804455541 15.3767478854493,46.1839586672102 15.3745283681496,46.1853069268109 15.3743234137585,46.1857616047995 15.3729919169773,46.1866118884083 15.3724919986108,46.1873770340469 15.3724978439835,46.1882232162174 15.3719718492255,46.1895045324626 15.3705892151637,46.1915932591155 15.3703806006753,46.1915113395257 15.3694559197999,46.1910393615596 15.3687408292124,46.1907937933495 15.3652638751373,46.1909071653502 15.364818912291,46.1910322997422 15.3644659435302,46.191590631414 15.363903399913,46.1919018422921 15.3628947982242,46.1922143772352 15.3622386438915,46.1918860756249 15.3581654793262,46.1917532423734 15.3567383198227,46.1916954431163 15.355730209833,46.1920698150659 15.3539226790718,46.1929417797788 15.3514012210691,46.1937125329933 15.3508725855186,46.1947047642598 15.351004656017,46.1967064472583 15.3520222335623,46.1977355831366 15.3533630498913,46.1982065960003 15.3544122252312,46.1995039132344 15.3539816070032,46.2018168423948 15.3525216966246,46.2058560255979 15.3514862574521,46.2066433306193 15.3495368725639,46.2086302479169 15.3485282745975,46.2090045566535 15.3479377423814,46.209646064882 15.3478845116513,46.2105956239385 15.3484235312408,46.2111927539175 15.3501850791969,46.2116241014405 15.3509699993737,46.211876768371 15.3517561197448,46.2123163004527 15.3523950878829,46.2127052660041 15.3526675537082,46.213197208732 15.3529880346666,46.2135360482005 15.354166515549,46.2140764709605 15.3551284323314,46.2151780869514 15.3560603519629,46.2155831263754 15.3566268073365,46.2159722938849 15.3567304222519,46.2168214965452 15.3573438599534,46.2170576495494 15.3598135403955,46.2166427751984 15.3602905101907,46.2184253491346 15.3604158864491,46.2188667216582 15.3598633236731,46.2204143791033 15.3588448482298,46.2218614674183 15.3592145077161,46.222234144362 15.3598546430569,46.2227760180072 15.3597147868028,46.2238297718556 15.3590607203402,46.2248510417078 15.3580980125597,46.2273343452119 15.3579841591292,46.2286258130184 15.357421559053,46.2287124177107 15.3568624995675,46.2293256199161 15.3564033068213,46.2302274109408 15.3557465591933,46.2308749217532 15.3558472052825,46.2312823655327 15.3557037391944,46.2317924182205 15.35521844888,46.2324734019692 15.3547552422087,46.2327805679177 15.3545633015164,46.2333757037875 15.3549840653737,46.234045685296 15.3532219319748,46.2341865521612 15.3515085813969,46.2342933221366 15.3505805754097,46.2346696486939 15.3495521653155,46.2346725277143 15.3486203521834,46.2344712246028 15.3475902295608,46.234202283354 15.3466626264266,46.2346465963204 15.3454892379138,46.2349556058645 15.3444642237863,46.2355021344203 15.34446958576,46.236317631533 15.344472987283,46.2368612367498 15.3439859446964,46.2372703697558 15.343202918217,46.2373744821927 15.3425601266596,46.2376986923818 15.3445561667074,46.2388606304283 15.3456272590073,46.2389107512579 15.3472358715064,46.239277734239 15.3459410643525,46.240130372118 15.3440745181086,46.2412763187874 15.3437699545688,46.2414893905762 15.3430119078271,46.2425528052011 15.341410727897,46.2433531361756 15.341226133425,46.2443883727626 15.3403085049099,46.2456428970666 15.3416947065908,46.2458994132607 15.3430788891325,46.2470364806324 15.3444595119868,46.2476164314798 15.3460253136603,46.2472406562499 15.3473662083899,46.2475819049504 15.3482130604121,46.2484020382161 15.349477481437,46.2487434050108 15.3499397777433,46.2492462872453 15.3508226231546,46.2497213359856 15.3521374541149,46.2518932799402 15.3528314030087,46.2527138492472 15.3528427222186,46.2544384072723 15.3525081081293,46.2558986131076 15.352137421177,46.2577038830348 15.3516138190457,46.2595359834709 15.3514758575357,46.2618181075206 15.352206830642,46.2624263205948 15.3533225798874,46.2633782945134 15.354197350483,46.2641106619307 15.3553597811871,46.264566993469 15.3605233102085,46.2659981229043 15.3627837753948,46.2659480559459 15.3643809098969,46.2652682746198 15.3683683709205,46.2652130301175 15.3689081242563,46.2642976207664 15.3699801264838,46.2637889620924 15.3705652693924,46.2630894214346 15.3707333211652,46.2622709378389 15.3715609419793,46.2615224701549 15.3729236328675,46.2607562372805 15.3747360502277,46.2594439118755 15.3759584224624,46.2591135689099 15.3765524264388,46.2587414675302 15.3773354869265,46.2584559225355 15.3794271776073,46.2566635867538 15.381613519929,46.2549797629367 15.3820225951327,46.2551091268342 15.3824675170907,46.2559354761685 15.3834809166993,46.2572392016467 15.3846445664541,46.2575405692732 15.385277076215,46.2582138627681 15.385999797049,46.2583205616289 15.3866626502083,46.25884124165 15.3869468429254,46.2590798767703 15.3877966497303,46.2593821840022 15.3887069376684,46.259357589418 15.3890502013571,46.2590515952782 15.3890784855396,46.2585940791593 15.3895774312415,46.2580915935031 15.3944937031784,46.2562246321719 15.3951209722564,46.2561355526835 15.3956851492778,46.2560030514669 15.4022905521446,46.2533245516759 15.4082916556545,46.2540454617779 15.409303866233,46.2488354002801 15.4108067815644,46.2468308183199 15.4114901716556,46.2433558657923 15.4123527957996,46.2437737400096 15.4171116331913,46.2452553319815 15.4187911343294,46.2456142113518 15.4207742172884,46.2470212101391 15.4216000256635,46.2475427983124 15.4220625426431,46.2478376415891 15.4224901533,46.2478589152585 15.4239678585421,46.2475798382876 15.4246582881652,46.2475773658614 15.4276093469038,46.246449176283 15.4283299900373,46.24608163959 15.4283267465922,46.2456482534411 15.4284901132003,46.2455108828337 15.4298330258739,46.2448216897067 15.4285417677732,46.2436176640422 15.4283014202502,46.2422273167428 15.4300997179185,46.2408979666632 15.4314470172912,46.2408018378154 15.4320036818778,46.2405032755569 15.4325839367702,46.2389503110627 15.4328397478302,46.2379914026962 15.4324628298229,46.2359630426753 15.4320234283092,46.2343453729545 15.4322457607017,46.2333182122757 15.4330258648273,46.2321294178036 15.4340706992558,46.2311904573704 15.4348503731311,46.2299559453797 15.4350358235449,46.2284044665174 15.4351225109651,46.2268076565994 15.4359319123365,46.2251796612236 15.4408507933913,46.2193910984163 15.4415337618238,46.2184534624078 15.4419836654666,46.2171289393145 15.4417098133477,46.2156931268475 15.440680492263,46.214305844352 15.4389575426987,46.212442110426 15.4363847263101,46.2111745206471 15.4337837796575,46.2104999929708 15.4313501745912,46.2102352326336 15.4286894509078,46.2103590569454 15.4281063684186,46.2090721954793 15.4272360699684,46.2080441778553 15.4259891790849,46.2051004965519 15.4206460300538,46.2022917902529 15.422446408083,46.2013958549996 15.422870243218,46.2009382130743 15.4225995108066,46.1998672714374 15.4239758788521,46.19938333691 15.4243333383593,46.1988574657816 15.4253814371263,46.1984203487428 15.4260726609601,46.1986003306782 15.4270572180766,46.1984598974261 15.4276466152823,46.1982069382659 15.4272748131756,46.1967942162561 15.4267329597315,46.1945839730353 15.4272512348684,46.1936014163653 15.4281327626978,46.1928683434512 15.428059725015,46.1918879957796 15.4287707727838,46.1903116942337 15.4295755668459,46.1881193464961 15.4300710320125,46.1875483107933 15.4293355494064,46.1871583406646</coordinates></LinearRing></outerBoundaryIs></Polygon></MultiGeometry>
  </Placemark>
</Folder>
</Document></kml>
